[
    {
        "code": 9103011001,
        "district_code": 910301,
        "regency_code": 9103,
        "province_code": 91,
        "name": "Sentani Kota",
        "postal_code": "99352"
    },
    {
        "code": 9103011002,
        "district_code": 910301,
        "regency_code": 9103,
        "province_code": 91,
        "name": "Dobonsolo",
        "postal_code": "99352"
    },
    {
        "code": 9103011003,
        "district_code": 910301,
        "regency_code": 9103,
        "province_code": 91,
        "name": "Hinekombe",
        "postal_code": "99352"
    },
    {
        "code": 9103012004,
        "district_code": 910301,
        "regency_code": 9103,
        "province_code": 91,
        "name": "Sereh",
        "postal_code": "99352"
    },
    {
        "code": 9103012005,
        "district_code": 910301,
        "regency_code": 9103,
        "province_code": 91,
        "name": "Yobeh",
        "postal_code": "99352"
    },
    {
        "code": 9103012006,
        "district_code": 910301,
        "regency_code": 9103,
        "province_code": 91,
        "name": "Ilfele",
        "postal_code": "99352"
    },
    {
        "code": 9103012007,
        "district_code": 910301,
        "regency_code": 9103,
        "province_code": 91,
        "name": "Keheran",
        "postal_code": "99352"
    },
    {
        "code": 9103012010,
        "district_code": 910301,
        "regency_code": 9103,
        "province_code": 91,
        "name": "Ifar Besar",
        "postal_code": "99352"
    },
    {
        "code": 9103012011,
        "district_code": 910301,
        "regency_code": 9103,
        "province_code": 91,
        "name": "Hobong",
        "postal_code": "99352"
    },
    {
        "code": 9103012017,
        "district_code": 910301,
        "regency_code": 9103,
        "province_code": 91,
        "name": "Yahim",
        "postal_code": "99352"
    },
    {
        "code": 9103022001,
        "district_code": 910302,
        "regency_code": 9103,
        "province_code": 91,
        "name": "Nolokla",
        "postal_code": "99359"
    },
    {
        "code": 9103022002,
        "district_code": 910302,
        "regency_code": 9103,
        "province_code": 91,
        "name": "Puai",
        "postal_code": "99359"
    },
    {
        "code": 9103022003,
        "district_code": 910302,
        "regency_code": 9103,
        "province_code": 91,
        "name": "Ayapo",
        "postal_code": "99359"
    },
    {
        "code": 9103022004,
        "district_code": 910302,
        "regency_code": 9103,
        "province_code": 91,
        "name": "Asei Besar",
        "postal_code": "99359"
    },
    {
        "code": 9103022005,
        "district_code": 910302,
        "regency_code": 9103,
        "province_code": 91,
        "name": "Asei Kecil",
        "postal_code": "99359"
    },
    {
        "code": 9103022006,
        "district_code": 910302,
        "regency_code": 9103,
        "province_code": 91,
        "name": "Nendali",
        "postal_code": "99359"
    },
    {
        "code": 9103022007,
        "district_code": 910302,
        "regency_code": 9103,
        "province_code": 91,
        "name": "Yokiwa",
        "postal_code": "99359"
    },
    {
        "code": 9103032001,
        "district_code": 910303,
        "regency_code": 9103,
        "province_code": 91,
        "name": "Waiya",
        "postal_code": "99353"
    },
    {
        "code": 9103032002,
        "district_code": 910303,
        "regency_code": 9103,
        "province_code": 91,
        "name": "Entiyebo",
        "postal_code": "99353"
    },
    {
        "code": 9103032003,
        "district_code": 910303,
        "regency_code": 9103,
        "province_code": 91,
        "name": "Kendate",
        "postal_code": "99353"
    },
    {
        "code": 9103032004,
        "district_code": 910303,
        "regency_code": 9103,
        "province_code": 91,
        "name": "Tablasupa",
        "postal_code": "99353"
    },
    {
        "code": 9103032005,
        "district_code": 910303,
        "regency_code": 9103,
        "province_code": 91,
        "name": "Yepase",
        "postal_code": "99353"
    },
    {
        "code": 9103032006,
        "district_code": 910303,
        "regency_code": 9103,
        "province_code": 91,
        "name": "Wambena",
        "postal_code": "99353"
    },
    {
        "code": 9103032007,
        "district_code": 910303,
        "regency_code": 9103,
        "province_code": 91,
        "name": "Yewena",
        "postal_code": "99353"
    },
    {
        "code": 9103032012,
        "district_code": 910303,
        "regency_code": 9103,
        "province_code": 91,
        "name": "Doromena",
        "postal_code": "99353"
    },
    {
        "code": 9103042001,
        "district_code": 910304,
        "regency_code": 9103,
        "province_code": 91,
        "name": "Dosay",
        "postal_code": "99358"
    },
    {
        "code": 9103042005,
        "district_code": 910304,
        "regency_code": 9103,
        "province_code": 91,
        "name": "Maribu",
        "postal_code": "99358"
    },
    {
        "code": 9103042006,
        "district_code": 910304,
        "regency_code": 9103,
        "province_code": 91,
        "name": "Waibron",
        "postal_code": "99358"
    },
    {
        "code": 9103042008,
        "district_code": 910304,
        "regency_code": 9103,
        "province_code": 91,
        "name": "Sabron Sari",
        "postal_code": "99358"
    },
    {
        "code": 9103042011,
        "district_code": 910304,
        "regency_code": 9103,
        "province_code": 91,
        "name": "Sabro Yaru",
        "postal_code": "99358"
    },
    {
        "code": 9103052001,
        "district_code": 910305,
        "regency_code": 9103,
        "province_code": 91,
        "name": "Sama",
        "postal_code": "99366"
    },
    {
        "code": 9103052002,
        "district_code": 910305,
        "regency_code": 9103,
        "province_code": 91,
        "name": "Manda Yawan",
        "postal_code": "99366"
    },
    {
        "code": 9103052003,
        "district_code": 910305,
        "regency_code": 9103,
        "province_code": 91,
        "name": "Mamda",
        "postal_code": "99366"
    },
    {
        "code": 9103052004,
        "district_code": 910305,
        "regency_code": 9103,
        "province_code": 91,
        "name": "Mamei",
        "postal_code": "99366"
    },
    {
        "code": 9103052005,
        "district_code": 910305,
        "regency_code": 9103,
        "province_code": 91,
        "name": "Nambom",
        "postal_code": "99366"
    },
    {
        "code": 9103052006,
        "district_code": 910305,
        "regency_code": 9103,
        "province_code": 91,
        "name": "Kwansu",
        "postal_code": "99366"
    },
    {
        "code": 9103052007,
        "district_code": 910305,
        "regency_code": 9103,
        "province_code": 91,
        "name": "Soaib",
        "postal_code": "99366"
    },
    {
        "code": 9103052008,
        "district_code": 910305,
        "regency_code": 9103,
        "province_code": 91,
        "name": "Sabeab Kecil",
        "postal_code": "99366"
    },
    {
        "code": 9103052009,
        "district_code": 910305,
        "regency_code": 9103,
        "province_code": 91,
        "name": "Sekori",
        "postal_code": "99366"
    },
    {
        "code": 9103052010,
        "district_code": 910305,
        "regency_code": 9103,
        "province_code": 91,
        "name": "Skoaim",
        "postal_code": "99366"
    },
    {
        "code": 9103052011,
        "district_code": 910305,
        "regency_code": 9103,
        "province_code": 91,
        "name": "Benggwin Progo",
        "postal_code": "99366"
    },
    {
        "code": 9103052012,
        "district_code": 910305,
        "regency_code": 9103,
        "province_code": 91,
        "name": "Aib",
        "postal_code": "99366"
    },
    {
        "code": 9103061015,
        "district_code": 910306,
        "regency_code": 9103,
        "province_code": 91,
        "name": "Hatib",
        "postal_code": "99367"
    },
    {
        "code": 9103062001,
        "district_code": 910306,
        "regency_code": 9103,
        "province_code": 91,
        "name": "Domoikati",
        "postal_code": "99367"
    },
    {
        "code": 9103062002,
        "district_code": 910306,
        "regency_code": 9103,
        "province_code": 91,
        "name": "Dementin",
        "postal_code": "99367"
    },
    {
        "code": 9103062003,
        "district_code": 910306,
        "regency_code": 9103,
        "province_code": 91,
        "name": "Yanbra",
        "postal_code": "99367"
    },
    {
        "code": 9103062004,
        "district_code": 910306,
        "regency_code": 9103,
        "province_code": 91,
        "name": "Braso",
        "postal_code": "99367"
    },
    {
        "code": 9103062005,
        "district_code": 910306,
        "regency_code": 9103,
        "province_code": 91,
        "name": "Pupehabu",
        "postal_code": "99367"
    },
    {
        "code": 9103062006,
        "district_code": 910306,
        "regency_code": 9103,
        "province_code": 91,
        "name": "Bring",
        "postal_code": "99367"
    },
    {
        "code": 9103062007,
        "district_code": 910306,
        "regency_code": 9103,
        "province_code": 91,
        "name": "Nembu Gresi",
        "postal_code": "99367"
    },
    {
        "code": 9103062009,
        "district_code": 910306,
        "regency_code": 9103,
        "province_code": 91,
        "name": "Ibub",
        "postal_code": "99367"
    },
    {
        "code": 9103062013,
        "district_code": 910306,
        "regency_code": 9103,
        "province_code": 91,
        "name": "Swentab",
        "postal_code": "99367"
    },
    {
        "code": 9103062014,
        "district_code": 910306,
        "regency_code": 9103,
        "province_code": 91,
        "name": "Jagrang",
        "postal_code": "99367"
    },
    {
        "code": 9103062016,
        "district_code": 910306,
        "regency_code": 9103,
        "province_code": 91,
        "name": "Hyansip",
        "postal_code": "99367"
    },
    {
        "code": 9103071021,
        "district_code": 910307,
        "regency_code": 9103,
        "province_code": 91,
        "name": "Tabri",
        "postal_code": "99361"
    },
    {
        "code": 9103072001,
        "district_code": 910307,
        "regency_code": 9103,
        "province_code": 91,
        "name": "Gemebs",
        "postal_code": "99361"
    },
    {
        "code": 9103072002,
        "district_code": 910307,
        "regency_code": 9103,
        "province_code": 91,
        "name": "Singgri",
        "postal_code": "99361"
    },
    {
        "code": 9103072003,
        "district_code": 910307,
        "regency_code": 9103,
        "province_code": 91,
        "name": "Meyu",
        "postal_code": "99361"
    },
    {
        "code": 9103072004,
        "district_code": 910307,
        "regency_code": 9103,
        "province_code": 91,
        "name": "Benyom",
        "postal_code": "99361"
    },
    {
        "code": 9103072005,
        "district_code": 910307,
        "regency_code": 9103,
        "province_code": 91,
        "name": "Oyengsi",
        "postal_code": "99361"
    },
    {
        "code": 9103072006,
        "district_code": 910307,
        "regency_code": 9103,
        "province_code": 91,
        "name": "Singgriway",
        "postal_code": "99361"
    },
    {
        "code": 9103072009,
        "district_code": 910307,
        "regency_code": 9103,
        "province_code": 91,
        "name": "Imsar",
        "postal_code": "99361"
    },
    {
        "code": 9103072010,
        "district_code": 910307,
        "regency_code": 9103,
        "province_code": 91,
        "name": "Kuipons",
        "postal_code": "99361"
    },
    {
        "code": 9103072014,
        "district_code": 910307,
        "regency_code": 9103,
        "province_code": 91,
        "name": "Yenggu Baru",
        "postal_code": "99361"
    },
    {
        "code": 9103072015,
        "district_code": 910307,
        "regency_code": 9103,
        "province_code": 91,
        "name": "Yenggu Lama",
        "postal_code": "99361"
    },
    {
        "code": 9103072017,
        "district_code": 910307,
        "regency_code": 9103,
        "province_code": 91,
        "name": "Kuwase",
        "postal_code": "99361"
    },
    {
        "code": 9103072018,
        "district_code": 910307,
        "regency_code": 9103,
        "province_code": 91,
        "name": "Kaitemung",
        "postal_code": "99361"
    },
    {
        "code": 9103072019,
        "district_code": 910307,
        "regency_code": 9103,
        "province_code": 91,
        "name": "Pobaim",
        "postal_code": "99361"
    },
    {
        "code": 9103082001,
        "district_code": 910308,
        "regency_code": 9103,
        "province_code": 91,
        "name": "Nimbokrang",
        "postal_code": "99362"
    },
    {
        "code": 9103082002,
        "district_code": 910308,
        "regency_code": 9103,
        "province_code": 91,
        "name": "Benyom Jaya I",
        "postal_code": "99362"
    },
    {
        "code": 9103082003,
        "district_code": 910308,
        "regency_code": 9103,
        "province_code": 91,
        "name": "Benyom Jaya II",
        "postal_code": "99362"
    },
    {
        "code": 9103082004,
        "district_code": 910308,
        "regency_code": 9103,
        "province_code": 91,
        "name": "Berab",
        "postal_code": "99362"
    },
    {
        "code": 9103082005,
        "district_code": 910308,
        "regency_code": 9103,
        "province_code": 91,
        "name": "Hamonggrang",
        "postal_code": "99362"
    },
    {
        "code": 9103082006,
        "district_code": 910308,
        "regency_code": 9103,
        "province_code": 91,
        "name": "Wahab",
        "postal_code": "99362"
    },
    {
        "code": 9103082007,
        "district_code": 910308,
        "regency_code": 9103,
        "province_code": 91,
        "name": "Nombukrang Sari",
        "postal_code": "99362"
    },
    {
        "code": 9103082008,
        "district_code": 910308,
        "regency_code": 9103,
        "province_code": 91,
        "name": "Rhepang Muaf",
        "postal_code": "99362"
    },
    {
        "code": 9103082009,
        "district_code": 910308,
        "regency_code": 9103,
        "province_code": 91,
        "name": "Bunyom",
        "postal_code": "99362"
    },
    {
        "code": 9103092001,
        "district_code": 910309,
        "regency_code": 9103,
        "province_code": 91,
        "name": "Beneik",
        "postal_code": "99356"
    },
    {
        "code": 9103092002,
        "district_code": 910309,
        "regency_code": 9103,
        "province_code": 91,
        "name": "Ganusa",
        "postal_code": "99356"
    },
    {
        "code": 9103092003,
        "district_code": 910309,
        "regency_code": 9103,
        "province_code": 91,
        "name": "Guryard",
        "postal_code": "99356"
    },
    {
        "code": 9103092004,
        "district_code": 910309,
        "regency_code": 9103,
        "province_code": 91,
        "name": "Santosa",
        "postal_code": "99356"
    },
    {
        "code": 9103092005,
        "district_code": 910309,
        "regency_code": 9103,
        "province_code": 91,
        "name": "Sawa Suma",
        "postal_code": "99356"
    },
    {
        "code": 9103092006,
        "district_code": 910309,
        "regency_code": 9103,
        "province_code": 91,
        "name": "Nandaizi",
        "postal_code": "99356"
    },
    {
        "code": 9103102001,
        "district_code": 910310,
        "regency_code": 9103,
        "province_code": 91,
        "name": "Demta",
        "postal_code": "99354"
    },
    {
        "code": 9103102002,
        "district_code": 910310,
        "regency_code": 9103,
        "province_code": 91,
        "name": "Ambora",
        "postal_code": "99354"
    },
    {
        "code": 9103102003,
        "district_code": 910310,
        "regency_code": 9103,
        "province_code": 91,
        "name": "Yougapsa",
        "postal_code": "99354"
    },
    {
        "code": 9103102004,
        "district_code": 910310,
        "regency_code": 9103,
        "province_code": 91,
        "name": "Muris Kecil",
        "postal_code": "99354"
    },
    {
        "code": 9103102005,
        "district_code": 910310,
        "regency_code": 9103,
        "province_code": 91,
        "name": "Yakore",
        "postal_code": "99354"
    },
    {
        "code": 9103102006,
        "district_code": 910310,
        "regency_code": 9103,
        "province_code": 91,
        "name": "Kamdera",
        "postal_code": "99354"
    },
    {
        "code": 9103102007,
        "district_code": 910310,
        "regency_code": 9103,
        "province_code": 91,
        "name": "Muaif",
        "postal_code": "99354"
    },
    {
        "code": 9103112001,
        "district_code": 910311,
        "regency_code": 9103,
        "province_code": 91,
        "name": "Lapua",
        "postal_code": "99364"
    },
    {
        "code": 9103112002,
        "district_code": 910311,
        "regency_code": 9103,
        "province_code": 91,
        "name": "Sebum",
        "postal_code": "99364"
    },
    {
        "code": 9103112003,
        "district_code": 910311,
        "regency_code": 9103,
        "province_code": 91,
        "name": "Soskotek",
        "postal_code": "99364"
    },
    {
        "code": 9103112004,
        "district_code": 910311,
        "regency_code": 9103,
        "province_code": 91,
        "name": "Yadauw",
        "postal_code": "99364"
    },
    {
        "code": 9103112006,
        "district_code": 910311,
        "regency_code": 9103,
        "province_code": 91,
        "name": "Umbron",
        "postal_code": "99364"
    },
    {
        "code": 9103122001,
        "district_code": 910312,
        "regency_code": 9103,
        "province_code": 91,
        "name": "Ebungfa",
        "postal_code": "99351"
    },
    {
        "code": 9103122002,
        "district_code": 910312,
        "regency_code": 9103,
        "province_code": 91,
        "name": "Atabar",
        "postal_code": "99351"
    },
    {
        "code": 9103122003,
        "district_code": 910312,
        "regency_code": 9103,
        "province_code": 91,
        "name": "Bobrongko",
        "postal_code": "99351"
    },
    {
        "code": 9103122004,
        "district_code": 910312,
        "regency_code": 9103,
        "province_code": 91,
        "name": "Khameyoka",
        "postal_code": "99351"
    },
    {
        "code": 9103122005,
        "district_code": 910312,
        "regency_code": 9103,
        "province_code": 91,
        "name": "Simporo",
        "postal_code": "99351"
    },
    {
        "code": 9103132001,
        "district_code": 910313,
        "regency_code": 9103,
        "province_code": 91,
        "name": "Donday",
        "postal_code": "99368"
    },
    {
        "code": 9103132002,
        "district_code": 910313,
        "regency_code": 9103,
        "province_code": 91,
        "name": "Doyo Lama",
        "postal_code": "99368"
    },
    {
        "code": 9103132003,
        "district_code": 910313,
        "regency_code": 9103,
        "province_code": 91,
        "name": "Kwadeware",
        "postal_code": "99368"
    },
    {
        "code": 9103132004,
        "district_code": 910313,
        "regency_code": 9103,
        "province_code": 91,
        "name": "Yakonde",
        "postal_code": "99368"
    },
    {
        "code": 9103132005,
        "district_code": 910313,
        "regency_code": 9103,
        "province_code": 91,
        "name": "Sosiri",
        "postal_code": "99368"
    },
    {
        "code": 9103132006,
        "district_code": 910313,
        "regency_code": 9103,
        "province_code": 91,
        "name": "Doyo Baru",
        "postal_code": "99368"
    },
    {
        "code": 9103132007,
        "district_code": 910313,
        "regency_code": 9103,
        "province_code": 91,
        "name": "Bambar",
        "postal_code": "99368"
    },
    {
        "code": 9103142001,
        "district_code": 910314,
        "regency_code": 9103,
        "province_code": 91,
        "name": "Sarmai Atas",
        "postal_code": "99360"
    },
    {
        "code": 9103142002,
        "district_code": 910314,
        "regency_code": 9103,
        "province_code": 91,
        "name": "Sarmai Bawah",
        "postal_code": "99360"
    },
    {
        "code": 9103142003,
        "district_code": 910314,
        "regency_code": 9103,
        "province_code": 91,
        "name": "Sanggai",
        "postal_code": "99360"
    },
    {
        "code": 9103142004,
        "district_code": 910314,
        "regency_code": 9103,
        "province_code": 91,
        "name": "Yakasib",
        "postal_code": "99360"
    },
    {
        "code": 9103142005,
        "district_code": 910314,
        "regency_code": 9103,
        "province_code": 91,
        "name": "Besum",
        "postal_code": "99360"
    },
    {
        "code": 9103142007,
        "district_code": 910314,
        "regency_code": 9103,
        "province_code": 91,
        "name": "Imestum",
        "postal_code": "99360"
    },
    {
        "code": 9103142008,
        "district_code": 910314,
        "regency_code": 9103,
        "province_code": 91,
        "name": "Karya Bumi",
        "postal_code": "99360"
    },
    {
        "code": 9103142009,
        "district_code": 910314,
        "regency_code": 9103,
        "province_code": 91,
        "name": "Hanggaiy Hamong",
        "postal_code": "99360"
    },
    {
        "code": 9103142010,
        "district_code": 910314,
        "regency_code": 9103,
        "province_code": 91,
        "name": "Sumbe",
        "postal_code": "99360"
    },
    {
        "code": 9103152001,
        "district_code": 910315,
        "regency_code": 9103,
        "province_code": 91,
        "name": "Tabbeyan",
        "postal_code": "99365"
    },
    {
        "code": 9103152002,
        "district_code": 910315,
        "regency_code": 9103,
        "province_code": 91,
        "name": "Kwarja",
        "postal_code": "99365"
    },
    {
        "code": 9103152003,
        "district_code": 910315,
        "regency_code": 9103,
        "province_code": 91,
        "name": "Ongan Jaya",
        "postal_code": "99365"
    },
    {
        "code": 9103152004,
        "district_code": 910315,
        "regency_code": 9103,
        "province_code": 91,
        "name": "Bumi Sahaja",
        "postal_code": "99365"
    },
    {
        "code": 9103152005,
        "district_code": 910315,
        "regency_code": 9103,
        "province_code": 91,
        "name": "Nawa Mulya",
        "postal_code": "99365"
    },
    {
        "code": 9103152006,
        "district_code": 910315,
        "regency_code": 9103,
        "province_code": 91,
        "name": "Nawa Mukti",
        "postal_code": "99365"
    },
    {
        "code": 9103152007,
        "district_code": 910315,
        "regency_code": 9103,
        "province_code": 91,
        "name": "Taqwa Bangun",
        "postal_code": "99365"
    },
    {
        "code": 9103152008,
        "district_code": 910315,
        "regency_code": 9103,
        "province_code": 91,
        "name": "Purnama Jati",
        "postal_code": "99365"
    },
    {
        "code": 9103152009,
        "district_code": 910315,
        "regency_code": 9103,
        "province_code": 91,
        "name": "Bundru",
        "postal_code": "99365"
    },
    {
        "code": 9103162001,
        "district_code": 910316,
        "regency_code": 9103,
        "province_code": 91,
        "name": "Hulu Atas",
        "postal_code": "99363"
    },
    {
        "code": 9103162002,
        "district_code": 910316,
        "regency_code": 9103,
        "province_code": 91,
        "name": "Pagai",
        "postal_code": "99363"
    },
    {
        "code": 9103162003,
        "district_code": 910316,
        "regency_code": 9103,
        "province_code": 91,
        "name": "Aurina",
        "postal_code": "99363"
    },
    {
        "code": 9103162004,
        "district_code": 910316,
        "regency_code": 9103,
        "province_code": 91,
        "name": "Muara Nawa",
        "postal_code": "99363"
    },
    {
        "code": 9103162005,
        "district_code": 910316,
        "regency_code": 9103,
        "province_code": 91,
        "name": "Kamikaru",
        "postal_code": "99363"
    },
    {
        "code": 9103162006,
        "district_code": 910316,
        "regency_code": 9103,
        "province_code": 91,
        "name": "Naira",
        "postal_code": "99363"
    },
    {
        "code": 9103172001,
        "district_code": 910317,
        "regency_code": 9103,
        "province_code": 91,
        "name": "Yongsu Sapari",
        "postal_code": "99350"
    },
    {
        "code": 9103172002,
        "district_code": 910317,
        "regency_code": 9103,
        "province_code": 91,
        "name": "Yongsu Dosoyo",
        "postal_code": "99350"
    },
    {
        "code": 9103172003,
        "district_code": 910317,
        "regency_code": 9103,
        "province_code": 91,
        "name": "Newa",
        "postal_code": "99350"
    },
    {
        "code": 9103172004,
        "district_code": 910317,
        "regency_code": 9103,
        "province_code": 91,
        "name": "Nehibe",
        "postal_code": "99350"
    },
    {
        "code": 9103182001,
        "district_code": 910318,
        "regency_code": 9103,
        "province_code": 91,
        "name": "Omon",
        "postal_code": "99357"
    },
    {
        "code": 9103182002,
        "district_code": 910318,
        "regency_code": 9103,
        "province_code": 91,
        "name": "Iwon",
        "postal_code": "99357"
    },
    {
        "code": 9103182003,
        "district_code": 910318,
        "regency_code": 9103,
        "province_code": 91,
        "name": "Klaisu",
        "postal_code": "99357"
    },
    {
        "code": 9103182004,
        "district_code": 910318,
        "regency_code": 9103,
        "province_code": 91,
        "name": "Bangai",
        "postal_code": "99357"
    },
    {
        "code": 9103192001,
        "district_code": 910319,
        "regency_code": 9103,
        "province_code": 91,
        "name": "Maruwai",
        "postal_code": "99355"
    },
    {
        "code": 9103192002,
        "district_code": 910319,
        "regency_code": 9103,
        "province_code": 91,
        "name": "Meukisi",
        "postal_code": "99355"
    },
    {
        "code": 9103192003,
        "district_code": 910319,
        "regency_code": 9103,
        "province_code": 91,
        "name": "Endokisi",
        "postal_code": "99355"
    },
    {
        "code": 9103192005,
        "district_code": 910319,
        "regency_code": 9103,
        "province_code": 91,
        "name": "Buseryo",
        "postal_code": "99355"
    },
    {
        "code": 9103192006,
        "district_code": 910319,
        "regency_code": 9103,
        "province_code": 91,
        "name": "Senamay",
        "postal_code": "99355"
    },
    {
        "code": 9105011004,
        "district_code": 910501,
        "regency_code": 9105,
        "province_code": 91,
        "name": "Tarau",
        "postal_code": "98613"
    },
    {
        "code": 9105011005,
        "district_code": 910501,
        "regency_code": 9105,
        "province_code": 91,
        "name": "Serui Kota",
        "postal_code": "98616"
    },
    {
        "code": 9105011006,
        "district_code": 910501,
        "regency_code": 9105,
        "province_code": 91,
        "name": "Serui Jaya",
        "postal_code": "98612"
    },
    {
        "code": 9105012014,
        "district_code": 910501,
        "regency_code": 9105,
        "province_code": 91,
        "name": "Serui Laut",
        "postal_code": "98627"
    },
    {
        "code": 9105012015,
        "district_code": 910501,
        "regency_code": 9105,
        "province_code": 91,
        "name": "Banawa",
        "postal_code": "98621"
    },
    {
        "code": 9105012017,
        "district_code": 910501,
        "regency_code": 9105,
        "province_code": 91,
        "name": "Turu",
        "postal_code": "98617"
    },
    {
        "code": 9105012019,
        "district_code": 910501,
        "regency_code": 9105,
        "province_code": 91,
        "name": "Pasir Hitam",
        "postal_code": "98625"
    },
    {
        "code": 9105012020,
        "district_code": 910501,
        "regency_code": 9105,
        "province_code": 91,
        "name": "Pasir Putih",
        "postal_code": "98626"
    },
    {
        "code": 9105012023,
        "district_code": 910501,
        "regency_code": 9105,
        "province_code": 91,
        "name": "Manaini",
        "postal_code": "98615"
    },
    {
        "code": 9105012024,
        "district_code": 910501,
        "regency_code": 9105,
        "province_code": 91,
        "name": "Imandoa",
        "postal_code": "98614"
    },
    {
        "code": 9105012026,
        "district_code": 910501,
        "regency_code": 9105,
        "province_code": 91,
        "name": "Barawaikap",
        "postal_code": "98622"
    },
    {
        "code": 9105012027,
        "district_code": 910501,
        "regency_code": 9105,
        "province_code": 91,
        "name": "Bawai",
        "postal_code": "98623"
    },
    {
        "code": 9105012028,
        "district_code": 910501,
        "regency_code": 9105,
        "province_code": 91,
        "name": "Nundawipi",
        "postal_code": "98624"
    },
    {
        "code": 9105021003,
        "district_code": 910502,
        "regency_code": 9105,
        "province_code": 91,
        "name": "Ansus",
        "postal_code": "98648"
    },
    {
        "code": 9105022002,
        "district_code": 910502,
        "regency_code": 9105,
        "province_code": 91,
        "name": "Webi",
        "postal_code": "98648"
    },
    {
        "code": 9105022004,
        "district_code": 910502,
        "regency_code": 9105,
        "province_code": 91,
        "name": "Papuama",
        "postal_code": "98648"
    },
    {
        "code": 9105022007,
        "district_code": 910502,
        "regency_code": 9105,
        "province_code": 91,
        "name": "Kairawi",
        "postal_code": "98648"
    },
    {
        "code": 9105022008,
        "district_code": 910502,
        "regency_code": 9105,
        "province_code": 91,
        "name": "Natabui",
        "postal_code": "98648"
    },
    {
        "code": 9105022010,
        "district_code": 910502,
        "regency_code": 9105,
        "province_code": 91,
        "name": "Warabori",
        "postal_code": "98648"
    },
    {
        "code": 9105022012,
        "district_code": 910502,
        "regency_code": 9105,
        "province_code": 91,
        "name": "Wimoni",
        "postal_code": "98648"
    },
    {
        "code": 9105022013,
        "district_code": 910502,
        "regency_code": 9105,
        "province_code": 91,
        "name": "Sasawa",
        "postal_code": "98648"
    },
    {
        "code": 9105022015,
        "district_code": 910502,
        "regency_code": 9105,
        "province_code": 91,
        "name": "Inowa",
        "postal_code": "98648"
    },
    {
        "code": 9105022016,
        "district_code": 910502,
        "regency_code": 9105,
        "province_code": 91,
        "name": "Maniri",
        "postal_code": "98648"
    },
    {
        "code": 9105022017,
        "district_code": 910502,
        "regency_code": 9105,
        "province_code": 91,
        "name": "Nuiwiora",
        "postal_code": "98648"
    },
    {
        "code": 9105022018,
        "district_code": 910502,
        "regency_code": 9105,
        "province_code": 91,
        "name": "Yenusi Marau",
        "postal_code": "98648"
    },
    {
        "code": 9105022019,
        "district_code": 910502,
        "regency_code": 9105,
        "province_code": 91,
        "name": "Marau",
        "postal_code": "98648"
    },
    {
        "code": 9105022020,
        "district_code": 910502,
        "regency_code": 9105,
        "province_code": 91,
        "name": "Toweta",
        "postal_code": "98648"
    },
    {
        "code": 9105022021,
        "district_code": 910502,
        "regency_code": 9105,
        "province_code": 91,
        "name": "Woiwani",
        "postal_code": "98648"
    },
    {
        "code": 9105022022,
        "district_code": 910502,
        "regency_code": 9105,
        "province_code": 91,
        "name": "Yarori",
        "postal_code": "98648"
    },
    {
        "code": 9105022023,
        "district_code": 910502,
        "regency_code": 9105,
        "province_code": 91,
        "name": "Narei",
        "postal_code": "98648"
    },
    {
        "code": 9105032004,
        "district_code": 910503,
        "regency_code": 9105,
        "province_code": 91,
        "name": "Korombobi",
        "postal_code": "98644"
    },
    {
        "code": 9105032005,
        "district_code": 910503,
        "regency_code": 9105,
        "province_code": 91,
        "name": "Dawai",
        "postal_code": "98644"
    },
    {
        "code": 9105032010,
        "district_code": 910503,
        "regency_code": 9105,
        "province_code": 91,
        "name": "Wabo",
        "postal_code": "98644"
    },
    {
        "code": 9105032014,
        "district_code": 910503,
        "regency_code": 9105,
        "province_code": 91,
        "name": "Nunsembai",
        "postal_code": "98644"
    },
    {
        "code": 9105032015,
        "district_code": 910503,
        "regency_code": 9105,
        "province_code": 91,
        "name": "Nunsiari",
        "postal_code": "98644"
    },
    {
        "code": 9105032023,
        "district_code": 910503,
        "regency_code": 9105,
        "province_code": 91,
        "name": "Woinsupi",
        "postal_code": "98644"
    },
    {
        "code": 9105032024,
        "district_code": 910503,
        "regency_code": 9105,
        "province_code": 91,
        "name": "Awunawai",
        "postal_code": "98644"
    },
    {
        "code": 9105032025,
        "district_code": 910503,
        "regency_code": 9105,
        "province_code": 91,
        "name": "Mareruni",
        "postal_code": "98644"
    },
    {
        "code": 9105032031,
        "district_code": 910503,
        "regency_code": 9105,
        "province_code": 91,
        "name": "Wabompi",
        "postal_code": "98644"
    },
    {
        "code": 9105032036,
        "district_code": 910503,
        "regency_code": 9105,
        "province_code": 91,
        "name": "Duai",
        "postal_code": "98644"
    },
    {
        "code": 9105032037,
        "district_code": 910503,
        "regency_code": 9105,
        "province_code": 91,
        "name": "Sere Sere",
        "postal_code": "98644"
    },
    {
        "code": 9105042003,
        "district_code": 910504,
        "regency_code": 9105,
        "province_code": 91,
        "name": "Menawi",
        "postal_code": "98655"
    },
    {
        "code": 9105042004,
        "district_code": 910504,
        "regency_code": 9105,
        "province_code": 91,
        "name": "Wadapi",
        "postal_code": "98655"
    },
    {
        "code": 9105042009,
        "district_code": 910504,
        "regency_code": 9105,
        "province_code": 91,
        "name": "Kainui I",
        "postal_code": "98655"
    },
    {
        "code": 9105042010,
        "district_code": 910504,
        "regency_code": 9105,
        "province_code": 91,
        "name": "Aitiri",
        "postal_code": "98655"
    },
    {
        "code": 9105042011,
        "district_code": 910504,
        "regency_code": 9105,
        "province_code": 91,
        "name": "Wawuti",
        "postal_code": "98655"
    },
    {
        "code": 9105042015,
        "district_code": 910504,
        "regency_code": 9105,
        "province_code": 91,
        "name": "Roipi",
        "postal_code": "98655"
    },
    {
        "code": 9105042016,
        "district_code": 910504,
        "regency_code": 9105,
        "province_code": 91,
        "name": "Ransarnoni",
        "postal_code": "98655"
    },
    {
        "code": 9105042021,
        "district_code": 910504,
        "regency_code": 9105,
        "province_code": 91,
        "name": "Kainui II",
        "postal_code": "98655"
    },
    {
        "code": 9105042024,
        "district_code": 910504,
        "regency_code": 9105,
        "province_code": 91,
        "name": "Wanampompi",
        "postal_code": "98655"
    },
    {
        "code": 9105042028,
        "district_code": 910504,
        "regency_code": 9105,
        "province_code": 91,
        "name": "Mananayam",
        "postal_code": "98655"
    },
    {
        "code": 9105042030,
        "district_code": 910504,
        "regency_code": 9105,
        "province_code": 91,
        "name": "Roipi Dua",
        "postal_code": "98655"
    },
    {
        "code": 9105052001,
        "district_code": 910505,
        "regency_code": 9105,
        "province_code": 91,
        "name": "Poom I",
        "postal_code": "98652"
    },
    {
        "code": 9105052003,
        "district_code": 910505,
        "regency_code": 9105,
        "province_code": 91,
        "name": "Serewen",
        "postal_code": "98652"
    },
    {
        "code": 9105052006,
        "district_code": 910505,
        "regency_code": 9105,
        "province_code": 91,
        "name": "Poom II",
        "postal_code": "98652"
    },
    {
        "code": 9105052007,
        "district_code": 910505,
        "regency_code": 9105,
        "province_code": 91,
        "name": "Mokiroan",
        "postal_code": "98652"
    },
    {
        "code": 9105052011,
        "district_code": 910505,
        "regency_code": 9105,
        "province_code": 91,
        "name": "Rarisi",
        "postal_code": "98652"
    },
    {
        "code": 9105052012,
        "district_code": 910505,
        "regency_code": 9105,
        "province_code": 91,
        "name": "Warioi",
        "postal_code": "98652"
    },
    {
        "code": 9105052015,
        "district_code": 910505,
        "regency_code": 9105,
        "province_code": 91,
        "name": "Humbe Awai",
        "postal_code": "98652"
    },
    {
        "code": 9105052016,
        "district_code": 910505,
        "regency_code": 9105,
        "province_code": 91,
        "name": "Nurawi",
        "postal_code": "98652"
    },
    {
        "code": 9105062001,
        "district_code": 910506,
        "regency_code": 9105,
        "province_code": 91,
        "name": "Kamanap",
        "postal_code": "98632"
    },
    {
        "code": 9105062002,
        "district_code": 910506,
        "regency_code": 9105,
        "province_code": 91,
        "name": "Aromarea",
        "postal_code": "98632"
    },
    {
        "code": 9105062003,
        "district_code": 910506,
        "regency_code": 9105,
        "province_code": 91,
        "name": "Maria Rotu",
        "postal_code": "98632"
    },
    {
        "code": 9105062004,
        "district_code": 910506,
        "regency_code": 9105,
        "province_code": 91,
        "name": "Kanawa",
        "postal_code": "98632"
    },
    {
        "code": 9105062005,
        "district_code": 910506,
        "regency_code": 9105,
        "province_code": 91,
        "name": "Tatui",
        "postal_code": "98632"
    },
    {
        "code": 9105062006,
        "district_code": 910506,
        "regency_code": 9105,
        "province_code": 91,
        "name": "Ariepi",
        "postal_code": "98632"
    },
    {
        "code": 9105062007,
        "district_code": 910506,
        "regency_code": 9105,
        "province_code": 91,
        "name": "Sarawandori",
        "postal_code": "98632"
    },
    {
        "code": 9105062008,
        "district_code": 910506,
        "regency_code": 9105,
        "province_code": 91,
        "name": "Ambaidiru",
        "postal_code": "98632"
    },
    {
        "code": 9105062009,
        "district_code": 910506,
        "regency_code": 9105,
        "province_code": 91,
        "name": "Mambo",
        "postal_code": "98632"
    },
    {
        "code": 9105062010,
        "district_code": 910506,
        "regency_code": 9105,
        "province_code": 91,
        "name": "Manainin",
        "postal_code": "98632"
    },
    {
        "code": 9105062011,
        "district_code": 910506,
        "regency_code": 9105,
        "province_code": 91,
        "name": "Numaman",
        "postal_code": "98632"
    },
    {
        "code": 9105062012,
        "district_code": 910506,
        "regency_code": 9105,
        "province_code": 91,
        "name": "Ramangkurani",
        "postal_code": "98632"
    },
    {
        "code": 9105062013,
        "district_code": 910506,
        "regency_code": 9105,
        "province_code": 91,
        "name": "Sarawandori Dua",
        "postal_code": "98632"
    },
    {
        "code": 9105062014,
        "district_code": 910506,
        "regency_code": 9105,
        "province_code": 91,
        "name": "Ariepi Dua",
        "postal_code": "98632"
    },
    {
        "code": 9105062015,
        "district_code": 910506,
        "regency_code": 9105,
        "province_code": 91,
        "name": "Panduami",
        "postal_code": "98632"
    },
    {
        "code": 9105072001,
        "district_code": 910507,
        "regency_code": 9105,
        "province_code": 91,
        "name": "Tindaret",
        "postal_code": "98645"
    },
    {
        "code": 9105072002,
        "district_code": 910507,
        "regency_code": 9105,
        "province_code": 91,
        "name": "Yobi",
        "postal_code": "98645"
    },
    {
        "code": 9105072003,
        "district_code": 910507,
        "regency_code": 9105,
        "province_code": 91,
        "name": "Sambrawai",
        "postal_code": "98645"
    },
    {
        "code": 9105072006,
        "district_code": 910507,
        "regency_code": 9105,
        "province_code": 91,
        "name": "Kiriyou",
        "postal_code": "98645"
    },
    {
        "code": 9105072007,
        "district_code": 910507,
        "regency_code": 9105,
        "province_code": 91,
        "name": "Soromasen",
        "postal_code": "98645"
    },
    {
        "code": 9105072009,
        "district_code": 910507,
        "regency_code": 9105,
        "province_code": 91,
        "name": "Roswari",
        "postal_code": "98645"
    },
    {
        "code": 9105072010,
        "district_code": 910507,
        "regency_code": 9105,
        "province_code": 91,
        "name": "Doreimanona",
        "postal_code": "98645"
    },
    {
        "code": 9105082001,
        "district_code": 910508,
        "regency_code": 9105,
        "province_code": 91,
        "name": "Waindu",
        "postal_code": "98641"
    },
    {
        "code": 9105082008,
        "district_code": 910508,
        "regency_code": 9105,
        "province_code": 91,
        "name": "Barawai",
        "postal_code": "98641"
    },
    {
        "code": 9105082009,
        "district_code": 910508,
        "regency_code": 9105,
        "province_code": 91,
        "name": "Woda",
        "postal_code": "98641"
    },
    {
        "code": 9105082010,
        "district_code": 910508,
        "regency_code": 9105,
        "province_code": 91,
        "name": "Kororompui",
        "postal_code": "98641"
    },
    {
        "code": 9105082011,
        "district_code": 910508,
        "regency_code": 9105,
        "province_code": 91,
        "name": "Aisau",
        "postal_code": "98641"
    },
    {
        "code": 9105082012,
        "district_code": 910508,
        "regency_code": 9105,
        "province_code": 91,
        "name": "Sewenui",
        "postal_code": "98641"
    },
    {
        "code": 9105082013,
        "district_code": 910508,
        "regency_code": 9105,
        "province_code": 91,
        "name": "Sawendui",
        "postal_code": "98641"
    },
    {
        "code": 9105092001,
        "district_code": 910509,
        "regency_code": 9105,
        "province_code": 91,
        "name": "Randawaya",
        "postal_code": "98642"
    },
    {
        "code": 9105092002,
        "district_code": 910509,
        "regency_code": 9105,
        "province_code": 91,
        "name": "Warironi",
        "postal_code": "98642"
    },
    {
        "code": 9105092003,
        "district_code": 910509,
        "regency_code": 9105,
        "province_code": 91,
        "name": "Ampimoi",
        "postal_code": "98642"
    },
    {
        "code": 9105092004,
        "district_code": 910509,
        "regency_code": 9105,
        "province_code": 91,
        "name": "Waita",
        "postal_code": "98642"
    },
    {
        "code": 9105092005,
        "district_code": 910509,
        "regency_code": 9105,
        "province_code": 91,
        "name": "Ayari",
        "postal_code": "98642"
    },
    {
        "code": 9105092006,
        "district_code": 910509,
        "regency_code": 9105,
        "province_code": 91,
        "name": "Koroapi",
        "postal_code": "98642"
    },
    {
        "code": 9105092007,
        "district_code": 910509,
        "regency_code": 9105,
        "province_code": 91,
        "name": "Wabuayar",
        "postal_code": "98642"
    },
    {
        "code": 9105092008,
        "district_code": 910509,
        "regency_code": 9105,
        "province_code": 91,
        "name": "Tarei",
        "postal_code": "98642"
    },
    {
        "code": 9105092009,
        "district_code": 910509,
        "regency_code": 9105,
        "province_code": 91,
        "name": "Bareraif",
        "postal_code": "98642"
    },
    {
        "code": 9105092010,
        "district_code": 910509,
        "regency_code": 9105,
        "province_code": 91,
        "name": "Arareni",
        "postal_code": "98642"
    },
    {
        "code": 9105092011,
        "district_code": 910509,
        "regency_code": 9105,
        "province_code": 91,
        "name": "Siromi",
        "postal_code": "98642"
    },
    {
        "code": 9105102001,
        "district_code": 910510,
        "regency_code": 9105,
        "province_code": 91,
        "name": "Ambai I",
        "postal_code": "98653"
    },
    {
        "code": 9105102004,
        "district_code": 910510,
        "regency_code": 9105,
        "province_code": 91,
        "name": "Kawipi",
        "postal_code": "98653"
    },
    {
        "code": 9105102005,
        "district_code": 910510,
        "regency_code": 9105,
        "province_code": 91,
        "name": "Wamori",
        "postal_code": "98653"
    },
    {
        "code": 9105102006,
        "district_code": 910510,
        "regency_code": 9105,
        "province_code": 91,
        "name": "Adiwipi",
        "postal_code": "98653"
    },
    {
        "code": 9105102008,
        "district_code": 910510,
        "regency_code": 9105,
        "province_code": 91,
        "name": "Ambai II",
        "postal_code": "98653"
    },
    {
        "code": 9105102009,
        "district_code": 910510,
        "regency_code": 9105,
        "province_code": 91,
        "name": "Mambawi",
        "postal_code": "98653"
    },
    {
        "code": 9105102010,
        "district_code": 910510,
        "regency_code": 9105,
        "province_code": 91,
        "name": "Baisore",
        "postal_code": "98653"
    },
    {
        "code": 9105102011,
        "district_code": 910510,
        "regency_code": 9105,
        "province_code": 91,
        "name": "Rondepi",
        "postal_code": "98653"
    },
    {
        "code": 9105102014,
        "district_code": 910510,
        "regency_code": 9105,
        "province_code": 91,
        "name": "Imboriawa",
        "postal_code": "98653"
    },
    {
        "code": 9105102015,
        "district_code": 910510,
        "regency_code": 9105,
        "province_code": 91,
        "name": "Bairei",
        "postal_code": "98653"
    },
    {
        "code": 9105102016,
        "district_code": 910510,
        "regency_code": 9105,
        "province_code": 91,
        "name": "Aiwaraggani",
        "postal_code": "98653"
    },
    {
        "code": 9105102017,
        "district_code": 910510,
        "regency_code": 9105,
        "province_code": 91,
        "name": "Toroa",
        "postal_code": "98653"
    },
    {
        "code": 9105102019,
        "district_code": 910510,
        "regency_code": 9105,
        "province_code": 91,
        "name": "Marawi",
        "postal_code": "98653"
    },
    {
        "code": 9105112001,
        "district_code": 910511,
        "regency_code": 9105,
        "province_code": 91,
        "name": "Wooi",
        "postal_code": "98647"
    },
    {
        "code": 9105112002,
        "district_code": 910511,
        "regency_code": 9105,
        "province_code": 91,
        "name": "Woinap",
        "postal_code": "98647"
    },
    {
        "code": 9105112003,
        "district_code": 910511,
        "regency_code": 9105,
        "province_code": 91,
        "name": "Aibondeni",
        "postal_code": "98647"
    },
    {
        "code": 9105112004,
        "district_code": 910511,
        "regency_code": 9105,
        "province_code": 91,
        "name": "Kanaki",
        "postal_code": "98647"
    },
    {
        "code": 9105112005,
        "district_code": 910511,
        "regency_code": 9105,
        "province_code": 91,
        "name": "Dumani",
        "postal_code": "98647"
    },
    {
        "code": 9105112007,
        "district_code": 910511,
        "regency_code": 9105,
        "province_code": 91,
        "name": "Karemoni",
        "postal_code": "98647"
    },
    {
        "code": 9105112008,
        "district_code": 910511,
        "regency_code": 9105,
        "province_code": 91,
        "name": "Haihorei",
        "postal_code": "98647"
    },
    {
        "code": 9105112009,
        "district_code": 910511,
        "regency_code": 9105,
        "province_code": 91,
        "name": "Rembai",
        "postal_code": "98647"
    },
    {
        "code": 9105112010,
        "district_code": 910511,
        "regency_code": 9105,
        "province_code": 91,
        "name": "Jaimaria",
        "postal_code": "98647"
    },
    {
        "code": 9105112011,
        "district_code": 910511,
        "regency_code": 9105,
        "province_code": 91,
        "name": "Awado",
        "postal_code": "98647"
    },
    {
        "code": 9105122001,
        "district_code": 910512,
        "regency_code": 9105,
        "province_code": 91,
        "name": "Kaonda",
        "postal_code": "98651"
    },
    {
        "code": 9105122002,
        "district_code": 910512,
        "regency_code": 9105,
        "province_code": 91,
        "name": "Windesi",
        "postal_code": "98651"
    },
    {
        "code": 9105122003,
        "district_code": 910512,
        "regency_code": 9105,
        "province_code": 91,
        "name": "Munggui",
        "postal_code": "98651"
    },
    {
        "code": 9105122004,
        "district_code": 910512,
        "regency_code": 9105,
        "province_code": 91,
        "name": "Karawi",
        "postal_code": "98651"
    },
    {
        "code": 9105122005,
        "district_code": 910512,
        "regency_code": 9105,
        "province_code": 91,
        "name": "Asai",
        "postal_code": "98651"
    },
    {
        "code": 9105122006,
        "district_code": 910512,
        "regency_code": 9105,
        "province_code": 91,
        "name": "Rosbori",
        "postal_code": "98651"
    },
    {
        "code": 9105122007,
        "district_code": 910512,
        "regency_code": 9105,
        "province_code": 91,
        "name": "Waisani",
        "postal_code": "98651"
    },
    {
        "code": 9105122008,
        "district_code": 910512,
        "regency_code": 9105,
        "province_code": 91,
        "name": "Saruman",
        "postal_code": "98651"
    },
    {
        "code": 9105122009,
        "district_code": 910512,
        "regency_code": 9105,
        "province_code": 91,
        "name": "Aryobu",
        "postal_code": "98651"
    },
    {
        "code": 9105132001,
        "district_code": 910513,
        "regency_code": 9105,
        "province_code": 91,
        "name": "Kaipuri",
        "postal_code": "98643"
    },
    {
        "code": 9105132002,
        "district_code": 910513,
        "regency_code": 9105,
        "province_code": 91,
        "name": "Doreianmini",
        "postal_code": "98643"
    },
    {
        "code": 9105132003,
        "district_code": 910513,
        "regency_code": 9105,
        "province_code": 91,
        "name": "Andersaria",
        "postal_code": "98643"
    },
    {
        "code": 9105132004,
        "district_code": 910513,
        "regency_code": 9105,
        "province_code": 91,
        "name": "Kurudu",
        "postal_code": "98643"
    },
    {
        "code": 9105132005,
        "district_code": 910513,
        "regency_code": 9105,
        "province_code": 91,
        "name": "Kirimbri",
        "postal_code": "98643"
    },
    {
        "code": 9105132006,
        "district_code": 910513,
        "regency_code": 9105,
        "province_code": 91,
        "name": "Manusundu",
        "postal_code": "98643"
    },
    {
        "code": 9105132007,
        "district_code": 910513,
        "regency_code": 9105,
        "province_code": 91,
        "name": "Mnukwar",
        "postal_code": "98643"
    },
    {
        "code": 9105132008,
        "district_code": 910513,
        "regency_code": 9105,
        "province_code": 91,
        "name": "Mansesi",
        "postal_code": "98643"
    },
    {
        "code": 9105142001,
        "district_code": 910514,
        "regency_code": 9105,
        "province_code": 91,
        "name": "Miosnum",
        "postal_code": "98646"
    },
    {
        "code": 9105142002,
        "district_code": 910514,
        "regency_code": 9105,
        "province_code": 91,
        "name": "Jeniari",
        "postal_code": "98646"
    },
    {
        "code": 9105142003,
        "district_code": 910514,
        "regency_code": 9105,
        "province_code": 91,
        "name": "Umpeki",
        "postal_code": "98646"
    },
    {
        "code": 9105142004,
        "district_code": 910514,
        "regency_code": 9105,
        "province_code": 91,
        "name": "Ausem",
        "postal_code": "98646"
    },
    {
        "code": 9105142005,
        "district_code": 910514,
        "regency_code": 9105,
        "province_code": 91,
        "name": "Yeituarau",
        "postal_code": "98646"
    },
    {
        "code": 9105151001,
        "district_code": 910515,
        "regency_code": 9105,
        "province_code": 91,
        "name": "Anatorei",
        "postal_code": "98631"
    },
    {
        "code": 9105152001,
        "district_code": 910515,
        "regency_code": 9105,
        "province_code": 91,
        "name": "Ketu Api",
        "postal_code": "98631"
    },
    {
        "code": 9105152002,
        "district_code": 910515,
        "regency_code": 9105,
        "province_code": 91,
        "name": "Mariaderi",
        "postal_code": "98631"
    },
    {
        "code": 9105152003,
        "district_code": 910515,
        "regency_code": 9105,
        "province_code": 91,
        "name": "Yapan",
        "postal_code": "98631"
    },
    {
        "code": 9105152004,
        "district_code": 910515,
        "regency_code": 9105,
        "province_code": 91,
        "name": "Mantembu",
        "postal_code": "98631"
    },
    {
        "code": 9105152005,
        "district_code": 910515,
        "regency_code": 9105,
        "province_code": 91,
        "name": "Famboaman",
        "postal_code": "98631"
    },
    {
        "code": 9105152006,
        "district_code": 910515,
        "regency_code": 9105,
        "province_code": 91,
        "name": "Kandowarira",
        "postal_code": "98631"
    },
    {
        "code": 9105152007,
        "district_code": 910515,
        "regency_code": 9105,
        "province_code": 91,
        "name": "Warari",
        "postal_code": "98631"
    },
    {
        "code": 9105162001,
        "district_code": 910516,
        "regency_code": 9105,
        "province_code": 91,
        "name": "Kontinuai",
        "postal_code": "98654"
    },
    {
        "code": 9105162002,
        "district_code": 910516,
        "regency_code": 9105,
        "province_code": 91,
        "name": "Woniwon",
        "postal_code": "98654"
    },
    {
        "code": 9105162003,
        "district_code": 910516,
        "regency_code": 9105,
        "province_code": 91,
        "name": "Sanayoka",
        "postal_code": "98654"
    },
    {
        "code": 9105162004,
        "district_code": 910516,
        "regency_code": 9105,
        "province_code": 91,
        "name": "Rambai",
        "postal_code": "98654"
    },
    {
        "code": 9105162005,
        "district_code": 910516,
        "regency_code": 9105,
        "province_code": 91,
        "name": "Yafanani",
        "postal_code": "98654"
    },
    {
        "code": 9105162006,
        "district_code": 910516,
        "regency_code": 9105,
        "province_code": 91,
        "name": "Borai",
        "postal_code": "98654"
    },
    {
        "code": 9105162007,
        "district_code": 910516,
        "regency_code": 9105,
        "province_code": 91,
        "name": "Kabuaena",
        "postal_code": "98654"
    },
    {
        "code": 9105172001,
        "district_code": 910517,
        "regency_code": 9105,
        "province_code": 91,
        "name": "Saweru",
        "postal_code": "98653"
    },
    {
        "code": 9105172002,
        "district_code": 910517,
        "regency_code": 9105,
        "province_code": 91,
        "name": "Umani",
        "postal_code": "98653"
    },
    {
        "code": 9105172003,
        "district_code": 910517,
        "regency_code": 9105,
        "province_code": 91,
        "name": "Perea",
        "postal_code": "98653"
    },
    {
        "code": 9105172004,
        "district_code": 910517,
        "regency_code": 9105,
        "province_code": 91,
        "name": "Nuniandei",
        "postal_code": "98653"
    },
    {
        "code": 9105172005,
        "district_code": 910517,
        "regency_code": 9105,
        "province_code": 91,
        "name": "Dorau",
        "postal_code": "98653"
    },
    {
        "code": 9106011001,
        "district_code": 910601,
        "regency_code": 9106,
        "province_code": 91,
        "name": "Sorido",
        "postal_code": "98517"
    },
    {
        "code": 9106011002,
        "district_code": 910601,
        "regency_code": 9106,
        "province_code": 91,
        "name": "Waupnor",
        "postal_code": "98515"
    },
    {
        "code": 9106011003,
        "district_code": 910601,
        "regency_code": 9106,
        "province_code": 91,
        "name": "Saramon",
        "postal_code": "98514"
    },
    {
        "code": 9106011004,
        "district_code": 910601,
        "regency_code": 9106,
        "province_code": 91,
        "name": "Burokup",
        "postal_code": "98513"
    },
    {
        "code": 9106011005,
        "district_code": 910601,
        "regency_code": 9106,
        "province_code": 91,
        "name": "Fandoi",
        "postal_code": "98512"
    },
    {
        "code": 9106011006,
        "district_code": 910601,
        "regency_code": 9106,
        "province_code": 91,
        "name": "Mandala",
        "postal_code": "98511"
    },
    {
        "code": 9106011016,
        "district_code": 910601,
        "regency_code": 9106,
        "province_code": 91,
        "name": "Yenures",
        "postal_code": "98534"
    },
    {
        "code": 9106012007,
        "district_code": 910601,
        "regency_code": 9106,
        "province_code": 91,
        "name": "Mnubabo",
        "postal_code": "98527"
    },
    {
        "code": 9106012008,
        "district_code": 910601,
        "regency_code": 9106,
        "province_code": 91,
        "name": "Swapodibo",
        "postal_code": "98533"
    },
    {
        "code": 9106012009,
        "district_code": 910601,
        "regency_code": 9106,
        "province_code": 91,
        "name": "Mokmer",
        "postal_code": "98528"
    },
    {
        "code": 9106012010,
        "district_code": 910601,
        "regency_code": 9106,
        "province_code": 91,
        "name": "Inggiri",
        "postal_code": "98519"
    },
    {
        "code": 9106012011,
        "district_code": 910601,
        "regency_code": 9106,
        "province_code": 91,
        "name": "Parai",
        "postal_code": "98529"
    },
    {
        "code": 9106012012,
        "district_code": 910601,
        "regency_code": 9106,
        "province_code": 91,
        "name": "Samau",
        "postal_code": "98531"
    },
    {
        "code": 9106012013,
        "district_code": 910601,
        "regency_code": 9106,
        "province_code": 91,
        "name": "Insrom",
        "postal_code": "98522"
    },
    {
        "code": 9106012014,
        "district_code": 910601,
        "regency_code": 9106,
        "province_code": 91,
        "name": "Anggraidi",
        "postal_code": "98518"
    },
    {
        "code": 9106012015,
        "district_code": 910601,
        "regency_code": 9106,
        "province_code": 91,
        "name": "Manswam",
        "postal_code": "98526"
    },
    {
        "code": 9106012017,
        "district_code": 910601,
        "regency_code": 9106,
        "province_code": 91,
        "name": "Sanumi",
        "postal_code": "98532"
    },
    {
        "code": 9106012018,
        "district_code": 910601,
        "regency_code": 9106,
        "province_code": 91,
        "name": "Manggandisapi",
        "postal_code": "98525"
    },
    {
        "code": 9106012019,
        "district_code": 910601,
        "regency_code": 9106,
        "province_code": 91,
        "name": "Karyendi",
        "postal_code": "98524"
    },
    {
        "code": 9106012020,
        "district_code": 910601,
        "regency_code": 9106,
        "province_code": 91,
        "name": "Kababur",
        "postal_code": "98523"
    },
    {
        "code": 9106012021,
        "district_code": 910601,
        "regency_code": 9106,
        "province_code": 91,
        "name": "Babrinbo",
        "postal_code": "98516"
    },
    {
        "code": 9106012022,
        "district_code": 910601,
        "regency_code": 9106,
        "province_code": 91,
        "name": "Inggupi",
        "postal_code": "98521"
    },
    {
        "code": 9106022001,
        "district_code": 910602,
        "regency_code": 9106,
        "province_code": 91,
        "name": "Sarwom",
        "postal_code": "98544"
    },
    {
        "code": 9106022002,
        "district_code": 910602,
        "regency_code": 9106,
        "province_code": 91,
        "name": "Andei",
        "postal_code": "98544"
    },
    {
        "code": 9106022004,
        "district_code": 910602,
        "regency_code": 9106,
        "province_code": 91,
        "name": "Waromi",
        "postal_code": "98544"
    },
    {
        "code": 9106022006,
        "district_code": 910602,
        "regency_code": 9106,
        "province_code": 91,
        "name": "Kobeoser",
        "postal_code": "98544"
    },
    {
        "code": 9106022007,
        "district_code": 910602,
        "regency_code": 9106,
        "province_code": 91,
        "name": "Mambesak",
        "postal_code": "98544"
    },
    {
        "code": 9106022008,
        "district_code": 910602,
        "regency_code": 9106,
        "province_code": 91,
        "name": "Saukobye",
        "postal_code": "98544"
    },
    {
        "code": 9106022010,
        "district_code": 910602,
        "regency_code": 9106,
        "province_code": 91,
        "name": "Yobdi",
        "postal_code": "98544"
    },
    {
        "code": 9106022012,
        "district_code": 910602,
        "regency_code": 9106,
        "province_code": 91,
        "name": "Dernafi",
        "postal_code": "98544"
    },
    {
        "code": 9106022013,
        "district_code": 910602,
        "regency_code": 9106,
        "province_code": 91,
        "name": "Rosayendi",
        "postal_code": "98544"
    },
    {
        "code": 9106022016,
        "district_code": 910602,
        "regency_code": 9106,
        "province_code": 91,
        "name": "Warsansan",
        "postal_code": "98544"
    },
    {
        "code": 9106022017,
        "district_code": 910602,
        "regency_code": 9106,
        "province_code": 91,
        "name": "Nermnu",
        "postal_code": "98544"
    },
    {
        "code": 9106022018,
        "district_code": 910602,
        "regency_code": 9106,
        "province_code": 91,
        "name": "Korem",
        "postal_code": "98544"
    },
    {
        "code": 9106022019,
        "district_code": 910602,
        "regency_code": 9106,
        "province_code": 91,
        "name": "Mnuswor",
        "postal_code": "98544"
    },
    {
        "code": 9106022020,
        "district_code": 910602,
        "regency_code": 9106,
        "province_code": 91,
        "name": "Dofyo Wafor",
        "postal_code": "98544"
    },
    {
        "code": 9106022021,
        "district_code": 910602,
        "regency_code": 9106,
        "province_code": 91,
        "name": "Warbon",
        "postal_code": "98544"
    },
    {
        "code": 9106022022,
        "district_code": 910602,
        "regency_code": 9106,
        "province_code": 91,
        "name": "Wari",
        "postal_code": "98544"
    },
    {
        "code": 9106032002,
        "district_code": 910603,
        "regency_code": 9106,
        "province_code": 91,
        "name": "Rimba Jaya",
        "postal_code": "98541"
    },
    {
        "code": 9106032003,
        "district_code": 910603,
        "regency_code": 9106,
        "province_code": 91,
        "name": "Owi",
        "postal_code": "98541"
    },
    {
        "code": 9106032004,
        "district_code": 910603,
        "regency_code": 9106,
        "province_code": 91,
        "name": "Woniki",
        "postal_code": "98541"
    },
    {
        "code": 9106032005,
        "district_code": 910603,
        "regency_code": 9106,
        "province_code": 91,
        "name": "Kajasi",
        "postal_code": "98541"
    },
    {
        "code": 9106032010,
        "district_code": 910603,
        "regency_code": 9106,
        "province_code": 91,
        "name": "Sunde",
        "postal_code": "98541"
    },
    {
        "code": 9106032011,
        "district_code": 910603,
        "regency_code": 9106,
        "province_code": 91,
        "name": "Sepse",
        "postal_code": "98541"
    },
    {
        "code": 9106032012,
        "district_code": 910603,
        "regency_code": 9106,
        "province_code": 91,
        "name": "Soon",
        "postal_code": "98541"
    },
    {
        "code": 9106032013,
        "district_code": 910603,
        "regency_code": 9106,
        "province_code": 91,
        "name": "Sareidi",
        "postal_code": "98541"
    },
    {
        "code": 9106032014,
        "district_code": 910603,
        "regency_code": 9106,
        "province_code": 91,
        "name": "Bindusi",
        "postal_code": "98541"
    },
    {
        "code": 9106032015,
        "district_code": 910603,
        "regency_code": 9106,
        "province_code": 91,
        "name": "Orwer",
        "postal_code": "98541"
    },
    {
        "code": 9106032016,
        "district_code": 910603,
        "regency_code": 9106,
        "province_code": 91,
        "name": "Yenusi",
        "postal_code": "98541"
    },
    {
        "code": 9106032017,
        "district_code": 910603,
        "regency_code": 9106,
        "province_code": 91,
        "name": "Kajasbo",
        "postal_code": "98541"
    },
    {
        "code": 9106032021,
        "district_code": 910603,
        "regency_code": 9106,
        "province_code": 91,
        "name": "Ruar",
        "postal_code": "98541"
    },
    {
        "code": 9106032022,
        "district_code": 910603,
        "regency_code": 9106,
        "province_code": 91,
        "name": "Mandon",
        "postal_code": "98541"
    },
    {
        "code": 9106032023,
        "district_code": 910603,
        "regency_code": 9106,
        "province_code": 91,
        "name": "Soryar",
        "postal_code": "98541"
    },
    {
        "code": 9106032028,
        "district_code": 910603,
        "regency_code": 9106,
        "province_code": 91,
        "name": "Insumarires",
        "postal_code": "98541"
    },
    {
        "code": 9106032030,
        "district_code": 910603,
        "regency_code": 9106,
        "province_code": 91,
        "name": "Rim",
        "postal_code": "98541"
    },
    {
        "code": 9106032031,
        "district_code": 910603,
        "regency_code": 9106,
        "province_code": 91,
        "name": "Adorbari",
        "postal_code": "98541"
    },
    {
        "code": 9106032032,
        "district_code": 910603,
        "regency_code": 9106,
        "province_code": 91,
        "name": "Bosnik Sup",
        "postal_code": "98541"
    },
    {
        "code": 9106032033,
        "district_code": 910603,
        "regency_code": 9106,
        "province_code": 91,
        "name": "Inofi",
        "postal_code": "98541"
    },
    {
        "code": 9106032034,
        "district_code": 910603,
        "regency_code": 9106,
        "province_code": 91,
        "name": "Yenberok",
        "postal_code": "98541"
    },
    {
        "code": 9106032035,
        "district_code": 910603,
        "regency_code": 9106,
        "province_code": 91,
        "name": "Wasori",
        "postal_code": "98541"
    },
    {
        "code": 9106032036,
        "district_code": 910603,
        "regency_code": 9106,
        "province_code": 91,
        "name": "Yendakem",
        "postal_code": "98541"
    },
    {
        "code": 9106032037,
        "district_code": 910603,
        "regency_code": 9106,
        "province_code": 91,
        "name": "Waderbo",
        "postal_code": "98541"
    },
    {
        "code": 9106032038,
        "district_code": 910603,
        "regency_code": 9106,
        "province_code": 91,
        "name": "Afefbo",
        "postal_code": "98541"
    },
    {
        "code": 9106032039,
        "district_code": 910603,
        "regency_code": 9106,
        "province_code": 91,
        "name": "Inmdi",
        "postal_code": "98541"
    },
    {
        "code": 9106042003,
        "district_code": 910604,
        "regency_code": 9106,
        "province_code": 91,
        "name": "Namber",
        "postal_code": "98564"
    },
    {
        "code": 9106042004,
        "district_code": 910604,
        "regency_code": 9106,
        "province_code": 91,
        "name": "Baruki",
        "postal_code": "98564"
    },
    {
        "code": 9106042005,
        "district_code": 910604,
        "regency_code": 9106,
        "province_code": 91,
        "name": "Kameri",
        "postal_code": "98564"
    },
    {
        "code": 9106042008,
        "district_code": 910604,
        "regency_code": 9106,
        "province_code": 91,
        "name": "Warido",
        "postal_code": "98564"
    },
    {
        "code": 9106042012,
        "district_code": 910604,
        "regency_code": 9106,
        "province_code": 91,
        "name": "Sub Manggunsi",
        "postal_code": "98564"
    },
    {
        "code": 9106042013,
        "district_code": 910604,
        "regency_code": 9106,
        "province_code": 91,
        "name": "Serbin",
        "postal_code": "98564"
    },
    {
        "code": 9106042014,
        "district_code": 910604,
        "regency_code": 9106,
        "province_code": 91,
        "name": "Kansai",
        "postal_code": "98564"
    },
    {
        "code": 9106042015,
        "district_code": 910604,
        "regency_code": 9106,
        "province_code": 91,
        "name": "Pomdori",
        "postal_code": "98564"
    },
    {
        "code": 9106042019,
        "district_code": 910604,
        "regency_code": 9106,
        "province_code": 91,
        "name": "Semayen",
        "postal_code": "98564"
    },
    {
        "code": 9106042020,
        "district_code": 910604,
        "regency_code": 9106,
        "province_code": 91,
        "name": "Mambodo Sawai",
        "postal_code": "98564"
    },
    {
        "code": 9106042021,
        "district_code": 910604,
        "regency_code": 9106,
        "province_code": 91,
        "name": "Rimbaraya",
        "postal_code": "98564"
    },
    {
        "code": 9106042022,
        "district_code": 910604,
        "regency_code": 9106,
        "province_code": 91,
        "name": "Pomdori Sup",
        "postal_code": "98564"
    },
    {
        "code": 9106052006,
        "district_code": 910605,
        "regency_code": 9106,
        "province_code": 91,
        "name": "Yenburwo",
        "postal_code": "98562"
    },
    {
        "code": 9106052011,
        "district_code": 910605,
        "regency_code": 9106,
        "province_code": 91,
        "name": "Kornasoren",
        "postal_code": "98562"
    },
    {
        "code": 9106052014,
        "district_code": 910605,
        "regency_code": 9106,
        "province_code": 91,
        "name": "Rarsibo",
        "postal_code": "98562"
    },
    {
        "code": 9106052015,
        "district_code": 910605,
        "regency_code": 9106,
        "province_code": 91,
        "name": "Asaryendi",
        "postal_code": "98562"
    },
    {
        "code": 9106052016,
        "district_code": 910605,
        "regency_code": 9106,
        "province_code": 91,
        "name": "Yenmanu",
        "postal_code": "98562"
    },
    {
        "code": 9106052017,
        "district_code": 910605,
        "regency_code": 9106,
        "province_code": 91,
        "name": "Pyefuri",
        "postal_code": "98562"
    },
    {
        "code": 9106052018,
        "district_code": 910605,
        "regency_code": 9106,
        "province_code": 91,
        "name": "Indaibori",
        "postal_code": "98562"
    },
    {
        "code": 9106052019,
        "district_code": 910605,
        "regency_code": 9106,
        "province_code": 91,
        "name": "Barkori",
        "postal_code": "98562"
    },
    {
        "code": 9106052020,
        "district_code": 910605,
        "regency_code": 9106,
        "province_code": 91,
        "name": "Asaibori",
        "postal_code": "98562"
    },
    {
        "code": 9106082001,
        "district_code": 910608,
        "regency_code": 9106,
        "province_code": 91,
        "name": "Andei",
        "postal_code": "98545"
    },
    {
        "code": 9106082002,
        "district_code": 910608,
        "regency_code": 9106,
        "province_code": 91,
        "name": "Kanaan",
        "postal_code": "98545"
    },
    {
        "code": 9106082003,
        "district_code": 910608,
        "regency_code": 9106,
        "province_code": 91,
        "name": "Asaryendi",
        "postal_code": "98545"
    },
    {
        "code": 9106082004,
        "district_code": 910608,
        "regency_code": 9106,
        "province_code": 91,
        "name": "Sopendo",
        "postal_code": "98545"
    },
    {
        "code": 9106082006,
        "district_code": 910608,
        "regency_code": 9106,
        "province_code": 91,
        "name": "Ampunbukor",
        "postal_code": "98545"
    },
    {
        "code": 9106082008,
        "district_code": 910608,
        "regency_code": 9106,
        "province_code": 91,
        "name": "Wasyai",
        "postal_code": "98545"
    },
    {
        "code": 9106082009,
        "district_code": 910608,
        "regency_code": 9106,
        "province_code": 91,
        "name": "Kababur",
        "postal_code": "98545"
    },
    {
        "code": 9106082010,
        "district_code": 910608,
        "regency_code": 9106,
        "province_code": 91,
        "name": "Warberik",
        "postal_code": "98545"
    },
    {
        "code": 9106082011,
        "district_code": 910608,
        "regency_code": 9106,
        "province_code": 91,
        "name": "Sosmai",
        "postal_code": "98545"
    },
    {
        "code": 9106082012,
        "district_code": 910608,
        "regency_code": 9106,
        "province_code": 91,
        "name": "Yomdori",
        "postal_code": "98545"
    },
    {
        "code": 9106082013,
        "district_code": 910608,
        "regency_code": 9106,
        "province_code": 91,
        "name": "Opuri",
        "postal_code": "98545"
    },
    {
        "code": 9106082014,
        "district_code": 910608,
        "regency_code": 9106,
        "province_code": 91,
        "name": "Mamoribo",
        "postal_code": "98545"
    },
    {
        "code": 9106082021,
        "district_code": 910608,
        "regency_code": 9106,
        "province_code": 91,
        "name": "Insiri",
        "postal_code": "98545"
    },
    {
        "code": 9106082024,
        "district_code": 910608,
        "regency_code": 9106,
        "province_code": 91,
        "name": "Asarkir",
        "postal_code": "98545"
    },
    {
        "code": 9106082025,
        "district_code": 910608,
        "regency_code": 9106,
        "province_code": 91,
        "name": "Dousi",
        "postal_code": "98545"
    },
    {
        "code": 9106082026,
        "district_code": 910608,
        "regency_code": 9106,
        "province_code": 91,
        "name": "Marisen",
        "postal_code": "98545"
    },
    {
        "code": 9106082027,
        "district_code": 910608,
        "regency_code": 9106,
        "province_code": 91,
        "name": "Sumbinya",
        "postal_code": "98545"
    },
    {
        "code": 9106082029,
        "district_code": 910608,
        "regency_code": 9106,
        "province_code": 91,
        "name": "Rarsbari",
        "postal_code": "98545"
    },
    {
        "code": 9106082030,
        "district_code": 910608,
        "regency_code": 9106,
        "province_code": 91,
        "name": "Banasrares",
        "postal_code": "98545"
    },
    {
        "code": 9106082031,
        "district_code": 910608,
        "regency_code": 9106,
        "province_code": 91,
        "name": "Karnindi",
        "postal_code": "98545"
    },
    {
        "code": 9106082032,
        "district_code": 910608,
        "regency_code": 9106,
        "province_code": 91,
        "name": "Dedifu",
        "postal_code": "98545"
    },
    {
        "code": 9106082033,
        "district_code": 910608,
        "regency_code": 9106,
        "province_code": 91,
        "name": "Sopendo Sup Karkir",
        "postal_code": "98545"
    },
    {
        "code": 9106092003,
        "district_code": 910609,
        "regency_code": 9106,
        "province_code": 91,
        "name": "Marur",
        "postal_code": "98553"
    },
    {
        "code": 9106092004,
        "district_code": 910609,
        "regency_code": 9106,
        "province_code": 91,
        "name": "Diano",
        "postal_code": "98553"
    },
    {
        "code": 9106092005,
        "district_code": 910609,
        "regency_code": 9106,
        "province_code": 91,
        "name": "Sawai",
        "postal_code": "98553"
    },
    {
        "code": 9106092006,
        "district_code": 910609,
        "regency_code": 9106,
        "province_code": 91,
        "name": "Aman",
        "postal_code": "98553"
    },
    {
        "code": 9106092007,
        "district_code": 910609,
        "regency_code": 9106,
        "province_code": 91,
        "name": "Yeruboi",
        "postal_code": "98553"
    },
    {
        "code": 9106092008,
        "district_code": 910609,
        "regency_code": 9106,
        "province_code": 91,
        "name": "Amoi",
        "postal_code": "98553"
    },
    {
        "code": 9106092009,
        "district_code": 910609,
        "regency_code": 9106,
        "province_code": 91,
        "name": "Inswambesi",
        "postal_code": "98553"
    },
    {
        "code": 9106092010,
        "district_code": 910609,
        "regency_code": 9106,
        "province_code": 91,
        "name": "Koyomi",
        "postal_code": "98553"
    },
    {
        "code": 9106092011,
        "district_code": 910609,
        "regency_code": 9106,
        "province_code": 91,
        "name": "Wasani",
        "postal_code": "98553"
    },
    {
        "code": 9106092017,
        "district_code": 910609,
        "regency_code": 9106,
        "province_code": 91,
        "name": "Karuiberik",
        "postal_code": "98553"
    },
    {
        "code": 9106092018,
        "district_code": 910609,
        "regency_code": 9106,
        "province_code": 91,
        "name": "Komboi",
        "postal_code": "98553"
    },
    {
        "code": 9106092020,
        "district_code": 910609,
        "regency_code": 9106,
        "province_code": 91,
        "name": "Inswambesi Sup",
        "postal_code": "98553"
    },
    {
        "code": 9106092021,
        "district_code": 910609,
        "regency_code": 9106,
        "province_code": 91,
        "name": "Inyobi",
        "postal_code": "98553"
    },
    {
        "code": 9106092023,
        "district_code": 910609,
        "regency_code": 9106,
        "province_code": 91,
        "name": "Maniri",
        "postal_code": "98553"
    },
    {
        "code": 9106092024,
        "district_code": 910609,
        "regency_code": 9106,
        "province_code": 91,
        "name": "Imbari",
        "postal_code": "98553"
    },
    {
        "code": 9106092025,
        "district_code": 910609,
        "regency_code": 9106,
        "province_code": 91,
        "name": "Manbeori",
        "postal_code": "98553"
    },
    {
        "code": 9106092026,
        "district_code": 910609,
        "regency_code": 9106,
        "province_code": 91,
        "name": "Warawaf",
        "postal_code": "98553"
    },
    {
        "code": 9106092027,
        "district_code": 910609,
        "regency_code": 9106,
        "province_code": 91,
        "name": "Wir Insos",
        "postal_code": "98553"
    },
    {
        "code": 9106092028,
        "district_code": 910609,
        "regency_code": 9106,
        "province_code": 91,
        "name": "Biawer",
        "postal_code": "98553"
    },
    {
        "code": 9106092029,
        "district_code": 910609,
        "regency_code": 9106,
        "province_code": 91,
        "name": "Mamfias",
        "postal_code": "98553"
    },
    {
        "code": 9106102001,
        "district_code": 910610,
        "regency_code": 9106,
        "province_code": 91,
        "name": "Pai",
        "postal_code": "98556"
    },
    {
        "code": 9106102002,
        "district_code": 910610,
        "regency_code": 9106,
        "province_code": 91,
        "name": "Auki",
        "postal_code": "98556"
    },
    {
        "code": 9106102003,
        "district_code": 910610,
        "regency_code": 9106,
        "province_code": 91,
        "name": "Wundi",
        "postal_code": "98556"
    },
    {
        "code": 9106102004,
        "district_code": 910610,
        "regency_code": 9106,
        "province_code": 91,
        "name": "Nusi Babaruk",
        "postal_code": "98556"
    },
    {
        "code": 9106102005,
        "district_code": 910610,
        "regency_code": 9106,
        "province_code": 91,
        "name": "Nusi",
        "postal_code": "98556"
    },
    {
        "code": 9106102014,
        "district_code": 910610,
        "regency_code": 9106,
        "province_code": 91,
        "name": "Inbeyomi",
        "postal_code": "98556"
    },
    {
        "code": 9106102015,
        "district_code": 910610,
        "regency_code": 9106,
        "province_code": 91,
        "name": "Sorina",
        "postal_code": "98556"
    },
    {
        "code": 9106102016,
        "district_code": 910610,
        "regency_code": 9106,
        "province_code": 91,
        "name": "Sandidori",
        "postal_code": "98556"
    },
    {
        "code": 9106102020,
        "district_code": 910610,
        "regency_code": 9106,
        "province_code": 91,
        "name": "Paidori",
        "postal_code": "98556"
    },
    {
        "code": 9106102021,
        "district_code": 910610,
        "regency_code": 9106,
        "province_code": 91,
        "name": "Kanai",
        "postal_code": "98556"
    },
    {
        "code": 9106102022,
        "district_code": 910610,
        "regency_code": 9106,
        "province_code": 91,
        "name": "Sokani",
        "postal_code": "98556"
    },
    {
        "code": 9106112001,
        "district_code": 910611,
        "regency_code": 9106,
        "province_code": 91,
        "name": "Yendidori",
        "postal_code": "98547"
    },
    {
        "code": 9106112002,
        "district_code": 910611,
        "regency_code": 9106,
        "province_code": 91,
        "name": "Adoki",
        "postal_code": "98547"
    },
    {
        "code": 9106112003,
        "district_code": 910611,
        "regency_code": 9106,
        "province_code": 91,
        "name": "Urfu",
        "postal_code": "98547"
    },
    {
        "code": 9106112004,
        "district_code": 910611,
        "regency_code": 9106,
        "province_code": 91,
        "name": "Samber",
        "postal_code": "98547"
    },
    {
        "code": 9106112005,
        "district_code": 910611,
        "regency_code": 9106,
        "province_code": 91,
        "name": "Kabidon",
        "postal_code": "98547"
    },
    {
        "code": 9106112006,
        "district_code": 910611,
        "regency_code": 9106,
        "province_code": 91,
        "name": "Sunyar",
        "postal_code": "98547"
    },
    {
        "code": 9106112007,
        "district_code": 910611,
        "regency_code": 9106,
        "province_code": 91,
        "name": "Maibaken",
        "postal_code": "98547"
    },
    {
        "code": 9106112008,
        "district_code": 910611,
        "regency_code": 9106,
        "province_code": 91,
        "name": "Wirmaker",
        "postal_code": "98547"
    },
    {
        "code": 9106112009,
        "district_code": 910611,
        "regency_code": 9106,
        "province_code": 91,
        "name": "Syabes",
        "postal_code": "98547"
    },
    {
        "code": 9106112010,
        "district_code": 910611,
        "regency_code": 9106,
        "province_code": 91,
        "name": "Samber Sup",
        "postal_code": "98547"
    },
    {
        "code": 9106112011,
        "district_code": 910611,
        "regency_code": 9106,
        "province_code": 91,
        "name": "Suneri",
        "postal_code": "98547"
    },
    {
        "code": 9106112012,
        "district_code": 910611,
        "regency_code": 9106,
        "province_code": 91,
        "name": "Rarnpimbo",
        "postal_code": "98547"
    },
    {
        "code": 9106112013,
        "district_code": 910611,
        "regency_code": 9106,
        "province_code": 91,
        "name": "Padwa",
        "postal_code": "98547"
    },
    {
        "code": 9106112014,
        "district_code": 910611,
        "regency_code": 9106,
        "province_code": 91,
        "name": "Waroi",
        "postal_code": "98547"
    },
    {
        "code": 9106112015,
        "district_code": 910611,
        "regency_code": 9106,
        "province_code": 91,
        "name": "Inpendi",
        "postal_code": "98547"
    },
    {
        "code": 9106112016,
        "district_code": 910611,
        "regency_code": 9106,
        "province_code": 91,
        "name": "Amyambenram",
        "postal_code": "98547"
    },
    {
        "code": 9106112017,
        "district_code": 910611,
        "regency_code": 9106,
        "province_code": 91,
        "name": "Birubi",
        "postal_code": "98547"
    },
    {
        "code": 9106112018,
        "district_code": 910611,
        "regency_code": 9106,
        "province_code": 91,
        "name": "Binyeri",
        "postal_code": "98547"
    },
    {
        "code": 9106112019,
        "district_code": 910611,
        "regency_code": 9106,
        "province_code": 91,
        "name": "Padwa Pantai",
        "postal_code": "98547"
    },
    {
        "code": 9106121001,
        "district_code": 910612,
        "regency_code": 9106,
        "province_code": 91,
        "name": "Samofa",
        "postal_code": "98551"
    },
    {
        "code": 9106121002,
        "district_code": 910612,
        "regency_code": 9106,
        "province_code": 91,
        "name": "Brambaken",
        "postal_code": "98551"
    },
    {
        "code": 9106121010,
        "district_code": 910612,
        "regency_code": 9106,
        "province_code": 91,
        "name": "Karang Mulia",
        "postal_code": "98551"
    },
    {
        "code": 9106121011,
        "district_code": 910612,
        "regency_code": 9106,
        "province_code": 91,
        "name": "Yafdas",
        "postal_code": "98551"
    },
    {
        "code": 9106121012,
        "district_code": 910612,
        "regency_code": 9106,
        "province_code": 91,
        "name": "Mansinyas",
        "postal_code": "98551"
    },
    {
        "code": 9106121013,
        "district_code": 910612,
        "regency_code": 9106,
        "province_code": 91,
        "name": "Snerbo",
        "postal_code": "98551"
    },
    {
        "code": 9106121014,
        "district_code": 910612,
        "regency_code": 9106,
        "province_code": 91,
        "name": "Anjareuw",
        "postal_code": "98551"
    },
    {
        "code": 9106122003,
        "district_code": 910612,
        "regency_code": 9106,
        "province_code": 91,
        "name": "Mandouw",
        "postal_code": "98551"
    },
    {
        "code": 9106122004,
        "district_code": 910612,
        "regency_code": 9106,
        "province_code": 91,
        "name": "Sumberker",
        "postal_code": "98551"
    },
    {
        "code": 9106122006,
        "district_code": 910612,
        "regency_code": 9106,
        "province_code": 91,
        "name": "Maryendi",
        "postal_code": "98551"
    },
    {
        "code": 9106122007,
        "district_code": 910612,
        "regency_code": 9106,
        "province_code": 91,
        "name": "Sambawofuar",
        "postal_code": "98551"
    },
    {
        "code": 9106122008,
        "district_code": 910612,
        "regency_code": 9106,
        "province_code": 91,
        "name": "Adainasnosen",
        "postal_code": "98551"
    },
    {
        "code": 9106122009,
        "district_code": 910612,
        "regency_code": 9106,
        "province_code": 91,
        "name": "Darmopis",
        "postal_code": "98551"
    },
    {
        "code": 9106122015,
        "district_code": 910612,
        "regency_code": 9106,
        "province_code": 91,
        "name": "Kamorfuar",
        "postal_code": "98551"
    },
    {
        "code": 9106122016,
        "district_code": 910612,
        "regency_code": 9106,
        "province_code": 91,
        "name": "Anjereuw",
        "postal_code": "98551"
    },
    {
        "code": 9106122017,
        "district_code": 910612,
        "regency_code": 9106,
        "province_code": 91,
        "name": "Wisata Binsari",
        "postal_code": "98551"
    },
    {
        "code": 9106122018,
        "district_code": 910612,
        "regency_code": 9106,
        "province_code": 91,
        "name": "Kinmom",
        "postal_code": "98551"
    },
    {
        "code": 9106132001,
        "district_code": 910613,
        "regency_code": 9106,
        "province_code": 91,
        "name": "Asur",
        "postal_code": "98552"
    },
    {
        "code": 9106132002,
        "district_code": 910613,
        "regency_code": 9106,
        "province_code": 91,
        "name": "Bosnabraidi",
        "postal_code": "98552"
    },
    {
        "code": 9106132003,
        "district_code": 910613,
        "regency_code": 9106,
        "province_code": 91,
        "name": "Wasori",
        "postal_code": "98552"
    },
    {
        "code": 9106132004,
        "district_code": 910613,
        "regency_code": 9106,
        "province_code": 91,
        "name": "Soor",
        "postal_code": "98552"
    },
    {
        "code": 9106132005,
        "district_code": 910613,
        "regency_code": 9106,
        "province_code": 91,
        "name": "Karmon",
        "postal_code": "98552"
    },
    {
        "code": 9106132006,
        "district_code": 910613,
        "regency_code": 9106,
        "province_code": 91,
        "name": "Fanindi",
        "postal_code": "98552"
    },
    {
        "code": 9106132007,
        "district_code": 910613,
        "regency_code": 9106,
        "province_code": 91,
        "name": "Madirai",
        "postal_code": "98552"
    },
    {
        "code": 9106132008,
        "district_code": 910613,
        "regency_code": 9106,
        "province_code": 91,
        "name": "Indawi",
        "postal_code": "98552"
    },
    {
        "code": 9106142001,
        "district_code": 910614,
        "regency_code": 9106,
        "province_code": 91,
        "name": "Rumbin",
        "postal_code": "98543"
    },
    {
        "code": 9106142002,
        "district_code": 910614,
        "regency_code": 9106,
        "province_code": 91,
        "name": "Warbinsi",
        "postal_code": "98543"
    },
    {
        "code": 9106142003,
        "district_code": 910614,
        "regency_code": 9106,
        "province_code": 91,
        "name": "Rodifu",
        "postal_code": "98543"
    },
    {
        "code": 9106142004,
        "district_code": 910614,
        "regency_code": 9106,
        "province_code": 91,
        "name": "Wonabraidi",
        "postal_code": "98543"
    },
    {
        "code": 9106142005,
        "district_code": 910614,
        "regency_code": 9106,
        "province_code": 91,
        "name": "Wouna",
        "postal_code": "98543"
    },
    {
        "code": 9106142007,
        "district_code": 910614,
        "regency_code": 9106,
        "province_code": 91,
        "name": "Mamorbo",
        "postal_code": "98543"
    },
    {
        "code": 9106142008,
        "district_code": 910614,
        "regency_code": 9106,
        "province_code": 91,
        "name": "Faknikdi",
        "postal_code": "98543"
    },
    {
        "code": 9106142009,
        "district_code": 910614,
        "regency_code": 9106,
        "province_code": 91,
        "name": "Armnu",
        "postal_code": "98543"
    },
    {
        "code": 9106142010,
        "district_code": 910614,
        "regency_code": 9106,
        "province_code": 91,
        "name": "Sup Mbrur",
        "postal_code": "98543"
    },
    {
        "code": 9106142011,
        "district_code": 910614,
        "regency_code": 9106,
        "province_code": 91,
        "name": "Wodu",
        "postal_code": "98543"
    },
    {
        "code": 9106142012,
        "district_code": 910614,
        "regency_code": 9106,
        "province_code": 91,
        "name": "Dasdo",
        "postal_code": "98543"
    },
    {
        "code": 9106152001,
        "district_code": 910615,
        "regency_code": 9106,
        "province_code": 91,
        "name": "Farusi",
        "postal_code": "98546"
    },
    {
        "code": 9106152002,
        "district_code": 910615,
        "regency_code": 9106,
        "province_code": 91,
        "name": "Mandenderi",
        "postal_code": "98546"
    },
    {
        "code": 9106152003,
        "district_code": 910615,
        "regency_code": 9106,
        "province_code": 91,
        "name": "Swainober",
        "postal_code": "98546"
    },
    {
        "code": 9106152004,
        "district_code": 910615,
        "regency_code": 9106,
        "province_code": 91,
        "name": "Mardori",
        "postal_code": "98546"
    },
    {
        "code": 9106152005,
        "district_code": 910615,
        "regency_code": 9106,
        "province_code": 91,
        "name": "Swaipak",
        "postal_code": "98546"
    },
    {
        "code": 9106152006,
        "district_code": 910615,
        "regency_code": 9106,
        "province_code": 91,
        "name": "Yenbepioper",
        "postal_code": "98546"
    },
    {
        "code": 9106152007,
        "district_code": 910615,
        "regency_code": 9106,
        "province_code": 91,
        "name": "Sarwa",
        "postal_code": "98546"
    },
    {
        "code": 9106152008,
        "district_code": 910615,
        "regency_code": 9106,
        "province_code": 91,
        "name": "Napdori",
        "postal_code": "98546"
    },
    {
        "code": 9106152009,
        "district_code": 910615,
        "regency_code": 9106,
        "province_code": 91,
        "name": "Ramdori",
        "postal_code": "98546"
    },
    {
        "code": 9106152010,
        "district_code": 910615,
        "regency_code": 9106,
        "province_code": 91,
        "name": "Busdori",
        "postal_code": "98546"
    },
    {
        "code": 9106152011,
        "district_code": 910615,
        "regency_code": 9106,
        "province_code": 91,
        "name": "Wombrisau",
        "postal_code": "98546"
    },
    {
        "code": 9106152012,
        "district_code": 910615,
        "regency_code": 9106,
        "province_code": 91,
        "name": "Orkdori",
        "postal_code": "98546"
    },
    {
        "code": 9106152013,
        "district_code": 910615,
        "regency_code": 9106,
        "province_code": 91,
        "name": "Saswarbo",
        "postal_code": "98546"
    },
    {
        "code": 9106152014,
        "district_code": 910615,
        "regency_code": 9106,
        "province_code": 91,
        "name": "Andoina",
        "postal_code": "98546"
    },
    {
        "code": 9106152015,
        "district_code": 910615,
        "regency_code": 9106,
        "province_code": 91,
        "name": "Insusbari",
        "postal_code": "98546"
    },
    {
        "code": 9106162001,
        "district_code": 910616,
        "regency_code": 9106,
        "province_code": 91,
        "name": "Sandau",
        "postal_code": "98561"
    },
    {
        "code": 9106162002,
        "district_code": 910616,
        "regency_code": 9106,
        "province_code": 91,
        "name": "Bruyadori",
        "postal_code": "98561"
    },
    {
        "code": 9106162003,
        "district_code": 910616,
        "regency_code": 9106,
        "province_code": 91,
        "name": "Dafi",
        "postal_code": "98561"
    },
    {
        "code": 9106162004,
        "district_code": 910616,
        "regency_code": 9106,
        "province_code": 91,
        "name": "Amberparem",
        "postal_code": "98561"
    },
    {
        "code": 9106162005,
        "district_code": 910616,
        "regency_code": 9106,
        "province_code": 91,
        "name": "Mandori",
        "postal_code": "98561"
    },
    {
        "code": 9106162006,
        "district_code": 910616,
        "regency_code": 9106,
        "province_code": 91,
        "name": "Duai",
        "postal_code": "98561"
    },
    {
        "code": 9106162007,
        "district_code": 910616,
        "regency_code": 9106,
        "province_code": 91,
        "name": "Mandori Sup",
        "postal_code": "98561"
    },
    {
        "code": 9106162008,
        "district_code": 910616,
        "regency_code": 9106,
        "province_code": 91,
        "name": "Kamumi",
        "postal_code": "98561"
    },
    {
        "code": 9106162009,
        "district_code": 910616,
        "regency_code": 9106,
        "province_code": 91,
        "name": "Arimi Jaya",
        "postal_code": "98561"
    },
    {
        "code": 9106162010,
        "district_code": 910616,
        "regency_code": 9106,
        "province_code": 91,
        "name": "Warbukor",
        "postal_code": "98561"
    },
    {
        "code": 9106172001,
        "district_code": 910617,
        "regency_code": 9106,
        "province_code": 91,
        "name": "Yenbeba",
        "postal_code": "98565"
    },
    {
        "code": 9106172002,
        "district_code": 910617,
        "regency_code": 9106,
        "province_code": 91,
        "name": "Yenbepon",
        "postal_code": "98565"
    },
    {
        "code": 9106172003,
        "district_code": 910617,
        "regency_code": 9106,
        "province_code": 91,
        "name": "Saribi",
        "postal_code": "98565"
    },
    {
        "code": 9106172004,
        "district_code": 910617,
        "regency_code": 9106,
        "province_code": 91,
        "name": "Sub Mander",
        "postal_code": "98565"
    },
    {
        "code": 9106172005,
        "district_code": 910617,
        "regency_code": 9106,
        "province_code": 91,
        "name": "Rawar",
        "postal_code": "98565"
    },
    {
        "code": 9106172006,
        "district_code": 910617,
        "regency_code": 9106,
        "province_code": 91,
        "name": "Pakreki",
        "postal_code": "98565"
    },
    {
        "code": 9106172007,
        "district_code": 910617,
        "regency_code": 9106,
        "province_code": 91,
        "name": "Masyarah",
        "postal_code": "98565"
    },
    {
        "code": 9106172008,
        "district_code": 910617,
        "regency_code": 9106,
        "province_code": 91,
        "name": "Wansra",
        "postal_code": "98565"
    },
    {
        "code": 9106172009,
        "district_code": 910617,
        "regency_code": 9106,
        "province_code": 91,
        "name": "Manwor Indah",
        "postal_code": "98565"
    },
    {
        "code": 9106182001,
        "district_code": 910618,
        "regency_code": 9106,
        "province_code": 91,
        "name": "Andei",
        "postal_code": "98563"
    },
    {
        "code": 9106182002,
        "district_code": 910618,
        "regency_code": 9106,
        "province_code": 91,
        "name": "Syoribo",
        "postal_code": "98563"
    },
    {
        "code": 9106182003,
        "district_code": 910618,
        "regency_code": 9106,
        "province_code": 91,
        "name": "Sauribru",
        "postal_code": "98563"
    },
    {
        "code": 9106182004,
        "district_code": 910618,
        "regency_code": 9106,
        "province_code": 91,
        "name": "Manggari",
        "postal_code": "98563"
    },
    {
        "code": 9106182005,
        "district_code": 910618,
        "regency_code": 9106,
        "province_code": 91,
        "name": "Bawei",
        "postal_code": "98563"
    },
    {
        "code": 9106182006,
        "district_code": 910618,
        "regency_code": 9106,
        "province_code": 91,
        "name": "Sauri",
        "postal_code": "98563"
    },
    {
        "code": 9106182007,
        "district_code": 910618,
        "regency_code": 9106,
        "province_code": 91,
        "name": "Andei Sup",
        "postal_code": "98563"
    },
    {
        "code": 9106182008,
        "district_code": 910618,
        "regency_code": 9106,
        "province_code": 91,
        "name": "Surdori",
        "postal_code": "98563"
    },
    {
        "code": 9106182009,
        "district_code": 910618,
        "regency_code": 9106,
        "province_code": 91,
        "name": "Koryakam",
        "postal_code": "98563"
    },
    {
        "code": 9106192001,
        "district_code": 910619,
        "regency_code": 9106,
        "province_code": 91,
        "name": "Mios Mangguandi",
        "postal_code": "98555"
    },
    {
        "code": 9106192002,
        "district_code": 910619,
        "regency_code": 9106,
        "province_code": 91,
        "name": "Supraima",
        "postal_code": "98555"
    },
    {
        "code": 9106192003,
        "district_code": 910619,
        "regency_code": 9106,
        "province_code": 91,
        "name": "Samber Pasi",
        "postal_code": "98555"
    },
    {
        "code": 9106192004,
        "district_code": 910619,
        "regency_code": 9106,
        "province_code": 91,
        "name": "Pasi",
        "postal_code": "98555"
    },
    {
        "code": 9106192005,
        "district_code": 910619,
        "regency_code": 9106,
        "province_code": 91,
        "name": "Mbromsi",
        "postal_code": "98555"
    },
    {
        "code": 9106192006,
        "district_code": 910619,
        "regency_code": 9106,
        "province_code": 91,
        "name": "Karabai",
        "postal_code": "98555"
    },
    {
        "code": 9106192007,
        "district_code": 910619,
        "regency_code": 9106,
        "province_code": 91,
        "name": "Saribra",
        "postal_code": "98555"
    },
    {
        "code": 9106192008,
        "district_code": 910619,
        "regency_code": 9106,
        "province_code": 91,
        "name": "Nyansoren",
        "postal_code": "98555"
    },
    {
        "code": 9106192009,
        "district_code": 910619,
        "regency_code": 9106,
        "province_code": 91,
        "name": "Sasari",
        "postal_code": "98555"
    },
    {
        "code": 9106192010,
        "district_code": 910619,
        "regency_code": 9106,
        "province_code": 91,
        "name": "Padaido",
        "postal_code": "98555"
    },
    {
        "code": 9106192011,
        "district_code": 910619,
        "regency_code": 9106,
        "province_code": 91,
        "name": "Yeri",
        "postal_code": "98555"
    },
    {
        "code": 9106192012,
        "district_code": 910619,
        "regency_code": 9106,
        "province_code": 91,
        "name": "Anobo",
        "postal_code": "98555"
    },
    {
        "code": 9106192013,
        "district_code": 910619,
        "regency_code": 9106,
        "province_code": 91,
        "name": "Yen Manaina",
        "postal_code": "98555"
    },
    {
        "code": 9106202001,
        "district_code": 910620,
        "regency_code": 9106,
        "province_code": 91,
        "name": "Opiaref",
        "postal_code": "98542"
    },
    {
        "code": 9106202002,
        "district_code": 910620,
        "regency_code": 9106,
        "province_code": 91,
        "name": "Bakribo",
        "postal_code": "98542"
    },
    {
        "code": 9106202003,
        "district_code": 910620,
        "regency_code": 9106,
        "province_code": 91,
        "name": "Sawa",
        "postal_code": "98542"
    },
    {
        "code": 9106202004,
        "district_code": 910620,
        "regency_code": 9106,
        "province_code": 91,
        "name": "Marauw",
        "postal_code": "98542"
    },
    {
        "code": 9106202005,
        "district_code": 910620,
        "regency_code": 9106,
        "province_code": 91,
        "name": "Wadibu",
        "postal_code": "98542"
    },
    {
        "code": 9106202006,
        "district_code": 910620,
        "regency_code": 9106,
        "province_code": 91,
        "name": "Anggopi",
        "postal_code": "98542"
    },
    {
        "code": 9106202007,
        "district_code": 910620,
        "regency_code": 9106,
        "province_code": 91,
        "name": "Anggaduber",
        "postal_code": "98542"
    },
    {
        "code": 9106202008,
        "district_code": 910620,
        "regency_code": 9106,
        "province_code": 91,
        "name": "Animi",
        "postal_code": "98542"
    },
    {
        "code": 9106202009,
        "district_code": 910620,
        "regency_code": 9106,
        "province_code": 91,
        "name": "Kakur",
        "postal_code": "98542"
    },
    {
        "code": 9106202010,
        "district_code": 910620,
        "regency_code": 9106,
        "province_code": 91,
        "name": "Tanjung Barari",
        "postal_code": "98542"
    },
    {
        "code": 9106202011,
        "district_code": 910620,
        "regency_code": 9106,
        "province_code": 91,
        "name": "Sawadori",
        "postal_code": "98542"
    },
    {
        "code": 9106202012,
        "district_code": 910620,
        "regency_code": 9106,
        "province_code": 91,
        "name": "Sauri",
        "postal_code": "98542"
    },
    {
        "code": 9106202013,
        "district_code": 910620,
        "regency_code": 9106,
        "province_code": 91,
        "name": "Makmakerbo",
        "postal_code": "98542"
    },
    {
        "code": 9106202014,
        "district_code": 910620,
        "regency_code": 9106,
        "province_code": 91,
        "name": "Yensama",
        "postal_code": "98542"
    },
    {
        "code": 9106212001,
        "district_code": 910621,
        "regency_code": 9106,
        "province_code": 91,
        "name": "Wopes",
        "postal_code": "98554"
    },
    {
        "code": 9106212002,
        "district_code": 910621,
        "regency_code": 9106,
        "province_code": 91,
        "name": "Wandos",
        "postal_code": "98554"
    },
    {
        "code": 9106212003,
        "district_code": 910621,
        "regency_code": 9106,
        "province_code": 91,
        "name": "Doubo",
        "postal_code": "98554"
    },
    {
        "code": 9106212004,
        "district_code": 910621,
        "regency_code": 9106,
        "province_code": 91,
        "name": "Syurdori",
        "postal_code": "98554"
    },
    {
        "code": 9106212005,
        "district_code": 910621,
        "regency_code": 9106,
        "province_code": 91,
        "name": "Sansundi",
        "postal_code": "98554"
    },
    {
        "code": 9110011001,
        "district_code": 911001,
        "regency_code": 9110,
        "province_code": 91,
        "name": "Mararena",
        "postal_code": "99373"
    },
    {
        "code": 9110011002,
        "district_code": 911001,
        "regency_code": 9110,
        "province_code": 91,
        "name": "Sarmi Kota",
        "postal_code": "99373"
    },
    {
        "code": 9110012003,
        "district_code": 911001,
        "regency_code": 9110,
        "province_code": 91,
        "name": "Sarmo",
        "postal_code": "99373"
    },
    {
        "code": 9110012004,
        "district_code": 911001,
        "regency_code": 9110,
        "province_code": 91,
        "name": "Liki",
        "postal_code": "99373"
    },
    {
        "code": 9110012006,
        "district_code": 911001,
        "regency_code": 9110,
        "province_code": 91,
        "name": "Sawar",
        "postal_code": "99373"
    },
    {
        "code": 9110012007,
        "district_code": 911001,
        "regency_code": 9110,
        "province_code": 91,
        "name": "Bagaiserwar",
        "postal_code": "99373"
    },
    {
        "code": 9110012014,
        "district_code": 911001,
        "regency_code": 9110,
        "province_code": 91,
        "name": "Armo",
        "postal_code": "99373"
    },
    {
        "code": 9110012018,
        "district_code": 911001,
        "regency_code": 9110,
        "province_code": 91,
        "name": "Bagaisewar II",
        "postal_code": "99373"
    },
    {
        "code": 9110012019,
        "district_code": 911001,
        "regency_code": 9110,
        "province_code": 91,
        "name": "Pulau Armo",
        "postal_code": "99373"
    },
    {
        "code": 9110012020,
        "district_code": 911001,
        "regency_code": 9110,
        "province_code": 91,
        "name": "Lembah Neidam",
        "postal_code": "99373"
    },
    {
        "code": 9110012021,
        "district_code": 911001,
        "regency_code": 9110,
        "province_code": 91,
        "name": "Tefarewar",
        "postal_code": "99373"
    },
    {
        "code": 9110022001,
        "district_code": 911002,
        "regency_code": 9110,
        "province_code": 91,
        "name": "Bota-Bora",
        "postal_code": "99372"
    },
    {
        "code": 9110022002,
        "district_code": 911002,
        "regency_code": 9110,
        "province_code": 91,
        "name": "Toganto",
        "postal_code": "99372"
    },
    {
        "code": 9110022003,
        "district_code": 911002,
        "regency_code": 9110,
        "province_code": 91,
        "name": "Samanente",
        "postal_code": "99372"
    },
    {
        "code": 9110022004,
        "district_code": 911002,
        "regency_code": 9110,
        "province_code": 91,
        "name": "Kanderjan",
        "postal_code": "99372"
    },
    {
        "code": 9110022005,
        "district_code": 911002,
        "regency_code": 9110,
        "province_code": 91,
        "name": "Omte",
        "postal_code": "99372"
    },
    {
        "code": 9110022006,
        "district_code": 911002,
        "regency_code": 9110,
        "province_code": 91,
        "name": "Safrom Tane",
        "postal_code": "99372"
    },
    {
        "code": 9110022007,
        "district_code": 911002,
        "regency_code": 9110,
        "province_code": 91,
        "name": "Denender",
        "postal_code": "99372"
    },
    {
        "code": 9110022009,
        "district_code": 911002,
        "regency_code": 9110,
        "province_code": 91,
        "name": "Safron Tane",
        "postal_code": "99372"
    },
    {
        "code": 9110022010,
        "district_code": 911002,
        "regency_code": 9110,
        "province_code": 91,
        "name": "Denander",
        "postal_code": "99372"
    },
    {
        "code": 9110022011,
        "district_code": 911002,
        "regency_code": 9110,
        "province_code": 91,
        "name": "Waaf",
        "postal_code": "99372"
    },
    {
        "code": 9110032005,
        "district_code": 911003,
        "regency_code": 9110,
        "province_code": 91,
        "name": "Mertewar",
        "postal_code": "99375"
    },
    {
        "code": 9110032006,
        "district_code": 911003,
        "regency_code": 9110,
        "province_code": 91,
        "name": "Samorkena",
        "postal_code": "99375"
    },
    {
        "code": 9110032007,
        "district_code": 911003,
        "regency_code": 9110,
        "province_code": 91,
        "name": "Arbais",
        "postal_code": "99375"
    },
    {
        "code": 9110032008,
        "district_code": 911003,
        "regency_code": 9110,
        "province_code": 91,
        "name": "Kapeso",
        "postal_code": "99375"
    },
    {
        "code": 9110032009,
        "district_code": 911003,
        "regency_code": 9110,
        "province_code": 91,
        "name": "Masep",
        "postal_code": "99375"
    },
    {
        "code": 9110032012,
        "district_code": 911003,
        "regency_code": 9110,
        "province_code": 91,
        "name": "Nisro",
        "postal_code": "99375"
    },
    {
        "code": 9110032013,
        "district_code": 911003,
        "regency_code": 9110,
        "province_code": 91,
        "name": "Aruswar",
        "postal_code": "99375"
    },
    {
        "code": 9110032014,
        "district_code": 911003,
        "regency_code": 9110,
        "province_code": 91,
        "name": "Kamenawari",
        "postal_code": "99375"
    },
    {
        "code": 9110032015,
        "district_code": 911003,
        "regency_code": 9110,
        "province_code": 91,
        "name": "Waim",
        "postal_code": "99375"
    },
    {
        "code": 9110032016,
        "district_code": 911003,
        "regency_code": 9110,
        "province_code": 91,
        "name": "Subu",
        "postal_code": "99375"
    },
    {
        "code": 9110032017,
        "district_code": 911003,
        "regency_code": 9110,
        "province_code": 91,
        "name": "Karfasia",
        "postal_code": "99375"
    },
    {
        "code": 9110032023,
        "district_code": 911003,
        "regency_code": 9110,
        "province_code": 91,
        "name": "Burgena",
        "postal_code": "99375"
    },
    {
        "code": 9110032024,
        "district_code": 911003,
        "regency_code": 9110,
        "province_code": 91,
        "name": "Webro",
        "postal_code": "99375"
    },
    {
        "code": 9110032025,
        "district_code": 911003,
        "regency_code": 9110,
        "province_code": 91,
        "name": "Siantoa",
        "postal_code": "99375"
    },
    {
        "code": 9110032026,
        "district_code": 911003,
        "regency_code": 9110,
        "province_code": 91,
        "name": "Niwerawar",
        "postal_code": "99375"
    },
    {
        "code": 9110032027,
        "district_code": 911003,
        "regency_code": 9110,
        "province_code": 91,
        "name": "Wari",
        "postal_code": "99375"
    },
    {
        "code": 9110042001,
        "district_code": 911004,
        "regency_code": 9110,
        "province_code": 91,
        "name": "Ansudu",
        "postal_code": "99370"
    },
    {
        "code": 9110042002,
        "district_code": 911004,
        "regency_code": 9110,
        "province_code": 91,
        "name": "Betaf",
        "postal_code": "99370"
    },
    {
        "code": 9110042003,
        "district_code": 911004,
        "regency_code": 9110,
        "province_code": 91,
        "name": "Yamben",
        "postal_code": "99370"
    },
    {
        "code": 9110042010,
        "district_code": 911004,
        "regency_code": 9110,
        "province_code": 91,
        "name": "Sunum",
        "postal_code": "99370"
    },
    {
        "code": 9110042011,
        "district_code": 911004,
        "regency_code": 9110,
        "province_code": 91,
        "name": "Komra",
        "postal_code": "99370"
    },
    {
        "code": 9110042013,
        "district_code": 911004,
        "regency_code": 9110,
        "province_code": 91,
        "name": "Betaf Dua",
        "postal_code": "99370"
    },
    {
        "code": 9110042014,
        "district_code": 911004,
        "regency_code": 9110,
        "province_code": 91,
        "name": "Ansudu Dua",
        "postal_code": "99370"
    },
    {
        "code": 9110052004,
        "district_code": 911005,
        "regency_code": 9110,
        "province_code": 91,
        "name": "Armopa",
        "postal_code": "99381"
    },
    {
        "code": 9110052005,
        "district_code": 911005,
        "regency_code": 9110,
        "province_code": 91,
        "name": "Tarontha Srum",
        "postal_code": "99381"
    },
    {
        "code": 9110052006,
        "district_code": 911005,
        "regency_code": 9110,
        "province_code": 91,
        "name": "Anus",
        "postal_code": "99381"
    },
    {
        "code": 9110052007,
        "district_code": 911005,
        "regency_code": 9110,
        "province_code": 91,
        "name": "Kiren",
        "postal_code": "99381"
    },
    {
        "code": 9110052008,
        "district_code": 911005,
        "regency_code": 9110,
        "province_code": 91,
        "name": "Maweswares",
        "postal_code": "99381"
    },
    {
        "code": 9110052010,
        "district_code": 911005,
        "regency_code": 9110,
        "province_code": 91,
        "name": "Bebon Jaya",
        "postal_code": "99381"
    },
    {
        "code": 9110052011,
        "district_code": 911005,
        "regency_code": 9110,
        "province_code": 91,
        "name": "Tetom",
        "postal_code": "99381"
    },
    {
        "code": 9110052015,
        "district_code": 911005,
        "regency_code": 9110,
        "province_code": 91,
        "name": "Rimsersari",
        "postal_code": "99381"
    },
    {
        "code": 9110052017,
        "district_code": 911005,
        "regency_code": 9110,
        "province_code": 91,
        "name": "Krim Podena",
        "postal_code": "99381"
    },
    {
        "code": 9110052018,
        "district_code": 911005,
        "regency_code": 9110,
        "province_code": 91,
        "name": "Rotea",
        "postal_code": "99381"
    },
    {
        "code": 9110092001,
        "district_code": 911009,
        "regency_code": 9110,
        "province_code": 91,
        "name": "Wamariri",
        "postal_code": "99374"
    },
    {
        "code": 9110092002,
        "district_code": 911009,
        "regency_code": 9110,
        "province_code": 91,
        "name": "Aurimi",
        "postal_code": "99374"
    },
    {
        "code": 9110092003,
        "district_code": 911009,
        "regency_code": 9110,
        "province_code": 91,
        "name": "Tamaja",
        "postal_code": "99374"
    },
    {
        "code": 9110092004,
        "district_code": 911009,
        "regency_code": 9110,
        "province_code": 91,
        "name": "Airoran",
        "postal_code": "99374"
    },
    {
        "code": 9110092005,
        "district_code": 911009,
        "regency_code": 9110,
        "province_code": 91,
        "name": "Murara",
        "postal_code": "99374"
    },
    {
        "code": 9110092006,
        "district_code": 911009,
        "regency_code": 9110,
        "province_code": 91,
        "name": "Sasawapece",
        "postal_code": "99374"
    },
    {
        "code": 9110092011,
        "district_code": 911009,
        "regency_code": 9110,
        "province_code": 91,
        "name": "Maniwa",
        "postal_code": "99374"
    },
    {
        "code": 9110092012,
        "district_code": 911009,
        "regency_code": 9110,
        "province_code": 91,
        "name": "Surimania",
        "postal_code": "99374"
    },
    {
        "code": 9110092013,
        "district_code": 911009,
        "regency_code": 9110,
        "province_code": 91,
        "name": "Kwawitania",
        "postal_code": "99374"
    },
    {
        "code": 9110092014,
        "district_code": 911009,
        "regency_code": 9110,
        "province_code": 91,
        "name": "Bina",
        "postal_code": "99374"
    },
    {
        "code": 9110122001,
        "district_code": 911012,
        "regency_code": 9110,
        "province_code": 91,
        "name": "Amsira",
        "postal_code": "99376"
    },
    {
        "code": 9110122002,
        "district_code": 911012,
        "regency_code": 9110,
        "province_code": 91,
        "name": "Siaratesa",
        "postal_code": "99376"
    },
    {
        "code": 9110122003,
        "district_code": 911012,
        "regency_code": 9110,
        "province_code": 91,
        "name": "Munukania",
        "postal_code": "99376"
    },
    {
        "code": 9110122004,
        "district_code": 911012,
        "regency_code": 9110,
        "province_code": 91,
        "name": "Kasukwe",
        "postal_code": "99376"
    },
    {
        "code": 9110122005,
        "district_code": 911012,
        "regency_code": 9110,
        "province_code": 91,
        "name": "Wapo",
        "postal_code": "99376"
    },
    {
        "code": 9110122008,
        "district_code": 911012,
        "regency_code": 9110,
        "province_code": 91,
        "name": "Angkasa Dua",
        "postal_code": "99376"
    },
    {
        "code": 9110132001,
        "district_code": 911013,
        "regency_code": 9110,
        "province_code": 91,
        "name": "Holmafen",
        "postal_code": "99377"
    },
    {
        "code": 9110132002,
        "district_code": 911013,
        "regency_code": 9110,
        "province_code": 91,
        "name": "Sewan",
        "postal_code": "99377"
    },
    {
        "code": 9110132003,
        "district_code": 911013,
        "regency_code": 9110,
        "province_code": 91,
        "name": "Waskey\/ Tanjung Batu",
        "postal_code": "99377"
    },
    {
        "code": 9110132004,
        "district_code": 911013,
        "regency_code": 9110,
        "province_code": 91,
        "name": "Ebram",
        "postal_code": "99377"
    },
    {
        "code": 9110132005,
        "district_code": 911013,
        "regency_code": 9110,
        "province_code": 91,
        "name": "Binyer",
        "postal_code": "99377"
    },
    {
        "code": 9110132006,
        "district_code": 911013,
        "regency_code": 9110,
        "province_code": 91,
        "name": "Bagaiserwar Dua",
        "postal_code": "99377"
    },
    {
        "code": 9110132007,
        "district_code": 911013,
        "regency_code": 9110,
        "province_code": 91,
        "name": "Waskey",
        "postal_code": "99377"
    },
    {
        "code": 9110132008,
        "district_code": 911013,
        "regency_code": 9110,
        "province_code": 91,
        "name": "Tanjung Batu",
        "postal_code": "99377"
    },
    {
        "code": 9110142001,
        "district_code": 911014,
        "regency_code": 9110,
        "province_code": 91,
        "name": "Arare",
        "postal_code": "99371"
    },
    {
        "code": 9110142002,
        "district_code": 911014,
        "regency_code": 9110,
        "province_code": 91,
        "name": "Wakde",
        "postal_code": "99371"
    },
    {
        "code": 9110142003,
        "district_code": 911014,
        "regency_code": 9110,
        "province_code": 91,
        "name": "Timron\/Keder",
        "postal_code": "99371"
    },
    {
        "code": 9110142004,
        "district_code": 911014,
        "regency_code": 9110,
        "province_code": 91,
        "name": "Dabe",
        "postal_code": "99371"
    },
    {
        "code": 9110142005,
        "district_code": 911014,
        "regency_code": 9110,
        "province_code": 91,
        "name": "Nengke",
        "postal_code": "99371"
    },
    {
        "code": 9110142006,
        "district_code": 911014,
        "regency_code": 9110,
        "province_code": 91,
        "name": "Finyabor",
        "postal_code": "99371"
    },
    {
        "code": 9110142012,
        "district_code": 911014,
        "regency_code": 9110,
        "province_code": 91,
        "name": "Tambrawar",
        "postal_code": "99371"
    },
    {
        "code": 9110142013,
        "district_code": 911014,
        "regency_code": 9110,
        "province_code": 91,
        "name": "Keder Lama",
        "postal_code": "99371"
    },
    {
        "code": 9110142014,
        "district_code": 911014,
        "regency_code": 9110,
        "province_code": 91,
        "name": "Finyabor Dua",
        "postal_code": "99371"
    },
    {
        "code": 9110142015,
        "district_code": 911014,
        "regency_code": 9110,
        "province_code": 91,
        "name": "Dabe Dua",
        "postal_code": "99371"
    },
    {
        "code": 9110142016,
        "district_code": 911014,
        "regency_code": 9110,
        "province_code": 91,
        "name": "Nengke Dua",
        "postal_code": "99371"
    },
    {
        "code": 9110152001,
        "district_code": 911015,
        "regency_code": 9110,
        "province_code": 91,
        "name": "Gwinjaya",
        "postal_code": "99382"
    },
    {
        "code": 9110152002,
        "district_code": 911015,
        "regency_code": 9110,
        "province_code": 91,
        "name": "Tamar Sari",
        "postal_code": "99382"
    },
    {
        "code": 9110152003,
        "district_code": 911015,
        "regency_code": 9110,
        "province_code": 91,
        "name": "Mawes Mukti",
        "postal_code": "99382"
    },
    {
        "code": 9110152004,
        "district_code": 911015,
        "regency_code": 9110,
        "province_code": 91,
        "name": "Mawesday",
        "postal_code": "99382"
    },
    {
        "code": 9110152005,
        "district_code": 911015,
        "regency_code": 9110,
        "province_code": 91,
        "name": "Kapitiau",
        "postal_code": "99382"
    },
    {
        "code": 9111012001,
        "district_code": 911101,
        "regency_code": 9111,
        "province_code": 91,
        "name": "Banda",
        "postal_code": "99467"
    },
    {
        "code": 9111012002,
        "district_code": 911101,
        "regency_code": 9111,
        "province_code": 91,
        "name": "Pund",
        "postal_code": "99467"
    },
    {
        "code": 9111012003,
        "district_code": 911101,
        "regency_code": 9111,
        "province_code": 91,
        "name": "Kalifam",
        "postal_code": "99467"
    },
    {
        "code": 9111012004,
        "district_code": 911101,
        "regency_code": 9111,
        "province_code": 91,
        "name": "Yuwainda",
        "postal_code": "99467"
    },
    {
        "code": 9111012005,
        "district_code": 911101,
        "regency_code": 9111,
        "province_code": 91,
        "name": "Kalimala",
        "postal_code": "99467"
    },
    {
        "code": 9111012006,
        "district_code": 911101,
        "regency_code": 9111,
        "province_code": 91,
        "name": "Ampas",
        "postal_code": "99467"
    },
    {
        "code": 9111012007,
        "district_code": 911101,
        "regency_code": 9111,
        "province_code": 91,
        "name": "Bompai",
        "postal_code": "99467"
    },
    {
        "code": 9111012008,
        "district_code": 911101,
        "regency_code": 9111,
        "province_code": 91,
        "name": "Sack",
        "postal_code": "99467"
    },
    {
        "code": 9111022001,
        "district_code": 911102,
        "regency_code": 9111,
        "province_code": 91,
        "name": "Arso Kota",
        "postal_code": "99471"
    },
    {
        "code": 9111022002,
        "district_code": 911102,
        "regency_code": 9111,
        "province_code": 91,
        "name": "Workwana",
        "postal_code": "99471"
    },
    {
        "code": 9111022003,
        "district_code": 911102,
        "regency_code": 9111,
        "province_code": 91,
        "name": "Kwimi",
        "postal_code": "99471"
    },
    {
        "code": 9111022004,
        "district_code": 911102,
        "regency_code": 9111,
        "province_code": 91,
        "name": "Ubiyau",
        "postal_code": "99471"
    },
    {
        "code": 9111022006,
        "district_code": 911102,
        "regency_code": 9111,
        "province_code": 91,
        "name": "Sawanawa",
        "postal_code": "99471"
    },
    {
        "code": 9111022009,
        "district_code": 911102,
        "regency_code": 9111,
        "province_code": 91,
        "name": "Yuwanain",
        "postal_code": "99471"
    },
    {
        "code": 9111022010,
        "district_code": 911102,
        "regency_code": 9111,
        "province_code": 91,
        "name": "Yanamaa",
        "postal_code": "99471"
    },
    {
        "code": 9111022011,
        "district_code": 911102,
        "regency_code": 9111,
        "province_code": 91,
        "name": "Asyaman",
        "postal_code": "99471"
    },
    {
        "code": 9111022012,
        "district_code": 911102,
        "regency_code": 9111,
        "province_code": 91,
        "name": "Yamta",
        "postal_code": "99471"
    },
    {
        "code": 9111022016,
        "district_code": 911102,
        "regency_code": 9111,
        "province_code": 91,
        "name": "Bagia",
        "postal_code": "99471"
    },
    {
        "code": 9111022030,
        "district_code": 911102,
        "regency_code": 9111,
        "province_code": 91,
        "name": "Sawabuun",
        "postal_code": "99471"
    },
    {
        "code": 9111022031,
        "district_code": 911102,
        "regency_code": 9111,
        "province_code": 91,
        "name": "Bibiosi",
        "postal_code": "99471"
    },
    {
        "code": 9111032001,
        "district_code": 911103,
        "regency_code": 9111,
        "province_code": 91,
        "name": "Molof",
        "postal_code": "99464"
    },
    {
        "code": 9111032002,
        "district_code": 911103,
        "regency_code": 9111,
        "province_code": 91,
        "name": "Senggi",
        "postal_code": "99464"
    },
    {
        "code": 9111032003,
        "district_code": 911103,
        "regency_code": 9111,
        "province_code": 91,
        "name": "Warlef",
        "postal_code": "99464"
    },
    {
        "code": 9111032005,
        "district_code": 911103,
        "regency_code": 9111,
        "province_code": 91,
        "name": "Usku",
        "postal_code": "99464"
    },
    {
        "code": 9111032006,
        "district_code": 911103,
        "regency_code": 9111,
        "province_code": 91,
        "name": "Woslay",
        "postal_code": "99464"
    },
    {
        "code": 9111032010,
        "district_code": 911103,
        "regency_code": 9111,
        "province_code": 91,
        "name": "Namla",
        "postal_code": "99464"
    },
    {
        "code": 9111032011,
        "district_code": 911103,
        "regency_code": 9111,
        "province_code": 91,
        "name": "Waley",
        "postal_code": "99464"
    },
    {
        "code": 9111042001,
        "district_code": 911104,
        "regency_code": 9111,
        "province_code": 91,
        "name": "Dubu",
        "postal_code": "99462"
    },
    {
        "code": 9111042002,
        "district_code": 911104,
        "regency_code": 9111,
        "province_code": 91,
        "name": "Umuraf",
        "postal_code": "99462"
    },
    {
        "code": 9111042003,
        "district_code": 911104,
        "regency_code": 9111,
        "province_code": 91,
        "name": "Semografi",
        "postal_code": "99462"
    },
    {
        "code": 9111042005,
        "district_code": 911104,
        "regency_code": 9111,
        "province_code": 91,
        "name": "Embi",
        "postal_code": "99462"
    },
    {
        "code": 9111042015,
        "district_code": 911104,
        "regency_code": 9111,
        "province_code": 91,
        "name": "Yamraf Dua",
        "postal_code": "99462"
    },
    {
        "code": 9111042017,
        "district_code": 911104,
        "regency_code": 9111,
        "province_code": 91,
        "name": "Tatakra",
        "postal_code": "99462"
    },
    {
        "code": 9111052001,
        "district_code": 911105,
        "regency_code": 9111,
        "province_code": 91,
        "name": "Skanto",
        "postal_code": "99469"
    },
    {
        "code": 9111052002,
        "district_code": 911105,
        "regency_code": 9111,
        "province_code": 91,
        "name": "Jaifuri",
        "postal_code": "99469"
    },
    {
        "code": 9111052003,
        "district_code": 911105,
        "regency_code": 9111,
        "province_code": 91,
        "name": "Arsopura",
        "postal_code": "99469"
    },
    {
        "code": 9111052004,
        "district_code": 911105,
        "regency_code": 9111,
        "province_code": 91,
        "name": "Wiantre",
        "postal_code": "99469"
    },
    {
        "code": 9111052005,
        "district_code": 911105,
        "regency_code": 9111,
        "province_code": 91,
        "name": "Naramben",
        "postal_code": "99469"
    },
    {
        "code": 9111052006,
        "district_code": 911105,
        "regency_code": 9111,
        "province_code": 91,
        "name": "Intaimelyan",
        "postal_code": "99469"
    },
    {
        "code": 9111052007,
        "district_code": 911105,
        "regency_code": 9111,
        "province_code": 91,
        "name": "Traimelyan",
        "postal_code": "99469"
    },
    {
        "code": 9111052008,
        "district_code": 911105,
        "regency_code": 9111,
        "province_code": 91,
        "name": "Wulukubun",
        "postal_code": "99469"
    },
    {
        "code": 9111052009,
        "district_code": 911105,
        "regency_code": 9111,
        "province_code": 91,
        "name": "Gudang Garam",
        "postal_code": "99469"
    },
    {
        "code": 9111052010,
        "district_code": 911105,
        "regency_code": 9111,
        "province_code": 91,
        "name": "Saefen Empat Dua",
        "postal_code": "99469"
    },
    {
        "code": 9111052011,
        "district_code": 911105,
        "regency_code": 9111,
        "province_code": 91,
        "name": "Walma",
        "postal_code": "99469"
    },
    {
        "code": 9111052012,
        "district_code": 911105,
        "regency_code": 9111,
        "province_code": 91,
        "name": "Alang-alang Raya",
        "postal_code": "99469"
    },
    {
        "code": 9111062005,
        "district_code": 911106,
        "regency_code": 9111,
        "province_code": 91,
        "name": "Yetti",
        "postal_code": "99472"
    },
    {
        "code": 9111062006,
        "district_code": 911106,
        "regency_code": 9111,
        "province_code": 91,
        "name": "Kriku",
        "postal_code": "99472"
    },
    {
        "code": 9111062007,
        "district_code": 911106,
        "regency_code": 9111,
        "province_code": 91,
        "name": "Skofro",
        "postal_code": "99472"
    },
    {
        "code": 9111062008,
        "district_code": 911106,
        "regency_code": 9111,
        "province_code": 91,
        "name": "Kibay",
        "postal_code": "99472"
    },
    {
        "code": 9111062009,
        "district_code": 911106,
        "regency_code": 9111,
        "province_code": 91,
        "name": "Sangke",
        "postal_code": "99472"
    },
    {
        "code": 9111062011,
        "district_code": 911106,
        "regency_code": 9111,
        "province_code": 91,
        "name": "Suskun",
        "postal_code": "99472"
    },
    {
        "code": 9111062013,
        "district_code": 911106,
        "regency_code": 9111,
        "province_code": 91,
        "name": "Amyu",
        "postal_code": "99472"
    },
    {
        "code": 9111062014,
        "district_code": 911106,
        "regency_code": 9111,
        "province_code": 91,
        "name": "Kikere",
        "postal_code": "99472"
    },
    {
        "code": 9111062015,
        "district_code": 911106,
        "regency_code": 9111,
        "province_code": 91,
        "name": "Petewi",
        "postal_code": "99472"
    },
    {
        "code": 9111072001,
        "district_code": 911107,
        "regency_code": 9111,
        "province_code": 91,
        "name": "Towe Hitam",
        "postal_code": "99466"
    },
    {
        "code": 9111072002,
        "district_code": 911107,
        "regency_code": 9111,
        "province_code": 91,
        "name": "Towe Atas",
        "postal_code": "99466"
    },
    {
        "code": 9111072003,
        "district_code": 911107,
        "regency_code": 9111,
        "province_code": 91,
        "name": "Terfones",
        "postal_code": "99466"
    },
    {
        "code": 9111072004,
        "district_code": 911107,
        "regency_code": 9111,
        "province_code": 91,
        "name": "Tefalma",
        "postal_code": "99466"
    },
    {
        "code": 9111072005,
        "district_code": 911107,
        "regency_code": 9111,
        "province_code": 91,
        "name": "Bias",
        "postal_code": "99466"
    },
    {
        "code": 9111072006,
        "district_code": 911107,
        "regency_code": 9111,
        "province_code": 91,
        "name": "Milki",
        "postal_code": "99466"
    },
    {
        "code": 9111072007,
        "district_code": 911107,
        "regency_code": 9111,
        "province_code": 91,
        "name": "Lules",
        "postal_code": "99466"
    },
    {
        "code": 9111072009,
        "district_code": 911107,
        "regency_code": 9111,
        "province_code": 91,
        "name": "Jember",
        "postal_code": "99466"
    },
    {
        "code": 9111072010,
        "district_code": 911107,
        "regency_code": 9111,
        "province_code": 91,
        "name": "Niliti",
        "postal_code": "99466"
    },
    {
        "code": 9111072011,
        "district_code": 911107,
        "regency_code": 9111,
        "province_code": 91,
        "name": "Pris",
        "postal_code": "99466"
    },
    {
        "code": 9111082001,
        "district_code": 911108,
        "regency_code": 9111,
        "province_code": 91,
        "name": "Dukwia",
        "postal_code": "99473"
    },
    {
        "code": 9111082002,
        "district_code": 911108,
        "regency_code": 9111,
        "province_code": 91,
        "name": "Sanggaria",
        "postal_code": "99473"
    },
    {
        "code": 9111082003,
        "district_code": 911108,
        "regency_code": 9111,
        "province_code": 91,
        "name": "Yatu Raharja",
        "postal_code": "99473"
    },
    {
        "code": 9111082004,
        "district_code": 911108,
        "regency_code": 9111,
        "province_code": 91,
        "name": "Warbo",
        "postal_code": "99473"
    },
    {
        "code": 9111082005,
        "district_code": 911108,
        "regency_code": 9111,
        "province_code": 91,
        "name": "Yammua",
        "postal_code": "99473"
    },
    {
        "code": 9111082006,
        "district_code": 911108,
        "regency_code": 9111,
        "province_code": 91,
        "name": "Ifia-fia",
        "postal_code": "99473"
    },
    {
        "code": 9111082007,
        "district_code": 911108,
        "regency_code": 9111,
        "province_code": 91,
        "name": "Baburia",
        "postal_code": "99473"
    },
    {
        "code": 9111082008,
        "district_code": 911108,
        "regency_code": 9111,
        "province_code": 91,
        "name": "Yowong",
        "postal_code": "99473"
    },
    {
        "code": 9111092001,
        "district_code": 911109,
        "regency_code": 9111,
        "province_code": 91,
        "name": "Yamara",
        "postal_code": "99468"
    },
    {
        "code": 9111092002,
        "district_code": 911109,
        "regency_code": 9111,
        "province_code": 91,
        "name": "Wembi",
        "postal_code": "99468"
    },
    {
        "code": 9111092003,
        "district_code": 911109,
        "regency_code": 9111,
        "province_code": 91,
        "name": "Wonorejo",
        "postal_code": "99468"
    },
    {
        "code": 9111092004,
        "district_code": 911109,
        "regency_code": 9111,
        "province_code": 91,
        "name": "Pyawi",
        "postal_code": "99468"
    },
    {
        "code": 9111092005,
        "district_code": 911109,
        "regency_code": 9111,
        "province_code": 91,
        "name": "Sawyatami",
        "postal_code": "99468"
    },
    {
        "code": 9111092006,
        "district_code": 911109,
        "regency_code": 9111,
        "province_code": 91,
        "name": "Wambes",
        "postal_code": "99468"
    },
    {
        "code": 9111092007,
        "district_code": 911109,
        "regency_code": 9111,
        "province_code": 91,
        "name": "Uskwar",
        "postal_code": "99468"
    },
    {
        "code": 9111102001,
        "district_code": 911110,
        "regency_code": 9111,
        "province_code": 91,
        "name": "Yabanda",
        "postal_code": "99463"
    },
    {
        "code": 9111102002,
        "district_code": 911110,
        "regency_code": 9111,
        "province_code": 91,
        "name": "Yuruf",
        "postal_code": "99463"
    },
    {
        "code": 9111102003,
        "district_code": 911110,
        "regency_code": 9111,
        "province_code": 91,
        "name": "Amgotro",
        "postal_code": "99463"
    },
    {
        "code": 9111102004,
        "district_code": 911110,
        "regency_code": 9111,
        "province_code": 91,
        "name": "Jifanggry",
        "postal_code": "99463"
    },
    {
        "code": 9111102005,
        "district_code": 911110,
        "regency_code": 9111,
        "province_code": 91,
        "name": "Monggoafi",
        "postal_code": "99463"
    },
    {
        "code": 9111102006,
        "district_code": 911110,
        "regency_code": 9111,
        "province_code": 91,
        "name": "Fafenumbu",
        "postal_code": "99463"
    },
    {
        "code": 9111102007,
        "district_code": 911110,
        "regency_code": 9111,
        "province_code": 91,
        "name": "Akarinda",
        "postal_code": "99463"
    },
    {
        "code": 9111112001,
        "district_code": 911111,
        "regency_code": 9111,
        "province_code": 91,
        "name": "Kaisenar",
        "postal_code": "99465"
    },
    {
        "code": 9111112002,
        "district_code": 911111,
        "regency_code": 9111,
        "province_code": 91,
        "name": "Kiambra",
        "postal_code": "99465"
    },
    {
        "code": 9111112003,
        "district_code": 911111,
        "regency_code": 9111,
        "province_code": 91,
        "name": "Liket",
        "postal_code": "99465"
    },
    {
        "code": 9111112004,
        "district_code": 911111,
        "regency_code": 9111,
        "province_code": 91,
        "name": "Onam",
        "postal_code": "99465"
    },
    {
        "code": 9111112005,
        "district_code": 911111,
        "regency_code": 9111,
        "province_code": 91,
        "name": "Tefanma Satu",
        "postal_code": "99465"
    },
    {
        "code": 9115012003,
        "district_code": 911501,
        "regency_code": 9115,
        "province_code": 91,
        "name": "Waren I",
        "postal_code": "98662"
    },
    {
        "code": 9115012004,
        "district_code": 911501,
        "regency_code": 9115,
        "province_code": 91,
        "name": "Waren II",
        "postal_code": "98662"
    },
    {
        "code": 9115012011,
        "district_code": 911501,
        "regency_code": 9115,
        "province_code": 91,
        "name": "Nonomi",
        "postal_code": "98662"
    },
    {
        "code": 9115012020,
        "district_code": 911501,
        "regency_code": 9115,
        "province_code": 91,
        "name": "Sarafambai",
        "postal_code": "98662"
    },
    {
        "code": 9115012025,
        "district_code": 911501,
        "regency_code": 9115,
        "province_code": 91,
        "name": "Uri",
        "postal_code": "98662"
    },
    {
        "code": 9115012027,
        "district_code": 911501,
        "regency_code": 9115,
        "province_code": 91,
        "name": "Batu Zaman",
        "postal_code": "98662"
    },
    {
        "code": 9115012029,
        "district_code": 911501,
        "regency_code": 9115,
        "province_code": 91,
        "name": "Sawara Jaya",
        "postal_code": "98662"
    },
    {
        "code": 9115032006,
        "district_code": 911503,
        "regency_code": 9115,
        "province_code": 91,
        "name": "Saurisirami",
        "postal_code": "98671"
    },
    {
        "code": 9115032009,
        "district_code": 911503,
        "regency_code": 9115,
        "province_code": 91,
        "name": "Sinonde",
        "postal_code": "98671"
    },
    {
        "code": 9115032013,
        "district_code": 911503,
        "regency_code": 9115,
        "province_code": 91,
        "name": "Kali Baru",
        "postal_code": "98671"
    },
    {
        "code": 9115032014,
        "district_code": 911503,
        "regency_code": 9115,
        "province_code": 91,
        "name": "Sirami",
        "postal_code": "98671"
    },
    {
        "code": 9115032015,
        "district_code": 911503,
        "regency_code": 9115,
        "province_code": 91,
        "name": "Bunggu",
        "postal_code": "98671"
    },
    {
        "code": 9115032016,
        "district_code": 911503,
        "regency_code": 9115,
        "province_code": 91,
        "name": "Kowogi",
        "postal_code": "98671"
    },
    {
        "code": 9115032017,
        "district_code": 911503,
        "regency_code": 9115,
        "province_code": 91,
        "name": "Emauri",
        "postal_code": "98671"
    },
    {
        "code": 9115032018,
        "district_code": 911503,
        "regency_code": 9115,
        "province_code": 91,
        "name": "Obutay",
        "postal_code": "98671"
    },
    {
        "code": 9115032019,
        "district_code": 911503,
        "regency_code": 9115,
        "province_code": 91,
        "name": "Wairo",
        "postal_code": "98671"
    },
    {
        "code": 9115072002,
        "district_code": 911507,
        "regency_code": 9115,
        "province_code": 91,
        "name": "Fafado",
        "postal_code": "98674"
    },
    {
        "code": 9115072003,
        "district_code": 911507,
        "regency_code": 9115,
        "province_code": 91,
        "name": "Wobari",
        "postal_code": "98674"
    },
    {
        "code": 9115072013,
        "district_code": 911507,
        "regency_code": 9115,
        "province_code": 91,
        "name": "Aimasi",
        "postal_code": "98674"
    },
    {
        "code": 9115072014,
        "district_code": 911507,
        "regency_code": 9115,
        "province_code": 91,
        "name": "Mui",
        "postal_code": "98674"
    },
    {
        "code": 9115072015,
        "district_code": 911507,
        "regency_code": 9115,
        "province_code": 91,
        "name": "Waghare",
        "postal_code": "98674"
    },
    {
        "code": 9115072016,
        "district_code": 911507,
        "regency_code": 9115,
        "province_code": 91,
        "name": "Ghaiwando",
        "postal_code": "98674"
    },
    {
        "code": 9115072017,
        "district_code": 911507,
        "regency_code": 9115,
        "province_code": 91,
        "name": "Womorisi",
        "postal_code": "98674"
    },
    {
        "code": 9115072018,
        "district_code": 911507,
        "regency_code": 9115,
        "province_code": 91,
        "name": "Orambin",
        "postal_code": "98674"
    },
    {
        "code": 9115072019,
        "district_code": 911507,
        "regency_code": 9115,
        "province_code": 91,
        "name": "Unareu",
        "postal_code": "98674"
    },
    {
        "code": 9115072020,
        "district_code": 911507,
        "regency_code": 9115,
        "province_code": 91,
        "name": "Ghaiwaru",
        "postal_code": "98674"
    },
    {
        "code": 9115082001,
        "district_code": 911508,
        "regency_code": 9115,
        "province_code": 91,
        "name": "Ureifaisei I\/Sanggae",
        "postal_code": "98663"
    },
    {
        "code": 9115082002,
        "district_code": 911508,
        "regency_code": 9115,
        "province_code": 91,
        "name": "Urfas II",
        "postal_code": "98663"
    },
    {
        "code": 9115082003,
        "district_code": 911508,
        "regency_code": 9115,
        "province_code": 91,
        "name": "Nubuai",
        "postal_code": "98663"
    },
    {
        "code": 9115082004,
        "district_code": 911508,
        "regency_code": 9115,
        "province_code": 91,
        "name": "Ureifaisei III\/ Paradoi",
        "postal_code": "98663"
    },
    {
        "code": 9115082005,
        "district_code": 911508,
        "regency_code": 9115,
        "province_code": 91,
        "name": "Apainabo",
        "postal_code": "98663"
    },
    {
        "code": 9115082006,
        "district_code": 911508,
        "regency_code": 9115,
        "province_code": 91,
        "name": "Mambui",
        "postal_code": "98663"
    },
    {
        "code": 9115082007,
        "district_code": 911508,
        "regency_code": 9115,
        "province_code": 91,
        "name": "Khemoon Jaya",
        "postal_code": "98663"
    },
    {
        "code": 9115082008,
        "district_code": 911508,
        "regency_code": 9115,
        "province_code": 91,
        "name": "Usaiwa",
        "postal_code": "98663"
    },
    {
        "code": 9115082009,
        "district_code": 911508,
        "regency_code": 9115,
        "province_code": 91,
        "name": "Paradoi",
        "postal_code": "98663"
    },
    {
        "code": 9115082010,
        "district_code": 911508,
        "regency_code": 9115,
        "province_code": 91,
        "name": "Ghoyui",
        "postal_code": "98663"
    },
    {
        "code": 9115082011,
        "district_code": 911508,
        "regency_code": 9115,
        "province_code": 91,
        "name": "Rorisi",
        "postal_code": "98663"
    },
    {
        "code": 9115082012,
        "district_code": 911508,
        "regency_code": 9115,
        "province_code": 91,
        "name": "Ronggaiwa",
        "postal_code": "98663"
    },
    {
        "code": 9115092002,
        "district_code": 911509,
        "regency_code": 9115,
        "province_code": 91,
        "name": "Somiangga",
        "postal_code": "98661"
    },
    {
        "code": 9115092004,
        "district_code": 911509,
        "regency_code": 9115,
        "province_code": 91,
        "name": "Toire",
        "postal_code": "98661"
    },
    {
        "code": 9115092005,
        "district_code": 911509,
        "regency_code": 9115,
        "province_code": 91,
        "name": "Harapan Jaya",
        "postal_code": "98661"
    },
    {
        "code": 9115092006,
        "district_code": 911509,
        "regency_code": 9115,
        "province_code": 91,
        "name": "Demisa",
        "postal_code": "98661"
    },
    {
        "code": 9115092008,
        "district_code": 911509,
        "regency_code": 9115,
        "province_code": 91,
        "name": "Otodemo",
        "postal_code": "98661"
    },
    {
        "code": 9115092011,
        "district_code": 911509,
        "regency_code": 9115,
        "province_code": 91,
        "name": "Awaso",
        "postal_code": "98661"
    },
    {
        "code": 9115092012,
        "district_code": 911509,
        "regency_code": 9115,
        "province_code": 91,
        "name": "Firo",
        "postal_code": "98661"
    },
    {
        "code": 9115102001,
        "district_code": 911510,
        "regency_code": 9115,
        "province_code": 91,
        "name": "Dairi",
        "postal_code": "98673"
    },
    {
        "code": 9115102002,
        "district_code": 911510,
        "regency_code": 9115,
        "province_code": 91,
        "name": "Spoiri",
        "postal_code": "98673"
    },
    {
        "code": 9115102003,
        "district_code": 911510,
        "regency_code": 9115,
        "province_code": 91,
        "name": "Sooh",
        "postal_code": "98673"
    },
    {
        "code": 9115102004,
        "district_code": 911510,
        "regency_code": 9115,
        "province_code": 91,
        "name": "Dirou",
        "postal_code": "98673"
    },
    {
        "code": 9115102005,
        "district_code": 911510,
        "regency_code": 9115,
        "province_code": 91,
        "name": "Diwah",
        "postal_code": "98673"
    },
    {
        "code": 9115102006,
        "district_code": 911510,
        "regency_code": 9115,
        "province_code": 91,
        "name": "Kuaisa",
        "postal_code": "98673"
    },
    {
        "code": 9115102007,
        "district_code": 911510,
        "regency_code": 9115,
        "province_code": 91,
        "name": "Aru Antu",
        "postal_code": "98673"
    },
    {
        "code": 9115102008,
        "district_code": 911510,
        "regency_code": 9115,
        "province_code": 91,
        "name": "Foira",
        "postal_code": "98673"
    },
    {
        "code": 9115102009,
        "district_code": 911510,
        "regency_code": 9115,
        "province_code": 91,
        "name": "Kawari",
        "postal_code": "98673"
    },
    {
        "code": 9115102010,
        "district_code": 911510,
        "regency_code": 9115,
        "province_code": 91,
        "name": "Wafuka",
        "postal_code": "98673"
    },
    {
        "code": 9115112001,
        "district_code": 911511,
        "regency_code": 9115,
        "province_code": 91,
        "name": "Botawa",
        "postal_code": "98665"
    },
    {
        "code": 9115112002,
        "district_code": 911511,
        "regency_code": 9115,
        "province_code": 91,
        "name": "Sowiwa",
        "postal_code": "98665"
    },
    {
        "code": 9115112003,
        "district_code": 911511,
        "regency_code": 9115,
        "province_code": 91,
        "name": "Baino Jaya",
        "postal_code": "98665"
    },
    {
        "code": 9115112004,
        "district_code": 911511,
        "regency_code": 9115,
        "province_code": 91,
        "name": "Nau",
        "postal_code": "98665"
    },
    {
        "code": 9115112005,
        "district_code": 911511,
        "regency_code": 9115,
        "province_code": 91,
        "name": "Rasawa",
        "postal_code": "98665"
    },
    {
        "code": 9115112006,
        "district_code": 911511,
        "regency_code": 9115,
        "province_code": 91,
        "name": "Ruambak Jaya",
        "postal_code": "98665"
    },
    {
        "code": 9115112007,
        "district_code": 911511,
        "regency_code": 9115,
        "province_code": 91,
        "name": "Moroa",
        "postal_code": "98665"
    },
    {
        "code": 9115112008,
        "district_code": 911511,
        "regency_code": 9115,
        "province_code": 91,
        "name": "Oiboa",
        "postal_code": "98665"
    },
    {
        "code": 9115122001,
        "district_code": 911512,
        "regency_code": 9115,
        "province_code": 91,
        "name": "Wapoga",
        "postal_code": "98664"
    },
    {
        "code": 9115122002,
        "district_code": 911512,
        "regency_code": 9115,
        "province_code": 91,
        "name": "Pirare",
        "postal_code": "98664"
    },
    {
        "code": 9115122003,
        "district_code": 911512,
        "regency_code": 9115,
        "province_code": 91,
        "name": "Awera",
        "postal_code": "98664"
    },
    {
        "code": 9115122004,
        "district_code": 911512,
        "regency_code": 9115,
        "province_code": 91,
        "name": "Syewa Merare",
        "postal_code": "98664"
    },
    {
        "code": 9115122005,
        "district_code": 911512,
        "regency_code": 9115,
        "province_code": 91,
        "name": "Kamarisano",
        "postal_code": "98664"
    },
    {
        "code": 9115122006,
        "district_code": 911512,
        "regency_code": 9115,
        "province_code": 91,
        "name": "Waweri",
        "postal_code": "98664"
    },
    {
        "code": 9115122007,
        "district_code": 911512,
        "regency_code": 9115,
        "province_code": 91,
        "name": "Dokis",
        "postal_code": "98664"
    },
    {
        "code": 9115132001,
        "district_code": 911513,
        "regency_code": 9115,
        "province_code": 91,
        "name": "Urato",
        "postal_code": "98672"
    },
    {
        "code": 9115132002,
        "district_code": 911513,
        "regency_code": 9115,
        "province_code": 91,
        "name": "Mayaghaido",
        "postal_code": "98672"
    },
    {
        "code": 9115132003,
        "district_code": 911513,
        "regency_code": 9115,
        "province_code": 91,
        "name": "Aniboi",
        "postal_code": "98672"
    },
    {
        "code": 9115132007,
        "district_code": 911513,
        "regency_code": 9115,
        "province_code": 91,
        "name": "Tetui",
        "postal_code": "98672"
    },
    {
        "code": 9115132008,
        "district_code": 911513,
        "regency_code": 9115,
        "province_code": 91,
        "name": "Demba",
        "postal_code": "98672"
    },
    {
        "code": 9115132009,
        "district_code": 911513,
        "regency_code": 9115,
        "province_code": 91,
        "name": "Fafai",
        "postal_code": "98672"
    },
    {
        "code": 9115132017,
        "district_code": 911513,
        "regency_code": 9115,
        "province_code": 91,
        "name": "Wudokuri",
        "postal_code": "98672"
    },
    {
        "code": 9115132018,
        "district_code": 911513,
        "regency_code": 9115,
        "province_code": 91,
        "name": "Aiwa",
        "postal_code": "98672"
    },
    {
        "code": 9115132019,
        "district_code": 911513,
        "regency_code": 9115,
        "province_code": 91,
        "name": "Biati",
        "postal_code": "98672"
    },
    {
        "code": 9115132020,
        "district_code": 911513,
        "regency_code": 9115,
        "province_code": 91,
        "name": "Ronarai",
        "postal_code": "98672"
    },
    {
        "code": 9115142001,
        "district_code": 911514,
        "regency_code": 9115,
        "province_code": 91,
        "name": "Odase",
        "postal_code": "98676"
    },
    {
        "code": 9115142002,
        "district_code": 911514,
        "regency_code": 9115,
        "province_code": 91,
        "name": "Wanda",
        "postal_code": "98676"
    },
    {
        "code": 9115142003,
        "district_code": 911514,
        "regency_code": 9115,
        "province_code": 91,
        "name": "Bakadaro",
        "postal_code": "98676"
    },
    {
        "code": 9115142004,
        "district_code": 911514,
        "regency_code": 9115,
        "province_code": 91,
        "name": "Moyufuri",
        "postal_code": "98676"
    },
    {
        "code": 9115142005,
        "district_code": 911514,
        "regency_code": 9115,
        "province_code": 91,
        "name": "Wonti Kai",
        "postal_code": "98676"
    },
    {
        "code": 9115142006,
        "district_code": 911514,
        "regency_code": 9115,
        "province_code": 91,
        "name": "Ghoiwi Samberi",
        "postal_code": "98676"
    },
    {
        "code": 9115142007,
        "district_code": 911514,
        "regency_code": 9115,
        "province_code": 91,
        "name": "Gheroi",
        "postal_code": "98676"
    },
    {
        "code": 9115142008,
        "district_code": 911514,
        "regency_code": 9115,
        "province_code": 91,
        "name": "Fimore",
        "postal_code": "98676"
    },
    {
        "code": 9115142009,
        "district_code": 911514,
        "regency_code": 9115,
        "province_code": 91,
        "name": "Sifuisera",
        "postal_code": "98676"
    },
    {
        "code": 9115142010,
        "district_code": 911514,
        "regency_code": 9115,
        "province_code": 91,
        "name": "Borumei",
        "postal_code": "98676"
    },
    {
        "code": 9115152001,
        "district_code": 911515,
        "regency_code": 9115,
        "province_code": 91,
        "name": "Mambai",
        "postal_code": "98675"
    },
    {
        "code": 9115152002,
        "district_code": 911515,
        "regency_code": 9115,
        "province_code": 91,
        "name": "Soyoi",
        "postal_code": "98675"
    },
    {
        "code": 9115152003,
        "district_code": 911515,
        "regency_code": 9115,
        "province_code": 91,
        "name": "Daimboa",
        "postal_code": "98675"
    },
    {
        "code": 9115152004,
        "district_code": 911515,
        "regency_code": 9115,
        "province_code": 91,
        "name": "Napani",
        "postal_code": "98675"
    },
    {
        "code": 9115152005,
        "district_code": 911515,
        "regency_code": 9115,
        "province_code": 91,
        "name": "Segha",
        "postal_code": "98675"
    },
    {
        "code": 9115152006,
        "district_code": 911515,
        "regency_code": 9115,
        "province_code": 91,
        "name": "Wainarisi",
        "postal_code": "98675"
    },
    {
        "code": 9115152007,
        "district_code": 911515,
        "regency_code": 9115,
        "province_code": 91,
        "name": "Fafarui",
        "postal_code": "98675"
    },
    {
        "code": 9115152008,
        "district_code": 911515,
        "regency_code": 9115,
        "province_code": 91,
        "name": "Dawoa",
        "postal_code": "98675"
    },
    {
        "code": 9115152009,
        "district_code": 911515,
        "regency_code": 9115,
        "province_code": 91,
        "name": "Sinabo",
        "postal_code": "98675"
    },
    {
        "code": 9115152010,
        "district_code": 911515,
        "regency_code": 9115,
        "province_code": 91,
        "name": "Woinui",
        "postal_code": "98675"
    },
    {
        "code": 9119012003,
        "district_code": 911901,
        "regency_code": 9119,
        "province_code": 91,
        "name": "Fanindi",
        "postal_code": "98572"
    },
    {
        "code": 9119012004,
        "district_code": 911901,
        "regency_code": 9119,
        "province_code": 91,
        "name": "Odori",
        "postal_code": "98572"
    },
    {
        "code": 9119012010,
        "district_code": 911901,
        "regency_code": 9119,
        "province_code": 91,
        "name": "Biniki",
        "postal_code": "98572"
    },
    {
        "code": 9119012011,
        "district_code": 911901,
        "regency_code": 9119,
        "province_code": 91,
        "name": "Didiabolo",
        "postal_code": "98572"
    },
    {
        "code": 9119012015,
        "district_code": 911901,
        "regency_code": 9119,
        "province_code": 91,
        "name": "Warbefondi",
        "postal_code": "98572"
    },
    {
        "code": 9119012016,
        "district_code": 911901,
        "regency_code": 9119,
        "province_code": 91,
        "name": "Awaki",
        "postal_code": "98572"
    },
    {
        "code": 9119012019,
        "district_code": 911901,
        "regency_code": 9119,
        "province_code": 91,
        "name": "Maryaidori",
        "postal_code": "98572"
    },
    {
        "code": 9119022003,
        "district_code": 911902,
        "regency_code": 9119,
        "province_code": 91,
        "name": "Warsa",
        "postal_code": "98582"
    },
    {
        "code": 9119022008,
        "district_code": 911902,
        "regency_code": 9119,
        "province_code": 91,
        "name": "Warbor",
        "postal_code": "98582"
    },
    {
        "code": 9119022009,
        "district_code": 911902,
        "regency_code": 9119,
        "province_code": 91,
        "name": "Kobari Jaya",
        "postal_code": "98582"
    },
    {
        "code": 9119022010,
        "district_code": 911902,
        "regency_code": 9119,
        "province_code": 91,
        "name": "Fanjur",
        "postal_code": "98582"
    },
    {
        "code": 9119022015,
        "district_code": 911902,
        "regency_code": 9119,
        "province_code": 91,
        "name": "Puweri",
        "postal_code": "98582"
    },
    {
        "code": 9119032001,
        "district_code": 911903,
        "regency_code": 9119,
        "province_code": 91,
        "name": "Yawerma",
        "postal_code": "98573"
    },
    {
        "code": 9119032002,
        "district_code": 911903,
        "regency_code": 9119,
        "province_code": 91,
        "name": "Wombonda",
        "postal_code": "98573"
    },
    {
        "code": 9119032003,
        "district_code": 911903,
        "regency_code": 9119,
        "province_code": 91,
        "name": "Marsram",
        "postal_code": "98573"
    },
    {
        "code": 9119032004,
        "district_code": 911903,
        "regency_code": 9119,
        "province_code": 91,
        "name": "Duber",
        "postal_code": "98573"
    },
    {
        "code": 9119032005,
        "district_code": 911903,
        "regency_code": 9119,
        "province_code": 91,
        "name": "Sauyas",
        "postal_code": "98573"
    },
    {
        "code": 9119032006,
        "district_code": 911903,
        "regency_code": 9119,
        "province_code": 91,
        "name": "Wafor",
        "postal_code": "98573"
    },
    {
        "code": 9119032007,
        "district_code": 911903,
        "regency_code": 9119,
        "province_code": 91,
        "name": "Sorendidori",
        "postal_code": "98573"
    },
    {
        "code": 9119032008,
        "district_code": 911903,
        "regency_code": 9119,
        "province_code": 91,
        "name": "Waryesi",
        "postal_code": "98573"
    },
    {
        "code": 9119032009,
        "district_code": 911903,
        "regency_code": 9119,
        "province_code": 91,
        "name": "Syurdori",
        "postal_code": "98573"
    },
    {
        "code": 9119032010,
        "district_code": 911903,
        "regency_code": 9119,
        "province_code": 91,
        "name": "Douwbo",
        "postal_code": "98573"
    },
    {
        "code": 9119042001,
        "district_code": 911904,
        "regency_code": 9119,
        "province_code": 91,
        "name": "Rayori",
        "postal_code": "98571"
    },
    {
        "code": 9119042002,
        "district_code": 911904,
        "regency_code": 9119,
        "province_code": 91,
        "name": "Mbrurwandi",
        "postal_code": "98571"
    },
    {
        "code": 9119042003,
        "district_code": 911904,
        "regency_code": 9119,
        "province_code": 91,
        "name": "Manggonswan",
        "postal_code": "98571"
    },
    {
        "code": 9119042004,
        "district_code": 911904,
        "regency_code": 9119,
        "province_code": 91,
        "name": "Wongkeina",
        "postal_code": "98571"
    },
    {
        "code": 9119042005,
        "district_code": 911904,
        "regency_code": 9119,
        "province_code": 91,
        "name": "Yamnaisu",
        "postal_code": "98571"
    },
    {
        "code": 9119042006,
        "district_code": 911904,
        "regency_code": 9119,
        "province_code": 91,
        "name": "Aruri",
        "postal_code": "98571"
    },
    {
        "code": 9119042007,
        "district_code": 911904,
        "regency_code": 9119,
        "province_code": 91,
        "name": "Imbirsbari",
        "postal_code": "98571"
    },
    {
        "code": 9119042008,
        "district_code": 911904,
        "regency_code": 9119,
        "province_code": 91,
        "name": "Ineki",
        "postal_code": "98571"
    },
    {
        "code": 9119042009,
        "district_code": 911904,
        "regency_code": 9119,
        "province_code": 91,
        "name": "Insumbrei",
        "postal_code": "98571"
    },
    {
        "code": 9119052001,
        "district_code": 911905,
        "regency_code": 9119,
        "province_code": 91,
        "name": "Waryei",
        "postal_code": "98581"
    },
    {
        "code": 9119052002,
        "district_code": 911905,
        "regency_code": 9119,
        "province_code": 91,
        "name": "Koiryakam",
        "postal_code": "98581"
    },
    {
        "code": 9119052003,
        "district_code": 911905,
        "regency_code": 9119,
        "province_code": 91,
        "name": "Wayori",
        "postal_code": "98581"
    },
    {
        "code": 9119052004,
        "district_code": 911905,
        "regency_code": 9119,
        "province_code": 91,
        "name": "Amyas",
        "postal_code": "98581"
    },
    {
        "code": 9119052005,
        "district_code": 911905,
        "regency_code": 9119,
        "province_code": 91,
        "name": "Napisndi",
        "postal_code": "98581"
    },
    {
        "code": 9119052006,
        "district_code": 911905,
        "regency_code": 9119,
        "province_code": 91,
        "name": "Masyai",
        "postal_code": "98581"
    },
    {
        "code": 9119052007,
        "district_code": 911905,
        "regency_code": 9119,
        "province_code": 91,
        "name": "Mapia",
        "postal_code": "98581"
    },
    {
        "code": 9120012001,
        "district_code": 912001,
        "regency_code": 9120,
        "province_code": 91,
        "name": "Burmeso",
        "postal_code": "98692"
    },
    {
        "code": 9120012002,
        "district_code": 912001,
        "regency_code": 9120,
        "province_code": 91,
        "name": "Anggreso",
        "postal_code": "98692"
    },
    {
        "code": 9120012003,
        "district_code": 912001,
        "regency_code": 9120,
        "province_code": 91,
        "name": "Kasonaweja",
        "postal_code": "98692"
    },
    {
        "code": 9120012004,
        "district_code": 912001,
        "regency_code": 9120,
        "province_code": 91,
        "name": "Metaweja",
        "postal_code": "98692"
    },
    {
        "code": 9120012005,
        "district_code": 912001,
        "regency_code": 9120,
        "province_code": 91,
        "name": "Namunaweja",
        "postal_code": "98692"
    },
    {
        "code": 9120012006,
        "district_code": 912001,
        "regency_code": 9120,
        "province_code": 91,
        "name": "Danau Bira",
        "postal_code": "98692"
    },
    {
        "code": 9120012007,
        "district_code": 912001,
        "regency_code": 9120,
        "province_code": 91,
        "name": "Muru Mare",
        "postal_code": "98692"
    },
    {
        "code": 9120012008,
        "district_code": 912001,
        "regency_code": 9120,
        "province_code": 91,
        "name": "Kwerba",
        "postal_code": "98692"
    },
    {
        "code": 9120012009,
        "district_code": 912001,
        "regency_code": 9120,
        "province_code": 91,
        "name": "Sasakwesar",
        "postal_code": "98692"
    },
    {
        "code": 9120012010,
        "district_code": 912001,
        "regency_code": 9120,
        "province_code": 91,
        "name": "Babija",
        "postal_code": "98692"
    },
    {
        "code": 9120012011,
        "district_code": 912001,
        "regency_code": 9120,
        "province_code": 91,
        "name": "Marina Valen",
        "postal_code": "98692"
    },
    {
        "code": 9120022001,
        "district_code": 912002,
        "regency_code": 9120,
        "province_code": 91,
        "name": "Dabra",
        "postal_code": "98694"
    },
    {
        "code": 9120022002,
        "district_code": 912002,
        "regency_code": 9120,
        "province_code": 91,
        "name": "Taiyeve",
        "postal_code": "98694"
    },
    {
        "code": 9120022003,
        "district_code": 912002,
        "regency_code": 9120,
        "province_code": 91,
        "name": "Fuao",
        "postal_code": "98694"
    },
    {
        "code": 9120022004,
        "district_code": 912002,
        "regency_code": 9120,
        "province_code": 91,
        "name": "Papasena I",
        "postal_code": "98694"
    },
    {
        "code": 9120022005,
        "district_code": 912002,
        "regency_code": 9120,
        "province_code": 91,
        "name": "Papasena II",
        "postal_code": "98694"
    },
    {
        "code": 9120022006,
        "district_code": 912002,
        "regency_code": 9120,
        "province_code": 91,
        "name": "Dou",
        "postal_code": "98694"
    },
    {
        "code": 9120022008,
        "district_code": 912002,
        "regency_code": 9120,
        "province_code": 91,
        "name": "Fokri",
        "postal_code": "98694"
    },
    {
        "code": 9120022016,
        "district_code": 912002,
        "regency_code": 9120,
        "province_code": 91,
        "name": "Haya",
        "postal_code": "98694"
    },
    {
        "code": 9120032001,
        "district_code": 912003,
        "regency_code": 9120,
        "province_code": 91,
        "name": "Fona",
        "postal_code": "98695"
    },
    {
        "code": 9120032002,
        "district_code": 912003,
        "regency_code": 9120,
        "province_code": 91,
        "name": "Tayai",
        "postal_code": "98695"
    },
    {
        "code": 9120032003,
        "district_code": 912003,
        "regency_code": 9120,
        "province_code": 91,
        "name": "Bareri",
        "postal_code": "98695"
    },
    {
        "code": 9120032004,
        "district_code": 912003,
        "regency_code": 9120,
        "province_code": 91,
        "name": "Sikari",
        "postal_code": "98695"
    },
    {
        "code": 9120032005,
        "district_code": 912003,
        "regency_code": 9120,
        "province_code": 91,
        "name": "Taria",
        "postal_code": "98695"
    },
    {
        "code": 9120032006,
        "district_code": 912003,
        "regency_code": 9120,
        "province_code": 91,
        "name": "Kai",
        "postal_code": "98695"
    },
    {
        "code": 9120042001,
        "district_code": 912004,
        "regency_code": 9120,
        "province_code": 91,
        "name": "Kustra",
        "postal_code": "98693"
    },
    {
        "code": 9120042002,
        "district_code": 912004,
        "regency_code": 9120,
        "province_code": 91,
        "name": "Noyadi",
        "postal_code": "98693"
    },
    {
        "code": 9120042003,
        "district_code": 912004,
        "regency_code": 9120,
        "province_code": 91,
        "name": "Obogoi",
        "postal_code": "98693"
    },
    {
        "code": 9120042004,
        "district_code": 912004,
        "regency_code": 9120,
        "province_code": 91,
        "name": "Biri",
        "postal_code": "98693"
    },
    {
        "code": 9120042005,
        "district_code": 912004,
        "regency_code": 9120,
        "province_code": 91,
        "name": "Wakeyadi",
        "postal_code": "98693"
    },
    {
        "code": 9120042006,
        "district_code": 912004,
        "regency_code": 9120,
        "province_code": 91,
        "name": "Eri",
        "postal_code": "98693"
    },
    {
        "code": 9120042007,
        "district_code": 912004,
        "regency_code": 9120,
        "province_code": 91,
        "name": "Towao",
        "postal_code": "98693"
    },
    {
        "code": 9120052001,
        "district_code": 912005,
        "regency_code": 9120,
        "province_code": 91,
        "name": "Baudi",
        "postal_code": "98691"
    },
    {
        "code": 9120052002,
        "district_code": 912005,
        "regency_code": 9120,
        "province_code": 91,
        "name": "Trimuris",
        "postal_code": "98691"
    },
    {
        "code": 9120052003,
        "district_code": 912005,
        "regency_code": 9120,
        "province_code": 91,
        "name": "Bagusa",
        "postal_code": "98691"
    },
    {
        "code": 9120052004,
        "district_code": 912005,
        "regency_code": 9120,
        "province_code": 91,
        "name": "Kapeso",
        "postal_code": "98691"
    },
    {
        "code": 9120052005,
        "district_code": 912005,
        "regency_code": 9120,
        "province_code": 91,
        "name": "Suaseso",
        "postal_code": "98691"
    },
    {
        "code": 9120052006,
        "district_code": 912005,
        "regency_code": 9120,
        "province_code": 91,
        "name": "Warembori",
        "postal_code": "98691"
    },
    {
        "code": 9120052007,
        "district_code": 912005,
        "regency_code": 9120,
        "province_code": 91,
        "name": "Yoke",
        "postal_code": "98691"
    },
    {
        "code": 9120062001,
        "district_code": 912006,
        "regency_code": 9120,
        "province_code": 91,
        "name": "Nadofoai",
        "postal_code": "98681"
    },
    {
        "code": 9120062002,
        "district_code": 912006,
        "regency_code": 9120,
        "province_code": 91,
        "name": "Barapasi",
        "postal_code": "98681"
    },
    {
        "code": 9120062003,
        "district_code": 912006,
        "regency_code": 9120,
        "province_code": 91,
        "name": "Sipisi",
        "postal_code": "98681"
    },
    {
        "code": 9120062004,
        "district_code": 912006,
        "regency_code": 9120,
        "province_code": 91,
        "name": "Bariwaro",
        "postal_code": "98681"
    },
    {
        "code": 9120062005,
        "district_code": 912006,
        "regency_code": 9120,
        "province_code": 91,
        "name": "Bensor",
        "postal_code": "98681"
    },
    {
        "code": 9120062006,
        "district_code": 912006,
        "regency_code": 9120,
        "province_code": 91,
        "name": "Rawiwa",
        "postal_code": "98681"
    },
    {
        "code": 9120062007,
        "district_code": 912006,
        "regency_code": 9120,
        "province_code": 91,
        "name": "Marikai",
        "postal_code": "98681"
    },
    {
        "code": 9120072001,
        "district_code": 912007,
        "regency_code": 9120,
        "province_code": 91,
        "name": "Kamai",
        "postal_code": "98683"
    },
    {
        "code": 9120072002,
        "district_code": 912007,
        "regency_code": 9120,
        "province_code": 91,
        "name": "Dadat",
        "postal_code": "98683"
    },
    {
        "code": 9120072003,
        "district_code": 912007,
        "regency_code": 9120,
        "province_code": 91,
        "name": "Kerema",
        "postal_code": "98683"
    },
    {
        "code": 9120072004,
        "district_code": 912007,
        "regency_code": 9120,
        "province_code": 91,
        "name": "Taya",
        "postal_code": "98683"
    },
    {
        "code": 9120072005,
        "district_code": 912007,
        "regency_code": 9120,
        "province_code": 91,
        "name": "Teuw",
        "postal_code": "98683"
    },
    {
        "code": 9120072006,
        "district_code": 912007,
        "regency_code": 9120,
        "province_code": 91,
        "name": "Watiaro",
        "postal_code": "98683"
    },
    {
        "code": 9120072007,
        "district_code": 912007,
        "regency_code": 9120,
        "province_code": 91,
        "name": "Gesa Baru",
        "postal_code": "98683"
    },
    {
        "code": 9120072008,
        "district_code": 912007,
        "regency_code": 9120,
        "province_code": 91,
        "name": "Baitanisa",
        "postal_code": "98683"
    },
    {
        "code": 9120082001,
        "district_code": 912008,
        "regency_code": 9120,
        "province_code": 91,
        "name": "Poiwai",
        "postal_code": "98682"
    },
    {
        "code": 9120082002,
        "district_code": 912008,
        "regency_code": 9120,
        "province_code": 91,
        "name": "Tamakuri",
        "postal_code": "98682"
    },
    {
        "code": 9120082003,
        "district_code": 912008,
        "regency_code": 9120,
        "province_code": 91,
        "name": "Bonoi",
        "postal_code": "98682"
    },
    {
        "code": 9120082004,
        "district_code": 912008,
        "regency_code": 9120,
        "province_code": 91,
        "name": "Sorabi",
        "postal_code": "98682"
    },
    {
        "code": 9120082005,
        "district_code": 912008,
        "regency_code": 9120,
        "province_code": 91,
        "name": "Rapamerei",
        "postal_code": "98682"
    },
    {
        "code": 9120082006,
        "district_code": 912008,
        "regency_code": 9120,
        "province_code": 91,
        "name": "Anasi",
        "postal_code": "98682"
    },
    {
        "code": 9171011001,
        "district_code": 917101,
        "regency_code": 9171,
        "province_code": 91,
        "name": "Gurabesi",
        "postal_code": "99111"
    },
    {
        "code": 9171011002,
        "district_code": 917101,
        "regency_code": 9171,
        "province_code": 91,
        "name": "Bayangkara",
        "postal_code": "99112"
    },
    {
        "code": 9171011003,
        "district_code": 917101,
        "regency_code": 9171,
        "province_code": 91,
        "name": "Trikora",
        "postal_code": "99114"
    },
    {
        "code": 9171011004,
        "district_code": 917101,
        "regency_code": 9171,
        "province_code": 91,
        "name": "Imbi",
        "postal_code": "99116"
    },
    {
        "code": 9171011005,
        "district_code": 917101,
        "regency_code": 9171,
        "province_code": 91,
        "name": "Tanjung Ria",
        "postal_code": "99117"
    },
    {
        "code": 9171011006,
        "district_code": 917101,
        "regency_code": 9171,
        "province_code": 91,
        "name": "Mandala",
        "postal_code": "99115"
    },
    {
        "code": 9171011007,
        "district_code": 917101,
        "regency_code": 9171,
        "province_code": 91,
        "name": "Angkasapura",
        "postal_code": "99113"
    },
    {
        "code": 9171012008,
        "district_code": 917101,
        "regency_code": 9171,
        "province_code": 91,
        "name": "Kayo Batu",
        "postal_code": "99118"
    },
    {
        "code": 9171021001,
        "district_code": 917102,
        "regency_code": 9171,
        "province_code": 91,
        "name": "Argapura",
        "postal_code": "99222"
    },
    {
        "code": 9171021002,
        "district_code": 917102,
        "regency_code": 9171,
        "province_code": 91,
        "name": "Ardipura",
        "postal_code": "99223"
    },
    {
        "code": 9171021003,
        "district_code": 917102,
        "regency_code": 9171,
        "province_code": 91,
        "name": "Numbay",
        "postal_code": "99227"
    },
    {
        "code": 9171021005,
        "district_code": 917102,
        "regency_code": 9171,
        "province_code": 91,
        "name": "Entrop",
        "postal_code": "99224"
    },
    {
        "code": 9171021006,
        "district_code": 917102,
        "regency_code": 9171,
        "province_code": 91,
        "name": "Hamadi",
        "postal_code": "99220"
    },
    {
        "code": 9171022007,
        "district_code": 917102,
        "regency_code": 9171,
        "province_code": 91,
        "name": "Tahima Sorama",
        "postal_code": "99221"
    },
    {
        "code": 9171022008,
        "district_code": 917102,
        "regency_code": 9171,
        "province_code": 91,
        "name": "Tobati",
        "postal_code": "99228"
    },
    {
        "code": 9171031002,
        "district_code": 917103,
        "regency_code": 9171,
        "province_code": 91,
        "name": "Asano",
        "postal_code": "99322"
    },
    {
        "code": 9171031008,
        "district_code": 917103,
        "regency_code": 9171,
        "province_code": 91,
        "name": "Awiyo",
        "postal_code": "99323"
    },
    {
        "code": 9171031010,
        "district_code": 917103,
        "regency_code": 9171,
        "province_code": 91,
        "name": "Yobe",
        "postal_code": "99329"
    },
    {
        "code": 9171031011,
        "district_code": 917103,
        "regency_code": 9171,
        "province_code": 91,
        "name": "Abepantai",
        "postal_code": "99321"
    },
    {
        "code": 9171031012,
        "district_code": 917103,
        "regency_code": 9171,
        "province_code": 91,
        "name": "Kota Baru",
        "postal_code": "99325"
    },
    {
        "code": 9171031014,
        "district_code": 917103,
        "regency_code": 9171,
        "province_code": 91,
        "name": "Vim",
        "postal_code": "99225"
    },
    {
        "code": 9171031015,
        "district_code": 917103,
        "regency_code": 9171,
        "province_code": 91,
        "name": "Wahno",
        "postal_code": "99226"
    },
    {
        "code": 9171031016,
        "district_code": 917103,
        "regency_code": 9171,
        "province_code": 91,
        "name": "Way Mhorock",
        "postal_code": "99229"
    },
    {
        "code": 9171032001,
        "district_code": 917103,
        "regency_code": 9171,
        "province_code": 91,
        "name": "Nafri",
        "postal_code": "99327"
    },
    {
        "code": 9171032004,
        "district_code": 917103,
        "regency_code": 9171,
        "province_code": 91,
        "name": "Enggros",
        "postal_code": "99324"
    },
    {
        "code": 9171032007,
        "district_code": 917103,
        "regency_code": 9171,
        "province_code": 91,
        "name": "Koya Koso",
        "postal_code": "99326"
    },
    {
        "code": 9171041004,
        "district_code": 917104,
        "regency_code": 9171,
        "province_code": 91,
        "name": "Koya Barat",
        "postal_code": "99312"
    },
    {
        "code": 9171041005,
        "district_code": 917104,
        "regency_code": 9171,
        "province_code": 91,
        "name": "Koya Timur",
        "postal_code": "99314"
    },
    {
        "code": 9171042001,
        "district_code": 917104,
        "regency_code": 9171,
        "province_code": 91,
        "name": "Skouw Mabo",
        "postal_code": "99316"
    },
    {
        "code": 9171042002,
        "district_code": 917104,
        "regency_code": 9171,
        "province_code": 91,
        "name": "Skouw Yambe",
        "postal_code": "99315"
    },
    {
        "code": 9171042003,
        "district_code": 917104,
        "regency_code": 9171,
        "province_code": 91,
        "name": "Skouw Sae",
        "postal_code": "99317"
    },
    {
        "code": 9171042006,
        "district_code": 917104,
        "regency_code": 9171,
        "province_code": 91,
        "name": "Holtekamp",
        "postal_code": "99311"
    },
    {
        "code": 9171042007,
        "district_code": 917104,
        "regency_code": 9171,
        "province_code": 91,
        "name": "Koya Tengah",
        "postal_code": "99313"
    },
    {
        "code": 9171042008,
        "district_code": 917104,
        "regency_code": 9171,
        "province_code": 91,
        "name": "Mosso",
        "postal_code": "99318"
    },
    {
        "code": 9171051001,
        "district_code": 917105,
        "regency_code": 9171,
        "province_code": 91,
        "name": "Hedam",
        "postal_code": "99331"
    },
    {
        "code": 9171051002,
        "district_code": 917105,
        "regency_code": 9171,
        "province_code": 91,
        "name": "Waena",
        "postal_code": "99332"
    },
    {
        "code": 9171051004,
        "district_code": 917105,
        "regency_code": 9171,
        "province_code": 91,
        "name": "Yabansai",
        "postal_code": "99333"
    },
    {
        "code": 9171052003,
        "district_code": 917105,
        "regency_code": 9171,
        "province_code": 91,
        "name": "Yoka",
        "postal_code": "99334"
    },
    {
        "code": 9171052005,
        "district_code": 917105,
        "regency_code": 9171,
        "province_code": 91,
        "name": "Waena",
        "postal_code": "99328"
    }
]