code,district_code,regency_code,province_code,name,postal_code,latitude,longitude,coordinates
1401011011,140101,1401,14,Bangkinang,28411,,,null
1401011013,140101,1401,14,"Langgini Sialang",28412,,,null
1401012009,140101,1401,14,Kumantan,28411,,,null
1401012010,140101,1401,14,"Rindan Permai",28411,,,null
1401021027,140102,1401,14,"Air Tiris",28461,,,null
1401022001,140102,1401,14,"Batu Belah",28461,,,null
1401022003,140102,1401,14,"Tanjung Berulak",28461,,,null
1401022006,140102,1401,14,Ranah,28461,,,null
1401022007,140102,1401,14,Penyasawan,28461,,,null
1401022008,140102,1401,14,Rumbio,28461,,,null
1401022013,140102,1401,14,"Padang Mutung",28461,,,null
1401022023,140102,1401,14,"Pulau Jambu",28461,,,null
1401022024,140102,1401,14,"Tanjung Rambutan",28461,,,null
1401022025,140102,1401,14,"Simpang Kubu",28461,,,null
1401022028,140102,1401,14,"Limau Manis",28461,,,null
1401022030,140102,1401,14,Naumbai,28461,,,null
1401022031,140102,1401,14,"Pulau Tinggi",28461,,,null
1401022032,140102,1401,14,"Ranah Baru",28461,,,null
1401022033,140102,1401,14,"Bukit Ranah",28461,,,null
1401022034,140102,1401,14,"Pulau Sarak",28461,,,null
1401022035,140102,1401,14,"Koto Tibun",28461,,,null
1401022036,140102,1401,14,"Ranah Singkuang",28461,,,null
1401032001,140103,1401,14,Tambang,28468,,,null
1401032002,140103,1401,14,Kuapan,28468,,,null
1401032003,140103,1401,14,Gobah,28468,,,null
1401032004,140103,1401,14,"Teluk Kenidai",28468,,,null
1401032005,140103,1401,14,Aursati,28468,,,null
1401032006,140103,1401,14,"Padang Luas",28468,,,null
1401032007,140103,1401,14,Terantang,28468,,,null
1401032008,140103,1401,14,Kualu,28468,,,null
1401032009,140103,1401,14,"Rimbo Panjang",28468,,,null
1401032010,140103,1401,14,"Parit Baru",28468,,,null
1401032011,140103,1401,14,"Kemang Indah",28468,,,null
1401032012,140103,1401,14,"Kualu Nenas",28468,,,null
1401032013,140103,1401,14,"Tarai Bangun",28468,,,null
1401032014,140103,1401,14,"Sungai Pinang",28468,,,null
1401032015,140103,1401,14,"Balam Jaya",28468,,,null
1401032016,140103,1401,14,Pulaupermai,28468,,,null
1401032017,140103,1401,14,Palungraya,28468,,,null
1401041018,140104,1401,14,"Batu Bersurat",28454,,,null
1401042004,140104,1401,14,"Gunung Bungsu",28454,,,null
1401042005,140104,1401,14,"Koto Tuo",28454,,,null
1401042006,140104,1401,14,Balung,28454,,,null
1401042007,140104,1401,14,"Muara Takus",28454,,,null
1401042010,140104,1401,14,"Pulau Gadang",28454,,,null
1401042011,140104,1401,14,"Tanjung Alai",28454,,,null
1401042012,140104,1401,14,"Ranah Sungkai",28454,,,null
1401042013,140104,1401,14,"Lubuk Agung",28454,,,null
1401042014,140104,1401,14,"Koto Mesjid",28454,,,null
1401042016,140104,1401,14,"Pongkai Istiqomah",28454,,,null
1401042017,140104,1401,14,Binamang,28454,,,null
1401042019,140104,1401,14,"Koto Tuo Barat",28454,,,null
1401052001,140105,1401,14,Kuok,28467,,,null
1401052005,140105,1401,14,Merangin,28467,,,null
1401052006,140105,1401,14,"Empat Balai",28467,,,null
1401052007,140105,1401,14,"Pulau Jambu",28467,,,null
1401052008,140105,1401,14,Silam,28467,,,null
1401052010,140105,1401,14,"Bukit Melintang",28467,,,null
1401052011,140105,1401,14,"Pulau Terap",28467,,,null
1401052012,140105,1401,14,Lereng,28467,,,null
1401052013,140105,1401,14,"Batulangka Kecil",28467,,,null
1401062001,140106,1401,14,"Pangkalan Baru",28452,,,null
1401062002,140106,1401,14,"Desa Baru",28452,,,null
1401062003,140106,1401,14,"Teratak Buluh",28452,,,null
1401062005,140106,1401,14,"Lubuk Siam",28452,,,null
1401062006,140106,1401,14,"Buluh Cina",28452,,,null
1401062007,140106,1401,14,"Buluh Nipis",28452,,,null
1401062011,140106,1401,14,"Tanah Merah",28452,,,null
1401062012,140106,1401,14,"Pandau Jaya",28452,,,null
1401062013,140106,1401,14,"Tanjung Balam",28452,,,null
1401062014,140106,1401,14,"Kepau Jaya",28452,,,null
1401062015,140106,1401,14,"Pangkalan Serik",28452,,,null
1401062016,140106,1401,14,"Kubang Jaya",28452,,,null
1401071027,140107,1401,14,"Lipat Kain",28472,,,null
1401072003,140107,1401,14,Kuntu,28472,,,null
1401072004,140107,1401,14,"Padang Sawah",28472,,,null
1401072005,140107,1401,14,Domo,28472,,,null
1401072006,140107,1401,14,"IV Koto Setingkai",28472,,,null
1401072008,140107,1401,14,"Teluk Paman",28472,,,null
1401072013,140107,1401,14,"Sungai Geringging",28472,,,null
1401072016,140107,1401,14,"Sungai Paku",28472,,,null
1401072019,140107,1401,14,"Muara Selayah",28472,,,null
1401072020,140107,1401,14,"Sungai Rambai",28472,,,null
1401072021,140107,1401,14,"Tanjung Harapan",28472,,,null
1401072023,140107,1401,14,"Sungai Raja",28472,,,null
1401072026,140107,1401,14,"Sungai Sarik",28472,,,null
1401072028,140107,1401,14,"Lipat Kain Utara",28472,,,null
1401072029,140107,1401,14,"Lipat Kain Selatan",28472,,,null
1401072030,140107,1401,14,"Kuntu Darussalam",28472,,,null
1401072031,140107,1401,14,Tanjungmas,28472,,,null
1401072032,140107,1401,14,Sungaiharapan,28472,,,null
1401072033,140107,1401,14,Sungailiti,28472,,,null
1401072034,140107,1401,14,"Telukpaman Timur",28472,,,null
1401081001,140108,1401,14,"Sungai Pagar",28473,,,null
1401082002,140108,1401,14,Mentulik,28473,,,null
1401082003,140108,1401,14,"Sungai Simpang Dua",28473,,,null
1401082004,140108,1401,14,"Sungai Bungo",28473,,,null
1401082005,140108,1401,14,"Rantau Kasih",28473,,,null
1401082006,140108,1401,14,"Sungai Petai",28473,,,null
1401082007,140108,1401,14,"Gading Permai",28473,,,null
1401082008,140108,1401,14,"Bangun Sari",28473,,,null
1401092001,140109,1401,14,Gema,28474,,,null
1401092002,140109,1401,14,"Tanjung Belit",28474,,,null
1401092003,140109,1401,14,"Tanjung Belit Selatan",28474,,,null
1401092004,140109,1401,14,"Koto Lama",28474,,,null
1401092005,140109,1401,14,"Batu Sanggan",28474,,,null
1401092006,140109,1401,14,"Aur Kuning",28474,,,null
1401092007,140109,1401,14,Ludai,28474,,,null
1401092008,140109,1401,14,"Tanjung Karang",28474,,,null
1401092009,140109,1401,14,"Batu Sasak",28474,,,null
1401092010,140109,1401,14,"Pangkalan Kapas",28474,,,null
1401092011,140109,1401,14,"Kebun Tinggi",28474,,,null
1401092012,140109,1401,14,"Tanjung Beringin",28474,,,null
1401092013,140109,1401,14,"Gajah Bertalut",28474,,,null
1401092014,140109,1401,14,"Danau Sontul",28474,,,null
1401092015,140109,1401,14,"Pangkalan Serai",28474,,,null
1401092016,140109,1401,14,"Dua Sepakat",28474,,,null
1401092017,140109,1401,14,Terusan,28474,,,null
1401092018,140109,1401,14,"Deras Tajak",28474,,,null
1401092019,140109,1401,14,"Sungai Santi",28474,,,null
1401092020,140109,1401,14,"Subayang Jaya",28474,,,null
1401092021,140109,1401,14,"Tanjung Permai",28474,,,null
1401092022,140109,1401,14,Bukitbetung,28474,,,null
1401092023,140109,1401,14,Muarobio,28474,,,null
1401092024,140109,1401,14,"Lubuk Bingau",28474,,,null
1401102001,140110,1401,14,Petapahan,28464,,,null
1401102002,140110,1401,14,"Pantai Cermin",28464,,,null
1401102003,140110,1401,14,"Patahapan Jaya",28464,,,null
1401102004,140110,1401,14,"Mukti Sari",28464,,,null
1401102005,140110,1401,14,"Sungai Putih",28464,,,null
1401102006,140110,1401,14,"Indra Sakti",28464,,,null
1401102007,140110,1401,14,"Gading Sari",28464,,,null
1401102008,140110,1401,14,"Sumber Makmur",28464,,,null
1401102009,140110,1401,14,"Pancuran Gading",28464,,,null
1401102010,140110,1401,14,"Sari Galuh",28464,,,null
1401102011,140110,1401,14,"Tri Manunggal",28464,,,null
1401102012,140110,1401,14,"Air Terbit",28464,,,null
1401102013,140110,1401,14,"Tanjung Sawit",28464,,,null
1401102014,140110,1401,14,Pagaruyung,28464,,,null
1401102015,140110,1401,14,Sibuak,28464,,,null
1401102016,140110,1401,14,Pelambayan,28464,,,null
1401102017,140110,1401,14,Kenantan,28464,,,null
1401102018,140110,1401,14,Indrapuri,28464,,,null
1401102019,140110,1401,14,"Sungai Lambu Makmur",28464,,,null
1401102020,140110,1401,14,"Muara Mahat Baru",28464,,,null
1401102021,140110,1401,14,"Karya Indah",28464,,,null
1401102022,140110,1401,14,"Kijang Rejo",28464,,,null
1401102023,140110,1401,14,"Sungai Agung",28464,,,null
1401102024,140110,1401,14,"Bencah Kelubi",28464,,,null
1401102025,140110,1401,14,Batugajah,28464,,,null
1401112001,140111,1401,14,"Koto Garo",28465,,,null
1401112002,140111,1401,14,Sekijang,28465,,,null
1401112003,140111,1401,14,"Beringin Lestari",28465,,,null
1401112004,140111,1401,14,"Kota Bangun",28465,,,null
1401112005,140111,1401,14,"Cinta Damai",28465,,,null
1401112006,140111,1401,14,"Suka Maju",28465,,,null
1401112007,140111,1401,14,"Kota Baru",28465,,,null
1401112008,140111,1401,14,"Tebing Lestari",28465,,,null
1401112009,140111,1401,14,"Tanah Tinggi",28465,,,null
1401112010,140111,1401,14,"Koto Aman",28465,,,null
1401112011,140111,1401,14,"Tapung Lestari",28465,,,null
1401112012,140111,1401,14,"Tapung Makmur",28465,,,null
1401112013,140111,1401,14,"Tandan Sari",28465,,,null
1401112014,140111,1401,14,"Gerbang Sari",28465,,,null
1401112015,140111,1401,14,"Kijang Jaya",28465,,,null
1401112016,140111,1401,14,"Kijang Makmur",28465,,,null
1401122001,140112,1401,14,"Senama Nenek",28466,,,null
1401122002,140112,1401,14,Kasikan,28466,,,null
1401122003,140112,1401,14,"Bukit Kemuning",28466,,,null
1401122004,140112,1401,14,"Danau Lancang",28466,,,null
1401122005,140112,1401,14,"Muara Intan",28466,,,null
1401122006,140112,1401,14,"Intan Jaya",28466,,,null
1401122007,140112,1401,14,"Tanah Datar",28466,,,null
1401122008,140112,1401,14,"Rimba Jaya",28466,,,null
1401122009,140112,1401,14,"Rimba Makmur",28466,,,null
1401122010,140112,1401,14,"Rimba Beringin",28466,,,null
1401122011,140112,1401,14,Sukaramai,28466,,,null
1401122012,140112,1401,14,"Sumber Sari",28466,,,null
1401122013,140112,1401,14,"Kusau Makmur",28466,,,null
1401122014,140112,1401,14,"Talang Danto",28466,,,null
1401132001,140113,1401,14,Salo,28451,,,null
1401132002,140113,1401,14,Siabu,28451,,,null
1401132003,140113,1401,14,"Salo Timur",28451,,,null
1401132004,140113,1401,14,Sepungguk,28451,,,null
1401132005,140113,1401,14,"Ganting Damai",28451,,,null
1401132006,140113,1401,14,Ganting,28451,,,null
1401142001,140114,1401,14,"Pulau Payung",28458,,,null
1401142002,140114,1401,14,Teratak,28458,,,null
1401142003,140114,1401,14,"Alam Panjang",28458,,,null
1401142004,140114,1401,14,"Bukit Keratai",28458,,,null
1401142005,140114,1401,14,"Batang Batindih",28458,,,null
1401142006,140114,1401,14,Tambusai,28458,,,null
1401142007,140114,1401,14,"Simpang Petai",28458,,,null
1401151007,140115,1401,14,Pulau,28463,,,null
1401151008,140115,1401,14,"Pasir Sialang",28463,,,null
1401152001,140115,1401,14,"Pulau Lawas",28463,,,null
1401152002,140115,1401,14,"Muara Uwai",28463,,,null
1401152003,140115,1401,14,"Laboy Jaya",28463,,,null
1401152004,140115,1401,14,Bukitpayung,28463,,,null
1401152005,140115,1401,14,"Suka Mulya",28463,,,null
1401152006,140115,1401,14,"Bukit Sembilan",28463,,,null
1401152009,140115,1401,14,Binuang,28463,,,null
1401162001,140116,1401,14,"Kampung Pinang",28462,,,null
1401162002,140116,1401,14,"Pantai Raja",28462,,,null
1401162003,140116,1401,14,Hangtuah,28462,,,null
1401162004,140116,1401,14,"Sialang Kubang",28462,,,null
1401162005,140116,1401,14,"Lubuk Sakat",28462,,,null
1401172001,140117,1401,14,"Pulau Birandang",28460,,,null
1401172002,140117,1401,14,"Pulau Rambai",28460,,,null
1401172003,140117,1401,14,Kampar,28460,,,null
1401172004,140117,1401,14,"Koto Perambahan",28460,,,null
1401172005,140117,1401,14,"Sei Putih",28460,,,null
1401172006,140117,1401,14,"Deli Makmur",28460,,,null
1401172007,140117,1401,14,Sungaitarap,28460,,,null
1401172008,140117,1401,14,Tanjungbungo,28460,,,null
1401172009,140117,1401,14,Sawahbaru,28460,,,null
1401182001,140118,1401,14,"Muara Jalai",28469,,,null
1401182002,140118,1401,14,Sawah,28469,,,null
1401182003,140118,1401,14,"Kampung Panjang",28469,,,null
1401182004,140118,1401,14,"Kayu Aro",28469,,,null
1401182005,140118,1401,14,"Sei Tonang",28469,,,null
1401182006,140118,1401,14,"Sei Jalau",28469,,,null
1401182007,140118,1401,14,Sendayan,28469,,,null
1401182008,140118,1401,14,"Naga Beralih",28469,,,null
1401192001,140119,1401,14,Simalinyang,28475,,,null
1401192002,140119,1401,14,"Bina Baru",28475,,,null
1401192003,140119,1401,14,"Hidup Baru",28475,,,null
1401192004,140119,1401,14,"Karya Bakti",28475,,,null
1401192005,140119,1401,14,"Lubuk Sakai",28475,,,null
1401192006,140119,1401,14,Penghidupan,28475,,,null
1401192007,140119,1401,14,"Mayang Pongkai",28475,,,null
1401192008,140119,1401,14,"Koto Damai",28475,,,null
1401192009,140119,1401,14,"Utama Karya",28475,,,null
1401192010,140119,1401,14,"Bukit Sakai",28475,,,null
1401192011,140119,1401,14,"Mekar Jaya",28475,,,null
1401202001,140120,1401,14,"Kebun Durian",28471,,,null
1401202002,140120,1401,14,"Gunung Sahilan",28471,,,null
1401202003,140120,1401,14,"Gunung Sari",28471,,,null
1401202004,140120,1401,14,"Suka Makmur",28471,,,null
1401202005,140120,1401,14,Subarak,28471,,,null
1401202006,140120,1401,14,"Sungai Lipai",28471,,,null
1401202007,140120,1401,14,"Sahilan Darussalam",28471,,,null
1401202008,140120,1401,14,"Gunung Mulya",28471,,,null
1401202009,140120,1401,14,"Makmur Sejahtera",28471,,,null
1401212001,140121,1401,14,Siberuang,28453,,,null
1401212002,140121,1401,14,"Bandur Picak",28453,,,null
1401212003,140121,1401,14,"Gunung Malelo",28453,,,null
1401212004,140121,1401,14,Tabing,28453,,,null
1401212005,140121,1401,14,Pongkai,28453,,,null
1401212006,140121,1401,14,Tanjung,28453,,,null
1402011004,140201,1402,14,"Kampung Dagang",29313,,,null
1402011006,140201,1402,14,"Pasar Kota",29311,,,null
1402011007,140201,1402,14,"Kampung Besar Kota",29312,,,null
1402011008,140201,1402,14,"Sekip Hulu",29319,,,null
1402011011,140201,1402,14,"Kmp Besar Seberang",29312,,,null
1402011018,140201,1402,14,"Sekip Hilir Jumat",29318,,,null
1402012001,140201,1402,14,"Sungai Guntung Tengah",29319,,,null
1402012002,140201,1402,14,"Sungai Guntung Hilir",29319,,,null
1402012003,140201,1402,14,"Kuantan Baru",29314,,,null
1402012005,140201,1402,14,"Kampung Pulau",29314,,,null
1402012009,140201,1402,14,"Sungai Beringin",29317,,,null
1402012010,140201,1402,14,"Pasir Kemilu",29316,,,null
1402012012,140201,1402,14,"Rantau Mapesai",29319,,,null
1402012013,140201,1402,14,"Pulau Gajah",29313,,,null
1402012014,140201,1402,14,"Sungai Raya",29319,,,null
1402012023,140201,1402,14,"Rawa Bangun",29319,,,null
1402021009,140202,1402,14,"Pematang Reba",29351,,,null
1402022001,140202,1402,14,Barangan,29351,,,null
1402022002,140202,1402,14,"Alang Kepayang",29351,,,null
1402022003,140202,1402,14,"Kota Lama",29351,,,null
1402022004,140202,1402,14,Redang,29351,,,null
1402022005,140202,1402,14,"Pekan Heran",29351,,,null
1402022006,140202,1402,14,"Rantau Bakung",29345,,,null
1402022007,140202,1402,14,"Talang Jerinjing",29351,,,null
1402022008,140202,1402,14,"Sialang Dua Dahan",29344,,,null
1402022010,140202,1402,14,"Sungai Dawu",29351,,,null
1402022011,140202,1402,14,"Bukit Petaling",29351,,,null
1402022012,140202,1402,14,"Pematang Jaya",29351,,,null
1402022013,140202,1402,14,"Danau Baru",29351,,,null
1402022014,140202,1402,14,"Tanah Datar",29351,,,null
1402022015,140202,1402,14,"Tani Makmur",29351,,,null
1402022016,140202,1402,14,"Sungai Baung",29351,,,null
1402022017,140202,1402,14,"Danau Tiga",29351,,,null
1402022018,140202,1402,14,"Air Jernih",29351,,,null
1402031019,140203,1402,14,"Simpang Kelayang",29352,,,null
1402032007,140203,1402,14,"Pulau Sengkilo",29352,,,null
1402032008,140203,1402,14,"Kota Medan",29352,,,null
1402032009,140203,1402,14,"Simpang Kota Medan",29352,,,null
1402032010,140203,1402,14,"Polak Pisang",29352,,,null
1402032018,140203,1402,14,Pelangko,29352,,,null
1402032020,140203,1402,14,"Teluk Sejuah",29352,,,null
1402032021,140203,1402,14,"Bongkal Malang",29352,,,null
1402032022,140203,1402,14,"Dusun Tua",29352,,,null
1402032024,140203,1402,14,"Sungai Banyak Ikan",29352,,,null
1402032025,140203,1402,14,"Tanjung Beludu",29352,,,null
1402032026,140203,1402,14,"Sungai Pasir Putih",29352,,,null
1402032027,140203,1402,14,"Sungai Golang",29352,,,null
1402032028,140203,1402,14,"Pasir Beringin",29352,,,null
1402032029,140203,1402,14,"Sungai Kuning Binio",29352,,,null
1402032030,140203,1402,14,"Bukit Selanjut",29352,,,null
1402032031,140203,1402,14,"Dusun Tua Pelang",29352,,,null
1402041007,140204,1402,14,"Air Molek",29358,,,null
1402041020,140204,1402,14,"Kembang Harum Beras Hilir",29358,,,null
1402041031,140204,1402,14,"Tanjung Gading",29358,,,null
1402041032,140204,1402,14,"Sekar Mawar",29358,,,null
1402041033,140204,1402,14,"Tanah Merah",29358,,,null
1402042006,140204,1402,14,Petalongan,29358,,,null
1402042008,140204,1402,14,"Air Molek II",29358,,,null
1402042009,140204,1402,14,"Pasir Keranji",29358,,,null
1402042016,140204,1402,14,"Jati Rejo",29358,,,null
1402042017,140204,1402,14,"Batu Gajah",29358,,,null
1402042018,140204,1402,14,"Candi Rejo",29358,,,null
1402042019,140204,1402,14,"Lembah Dusun Gading",29358,,,null
1402042030,140204,1402,14,"Serumpun Jaya",29358,,,null
1402051005,140205,1402,14,Peranap,29357,,,null
1402051008,140205,1402,14,"Batu Rijal Hilir",29357,,,null
1402052003,140205,1402,14,"Semelinang Tebing",29357,,,null
1402052004,140205,1402,14,Gumanti,29357,,,null
1402052007,140205,1402,14,"Batu Rijal Hulu",29357,,,null
1402052009,140205,1402,14,"Semelinang Darat",29357,,,null
1402052010,140205,1402,14,"Pauh Ranap",29357,,,null
1402052012,140205,1402,14,"Serai Wangi",29357,,,null
1402052013,140205,1402,14,"Pandan Wangi",29357,,,null
1402052017,140205,1402,14,"Katipo Pura",29357,,,null
1402052019,140205,1402,14,"Batu Rijal Barat",29357,,,null
1402052020,140205,1402,14,"Setako Raya",29357,,,null
1402061001,140206,1402,14,"Pangkalan Kasai",29371,,,null
1402062002,140206,1402,14,Kelesa,29371,,,null
1402062003,140206,1402,14,Beligan,29371,,,null
1402062004,140206,1402,14,Seresam,29371,,,null
1402062005,140206,1402,14,"Paya Rumbai",29371,,,null
1402062006,140206,1402,14,"Bukit Meranti",29371,,,null
1402062007,140206,1402,14,"Buluh Rampai",29371,,,null
1402062008,140206,1402,14,"Titian Resak",29371,,,null
1402062009,140206,1402,14,"Petala Bumi",29371,,,null
1402062010,140206,1402,14,Sibabat,29371,,,null
1402062011,140206,1402,14,"Bandar Padang",29371,,,null
1402072002,140207,1402,14,"Anak Talang",29355,,,null
1402072004,140207,1402,14,"Bukit Lingkar",29355,,,null
1402072005,140207,1402,14,"Bukit Lipai",29355,,,null
1402072006,140207,1402,14,"Kuala Gading",29355,,,null
1402072007,140207,1402,14,"Kuala Kilan",29355,,,null
1402072008,140207,1402,14,"Kerubung Jaya",29355,,,null
1402072009,140207,1402,14,Pejangki,29355,,,null
1402072010,140207,1402,14,"Pematang Manggis",29355,,,null
1402072011,140207,1402,14,Sipang,29355,,,null
1402072012,140207,1402,14,"Talang Bersemi",29355,,,null
1402072013,140207,1402,14,"Talang Mulya",29355,,,null
1402072014,140207,1402,14,"Punti Anai",29355,,,null
1402072015,140207,1402,14,"Petaling Jaya",29355,,,null
1402072017,140207,1402,14,"Cenaku Kecil",29355,,,null
1402072018,140207,1402,14,Alim,29355,,,null
1402072019,140207,1402,14,"Aur Cina",29355,,,null
1402072020,140207,1402,14,"Lahai Kemuning",29355,,,null
1402072021,140207,1402,14,"Kepayang Sari",29355,,,null
1402072022,140207,1402,14,"Batu Papan",29355,,,null
1402072023,140207,1402,14,Sanglap,29355,,,null
1402082001,140208,1402,14,Siambul,29356,,,null
1402082002,140208,1402,14,"Rantai Langsat",29356,,,null
1402082003,140208,1402,14,"Sungai Akar",29356,,,null
1402082004,140208,1402,14,Usul,29356,,,null
1402082005,140208,1402,14,Seberida,29356,,,null
1402082006,140208,1402,14,"Talang Lakat",29356,,,null
1402082007,140208,1402,14,Belimbing,29356,,,null
1402082008,140208,1402,14,Ringin,29356,,,null
1402082010,140208,1402,14,Penyaguan,29356,,,null
1402082011,140208,1402,14,"Danau Rambai",29356,,,null
1402092001,140209,1402,14,Japura,29353,,,null
1402092002,140209,1402,14,Sidomulyo,29353,,,null
1402092003,140209,1402,14,"Pasir Ringgit",29353,,,null
1402092004,140209,1402,14,"Gudang Batu",29353,,,null
1402092005,140209,1402,14,"Sungai Sagu",29353,,,null
1402092006,140209,1402,14,"Lirik Area",29353,,,null
1402092007,140209,1402,14,Rejosari,29353,,,null
1402092008,140209,1402,14,"Lambang Sari V",29353,,,null
1402092009,140209,1402,14,"Lambang Sari IV",29353,,,null
1402092010,140209,1402,14,"Lambang Sari I, II, III",29353,,,null
1402092011,140209,1402,14,Wonosari,29353,,,null
1402092012,140209,1402,14,"Seko Lubuk Tigo",29353,,,null
1402092013,140209,1402,14,"Banjar Balam",29353,,,null
1402092014,140209,1402,14,"Redang Seko",29353,,,null
1402092015,140209,1402,14,Sukajadi,29353,,,null
1402092016,140209,1402,14,"Mekar Sari",29353,,,null
1402092017,140209,1402,14,"Pasir Sialang Jaya",29353,,,null
1402102001,140210,1402,14,Tambak,29335,,,null
1402102002,140210,1402,14,"Kuala Cenaku",29335,,,null
1402102003,140210,1402,14,"Pulau Gelang",29335,,,null
1402102004,140210,1402,14,"Kuala Mulia",29335,,,null
1402102005,140210,1402,14,"Tanjung Sari",29335,,,null
1402102006,140210,1402,14,"Rawa Sekip",29335,,,null
1402102007,140210,1402,14,"Rawa Asri",29335,,,null
1402102008,140210,1402,14,"Suka Jadi",29335,,,null
1402102009,140210,1402,14,"Teluk Sungkai",29335,,,null
1402102010,140210,1402,14,"Pulau Jum'at",29335,,,null
1402112001,140211,1402,14,Morong,29363,,,null
1402112002,140211,1402,14,"Pasir Bongkal",29363,,,null
1402112003,140211,1402,14,"Pasir Selabu",29363,,,null
1402112004,140211,1402,14,"Pasir Batu Mandi",29363,,,null
1402112005,140211,1402,14,"Pasir Kelampaian",29363,,,null
1402112006,140211,1402,14,"Kuala Lala",29363,,,null
1402112007,140211,1402,14,"Sungai Lala",29363,,,null
1402112008,140211,1402,14,Kelawat,29363,,,null
1402112009,140211,1402,14,"Perkebunan Sungai Parit",29363,,,null
1402112010,140211,1402,14,"Perkebunan Sungai Lala",29363,,,null
1402112011,140211,1402,14,"Tanjung Danau",29363,,,null
1402112012,140211,1402,14,"Sungai Air Putih",29363,,,null
1402122001,140212,1402,14,Rimpian,29350,,,null
1402122002,140212,1402,14,"Pondok Gelugur",29350,,,null
1402122003,140212,1402,14,"Lubuk Batu Tinggal",29350,,,null
1402122004,140212,1402,14,"Sei Beberas Hilir",29350,,,null
1402122005,140212,1402,14,"Kulim Jaya",29350,,,null
1402122006,140212,1402,14,"Sei Beras Beras",29350,,,null
1402122007,140212,1402,14,"Tasik Juang",29350,,,null
1402122008,140212,1402,14,"Pontian Mekar",29350,,,null
1402122009,140212,1402,14,"Air Putih",29350,,,null
1402132001,140213,1402,14,"Talang 7 Buah Tangga",29359,,,null
1402132002,140213,1402,14,"Talang Durian Cacar",29359,,,null
1402132003,140213,1402,14,"Talang Selantai",29359,,,null
1402132004,140213,1402,14,"Talang Perigi",29359,,,null
1402132005,140213,1402,14,"Kuantan Tenang",29359,,,null
1402132006,140213,1402,14,"Kota Baru",29359,,,null
1402132007,140213,1402,14,"Rimba Seminai",29359,,,null
1402132008,140213,1402,14,Kelayang,29359,,,null
1402132009,140213,1402,14,"Talang Gedabu",29359,,,null
1402132010,140213,1402,14,"Talang Sungai Limau",29359,,,null
1402132011,140213,1402,14,"Talang Sungai Parit",29359,,,null
1402132012,140213,1402,14,"Batu Sawar",29359,,,null
1402132013,140213,1402,14,Petonggan,29359,,,null
1402132014,140213,1402,14,"Lubuk Sitarak",29359,,,null
1402132015,140213,1402,14,"Bukit Indah",29359,,,null
1402132016,140213,1402,14,"Sungai Ekok",29359,,,null
1402132017,140213,1402,14,"Talang Suka Maju",29359,,,null
1402132018,140213,1402,14,"Kampung Bunga",29359,,,null
1402132019,140213,1402,14,"Talang Pring Jaya",29359,,,null
1402142001,140214,1402,14,Pesajian,29354,,,null
1402142002,140214,1402,14,"Punti Kayu",29354,,,null
1402142003,140214,1402,14,Pematang,29354,,,null
1402142004,140214,1402,14,Selunak,29354,,,null
1402142005,140214,1402,14,"Suka Maju",29354,,,null
1402142006,140214,1402,14,"Pematang Benteng",29354,,,null
1402142007,140214,1402,14,"Sencano Jaya",29354,,,null
1402142008,140214,1402,14,"Sungai Aur",29354,,,null
1402142009,140214,1402,14,Peladangan,29354,,,null
1402142010,140214,1402,14,"Koto Tuo",29354,,,null
1403011001,140301,1403,14,"Bengkalis Kota",28712,,,null
1403011002,140301,1403,14,Damon,28713,,,null
1403011003,140301,1403,14,"Rimba Sekampung",28732,,,null
1403012004,140301,1403,14,Kelapapati,28716,,,null
1403012005,140301,1403,14,Pedekik,28726,,,null
1403012006,140301,1403,14,"Pangkalan Batang",28724,,,null
1403012007,140301,1403,14,Sebauk,28733,,,null
1403012008,140301,1403,14,"Teluk Latak",28739,,,null
1403012009,140301,1403,14,Meskom,28722,,,null
1403012010,140301,1403,14,Senggoro,28714,,,null
1403012011,140301,1403,14,"Air Putih",28711,,,null
1403012012,140301,1403,14,"Sei Alam",28734,,,null
1403012013,140301,1403,14,Penampi,28729,,,null
1403012014,140301,1403,14,Temeran,28740,,,null
1403012015,140301,1403,14,Penebal,28730,,,null
1403012016,140301,1403,14,"Pematang Duku",28727,,,null
1403012017,140301,1403,14,"Ketam Putih",28720,,,null
1403012018,140301,1403,14,Kelemantan,28718,,,null
1403012019,140301,1403,14,Sekodi,28735,,,null
1403012020,140301,1403,14,Wonosari,28741,,,null
1403012021,140301,1403,14,"Kuala Alam",28721,,,null
1403012022,140301,1403,14,Kelebuk,28717,,,null
1403012023,140301,1403,14,Palkun,28723,,,null
1403012024,140301,1403,14,"Sungai Batang",28738,,,null
1403012025,140301,1403,14,"Prapat Tunggal",28731,,,null
1403012026,140301,1403,14,"Simpang Ayam",28737,,,null
1403012027,140301,1403,14,Senderak,28736,,,null
1403012028,140301,1403,14,"Kelemantan Barat",28719,,,null
1403012029,140301,1403,14,Damai,28715,,,null
1403012030,140301,1403,14,"Pangkalan Batang Barat",28725,,,null
1403012031,140301,1403,14,"Pematang Duku Timur",28728,,,null
1403022001,140302,1403,14,"Bantan Tengah",28763,,,null
1403022002,140302,1403,14,"Bantan Air",28763,,,null
1403022003,140302,1403,14,"Bantan Tua",28763,,,null
1403022004,140302,1403,14,Telukpambang,28763,,,null
1403022005,140302,1403,14,"Selat Baru",28763,,,null
1403022006,140302,1403,14,"Teluk Lancar",28763,,,null
1403022007,140302,1403,14,"Kembung Luar",28763,,,null
1403022008,140302,1403,14,Jangkang,28763,,,null
1403022009,140302,1403,14,Muntai,28763,,,null
1403022010,140302,1403,14,"Resam Lapis",28763,,,null
1403022011,140302,1403,14,Berancah,28763,,,null
1403022012,140302,1403,14,"Ulu Pulau",28763,,,null
1403022013,140302,1403,14,Mentayan,28763,,,null
1403022014,140302,1403,14,"Pambang Pesisir",28763,,,null
1403022015,140302,1403,14,"Suka Maju",28763,,,null
1403022016,140302,1403,14,"Pampang Baru",28763,,,null
1403022017,140302,1403,14,"Kembung Baru",28763,,,null
1403022018,140302,1403,14,Pasiran,28763,,,null
1403022019,140302,1403,14,"Bantan Sari",28763,,,null
1403022020,140302,1403,14,"Bantan Timur",28763,,,null
1403022021,140302,1403,14,"Teluk Papal",28763,,,null
1403022022,140302,1403,14,"Muntai Barat",28763,,,null
1403022023,140302,1403,14,Deluk,28763,,,null
1403031010,140303,1403,14,"Sungai Pakning",28761,,,null
1403032001,140303,1403,14,Sejangat,28761,,,null
1403032002,140303,1403,14,Dompas,28761,,,null
1403032003,140303,1403,14,"Pangkalan Jambi",28761,,,null
1403032004,140303,1403,14,"Sungai Selari",28761,,,null
1403032005,140303,1403,14,"Buruk Bakul",28761,,,null
1403032006,140303,1403,14,"Bukit Batu",28761,,,null
1403032007,140303,1403,14,Sukajadi,28761,,,null
1403032016,140303,1403,14,"Batang Duku",28761,,,null
1403032017,140303,1403,14,"Pakning Asal",28761,,,null
1403091001,140309,1403,14,"Air Jamban",28783,,,null
1403091002,140309,1403,14,Babussalam,28783,,,null
1403091003,140309,1403,14,"Batang Serosa",28783,,,null
1403091004,140309,1403,14,"Balik Alam",28783,,,null
1403091006,140309,1403,14,"Duri Barat",28783,,,null
1403091007,140309,1403,14,"Duri Timur",28783,,,null
1403091008,140309,1403,14,"Gajah Sakti",28783,,,null
1403091009,140309,1403,14,"Talang Mandi",28783,,,null
1403091010,140309,1403,14,"Pematang Pudu",28783,,,null
1403092011,140309,1403,14,"Harapan Baru",28783,,,null
1403092021,140309,1403,14,"Bathin Betuah",28783,,,null
1403101001,140310,1403,14,"Batu Panjang",28781,,,null
1403101002,140310,1403,14,Pergam,28781,,,null
1403101003,140310,1403,14,Terkul,28781,,,null
1403101004,140310,1403,14,"Tanjung Kapal",28781,,,null
1403102005,140310,1403,14,"Sungai Cingam",28781,,,null
1403102006,140310,1403,14,"Teluk Lecah",28781,,,null
1403102007,140310,1403,14,Makeruh,28781,,,null
1403102008,140310,1403,14,"Hutan Panjang",28781,,,null
1403102009,140310,1403,14,"Pangkalan Nyirih",28781,,,null
1403102010,140310,1403,14,"Sukarjo Mesin",28781,,,null
1403102011,140310,1403,14,"Darul Aman",28781,,,null
1403102012,140310,1403,14,"Parit Kebumen",28781,,,null
1403102013,140310,1403,14,"Sri Tanjung",28781,,,null
1403102014,140310,1403,14,"Pancur Jaya",28781,,,null
1403102015,140310,1403,14,"Pangkalan Pinang",28781,,,null
1403102016,140310,1403,14,"Dungun Baru",28781,,,null
1403112001,140311,1403,14,"Tanjung Medang",28782,,,null
1403112002,140311,1403,14,"Teluk Rhu",28782,,,null
1403112003,140311,1403,14,"Tanjung Punak",28782,,,null
1403112004,140311,1403,14,Kador,28782,,,null
1403112005,140311,1403,14,"Titi Akar",28782,,,null
1403112006,140311,1403,14,"Hutan Ayu",28782,,,null
1403112007,140311,1403,14,"Suka Damai",28782,,,null
1403112008,140311,1403,14,"Puteri Sembilan",28782,,,null
1403122001,140312,1403,14,"Lubuk Muda",28771,,,null
1403122002,140312,1403,14,"Tanjung Belit",28771,,,null
1403122003,140312,1403,14,"Sungai Siput",28771,,,null
1403122004,140312,1403,14,Sepotong,28771,,,null
1403122005,140312,1403,14,"Lubuk Gaung",28771,,,null
1403122006,140312,1403,14,Langkat,28771,,,null
1403122007,140312,1403,14,"Sadar Jaya",28771,,,null
1403122008,140312,1403,14,"Sungai Linau",28771,,,null
1403122009,140312,1403,14,"Bandar Jaya",28771,,,null
1403122010,140312,1403,14,"Muara Dua",28771,,,null
1403122011,140312,1403,14,"Tanjung Damai",28771,,,null
1403122012,140312,1403,14,"Sumber Jaya",28771,,,null
1403122013,140312,1403,14,"Lubuk Garam",28771,,,null
1403122014,140312,1403,14,"Liang Banir",28771,,,null
1403122015,140312,1403,14,"Tanjung Datuk",28771,,,null
1403122016,140312,1403,14,"Koto Raja",28771,,,null
1403122017,140312,1403,14,"Sungai Nibung",28771,,,null
1403131001,140313,1403,14,"Titian Antui",28784,,,null
1403131012,140313,1403,14,"Balai Raja",28784,,,null
1403132003,140313,1403,14,"Balai Pungut",28784,,,null
1403132005,140313,1403,14,"Muara Basung",28784,,,null
1403132007,140313,1403,14,Pinggir,28784,,,null
1403132008,140313,1403,14,Semunai,28784,,,null
1403132011,140313,1403,14,Tengganau,28784,,,null
1403132014,140313,1403,14,"Sungai Meranti",28784,,,null
1403132015,140313,1403,14,"Pangkalan Libut",28784,,,null
1403132016,140313,1403,14,"Buluh Apo",28784,,,null
1403142001,140314,1403,14,Paritsatuapi-api,28762,,,null
1403142002,140314,1403,14,Temiang,28762,,,null
1403142003,140314,1403,14,Api-Api,28762,,,null
1403142004,140314,1403,14,Tenggayun,28762,,,null
1403142005,140314,1403,14,Sepahat,28762,,,null
1403142006,140314,1403,14,Bukitkerikil,28762,,,null
1403142007,140314,1403,14,Tanjungleban,28762,,,null
1403152001,140315,1403,14,Tasikserai,28786,,,null
1403152002,140315,1403,14,"Tasikserai Barat",28786,,,null
1403152003,140315,1403,14,Kualapenaso,28786,,,null
1403152004,140315,1403,14,Beringin,28786,,,null
1403152005,140315,1403,14,Kotopaitberingin,28786,,,null
1403152006,140315,1403,14,Melibur,28786,,,null
1403152007,140315,1403,14,"Tasikserai Timur",28786,,,null
1403152008,140315,1403,14,Tasiktebingserai,28786,,,null
1403152009,140315,1403,14,Seraiwangi,28786,,,null
1403162001,140316,1403,14,Petani,28785,,,null
1403162002,140316,1403,14,Airkulim,28785,,,null
1403162003,140316,1403,14,Buluhmanis,28785,,,null
1403162004,140316,1403,14,Bumbung,28785,,,null
1403162005,140316,1403,14,Pamesi,28785,,,null
1403162006,140316,1403,14,Kesumboampai,28785,,,null
1403162007,140316,1403,14,Bathinsobanga,28785,,,null
1403162008,140316,1403,14,Sebangar,28785,,,null
1403162009,140316,1403,14,Boncahmahang,28785,,,null
1403162010,140316,1403,14,Balaimakam,28785,,,null
1403162011,140316,1403,14,Tambusaibatangdui,28785,,,null
1403162012,140316,1403,14,Simpangpadang,28785,,,null
1403162013,140316,1403,14,Pematangobo,28785,,,null
1404011001,140401,1404,14,Pulaukijang,29273,,,null
1404011017,140401,1404,14,Metro,29273,,,null
1404011018,140401,1404,14,Madani,29273,,,null
1404012002,140401,1404,14,Sanglar,29273,,,null
1404012003,140401,1404,14,Pulaukecil,29273,,,null
1404012004,140401,1404,14,Sungaiterap,29273,,,null
1404012009,140401,1404,14,Sungaiundan,29273,,,null
1404012010,140401,1404,14,"Seberang Sanglar",29273,,,null
1404012011,140401,1404,14,"Mekar Sari",29273,,,null
1404012012,140401,1404,14,"Seberang Pulau Kijang",29273,,,null
1404012013,140401,1404,14,Sungaiasam,29273,,,null
1404012014,140401,1404,14,Pulauruku,29273,,,null
1404012019,140401,1404,14,Tanjunglabuh,29273,,,null
1404012020,140401,1404,14,Sungaimahang,29273,,,null
1404021001,140402,1404,14,Enok,29272,,,null
1404021002,140402,1404,14,Pusaran,29272,,,null
1404021003,140402,1404,14,Telukmedan,29272,,,null
1404021013,140402,1404,14,"Pantaiseberang Makmur",29272,,,null
1404022004,140402,1404,14,Pengalihan,29272,,,null
1404022005,140402,1404,14,Sungaiambat,29272,,,null
1404022006,140402,1404,14,"Simpang Tiga",29272,,,null
1404022007,140402,1404,14,"Rantau Panjang",29272,,,null
1404022008,140402,1404,14,Sungairukam,29272,,,null
1404022009,140402,1404,14,"Bagan Jaya",29272,,,null
1404022010,140402,1404,14,Suhada,29272,,,null
1404022011,140402,1404,14,"Jaya Bhakti",29272,,,null
1404022012,140402,1404,14,Sungailokan,29272,,,null
1404022014,140402,1404,14,"Simpang Tiga Daratan",29272,,,null
1404031007,140403,1404,14,Sapat,29280,,,null
1404032001,140403,1404,14,Sungaibuluh,29280,,,null
1404032002,140403,1404,14,Tanjunglajau,29280,,,null
1404032003,140403,1404,14,Sungaibela,29280,,,null
1404032006,140403,1404,14,Telukdalam,29280,,,null
1404032008,140403,1404,14,Sungaipiyai,29280,,,null
1404032009,140403,1404,14,"Perigi Raja",29280,,,null
1404032010,140403,1404,14,Tanjungmelayu,29280,,,null
1404041001,140404,1404,14,"Tembilahan Kota",29212,,,null
1404041002,140404,1404,14,"Tembilahan Hilir",29211,,,null
1404041003,140404,1404,14,"Seberang Tembilahan",29212,,,null
1404041004,140404,1404,14,Sungaiperak,29212,,,null
1404041005,140404,1404,14,Sungaiberingin,29214,,,null
1404041006,140404,1404,14,"Pekan Arba",29212,,,null
1404041007,140404,1404,14,"Seberang Tembilahan Barat",29212,,,null
1404041008,140404,1404,14,"Seberang Tembilahan Selatan",29212,,,null
1404051004,140405,1404,14,Sungaisalak,29262,,,null
1404051005,140405,1404,14,"Tempuling Jaya",29262,,,null
1404051016,140405,1404,14,Tanjungpidada,29262,,,null
1404051017,140405,1404,14,"Pangkalan Tujuh",29262,,,null
1404052002,140405,1404,14,Telukkiambang,29262,,,null
1404052003,140405,1404,14,Mumpa,29262,,,null
1404052007,140405,1404,14,Telukjira,29262,,,null
1404052009,140405,1404,14,"Karya Tunas Jaya",29262,,,null
1404052011,140405,1404,14,"Harapan Jaya",29262,,,null
1404061004,140406,1404,14,Sungaiempat,29253,,,null
1404061005,140406,1404,14,Telukpinang,29253,,,null
1404061009,140406,1404,14,Tanjungharapan,29253,,,null
1404062001,140406,1404,14,"Kuala Gaung",29253,,,null
1404062002,140406,1404,14,Telukpantaian,29253,,,null
1404062003,140406,1404,14,Teluksungka,29253,,,null
1404062006,140406,1404,14,Sungaiiliran,29253,,,null
1404062007,140406,1404,14,Teluktuasan,29253,,,null
1404062008,140406,1404,14,Rambaian,29253,,,null
1404062010,140406,1404,14,"Harapan Makmur",29253,,,null
1404062011,140406,1404,14,Kelumpang,29253,,,null
1404062012,140406,1404,14,Idaman,29253,,,null
1404071004,140407,1404,14,"Khairiah Mandah",29254,,,null
1404072001,140407,1404,14,Pulaucawan,29254,,,null
1404072002,140407,1404,14,Belaras,29254,,,null
1404072003,140407,1404,14,Bente,29254,,,null
1404072005,140407,1404,14,Igal,29254,,,null
1404072006,140407,1404,14,Pelanduk,29254,,,null
1404072007,140407,1404,14,"Bakau Aceh",29254,,,null
1404072008,140407,1404,14,"Batang Tumu",29254,,,null
1404072009,140407,1404,14,Bekawan,29254,,,null
1404072010,140407,1404,14,Bantayan,29254,,,null
1404072011,140407,1404,14,"Batang Sari",29254,,,null
1404072012,140407,1404,14,"Bolak Raya",29254,,,null
1404072013,140407,1404,14,"Cahaya Baru",29254,,,null
1404072014,140407,1404,14,"Belaras Barat",29254,,,null
1404072015,140407,1404,14,"Sepakat Jaya",29254,,,null
1404072016,140407,1404,14,"Suraya Mandiri",29254,,,null
1404072017,140407,1404,14,"Bidari Tanjung Datuk",29254,,,null
1404081001,140408,1404,14,Tegaraja,29255,,,null
1404081009,140408,1404,14,"Amal Bakti",29255,,,null
1404081010,140408,1404,14,"Bandar Sri Gemilang",29255,,,null
1404082002,140408,1404,14,"Kuala Selat",29255,,,null
1404082003,140408,1404,14,Sungaisimbar,29255,,,null
1404082004,140408,1404,14,Penjuru,29255,,,null
1404082005,140408,1404,14,"Sari Mulia",29255,,,null
1404082006,140408,1404,14,"Air Tawar",29255,,,null
1404082007,140408,1404,14,Tanjungraja,29255,,,null
1404082008,140408,1404,14,Sungaiteritip,29255,,,null
1404082011,140408,1404,14,"Makmur Jaya",29255,,,null
1404091003,140409,1404,14,"Kota Baru Reteh",29275,,,null
1404092001,140409,1404,14,Pebenaan,29275,,,null
1404092002,140409,1404,14,"Seberang Pebenaan",29275,,,null
1404092004,140409,1404,14,"Nusantara Jaya",29275,,,null
1404092005,140409,1404,14,"Kota Baru Seberida",29275,,,null
1404092006,140409,1404,14,"Kembang Mekarsari",29275,,,null
1404092007,140409,1404,14,"Pasar Kembang",29275,,,null
1404092008,140409,1404,14,"Kuala Keritang",29275,,,null
1404092009,140409,1404,14,"Kuala Lemang",29275,,,null
1404092010,140409,1404,14,Telukkelasa,29275,,,null
1404092011,140409,1404,14,Pengalihan,29275,,,null
1404092012,140409,1404,14,Pancur,29275,,,null
1404092013,140409,1404,14,Sencalang,29275,,,null
1404092014,140409,1404,14,Petalongan,29275,,,null
1404092015,140409,1404,14,"Nyiur Permai",29275,,,null
1404092016,140409,1404,14,"Lintas Utara",29275,,,null
1404092017,140409,1404,14,"Kayu Raja",29275,,,null
1404101001,140410,1404,14,"Kuala Enok",29271,,,null
1404102002,140410,1404,14,Selatnama,29271,,,null
1404102003,140410,1404,14,Sungainyiur,29271,,,null
1404102004,140410,1404,14,Tanjungbaru,29271,,,null
1404102005,140410,1404,14,"Tekulai Hilir",29271,,,null
1404102006,140410,1404,14,"Tekulai Hulu",29271,,,null
1404102007,140410,1404,14,"Tekulai Bugis",29271,,,null
1404102008,140410,1404,14,Tanjungpasir,29271,,,null
1404102009,140410,1404,14,"Tanah Merah",29271,,,null
1404102010,140410,1404,14,Sungailaut,29271,,,null
1404111001,140411,1404,14,Sungaipiring,29252,,,null
1404112002,140411,1404,14,Sungailuar,29252,,,null
1404112003,140411,1404,14,Sungaidusun,29252,,,null
1404112004,140411,1404,14,Sungaijunjangan,29252,,,null
1404112005,140411,1404,14,Sungairaya,29252,,,null
1404112006,140411,1404,14,"Kuala Sebatu",29252,,,null
1404112007,140411,1404,14,Tanjungsiantar,29252,,,null
1404112008,140411,1404,14,Sungairawa,29252,,,null
1404112009,140411,1404,14,"Sialang Jaya",29252,,,null
1404112010,140411,1404,14,"Gemilang Jaya",29252,,,null
1404112011,140411,1404,14,"Tasik Raya",29252,,,null
1404112012,140411,1404,14,"Pasir Emas",29252,,,null
1404112013,140411,1404,14,"Simpang Jaya",29252,,,null
1404121006,140412,1404,14,"Kuala Lahang",29282,,,null
1404122001,140412,1404,14,"Terusan Kempas",29282,,,null
1404122002,140412,1404,14,"Lahang Baru",29282,,,null
1404122003,140412,1404,14,"Simpang Gaung",29282,,,null
1404122004,140412,1404,14,Belantaraya,29282,,,null
1404122005,140412,1404,14,Sungaibaru,29282,,,null
1404122007,140412,1404,14,"Lahang Tengah",29282,,,null
1404122008,140412,1404,14,"Lahang Hulu",29282,,,null
1404122009,140412,1404,14,Pungkat,29282,,,null
1404122010,140412,1404,14,Jerambang,29282,,,null
1404122011,140412,1404,14,Telukkabung,29282,,,null
1404122012,140412,1404,14,Gembira,29282,,,null
1404122013,140412,1404,14,"Semambu Kuning",29282,,,null
1404122014,140412,1404,14,Telukmerbau,29282,,,null
1404122015,140412,1404,14,Soren,29282,,,null
1404122016,140412,1404,14,Pintasan,29282,,,null
1404131001,140413,1404,14,"Tembilahan Hulu",29213,,,null
1404131005,140413,1404,14,"Tembilahan Barat",29213,,,null
1404132002,140413,1404,14,"Pekan Kamis",29213,,,null
1404132003,140413,1404,14,Pulaupalas,29213,,,null
1404132004,140413,1404,14,"Sialang Panjang",29213,,,null
1404132006,140413,1404,14,Sungaiintan,29213,,,null
1404141001,140414,1404,14,Selensen,29274,,,null
1404142002,140414,1404,14,"Batu Ampar",29274,,,null
1404142003,140414,1404,14,Keritang,29274,,,null
1404142004,140414,1404,14,"Air Balui",29274,,,null
1404142005,140414,1404,14,"Tuk Jimun",29274,,,null
1404142006,140414,1404,14,"Kemuning Tua",29274,,,null
1404142007,140414,1404,14,"Kemuning Muda",29274,,,null
1404142008,140414,1404,14,"Limau Manis",29274,,,null
1404142009,140414,1404,14,"Lubuk Besar",29274,,,null
1404142010,140414,1404,14,Sekara,29274,,,null
1404142011,140414,1404,14,"Talang Jangkang",29274,,,null
1404142012,140414,1404,14,Sekayan,29274,,,null
1404151002,140415,1404,14,Pelangiran,29257,,,null
1404152001,140415,1404,14,"Rotan Semelur",29257,,,null
1404152003,140415,1404,14,"Simpang Kateman",29257,,,null
1404152004,140415,1404,14,Tanjungsimpang,29257,,,null
1404152005,140415,1404,14,"Baung Rejo Jaya",29257,,,null
1404152006,140415,1404,14,"Tagagiri Tama Jaya",29257,,,null
1404152007,140415,1404,14,"Pinang Jaya",29257,,,null
1404152008,140415,1404,14,Wonosari,29257,,,null
1404152009,140415,1404,14,"Tegal Rejo",29257,,,null
1404152010,140415,1404,14,"Intan Mulia Jaya",29257,,,null
1404152011,140415,1404,14,"Saka Palas Jaya",29257,,,null
1404152012,140415,1404,14,"Catur Karya",29257,,,null
1404152013,140415,1404,14,"Bagan Jaya",29257,,,null
1404152014,140415,1404,14,Telukbunian,29257,,,null
1404152015,140415,1404,14,"Terusan Beringin Jaya",29257,,,null
1404152016,140415,1404,14,Hidayah,29257,,,null
1404162001,140416,1404,14,"Hibrida Mulia",29258,,,null
1404162002,140416,1404,14,"Indra Sari Jaya",29258,,,null
1404162003,140416,1404,14,"Tunggal Rahayu Jaya",29258,,,null
1404162004,140416,1404,14,"Griya Mukti Jaya",29258,,,null
1404162005,140416,1404,14,"Beringin Mulia",29258,,,null
1404162006,140416,1404,14,"Hibrida Jaya",29258,,,null
1404162007,140416,1404,14,"Sumber Jaya",29258,,,null
1404162008,140416,1404,14,"Sumber Makmur Jaya",29258,,,null
1404162009,140416,1404,14,"Sumber Sari Jaya",29258,,,null
1404162010,140416,1404,14,"Kelapa Patih Jaya",29258,,,null
1404162011,140416,1404,14,"Sapta Mulia Jaya",29258,,,null
1404162012,140416,1404,14,"Saka Rotan",29258,,,null
1404162013,140416,1404,14,Gembaran,29258,,,null
1404172001,140417,1404,14,Pulauburung,29256,,,null
1404172002,140417,1404,14,Teluknibung,29256,,,null
1404172003,140417,1404,14,Sungaidanai,29256,,,null
1404172004,140417,1404,14,"Mayang Sari Jaya",29256,,,null
1404172005,140417,1404,14,"Bukit Sari Intan Jaya",29256,,,null
1404172006,140417,1404,14,"Manunggal Jaya",29256,,,null
1404172007,140417,1404,14,"Bangun Harjo Jaya",29256,,,null
1404172008,140417,1404,14,"Ringin Jaya",29256,,,null
1404172009,140417,1404,14,"Sri Damai",29256,,,null
1404172010,140417,1404,14,"Sapta Jaya",29256,,,null
1404172011,140417,1404,14,"Keramat Jaya",29256,,,null
1404172012,140417,1404,14,"Binagun Jaya",29256,,,null
1404172013,140417,1404,14,"Suka Jaya",29256,,,null
1404172014,140417,1404,14,"Sukaharjo Jaya",29256,,,null
1404181001,140418,1404,14,"Concong Luar",29281,,,null
1404182002,140418,1404,14,"Concong Dalam",29281,,,null
1404182003,140418,1404,14,"Concong Tengah",29281,,,null
1404182004,140418,1404,14,"Kampung Baru",29281,,,null
1404182005,140418,1404,14,"Panglima Raja",29281,,,null
1404182006,140418,1404,14,Sungaiberapit,29281,,,null
1404191002,140419,1404,14,"Kempas Jaya",29261,,,null
1404191007,140419,1404,14,"Harapan Tani",29261,,,null
1404192001,140419,1404,14,"Pekan Tua",29261,,,null
1404192003,140419,1404,14,"Rumbai Jaya",29261,,,null
1404192004,140419,1404,14,"Bayas Jaya",29261,,,null
1404192005,140419,1404,14,Sungaiara,29261,,,null
1404192006,140419,1404,14,Sungaigantang,29261,,,null
1404192008,140419,1404,14,"Karya Tani",29261,,,null
1404192009,140419,1404,14,"Kerta Jaya",29261,,,null
1404192010,140419,1404,14,"Kulim Jaya",29261,,,null
1404192011,140419,1404,14,"Danaupulai Indah",29261,,,null
1404192012,140419,1404,14,Sungairabit,29261,,,null
1404201001,140420,1404,14,Benteng,29270,,,null
1404202002,140420,1404,14,"Benteng Utara",29270,,,null
1404202003,140420,1404,14,Pasenggerahan,29270,,,null
1404202004,140420,1404,14,"Kuala Sungai Batang",29270,,,null
1404202005,140420,1404,14,"Kuala Patah Parang",29270,,,null
1404202006,140420,1404,14,"Benteng Barat",29270,,,null
1404202007,140420,1404,14,"Pandan Sari",29270,,,null
1404202008,140420,1404,14,"Mugo Mulyo",29270,,,null
1405011010,140501,1405,14,"Ukui I",28388,,,null
1405012001,140501,1405,14,"Air Hitam",28388,,,null
1405012002,140501,1405,14,"Air Emas",28388,,,null
1405012003,140501,1405,14,"Bukit Gajah",28388,,,null
1405012004,140501,1405,14,"Bukit Jaya",28388,,,null
1405012005,140501,1405,14,"Kampung Baru",28388,,,null
1405012006,140501,1405,14,"Lubuk Kembang Bunga",28388,,,null
1405012007,140501,1405,14,"Lubuk Kembang Sari",28388,,,null
1405012008,140501,1405,14,"Silikuan Hulu",28388,,,null
1405012009,140501,1405,14,"Tri Mulya Jaya",28388,,,null
1405012011,140501,1405,14,"Ukui Dua",28388,,,null
1405012012,140501,1405,14,"Bagan Limau",28388,,,null
1405021007,140502,1405,14,"Pangkalan Kerinci Barat",28381,,,null
1405021008,140502,1405,14,"Pangkalan Kerinci Kota",28381,,,null
1405021009,140502,1405,14,"Pangkalan Kerinci Timur Agung",28381,,,null
1405022001,140502,1405,14,"Mekar Jaya",28381,,,null
1405022002,140502,1405,14,"Kuala Terusan",28381,,,null
1405022003,140502,1405,14,Makmur,28381,,,null
1405022005,140502,1405,14,"Rantau Baru",28381,,,null
1405031001,140503,1405,14,"Sorek I",28382,,,null
1405032002,140503,1405,14,"Sorek II",28382,,,null
1405032003,140503,1405,14,Dundangan,28382,,,null
1405032004,140503,1405,14,Palas,28382,,,null
1405032005,140503,1405,14,"Terantang Manuk",28382,,,null
1405032006,140503,1405,14,Kemang,28382,,,null
1405032007,140503,1405,14,Talau,28382,,,null
1405032008,140503,1405,14,"Tanjung Beringin",28382,,,null
1405032009,140503,1405,14,Betung,28382,,,null
1405032010,140503,1405,14,Kesuma,28382,,,null
1405032011,140503,1405,14,"Surya Indah",28382,,,null
1405032012,140503,1405,14,"Sialang Indah",28382,,,null
1405032013,140503,1405,14,"Beringin Indah",28382,,,null
1405032014,140503,1405,14,Meranti,28382,,,null
1405032015,140503,1405,14,"Harapan Jaya",28382,,,null
1405032016,140503,1405,14,"Batang Kulim",28382,,,null
1405032017,140503,1405,14,Sidomukti,28382,,,null
1405041001,140504,1405,14,"Pangkalan Lesung",28387,,,null
1405042002,140504,1405,14,"Dusun Tua",28387,,,null
1405042003,140504,1405,14,Genduang,28387,,,null
1405042004,140504,1405,14,"Mayang Sari",28387,,,null
1405042005,140504,1405,14,"Rawang Sari",28387,,,null
1405042006,140504,1405,14,"Mulya Subur",28387,,,null
1405042007,140504,1405,14,"Sari Mulya",28387,,,null
1405042008,140504,1405,14,"Sari Makmur",28387,,,null
1405042009,140504,1405,14,"Tanjung Kuyo",28387,,,null
1405042010,140504,1405,14,Pesaguan,28387,,,null
1405051001,140505,1405,14,Langgam,28380,,,null
1405052002,140505,1405,14,Tambak,28380,,,null
1405052003,140505,1405,14,Penarikan,28380,,,null
1405052004,140505,1405,14,Segati,28380,,,null
1405052005,140505,1405,14,Sotol,28380,,,null
1405052006,140505,1405,14,"Pangkalan Gondai",28380,,,null
1405052007,140505,1405,14,Langkan,28380,,,null
1405052008,140505,1405,14,"Padang Luas",28380,,,null
1405061001,140506,1405,14,Pelalawan,28353,,,null
1405062002,140506,1405,14,"Sungai Ara",28353,,,null
1405062003,140506,1405,14,Ransang,28353,,,null
1405062004,140506,1405,14,"Kuala Tolam",28353,,,null
1405062005,140506,1405,14,Sering,28353,,,null
1405062006,140506,1405,14,Telayap,28353,,,null
1405062007,140506,1405,14,"Batang Nilo Kecil",28353,,,null
1405062008,140506,1405,14,Delik,28353,,,null
1405062010,140506,1405,14,"Lalang Kabung",28353,,,null
1405071001,140507,1405,14,Kerumutan,28352,,,null
1405072002,140507,1405,14,"Pangkalan Panduk",28352,,,null
1405072003,140507,1405,14,"Pangkalan Tampui",28352,,,null
1405072004,140507,1405,14,"Bukit Lembah Subur",28352,,,null
1405072005,140507,1405,14,"Banjar Panjang",28352,,,null
1405072006,140507,1405,14,"Beringin Makmur",28352,,,null
1405072007,140507,1405,14,"Pematang Tinggi",28352,,,null
1405072008,140507,1405,14,"Tanjung Air Hitam",28352,,,null
1405072009,140507,1405,14,"Mak Teduh",28352,,,null
1405072010,140507,1405,14,"Lipai Bulan",28352,,,null
1405081011,140508,1405,14,"Pangkalan Bunut Terap",28386,,,null
1405082001,140508,1405,14,Petani,28386,,,null
1405082002,140508,1405,14,Merbau,28386,,,null
1405082003,140508,1405,14,"Sungai Buluh",28386,,,null
1405082008,140508,1405,14,"Lubuk Mas",28386,,,null
1405082009,140508,1405,14,"Balam Merah",28386,,,null
1405082010,140508,1405,14,"Bagan Labah",28386,,,null
1405082013,140508,1405,14,"Lubuk Mandian Gajah",28386,,,null
1405082017,140508,1405,14,Keriung,28386,,,null
1405082018,140508,1405,14,"Sialang Kayu Batu",28386,,,null
1405091001,140509,1405,14,"Teluk Meranti",28354,,,null
1405092002,140509,1405,14,"Kuala Panduk",28354,,,null
1405092003,140509,1405,14,Petodaan,28354,,,null
1405092004,140509,1405,14,"Teluk Binjai",28354,,,null
1405092005,140509,1405,14,"Pulau Muda",28354,,,null
1405092006,140509,1405,14,"Gambut Mutiara",28354,,,null
1405092007,140509,1405,14,"Labuhan Bilik",28354,,,null
1405092008,140509,1405,14,"Pangkalan Terap",28354,,,null
1405092009,140509,1405,14,Segamai,28354,,,null
1405101001,140510,1405,14,"Teluk Dalam",28385,,,null
1405102002,140510,1405,14,"Tanjung Sum",28385,,,null
1405102003,140510,1405,14,"Sungai Solok",28385,,,null
1405102004,140510,1405,14,"Sungai Upih",28385,,,null
1405102005,140510,1405,14,Teluk,28385,,,null
1405102006,140510,1405,14,Serapung,28385,,,null
1405102007,140510,1405,14,"Teluk Beringin",28385,,,null
1405102008,140510,1405,14,Sokoi,28385,,,null
1405102009,140510,1405,14,"Sungai Mas",28385,,,null
1405102010,140510,1405,14,"Teluk Bakau",28385,,,null
1405111001,140511,1405,14,"Sei Kijang",28383,,,null
1405112002,140511,1405,14,"Lubuk Ogung",28383,,,null
1405112003,140511,1405,14,"Simpang Beringin",28383,,,null
1405112004,140511,1405,14,"Muda Setia",28383,,,null
1405112005,140511,1405,14,"Kiab Jaya",28383,,,null
1405121002,140512,1405,14,"Rawang Empat",28384,,,null
1405122001,140512,1405,14,"Kuala Semundam",28384,,,null
1405122003,140512,1405,14,Tambun,28384,,,null
1405122004,140512,1405,14,Terbangiang,28384,,,null
1405122005,140512,1405,14,"Lubuk Terap",28384,,,null
1405122006,140512,1405,14,Angkasa,28384,,,null
1405122007,140512,1405,14,"Sialang Godang",28384,,,null
1405122008,140512,1405,14,"Lubuk Raja",28384,,,null
1405122009,140512,1405,14,"Lubuk Keranji Timur",28384,,,null
1405122010,140512,1405,14,Airterjun,28384,,,null
1405122011,140512,1405,14,"Sialang Bungkuk",28384,,,null
1406011001,140601,1406,14,"Ujung Batu",28553,,,null
1406012002,140601,1406,14,"Suka Damai",28553,,,null
1406012003,140601,1406,14,Ngaso,28553,,,null
1406012004,140601,1406,14,"Ujung Batu Timur",28553,,,null
1406012005,140601,1406,14,"Pematang Tebih",28553,,,null
1406021001,140602,1406,14,Rokan,28551,,,null
1406022002,140602,1406,14,"Cipang Kanan",28551,,,null
1406022003,140602,1406,14,"Cipang Kiri Hulu",28551,,,null
1406022004,140602,1406,14,"Cipang Kiri Hilir",28551,,,null
1406022006,140602,1406,14,"Tanjung Medan",28551,,,null
1406022007,140602,1406,14,"Lubuk Bendahara Timur",28551,,,null
1406022008,140602,1406,14,"Lubuk Bendahara",28551,,,null
1406022010,140602,1406,14,"Sikebau Jaya",28551,,,null
1406022013,140602,1406,14,"Rokan Koto Ruang",28551,,,null
1406022014,140602,1406,14,"Rokan Timur",28551,,,null
1406022016,140602,1406,14,"Lubuk Betung",28551,,,null
1406022017,140602,1406,14,Pemandang,28551,,,null
1406022018,140602,1406,14,Alahan,28551,,,null
1406022019,140602,1406,14,Tibawan,28551,,,null
1406031001,140603,1406,14,"Pasir Pengarayan",28560,,,null
1406032002,140603,1406,14,"Rambah Tengah Utara",28560,,,null
1406032003,140603,1406,14,"Rambah Tengah Hilir",28560,,,null
1406032004,140603,1406,14,"Rambah Tengah Hulu",28560,,,null
1406032005,140603,1406,14,"Rambah Tengah Barat",28560,,,null
1406032006,140603,1406,14,Menaming,28560,,,null
1406032007,140603,1406,14,"Pasir Baru",28560,,,null
1406032008,140603,1406,14,"Sialang Jaya",28560,,,null
1406032009,140603,1406,14,"Tanjung Belit",28560,,,null
1406032010,140603,1406,14,"Koto Tinggi",28560,,,null
1406032011,140603,1406,14,"Suka Maju",28560,,,null
1406032012,140603,1406,14,"Pematang Berangan",28560,,,null
1406032013,140603,1406,14,Babussalam,28560,,,null
1406032014,140603,1406,14,"Pasir Maju",28560,,,null
1406041001,140604,1406,14,"Tambusai Tengah",28558,,,null
1406042002,140604,1406,14,"Tambusai Barat",28558,,,null
1406042003,140604,1406,14,"Tambusai Timur",28558,,,null
1406042004,140604,1406,14,Batas,28558,,,null
1406042005,140604,1406,14,Talikumain,28558,,,null
1406042006,140604,1406,14,"Rantau Panjang",28558,,,null
1406042007,140604,1406,14,"Sungai Kumango",28558,,,null
1406042008,140604,1406,14,"Batang Kumu",28558,,,null
1406042009,140604,1406,14,"Sialang Rindang",28558,,,null
1406042010,140604,1406,14,"Suka Maju",28558,,,null
1406042011,140604,1406,14,"Lubuk Soting",28558,,,null
1406042012,140604,1406,14,Tingkok,28558,,,null
1406051001,140605,1406,14,KepenuhanTengah,28563,,,null
1406052003,140605,1406,14,"Kepenuhan Barat",28563,,,null
1406052004,140605,1406,14,"Kepenuhan Hilir",28563,,,null
1406052005,140605,1406,14,"Kepenuhan Timur",28563,,,null
1406052006,140605,1406,14,"Kepenuhan Barat Sei Rokan Jaya",28563,,,null
1406052007,140605,1406,14,"Kepenuhan Raya",28563,,,null
1406052008,140605,1406,14,"Kepenuhan Baru",28563,,,null
1406052009,140605,1406,14,"Kepenuhan Barat Mulya",28563,,,null
1406052010,140605,1406,14,"Ulak Patian",28563,,,null
1406052012,140605,1406,14,"Rantau Binuang Sakti",28563,,,null
1406061001,140606,1406,14,"Kota Lama",28556,,,null
1406062003,140606,1406,14,"Kota Intan",28556,,,null
1406062004,140606,1406,14,"Muara Dilam",28556,,,null
1406062008,140606,1406,14,"Kota Raya",28556,,,null
1406062009,140606,1406,14,"Kota Baru",28556,,,null
1406062010,140606,1406,14,"Sungai Kuti",28556,,,null
1406062011,140606,1406,14,"Pasir Indah",28556,,,null
1406062012,140606,1406,14,"Pasir Luhur",28556,,,null
1406062017,140606,1406,14,"Bukit Intan Makmur",28556,,,null
1406062018,140606,1406,14,"Bagan Tujuh",28556,,,null
1406072001,140607,1406,14,"Rambah Samo",28565,,,null
1406072002,140607,1406,14,"Rambah Samo Barat",28565,,,null
1406072003,140607,1406,14,"Rambah Baru",28565,,,null
1406072004,140607,1406,14,"Rambah Utama",28565,,,null
1406072005,140607,1406,14,"Pasir Makmur",28565,,,null
1406072006,140607,1406,14,"Karya Mulya",28565,,,null
1406072007,140607,1406,14,"Marga Mulya",28565,,,null
1406072008,140607,1406,14,Langkitin,28565,,,null
1406072009,140607,1406,14,"Masda Makmur",28565,,,null
1406072010,140607,1406,14,"Lubuk Napal",28565,,,null
1406072011,140607,1406,14,"Teluk Aur",28565,,,null
1406072012,140607,1406,14,"Sei Salak",28565,,,null
1406072013,140607,1406,14,"Sei Kuning",28565,,,null
1406072014,140607,1406,14,"Lubuk Bilang",28565,,,null
1406082001,140608,1406,14,"Rambah Hilir",28561,,,null
1406082002,140608,1406,14,"Rambah Hilir Tengah",28561,,,null
1406082003,140608,1406,14,"Rambah Hilir Timur",28561,,,null
1406082004,140608,1406,14,"Pasir Utama",28561,,,null
1406082005,140608,1406,14,"Pasir Jaya",28561,,,null
1406082006,140608,1406,14,"Rambah Muda",28561,,,null
1406082007,140608,1406,14,"Sungai Sitolang",28561,,,null
1406082008,140608,1406,14,"Lubuk Kerapat",28561,,,null
1406082009,140608,1406,14,Rambah,28561,,,null
1406082010,140608,1406,14,"Serombou Indah",28561,,,null
1406082011,140608,1406,14,"Sungai Dua Indah",28561,,,null
1406082012,140608,1406,14,"Muara Musu",28561,,,null
1406082013,140608,1406,14,Sejati,28561,,,null
1406092001,140609,1406,14,"Tambusai Utara",28562,,,null
1406092002,140609,1406,14,Mahato,28562,,,null
1406092003,140609,1406,14,"Bangun Jaya",28562,,,null
1406092004,140609,1406,14,"Simpang Harapan",28562,,,null
1406092005,140609,1406,14,"Pagar Mayang",28562,,,null
1406092006,140609,1406,14,"Payung Sekaki",28562,,,null
1406092007,140609,1406,14,"Mekar Jaya",28562,,,null
1406092008,140609,1406,14,"Tanjung Medan",28562,,,null
1406092009,140609,1406,14,"Suka Damai",28562,,,null
1406092010,140609,1406,14,"Rantau Sakti",28562,,,null
1406092011,140609,1406,14,"Mahato Sakti",28562,,,null
1406102001,140610,1406,14,"Pasir Agung",28557,,,null
1406102002,140610,1406,14,"Pasir Intan",28557,,,null
1406102003,140610,1406,14,"Rambah Jaya",28557,,,null
1406102004,140610,1406,14,"Bangun Purba",28557,,,null
1406102005,140610,1406,14,"Bangun Purba Timur Jaya",28557,,,null
1406102006,140610,1406,14,"Bangun Purba Barat",28557,,,null
1406102007,140610,1406,14,Tangun,28557,,,null
1406112001,140611,1406,14,Tandun,28552,,,null
1406112002,140611,1406,14,Kumain,28552,,,null
1406112003,140611,1406,14,"Bono Tapung",28552,,,null
1406112004,140611,1406,14,Dayo,28552,,,null
1406112005,140611,1406,14,"Tapung Jaya",28552,,,null
1406112006,140611,1406,14,"Puo Raya",28552,,,null
1406112007,140611,1406,14,"Sei Kuning",28552,,,null
1406112008,140611,1406,14,"Koto Tandun",28552,,,null
1406112009,140611,1406,14,"Tandun Barat",28552,,,null
1406122001,140612,1406,14,Kabun,28554,,,null
1406122002,140612,1406,14,Aliantan,28554,,,null
1406122003,140612,1406,14,"Koto Ranah",28554,,,null
1406122004,140612,1406,14,"Boncah Kesuma",28554,,,null
1406122005,140612,1406,14,"Batu Langkah Besar",28554,,,null
1406122006,140612,1406,14,Giti,28554,,,null
1406132001,140613,1406,14,"Teluk Sono",28559,,,null
1406132002,140613,1406,14,Sontang,28559,,,null
1406132003,140613,1406,14,Bonai,28559,,,null
1406132004,140613,1406,14,"Rawa Makmur",28559,,,null
1406132005,140613,1406,14,Pauh,28559,,,null
1406132006,140613,1406,14,"Kasang Padang",28559,,,null
1406132007,140613,1406,14,"Kasang Mungal",28559,,,null
1406142001,140614,1406,14,"Pagaran Tapah",28550,,,null
1406142002,140614,1406,14,"Kembang Damai",28550,,,null
1406142005,140614,1406,14,"Sangkir Indah",28550,,,null
1406152001,140615,1406,14,"Kepenuhan Hulu",28564,,,null
1406152002,140615,1406,14,"Pekan Tebih",28564,,,null
1406152003,140615,1406,14,Kepayang,28564,,,null
1406152004,140615,1406,14,"Muara Jaya",28564,,,null
1406152005,140615,1406,14,"Kepenuhan Jaya",28564,,,null
1406162001,140616,1406,14,Pendalian,28555,,,null
1406162002,140616,1406,14,"Bengkolan Salak",28555,,,null
1406162003,140616,1406,14,Suligi,28555,,,null
1406162004,140616,1406,14,"Air Panas",28555,,,null
1406162005,140616,1406,14,"Sei Kandis",28555,,,null
1407011010,140701,1407,14,Telukmerbau,28991,,,null
1407012002,140701,1407,14,Tanjungleban,28991,,,null
1407012003,140701,1407,14,Sungaikubu,28991,,,null
1407012004,140701,1407,14,"Rantau Panjang Kanan",28991,,,null
1407012012,140701,1407,14,Telukpiyai,28991,,,null
1407012013,140701,1407,14,Sungaisegajah,28991,,,null
1407012015,140701,1407,14,"Sei Segajah Makmur",28991,,,null
1407012020,140701,1407,14,"Telukpiyai Pesisir",28991,,,null
1407012021,140701,1407,14,"Sungaikubu Hulu",28991,,,null
1407012022,140701,1407,14,"Sungai Segajah Jaya",28991,,,null
1407021011,140702,1407,14,"Bagan Punak",28912,,,null
1407021012,140702,1407,14,"Bagan Kota",28911,,,null
1407021015,140702,1407,14,"Bagan Hulu",28912,,,null
1407021016,140702,1407,14,"Bagan Barat",28912,,,null
1407021017,140702,1407,14,"Bagan Timur",28912,,,null
1407022009,140702,1407,14,"Labuhan Tangga Kecil",28912,,,null
1407022010,140702,1407,14,"Labuhan Tangga Besar",28913,,,null
1407022013,140702,1407,14,"Bagan Jawa",28913,,,null
1407022014,140702,1407,14,"Parit Aman",28914,,,null
1407022019,140702,1407,14,"Labuhan Tangga Baru",28912,,,null
1407022021,140702,1407,14,"Bagan Jawa Pesisir",28912,,,null
1407022022,140702,1407,14,Serusa,28912,,,null
1407022023,140702,1407,14,"Labuhan Tangga Hilir",28912,,,null
1407022024,140702,1407,14,"Bagan Punak Meranti",28912,,,null
1407022025,140702,1407,14,"Bagan Punak Pesisir",28912,,,null
1407031007,140703,1407,14,Sedinginan,28985,,,null
1407031010,140703,1407,14,"Banjar XII",28985,,,null
1407031019,140703,1407,14,"Cempedak Rahuk",28985,,,null
1407032001,140703,1407,14,"Ujung Tanjung",28985,,,null
1407032002,140703,1407,14,"Rantau Bais",28985,,,null
1407032005,140703,1407,14,Sekeladi,28985,,,null
1407032006,140703,1407,14,"Teluk Mega",28985,,,null
1407032008,140703,1407,14,Putat,28985,,,null
1407032009,140703,1407,14,Sintong,28985,,,null
1407032011,140703,1407,14,Mumugo,28985,,,null
1407032012,140703,1407,14,"Teluk Berembun",28985,,,null
1407032013,140703,1407,14,"Menggala Sakti",28985,,,null
1407032014,140703,1407,14,"Sekeladi Hilir",28985,,,null
1407032015,140703,1407,14,"Menggala Sempurna",28985,,,null
1407032016,140703,1407,14,"Sintong Pusaka",28985,,,null
1407032017,140703,1407,14,"Sintong Bakti",28985,,,null
1407032018,140703,1407,14,"Sintong Makmur",28985,,,null
1407041001,140704,1407,14,"Rimba Melintang",28953,,,null
1407042002,140704,1407,14,Jumrah,28953,,,null
1407042003,140704,1407,14,"Telukpulau Hilir",28953,,,null
1407042004,140704,1407,14,"Telukpulau Hulu",28953,,,null
1407042005,140704,1407,14,"Langgadai Hulu",28953,,,null
1407042006,140704,1407,14,"Lenggadai Hilir",28953,,,null
1407042007,140704,1407,14,"Mukti Jaya",28953,,,null
1407042008,140704,1407,14,"Karya Mukti",28953,,,null
1407042009,140704,1407,14,"Harapan Jaya",28953,,,null
1407042010,140704,1407,14,"Seremban Jaya",28953,,,null
1407042011,140704,1407,14,"Pematang Botam",28953,,,null
1407042012,140704,1407,14,"Pematang Sikek",28953,,,null
1407051018,140705,1407,14,"Bagan Batu Kota",28992,,,null
1407051019,140705,1407,14,"Bahtera Makmur Kota",28992,,,null
1407052002,140705,1407,14,"Bagan Batu",28992,,,null
1407052003,140705,1407,14,"Bahtera Makmur",28992,,,null
1407052007,140705,1407,14,Pelita,28992,,,null
1407052008,140705,1407,14,Gelora,28992,,,null
1407052015,140705,1407,14,"Suka Maju",28992,,,null
1407052016,140705,1407,14,"Bagan Manunggal",28992,,,null
1407052017,140705,1407,14,"Bagan Sapta Permai",28992,,,null
1407052025,140705,1407,14,"Bakti Makmur",28992,,,null
1407052028,140705,1407,14,"Jaya Agung",28992,,,null
1407052030,140705,1407,14,"Meranti Makmur",28992,,,null
1407052031,140705,1407,14,"Bhayangkara Jaya",28992,,,null
1407061007,140706,1407,14,Panipahan,28995,,,null
1407062001,140706,1407,14,Panipahan,28995,,,null
1407062002,140706,1407,14,Telukpulai,28995,,,null
1407062003,140706,1407,14,"Pasir Limau Kapas",28995,,,null
1407062004,140706,1407,14,"Sungai Daun",28995,,,null
1407062005,140706,1407,14,"Panipahan Darat",28995,,,null
1407062006,140706,1407,14,"Panipahan Laut",28995,,,null
1407062008,140706,1407,14,Pulaujemur,28995,,,null
1407071005,140707,1407,14,"Sinaboi Kota",28914,,,null
1407072001,140707,1407,14,Sinaboi,28914,,,null
1407072002,140707,1407,14,"Sei Bakau",28914,,,null
1407072003,140707,1407,14,"Raja Bejamu",28914,,,null
1407072004,140707,1407,14,"Sungai Nyamuk",28914,,,null
1407072006,140707,1407,14,Darussalam,28914,,,null
1407081010,140708,1407,14,"Pujud Selatan",28983,,,null
1407082001,140708,1407,14,"Teluk Nayang",28983,,,null
1407082002,140708,1407,14,Pujud,28983,,,null
1407082003,140708,1407,14,"Air Hitam",28983,,,null
1407082004,140708,1407,14,"Kasang Bangsawan",28983,,,null
1407082005,140708,1407,14,Sungaipinang,28983,,,null
1407082008,140708,1407,14,Siarang-arang,28983,,,null
1407082011,140708,1407,14,"Suka Jadi",28983,,,null
1407082015,140708,1407,14,"Pujud Utara",28983,,,null
1407082016,140708,1407,14,"Babussalam Rokan",28983,,,null
1407082017,140708,1407,14,"Perkebunan Siarang-arang",28983,,,null
1407091005,140709,1407,14,"Melayu Besar Kota",28986,,,null
1407092001,140709,1407,14,"Melayu Besar",28986,,,null
1407092002,140709,1407,14,"Melayu Tengah",28986,,,null
1407092003,140709,1407,14,"Batu Hampar",28986,,,null
1407092004,140709,1407,14,Mesah,28986,,,null
1407092006,140709,1407,14,"Labuhan Papan",28986,,,null
1407101001,140710,1407,14,"Bangko Kanan",28993,,,null
1407101006,140710,1407,14,"Bangko Kiri",28993,,,null
1407102002,140710,1407,14,"Bangko Jaya",28993,,,null
1407102003,140710,1407,14,"Bangko Sempurna",28993,,,null
1407102004,140710,1407,14,"Bangko Bakti",28993,,,null
1407102005,140710,1407,14,"Bangko Pusako",28993,,,null
1407102007,140710,1407,14,"Sei Manasib",28993,,,null
1407102008,140710,1407,14,"Teluk Bano I",28993,,,null
1407102009,140710,1407,14,"Bangko Makmur",28993,,,null
1407102010,140710,1407,14,"Pematang Damar",28993,,,null
1407102011,140710,1407,14,"Pematang Ibul",28993,,,null
1407102012,140710,1407,14,"Bangko Permata",28993,,,null
1407102013,140710,1407,14,"Bangko Mukti",28993,,,null
1407102014,140710,1407,14,"Bangko Lestari",28993,,,null
1407102015,140710,1407,14,"Bangko Balam",28993,,,null
1407102016,140710,1407,14,"Bangko Mas Raya",28993,,,null
1407111001,140711,1407,14,"Simpang Kanan",28994,,,null
1407112002,140711,1407,14,"Kota Parit",28994,,,null
1407112003,140711,1407,14,"Bagan Nibung",28994,,,null
1407112004,140711,1407,14,"Bukit Damar",28994,,,null
1407112005,140711,1407,14,"Bukit Mas",28994,,,null
1407112006,140711,1407,14,"Bukit Selamat",28994,,,null
1407121004,140712,1407,14,"Bantayan Hilir",28912,,,null
1407122001,140712,1407,14,Bantaian,28912,,,null
1407122002,140712,1407,14,Sungaisialang,28912,,,null
1407122003,140712,1407,14,"Bantayan Baru",28912,,,null
1407122005,140712,1407,14,"Sungaisialang Hulu",28912,,,null
1407131002,140713,1407,14,"Rantau Kopar",28984,,,null
1407131003,140713,1407,14,"Sungai Rangau",28984,,,null
1407132001,140713,1407,14,Sekapas,28984,,,null
1407132004,140713,1407,14,"Bagan Cempedak",28984,,,null
1407142001,140714,1407,14,Pedamaran,28913,,,null
1407142002,140714,1407,14,"Rokan Baru",28913,,,null
1407142003,140714,1407,14,"Sei Besar",28913,,,null
1407142004,140714,1407,14,"Suak Temenggung",28913,,,null
1407142005,140714,1407,14,"Teluk Bano II",28913,,,null
1407142006,140714,1407,14,Pekaitan,28913,,,null
1407142007,140714,1407,14,"Suak Air Hitam",28913,,,null
1407142008,140714,1407,14,"Kubu I",28913,,,null
1407142009,140714,1407,14,"Karyo Mulyo Sari",28913,,,null
1407142010,140714,1407,14,"Rokan Baru Pesisir",28913,,,null
1407152001,140715,1407,14,"Rantau Panjang Kiri",28990,,,null
1407152002,140715,1407,14,Teluknilap,28990,,,null
1407152003,140715,1407,14,Sungaimajo,28990,,,null
1407152004,140715,1407,14,Sungaipinang,28990,,,null
1407152005,140715,1407,14,Sungaipanji-panji,28990,,,null
1407152006,140715,1407,14,Jojol,28990,,,null
1407152007,140715,1407,14,"Pulauhalang Muka",28990,,,null
1407152008,140715,1407,14,"Pulauhalang Belakang",28990,,,null
1407152009,140715,1407,14,"Rantau Panjang Kiri Hilir",28990,,,null
1407152010,140715,1407,14,"Teluknilap Jaya",28990,,,null
1407152011,140715,1407,14,"Sungaimajo Pusako",28990,,,null
1407152012,140715,1407,14,"Pulauhalang Hulu",28990,,,null
1407162001,140716,1407,14,"Tanjung Medan",28983,,,null
1407162002,140716,1407,14,"Tanjung Medan Utara",28983,,,null
1407162003,140716,1407,14,"Tanjung Medan Barat",28983,,,null
1407162004,140716,1407,14,"Sei Meranti",28983,,,null
1407162005,140716,1407,14,"Sei Meranti Darussalam",28983,,,null
1407162006,140716,1407,14,"Akar Belingkar",28983,,,null
1407162007,140716,1407,14,"Tangga Batu",28983,,,null
1407162008,140716,1407,14,"Perkebunan Tanjung Medan",28983,,,null
1407162009,140716,1407,14,"Sri Kayangan",28983,,,null
1407162010,140716,1407,14,"Pondok Kresek",28983,,,null
1407162011,140716,1407,14,"Sungai Tapah",28983,,,null
1407162012,140716,1407,14,"Tanjung Sari",28983,,,null
1407171001,140717,1407,14,"Bagan Sinembah Kota",28992,,,null
1407172002,140717,1407,14,"Bagan Sinembah",28992,,,null
1407172003,140717,1407,14,"Harapan Makmur Selatan",28992,,,null
1407172004,140717,1407,14,"Harapan Makmur",28992,,,null
1407172005,140717,1407,14,"Makmur Jaya",28992,,,null
1407172006,140717,1407,14,Salak,28992,,,null
1407172007,140717,1407,14,"Panca Mukti",28992,,,null
1407172008,140717,1407,14,"Bagan Sinembah Timur",28992,,,null
1407172009,140717,1407,14,"Bagan Sinembah Utara",28992,,,null
1407172010,140717,1407,14,"Bagan Sinembah Barat",28992,,,null
1407181001,140718,1407,14,"Balai Jaya Kota",28992,,,null
1407181002,140718,1407,14,"Balam Sempurna Kota",28992,,,null
1407182003,140718,1407,14,"Balam Jaya",28992,,,null
1407182004,140718,1407,14,"Balai Jaya",28992,,,null
1407182005,140718,1407,14,"Balam Sempurna",28992,,,null
1407182006,140718,1407,14,"Bagan Bhakti",28992,,,null
1407182007,140718,1407,14,Kencana,28992,,,null
1407182008,140718,1407,14,"Pasir Putih",28992,,,null
1407182009,140718,1407,14,"Pasir Putih Utara",28992,,,null
1407182010,140718,1407,14,"Pasir Putih Barat",28992,,,null
1407182011,140718,1407,14,"Lubuk Jawi",28992,,,null
1408011001,140801,1408,14,"Kampung Dalam",28673,,,null
1408011002,140801,1408,14,"Kampung Rempak",28673,,,null
1408012003,140801,1408,14,Langkai,28673,,,null
1408012011,140801,1408,14,Tumang,28673,,,null
1408012012,140801,1408,14,"Merempan Hulu",28673,,,null
1408012013,140801,1408,14,"Rawang Air Putih",28673,,,null
1408012014,140801,1408,14,"Suak Lanjut",28673,,,null
1408012015,140801,1408,14,"Buantan Besar",28673,,,null
1408021001,140802,1408,14,"Sungai Apit",28662,,,null
1408022002,140802,1408,14,"Teluk Lanus",28662,,,null
1408022003,140802,1408,14,"Tanjung Kuras",28662,,,null
1408022004,140802,1408,14,"Parit I/II",28662,,,null
1408022005,140802,1408,14,"Teluk Mesjid",28662,,,null
1408022008,140802,1408,14,"Sungai Kayu Ara",28662,,,null
1408022009,140802,1408,14,Lalang,28662,,,null
1408022010,140802,1408,14,Mengkapan,28662,,,null
1408022011,140802,1408,14,"Sungai Rawa",28662,,,null
1408022012,140802,1408,14,Penyengat,28662,,,null
1408022014,140802,1408,14,"Teluk Batil",28662,,,null
1408022016,140802,1408,14,Bungsur,28662,,,null
1408022017,140802,1408,14,Harapan,28662,,,null
1408022019,140802,1408,14,"Kayu Ara Permai",28662,,,null
1408022020,140802,1408,14,"Rawa Mekar Jaya",28662,,,null
1408031001,140803,1408,14,"Minas Jaya",28685,,,null
1408032002,140803,1408,14,"Minas Timur",28685,,,null
1408032003,140803,1408,14,"Minas Barat",28685,,,null
1408032004,140803,1408,14,"Mandi Angin",28685,,,null
1408032005,140803,1408,14,"Rantau Bertuah",28685,,,null
1408041001,140804,1408,14,Perawang,28772,,,null
1408042002,140804,1408,14,Tualang,28772,,,null
1408042003,140804,1408,14,"Pinang Sebatang",28772,,,null
1408042004,140804,1408,14,Meredan,28772,,,null
1408042005,140804,1408,14,"Pinang Sebatang Timur",28772,,,null
1408042006,140804,1408,14,"Pinang Sebatang Barat",28772,,,null
1408042007,140804,1408,14,"Meredan Barat",28772,,,null
1408042008,140804,1408,14,"Perawang Barat",28772,,,null
1408042009,140804,1408,14,"Tualang Timur",28772,,,null
1408052001,140805,1408,14,"Muara Kelantan",28674,,,null
1408052002,140805,1408,14,"Teluk Lancang",28674,,,null
1408052003,140805,1408,14,"Sungai Selodang",28674,,,null
1408052004,140805,1408,14,Olak,28674,,,null
1408052005,140805,1408,14,"Lubuk Jering",28674,,,null
1408052006,140805,1408,14,"Muara Bungkal",28674,,,null
1408052007,140805,1408,14,"Lubuk Umbut",28674,,,null
1408052008,140805,1408,14,"Bencah Umbai",28674,,,null
1408052009,140805,1408,14,"Tasik Betung",28674,,,null
1408062001,140806,1408,14,Dayun,28671,,,null
1408062002,140806,1408,14,"Banjar Seminai",28671,,,null
1408062003,140806,1408,14,"Teluk Merbau",28671,,,null
1408062004,140806,1408,14,Merangkai,28671,,,null
1408062005,140806,1408,14,"Lubuk Tilam",28671,,,null
1408062006,140806,1408,14,"Berumbung Baru",28671,,,null
1408062007,140806,1408,14,"Pangkalan Makmur",28671,,,null
1408062008,140806,1408,14,"Buana Makmur",28671,,,null
1408062009,140806,1408,14,"Suka Mulya",28671,,,null
1408062010,140806,1408,14,"Sawit Permai",28671,,,null
1408062011,140806,1408,14,"Sialang Sakti",28671,,,null
1408072001,140807,1408,14,"Kerinci Kanan",28654,,,null
1408072002,140807,1408,14,"Kerinci Kiri",28654,,,null
1408072003,140807,1408,14,"Buana Bakti",28654,,,null
1408072004,140807,1408,14,"Bukit Harapan",28654,,,null
1408072005,140807,1408,14,"Kumbara Utama",28654,,,null
1408072006,140807,1408,14,"Bukit Agung",28654,,,null
1408072008,140807,1408,14,"Simpang Perak Jaya",28654,,,null
1408072009,140807,1408,14,"Buatan Baru",28654,,,null
1408072010,140807,1408,14,"Gabung Makmur",28654,,,null
1408072011,140807,1408,14,"Jati Mulya",28654,,,null
1408072012,140807,1408,14,Seminai,28654,,,null
1408072013,140807,1408,14,"Delima Jaya",28654,,,null
1408082001,140808,1408,14,"Bunga Raya",28764,,,null
1408082002,140808,1408,14,"Jati Baru",28764,,,null
1408082003,140808,1408,14,Jayapura,28764,,,null
1408082011,140808,1408,14,"Kemuning Muda",28764,,,null
1408082012,140808,1408,14,"Buatan Lestari",28764,,,null
1408082013,140808,1408,14,"Tuah Indrapura",28764,,,null
1408082014,140808,1408,14,"Langsat Permai",28764,,,null
1408082015,140808,1408,14,Temusai,28764,,,null
1408082016,140808,1408,14,"Dayang Suri",28764,,,null
1408082017,140808,1408,14,"Suak Merambai",28764,,,null
1408092001,140809,1408,14,"Pangkalan Pisang",28672,,,null
1408092002,140809,1408,14,"Kuala Gasib",28672,,,null
1408092003,140809,1408,14,"Teluk Rimba",28672,,,null
1408092004,140809,1408,14,"Buatan I",28672,,,null
1408092005,140809,1408,14,"Buatan II",28672,,,null
1408092006,140809,1408,14,Sengkemang,28672,,,null
1408092007,140809,1408,14,"Rantau Panjang",28672,,,null
1408092008,140809,1408,14,"Empang Pandan",28672,,,null
1408092009,140809,1408,14,"Keranji Guguh",28672,,,null
1408092010,140809,1408,14,"Sri Gemilang",28672,,,null
1408092011,140809,1408,14,"Tasik Seminai",28672,,,null
1408101001,140810,1408,14,"Simpang Belutu",28686,,,null
1408101002,140810,1408,14,"Telaga Sam-sam",28686,,,null
1408101003,140810,1408,14,"Kandis Kota",28686,,,null
1408102004,140810,1408,14,Belutu,28686,,,null
1408102005,140810,1408,14,Kandis,28686,,,null
1408102006,140810,1408,14,Sam-Sam,28686,,,null
1408102007,140810,1408,14,Bekalar,28686,,,null
1408102008,140810,1408,14,"Jambai Makmur",28686,,,null
1408102009,140810,1408,14,"Sungai Gondang",28686,,,null
1408102010,140810,1408,14,"Pencing Bekuto",28686,,,null
1408102011,140810,1408,14,"Libo Jaya",28686,,,null
1408112001,140811,1408,14,"Lubuk Dalam",28655,,,null
1408112002,140811,1408,14,"Rawang Kao",28655,,,null
1408112003,140811,1408,14,"Sri Gading",28655,,,null
1408112004,140811,1408,14,"Sialang Baru",28655,,,null
1408112005,140811,1408,14,"Sialang Palas",28655,,,null
1408112006,140811,1408,14,"Empang Baru",28655,,,null
1408112007,140811,1408,14,"Rawang Kao Barat",28655,,,null
1408122001,140812,1408,14,"Bandar Sungai",28684,,,null
1408122002,140812,1408,14,Rempak,28684,,,null
1408122003,140812,1408,14,Belading,28684,,,null
1408122004,140812,1408,14,"Sungai Tengah",28684,,,null
1408122005,140812,1408,14,Laksamana,28684,,,null
1408122006,140812,1408,14,"Sabak Permai",28684,,,null
1408122007,140812,1408,14,"Bandar Pedada",28684,,,null
1408122008,140812,1408,14,"Selat Guntung",28684,,,null
1408131006,140813,1408,14,Sungaimempura,28773,,,null
1408132001,140813,1408,14,"Kota Ringin",28773,,,null
1408132002,140813,1408,14,Paluh,28773,,,null
1408132003,140813,1408,14,"Benteng Hilir",28773,,,null
1408132004,140813,1408,14,"Benteng Hulu",28773,,,null
1408132005,140813,1408,14,"Kampung Tengah",28773,,,null
1408132007,140813,1408,14,"Merempan Hilir",28773,,,null
1408132008,140813,1408,14,Telukmerempan,28773,,,null
1408142001,140814,1408,14,"Sungai Berbari",28765,,,null
1408142002,140814,1408,14,"Sungai Limau",28765,,,null
1408142003,140814,1408,14,Dosan,28765,,,null
1408142004,140814,1408,14,Benayah,28765,,,null
1408142005,140814,1408,14,Pebadaran,28765,,,null
1408142006,140814,1408,14,"Dusun Pusaka",28765,,,null
1408142007,140814,1408,14,Perincit,28765,,,null
1409011012,140901,1409,14,"Pasar Lubuk Jambi",29564,,,null
1409012004,140901,1409,14,"Air Buluh",29564,,,null
1409012005,140901,1409,14,Pantai,29564,,,null
1409012007,140901,1409,14,"Lubuk Ramo",29564,,,null
1409012008,140901,1409,14,"Seberang Cengar",29564,,,null
1409012009,140901,1409,14,"Koto Cengar",29564,,,null
1409012010,140901,1409,14,Sangau,29564,,,null
1409012011,140901,1409,14,"Banjar Padang",29564,,,null
1409012013,140901,1409,14,Kasang,29564,,,null
1409012014,140901,1409,14,"Koto Lubuk Jambi",29564,,,null
1409012015,140901,1409,14,Pulaubinjai,29564,,,null
1409012016,140901,1409,14,"Seberang Pantai",29564,,,null
1409012017,140901,1409,14,"Rantau Sialang",29564,,,null
1409012018,140901,1409,14,Luai,29564,,,null
1409012019,140901,1409,14,"Banjar Guntung",29564,,,null
1409012020,140901,1409,14,Bukitpedusunan,29564,,,null
1409012021,140901,1409,14,Saik,29564,,,null
1409012022,140901,1409,14,"Pebaun Hulu",29564,,,null
1409012023,140901,1409,14,"Pebaun Hilir",29564,,,null
1409012024,140901,1409,14,Kinali,29564,,,null
1409012025,140901,1409,14,"Bukit Kauman",29564,,,null
1409012026,140901,1409,14,"Aur Duri",29564,,,null
1409012027,140901,1409,14,Sungaimanau,29564,,,null
1409012030,140901,1409,14,"Muaro Tombang",29564,,,null
1409021016,140902,1409,14,"Pasar Teluk",29511,,,null
1409021018,140902,1409,14,"Simpang Tiga",29511,,,null
1409021025,140902,1409,14,Sungaijering,29513,,,null
1409022001,140902,1409,14,"Bandar Alai",29511,,,null
1409022002,140902,1409,14,Pulaukedundung,29514,,,null
1409022003,140902,1409,14,Pulauaro,29511,,,null
1409022004,140902,1409,14,"Seberang Taluk",29511,,,null
1409022005,140902,1409,14,"Pulau Baru",29511,,,null
1409022006,140902,1409,14,"Koto Tuo",29511,,,null
1409022007,140902,1409,14,Kopah,29511,,,null
1409022008,140902,1409,14,Munsalo,29511,,,null
1409022014,140902,1409,14,Sawah,29511,,,null
1409022015,140902,1409,14,"Koto Taluk",29515,,,null
1409022017,140902,1409,14,"Koto Kari",29511,,,null
1409022019,140902,1409,14,"Pintu Gobang",29511,,,null
1409022020,140902,1409,14,Jake,29511,,,null
1409022021,140902,1409,14,"Pulau Godang Kari",29511,,,null
1409022022,140902,1409,14,Jaya,29511,,,null
1409022023,140902,1409,14,"Beringin Taluk",29511,,,null
1409022024,140902,1409,14,Sitorajo,29511,,,null
1409022026,140902,1409,14,"Seberang Taluk Hilir",29511,,,null
1409022027,140902,1409,14,"Titian Modang Kopah",29512,,,null
1409022028,140902,1409,14,"Pulaubanjar Kari",29511,,,null
1409031003,140903,1409,14,"Muara Lembu",29563,,,null
1409032001,140903,1409,14,"Pangkalan Indarung",29563,,,null
1409032002,140903,1409,14,Pulaupadang,29563,,,null
1409032004,140903,1409,14,Logas,29563,,,null
1409032005,140903,1409,14,"Kebun Lado",29563,,,null
1409032006,140903,1409,14,Sungaikuning,29563,,,null
1409032007,140903,1409,14,Sungaisirih,29563,,,null
1409032008,140903,1409,14,Sungaibawang,29563,,,null
1409032009,140903,1409,14,"Air Emas",29563,,,null
1409032010,140903,1409,14,"Pasir Emas",29563,,,null
1409032011,140903,1409,14,"Petai Baru",29563,,,null
1409032012,140903,1409,14,Sungaikeranji,29563,,,null
1409032013,140903,1409,14,"Sumber Datar",29563,,,null
1409032014,140903,1409,14,"Logas Hilir",29563,,,null
1409041001,140904,1409,14,"Pasar Usang",29561,,,null
1409041002,140904,1409,14,"Pasar Baru",29561,,,null
1409042003,140904,1409,14,"Simpang Tanah Lapang",29561,,,null
1409042004,140904,1409,14,"Rawang Bonto",29561,,,null
1409042005,140904,1409,14,"Koto Tuo",29561,,,null
1409042006,140904,1409,14,Banuaran,29561,,,null
1409042007,140904,1409,14,"Kampung Madura",29561,,,null
1409042009,140904,1409,14,"Pulau Kijang",29561,,,null
1409042015,140904,1409,14,Pulaumadinah,29561,,,null
1409042016,140904,1409,14,"Kampung Tengah",29561,,,null
1409042017,140904,1409,14,"Kampung Medan",29561,,,null
1409042018,140904,1409,14,"Kepala Pulau",29561,,,null
1409042019,140904,1409,14,"Teratak Baru",29561,,,null
1409042020,140904,1409,14,"Dusun Tuo",29561,,,null
1409042028,140904,1409,14,Gunungmelintang,29561,,,null
1409042030,140904,1409,14,"Simpang Pulauberalo",29561,,,null
1409051001,140905,1409,14,"Pasar Cerenti",29555,,,null
1409051002,140905,1409,14,"Koto Peraku",29555,,,null
1409052003,140905,1409,14,"Kompe Berangin",29555,,,null
1409052004,140905,1409,14,Sikakak,29555,,,null
1409052005,140905,1409,14,"Kampung Baru",29555,,,null
1409052006,140905,1409,14,Pulaujambu,29555,,,null
1409052007,140905,1409,14,"Koto Cerenti",29555,,,null
1409052008,140905,1409,14,Pulaubayur,29555,,,null
1409052009,140905,1409,14,"Pulau Panjang Cerenti",29555,,,null
1409052010,140905,1409,14,Pesikaian,29555,,,null
1409052011,140905,1409,14,Telukpauh,29555,,,null
1409052012,140905,1409,14,Tanjungmedan,29555,,,null
1409052013,140905,1409,14,"Kampung Baru Timur",29555,,,null
1409061001,140906,1409,14,Benai,29566,,,null
1409062003,140906,1409,14,"Banjar Benai",29566,,,null
1409062004,140906,1409,14,Talontom,29566,,,null
1409062005,140906,1409,14,Gunungkesiangan,29566,,,null
1409062006,140906,1409,14,Pulaukalimanting,29566,,,null
1409062007,140906,1409,14,"Banjar Lopak",29566,,,null
1409062008,140906,1409,14,Tanjungsimandolak,29566,,,null
1409062009,140906,1409,14,Siberakun,29566,,,null
1409062010,140906,1409,14,Pulautongah,29566,,,null
1409062011,140906,1409,14,"Ujung Tanjung",29566,,,null
1409062012,140906,1409,14,Pulauingu,29566,,,null
1409062013,140906,1409,14,Simandolak,29566,,,null
1409062014,140906,1409,14,"Tebing Tinggi",29566,,,null
1409062015,140906,1409,14,Pulaulancang,29566,,,null
1409062016,140906,1409,14,"Benai Kecil",29566,,,null
1409062021,140906,1409,14,"Koto Benai",29566,,,null
1409072001,140907,1409,14,Pulaumungkur,29565,,,null
1409072002,140907,1409,14,Telukberingin,29565,,,null
1409072003,140907,1409,14,Pulaurumput,29565,,,null
1409072004,140907,1409,14,"Seberang Gunung",29565,,,null
1409072005,140907,1409,14,"Teberau Panjang",29565,,,null
1409072006,140907,1409,14,"Koto Gunung",29565,,,null
1409072007,140907,1409,14,Gunung,29565,,,null
1409072008,140907,1409,14,Toar,29565,,,null
1409072009,140907,1409,14,Petapahan,29565,,,null
1409072010,140907,1409,14,"Kampung Baru",29565,,,null
1409072011,140907,1409,14,"Pisang Berebus",29565,,,null
1409072012,140907,1409,14,"Lubuk Terentang",29565,,,null
1409072013,140907,1409,14,Siberobah,29565,,,null
1409072014,140907,1409,14,"Seberang Sungai",29565,,,null
1409082001,140908,1409,14,"Koto Baru",29560,,,null
1409082002,140908,1409,14,Petai,29560,,,null
1409082003,140908,1409,14,Sungaipaku,29560,,,null
1409082004,140908,1409,14,Tanjungpauh,29560,,,null
1409082005,140908,1409,14,"Simpang Raya",29560,,,null
1409082006,140908,1409,14,Sungaibuluh,29560,,,null
1409082007,140908,1409,14,"Suka Damai",29560,,,null
1409082008,140908,1409,14,"Sumber Jaya",29560,,,null
1409082009,140908,1409,14,"Muara Bahan",29560,,,null
1409082010,140908,1409,14,Bukitraya,29560,,,null
1409082011,140908,1409,14,"Beringin Jaya",29560,,,null
1409082012,140908,1409,14,"Suka Maju",29560,,,null
1409092001,140909,1409,14,"Pasar Baru Pangean",29553,,,null
1409092002,140909,1409,14,"Koto Pangean",29553,,,null
1409092003,140909,1409,14,Pulaukumpai,29553,,,null
1409092004,140909,1409,14,Pulautongah,29553,,,null
1409092005,140909,1409,14,Pulauderas,29553,,,null
1409092006,140909,1409,14,Telukpauh,29553,,,null
1409092007,140909,1409,14,"Tanah Bekali",29553,,,null
1409092008,140909,1409,14,"Padang Tanggung",29553,,,null
1409092009,140909,1409,14,"Padang Kunik",29553,,,null
1409092010,140909,1409,14,Pembatang,29553,,,null
1409092011,140909,1409,14,"Pauh Angit",29553,,,null
1409092012,140909,1409,14,Sukaping,29553,,,null
1409092013,140909,1409,14,Pulaurengas,29553,,,null
1409092014,140909,1409,14,"Rawang Binjai",29553,,,null
1409092015,140909,1409,14,Sako,29553,,,null
1409092016,140909,1409,14,Sungailangsat,29553,,,null
1409092017,140909,1409,14,"Pauh Angit Hulu",29553,,,null
1409102001,140910,1409,14,"Perhentian Luas",29556,,,null
1409102002,140910,1409,14,Logas,29556,,,null
1409102003,140910,1409,14,"Lubuk Kebun",29556,,,null
1409102004,140910,1409,14,"Sungai Rambai",29556,,,null
1409102005,140910,1409,14,Situgal,29556,,,null
1409102006,140910,1409,14,Rambahan,29556,,,null
1409102007,140910,1409,14,"Teratak Rendah",29556,,,null
1409102008,140910,1409,14,Sikijang,29556,,,null
1409102009,140910,1409,14,Sukaraja,29556,,,null
1409102010,140910,1409,14,"Sako Margasari",29556,,,null
1409102011,140910,1409,14,"Kuantan Sako",29556,,,null
1409102012,140910,1409,14,"Hulu Teso",29556,,,null
1409102013,140910,1409,14,"Giri Sako",29556,,,null
1409102014,140910,1409,14,"Bumi Mulya",29556,,,null
1409102015,140910,1409,14,Sidodadi,29556,,,null
1409112001,140911,1409,14,"Pasar Inuman",29569,,,null
1409112002,140911,1409,14,"Koto Inuman",29569,,,null
1409112003,140911,1409,14,"Pulaupanjang Hulu",29569,,,null
1409112004,140911,1409,14,"Pulaupanjang Hilir",29569,,,null
1409112005,140911,1409,14,Sigaruntang,29569,,,null
1409112006,140911,1409,14,Pulaubusuk,29569,,,null
1409112007,140911,1409,14,"Bedeng Sikuran",29569,,,null
1409112008,140911,1409,14,"Banjar Nan Tigo",29569,,,null
1409112009,140911,1409,14,Pulausipan,29569,,,null
1409112010,140911,1409,14,"Pulaubusuk Jaya",29569,,,null
1409112011,140911,1409,14,"Seberang Pulau Busuk",29569,,,null
1409112012,140911,1409,14,"Lebuh Lurus",29569,,,null
1409112013,140911,1409,14,"Kampung Baru Koto",29569,,,null
1409112014,140911,1409,14,"Ketaping Jaya",29569,,,null
1409122001,140912,1409,14,"Lubuk Ambacang",29568,,,null
1409122002,140912,1409,14,Sungaikelelawar,29568,,,null
1409122003,140912,1409,14,Tanjung,29568,,,null
1409122004,140912,1409,14,Sungaipinang,29568,,,null
1409122005,140912,1409,14,Sungaialah,29568,,,null
1409122006,140912,1409,14,"Koto Kombu",29568,,,null
1409122007,140912,1409,14,Sumpu,29568,,,null
1409122008,140912,1409,14,"Mudik Ulo",29568,,,null
1409122009,140912,1409,14,Inuman,29568,,,null
1409122010,140912,1409,14,Tanjungmedang,29568,,,null
1409122011,140912,1409,14,Serosa,29568,,,null
1409122012,140912,1409,14,Sampurago,29568,,,null
1409132001,140913,1409,14,Pulaubaru,29562,,,null
1409132002,140913,1409,14,Pulauberalo,29562,,,null
1409132003,140913,1409,14,Pulaukulur,29562,,,null
1409132004,140913,1409,14,Pelukahan,29562,,,null
1409132005,140913,1409,14,Pengalihan,29562,,,null
1409132006,140913,1409,14,Lumbok,29562,,,null
1409132007,140913,1409,14,"Teratak Jering",29562,,,null
1409132008,140913,1409,14,Tanjungpisang,29562,,,null
1409132009,140913,1409,14,Danau,29562,,,null
1409132010,140913,1409,14,"Kasang Limau Sundai",29562,,,null
1409132011,140913,1409,14,"Koto Rajo",29562,,,null
1409132012,140913,1409,14,Tanjung,29562,,,null
1409132013,140913,1409,14,Sungaisorik,29562,,,null
1409132014,140913,1409,14,"Rawang Oguang",29562,,,null
1409141015,140914,1409,14,"Beringin Jaya",29567,,,null
1409142001,140914,1409,14,"Pulaukomang Sentajo",29567,,,null
1409142002,140914,1409,14,"Muaro Sentajo",29567,,,null
1409142003,140914,1409,14,"Koto Sentajo",29567,,,null
1409142004,140914,1409,14,"Kampungbaru Sentajo",29567,,,null
1409142005,140914,1409,14,"Pulaukopung Sentajo",29567,,,null
1409142006,140914,1409,14,"Teratak Air Hitam",29567,,,null
1409142007,140914,1409,14,"Seberang Teratak Air Hitam",29567,,,null
1409142008,140914,1409,14,"Parit Teratak Air Hitam",29567,,,null
1409142009,140914,1409,14,"Jalur Patah",29567,,,null
1409142010,140914,1409,14,"Geringing Baru",29567,,,null
1409142011,140914,1409,14,Marsawa,29567,,,null
1409142012,140914,1409,14,"Langsat Hulu",29567,,,null
1409142013,140914,1409,14,"Muara Langsat",29567,,,null
1409142014,140914,1409,14,"Geringging Jaya",29567,,,null
1409152001,140915,1409,14,"Perhentian Sungkai",29557,,,null
1409152002,140915,1409,14,Ibul,29557,,,null
1409152003,140915,1409,14,Muarapetai,29557,,,null
1409152004,140915,1409,14,Pangkalan,29557,,,null
1409152005,140915,1409,14,Sungaibesar,29557,,,null
1409152006,140915,1409,14,Setiang,29557,,,null
1409152007,140915,1409,14,"Muaro Tiu Makmur",29557,,,null
1409152008,140915,1409,14,Muaratobek,29557,,,null
1409152009,140915,1409,14,"Sungaibesar Hilir",29557,,,null
1409152010,140915,1409,14,"Kampung Baru Ibul",29557,,,null
1410011001,141001,1410,14,"Selatpanjang Kota",28753,,,null
1410011002,141001,1410,14,"Selatpanjang Barat",28753,,,null
1410011003,141001,1410,14,"Selatpanjang Selatan",28753,,,null
1410011004,141001,1410,14,"Selatpanjang Timur",28753,,,null
1410012005,141001,1410,14,Banglas,28753,,,null
1410012006,141001,1410,14,"Alah Air",28753,,,null
1410012007,141001,1410,14,"Alah Air Timur",28753,,,null
1410012008,141001,1410,14,Sesap,28753,,,null
1410012016,141001,1410,14,"Banglas Barat",28753,,,null
1410022001,141002,1410,14,Segomeng,28756,,,null
1410022002,141002,1410,14,Bantar,28756,,,null
1410022003,141002,1410,14,"Anak Setatah",28756,,,null
1410022004,141002,1410,14,Lemang,28756,,,null
1410022005,141002,1410,14,Bokor,28756,,,null
1410022006,141002,1410,14,"Sungai Cina",28756,,,null
1410022007,141002,1410,14,Melai,28756,,,null
1410022011,141002,1410,14,"Telaga Baru",28756,,,null
1410022012,141002,1410,14,"Bina Maju",28756,,,null
1410022015,141002,1410,14,"Sialang Pasung",28756,,,null
1410022016,141002,1410,14,Permai,28756,,,null
1410022017,141002,1410,14,"Mekar Baru",28756,,,null
1410032001,141003,1410,14,"Tanjung Samak",28755,,,null
1410032002,141003,1410,14,"Tanjung Medang",28755,,,null
1410032004,141003,1410,14,"Gemala Sari",28755,,,null
1410032007,141003,1410,14,Topang,28755,,,null
1410032008,141003,1410,14,Penyagun,28755,,,null
1410032010,141003,1410,14,Repan,28755,,,null
1410032011,141003,1410,14,"Tanjung Bakau",28755,,,null
1410032012,141003,1410,14,"Teluk Samak",28755,,,null
1410032013,141003,1410,14,"Sungai Gayung Kiri",28755,,,null
1410032014,141003,1410,14,"Citra Damai",28755,,,null
1410032016,141003,1410,14,"Dwi Tunggal",28755,,,null
1410032017,141003,1410,14,Wonosari,28755,,,null
1410032018,141003,1410,14,Tebun,28755,,,null
1410032020,141003,1410,14,"Tanjung Gemuk",28755,,,null
1410042001,141004,1410,14,Alai,28758,,,null
1410042002,141004,1410,14,Tenan,28758,,,null
1410042003,141004,1410,14,Insit,28758,,,null
1410042004,141004,1410,14,Tanjung,28758,,,null
1410042005,141004,1410,14,"Tanjung Peranap",28758,,,null
1410042006,141004,1410,14,Kundur,28758,,,null
1410042007,141004,1410,14,Mekong,28758,,,null
1410042008,141004,1410,14,"Batang Malas",28758,,,null
1410042009,141004,1410,14,Mantiasa,28758,,,null
1410042010,141004,1410,14,"Gogok Darussalam",28758,,,null
1410042011,141004,1410,14,"Maini Darul Aman",28758,,,null
1410042012,141004,1410,14,Mengkikip,28758,,,null
1410042013,141004,1410,14,"Alai Selatan",28758,,,null
1410042014,141004,1410,14,"Tanjung Darul Takzim",28758,,,null
1410051001,141005,1410,14,"Teluk Belitung",28752,,,null
1410052002,141005,1410,14,"Meranti Bunting",28752,,,null
1410052003,141005,1410,14,Lukit,28752,,,null
1410052004,141005,1410,14,"Bagan Melibur",28752,,,null
1410052018,141005,1410,14,Pelantai,28752,,,null
1410052019,141005,1410,14,"Tanjung Kulim",28752,,,null
1410052021,141005,1410,14,"Mekar Sari",28752,,,null
1410052023,141005,1410,14,"Mayang Sari",28752,,,null
1410052026,141005,1410,14,"Sungai Anak Kamal",28752,,,null
1410052027,141005,1410,14,"Sungai Tengah",28752,,,null
1410062001,141006,1410,14,"Kuala Merbau",28750,,,null
1410062002,141006,1410,14,"Renak Dungun",28750,,,null
1410062003,141006,1410,14,"Baran Melintang",28750,,,null
1410062004,141006,1410,14,"Teluk Ketapang",28750,,,null
1410062005,141006,1410,14,Semukut,28750,,,null
1410062006,141006,1410,14,Centai,28750,,,null
1410062007,141006,1410,14,Tanjungbunga,28750,,,null
1410062008,141006,1410,14,"Batang Meranti",28750,,,null
1410062009,141006,1410,14,"Pangkalan Balai",28750,,,null
1410062010,141006,1410,14,"Padang Kamal",28750,,,null
1410062011,141006,1410,14,"Ketapang Permai",28750,,,null
1410072001,141007,1410,14,Lukun,28754,,,null
1410072002,141007,1410,14,"Sungai Tohor",28754,,,null
1410072003,141007,1410,14,"Nipah Sendanu",28754,,,null
1410072004,141007,1410,14,"Tanjung Sari",28754,,,null
1410072005,141007,1410,14,"Tanjung Gadai",28754,,,null
1410072006,141007,1410,14,"Teluk Buntal",28754,,,null
1410072007,141007,1410,14,"Kepau Baru",28754,,,null
1410072008,141007,1410,14,"Sungai Tohor Barat",28754,,,null
1410072009,141007,1410,14,"Sendanu Darul Ihsan",28754,,,null
1410072010,141007,1410,14,"Batin Suir",28754,,,null
1410082001,141008,1410,14,"Tanjung Padang",28751,,,null
1410082002,141008,1410,14,"Putri Puyu",28751,,,null
1410082003,141008,1410,14,"Mekar Delima",28751,,,null
1410082004,141008,1410,14,Dedap,28751,,,null
1410082005,141008,1410,14,Kudap,28751,,,null
1410082006,141008,1410,14,Bandul,28751,,,null
1410082007,141008,1410,14,"Selat Akar",28751,,,null
1410082008,141008,1410,14,"Tanjung Pisang",28751,,,null
1410082009,141008,1410,14,Mengkopot,28751,,,null
1410082010,141008,1410,14,Mengkirau,28751,,,null
1410092001,141009,1410,14,"Tanjung Kedabu",28757,,,null
1410092002,141009,1410,14,Beting,28757,,,null
1410092003,141009,1410,14,Sokop,28757,,,null
1410092004,141009,1410,14,Telesung,28757,,,null
1410092005,141009,1410,14,Bungur,28757,,,null
1410092006,141009,1410,14,"Tenggayun Raya",28757,,,null
1410092007,141009,1410,14,Sendaur,28757,,,null
1410092008,141009,1410,14,"Kayu Ara",28757,,,null
1410092009,141009,1410,14,Sonde,28757,,,null
1410092010,141009,1410,14,"Kedabu Rapat",28757,,,null
1410092011,141009,1410,14,"Tanah Merah",28757,,,null
1471011002,147101,1471,14,Jadirejo,28126,,,null
1471011003,147101,1471,14,"Kampung Tengah",28128,,,null
1471011004,147101,1471,14,"Kampung Melayu",28124,,,null
1471011005,147101,1471,14,"Kedung Sari",28123,,,null
1471011006,147101,1471,14,Harjosari,28122,,,null
1471011007,147101,1471,14,Sukajadi,28121,,,null
1471011008,147101,1471,14,"Pulau Karomah",28127,,,null
1471021001,147102,1471,14,"Simpang Empat",28116,,,null
1471021002,147102,1471,14,Sumahilang,28111,,,null
1471021003,147102,1471,14,"Tanah Datar",28115,,,null
1471021004,147102,1471,14,"Kota Baru",28114,,,null
1471021005,147102,1471,14,Sukaramai,28113,,,null
1471021006,147102,1471,14,"Kota Tinggi",28112,,,null
1471031001,147103,1471,14,"Cinta Raja",28131,,,null
1471031002,147103,1471,14,Sukamulya,28133,,,null
1471031003,147103,1471,14,Sukamaju,28132,,,null
1471041001,147104,1471,14,Rintis,28141,,,null
1471041002,147104,1471,14,"Tanjung RHU",28143,,,null
1471041003,147104,1471,14,Pesisir,28144,,,null
1471041004,147104,1471,14,Sekip,28142,,,null
1471051001,147105,1471,14,"Padang Bulan",28156,,,null
1471051002,147105,1471,14,Sago,28151,,,null
1471051003,147105,1471,14,"Kampung Baru",28154,,,null
1471051004,147105,1471,14,"Kampung Dalam",28152,,,null
1471051005,147105,1471,14,"Kampung Bandar",28153,,,null
1471051006,147105,1471,14,"Padang Terubuk",28155,,,null
1471061003,147106,1471,14,"Rumbai Bukit",28264,,,null
1471061005,147106,1471,14,"Muarafajar Timur",28267,,,null
1471061006,147106,1471,14,"Umban Sari",,,,null
1471061008,147106,1471,14,"Sri Meranti",,,,null
1471061009,147106,1471,14,Palas,,,,null
1471061010,147106,1471,14,"Muarafajar Barat",28267,,,null
1471061011,147106,1471,14,Rantaupanjang,28264,,,null
1471061012,147106,1471,14,Maharani,28264,,,null
1471061013,147106,1471,14,Agrowisata,28264,,,null
1471071005,147107,1471,14,"Simpang Tiga",28284,,,null
1471071006,147107,1471,14,"Tangkerang Selatan",28288,,,null
1471071008,147107,1471,14,"Tangkerang Utara",28289,,,null
1471071011,147107,1471,14,"Tangkerang Labuai",28281,,,null
1471071012,147107,1471,14,Airdingin,28284,,,null
1471081001,147108,1471,14,Simpangbaru,28293,,,null
1471081008,147108,1471,14,Delima,28290,,,null
1471081009,147108,1471,14,Tobekgodang,28297,,,null
1471081010,147108,1471,14,Binawidya,28295,,,null
1471091001,147109,1471,14,"Tangkerang Barat",28282,,,null
1471091002,147109,1471,14,"Tangkerang Tengah",28282,,,null
1471091003,147109,1471,14,"Sidomulyo Timur",28125,,,null
1471091004,147109,1471,14,Wonorejo,28125,,,null
1471091005,147109,1471,14,Maharatu,28125,,,null
1471091006,147109,1471,14,Perhentianmarpoyan,28125,,,null
1471101002,147110,1471,14,Bencahlesung,28285,,,null
1471101003,147110,1471,14,"Tangkerang Timur",28289,,,null
1471101004,147110,1471,14,Rejosari,28281,,,null
1471101005,147110,1471,14,Bambukuning,28281,,,null
1471101010,147110,1471,14,Melebung,28285,,,null
1471101011,147110,1471,14,Industritenayan,28285,,,null
1471101012,147110,1471,14,Sialangsakti,28285,,,null
1471101013,147110,1471,14,Tuahnegeri,28285,,,null
1471111001,147111,1471,14,Tampan,28292,,,null
1471111002,147111,1471,14,"Labuh Baru Timur",28292,,,null
1471111003,147111,1471,14,"Labuh Baru Barat",28292,,,null
1471111004,147111,1471,14,"Air Hitam",28292,,,null
1471111005,147111,1471,14,Bandarraya,28292,,,null
1471111006,147111,1471,14,Sungaisibam,,,,null
1471111007,147111,1471,14,Tirtasiak,28292,,,null
1471121001,147112,1471,14,"Meranti Pandak",28266,,,null
1471121004,147112,1471,14,"Lembah Damai",28263,,,null
1471121006,147112,1471,14,"Limbungan Baru",28261,,,null
1471131001,147113,1471,14,"Sidomulyo Barat",28294,,,null
1471131002,147113,1471,14,Sialangmunggu,28299,,,null
1471131003,147113,1471,14,Tuahkarya,28291,,,null
1471131004,147113,1471,14,Tuahmadani,28298,,,null
1471131005,147113,1471,14,Airputih,28296,,,null
1471141001,147114,1471,14,Kulim,28286,,,null
1471141002,147114,1471,14,Mentangor,28286,,,null
1471141003,147114,1471,14,Sialangrampai,28286,,,null
1471141004,147114,1471,14,Pebatuan,28286,,,null
1471141005,147114,1471,14,Pematangkapau,28289,,,null
1471151001,147115,1471,14,"Tebing Tinggi Okura",28287,,,null
1471151002,147115,1471,14,Sungaiukai,28287,,,null
1471151003,147115,1471,14,Sungaiambang,28262,,,null
1471151004,147115,1471,14,"Lembah Sari",28262,,,null
1471151005,147115,1471,14,Limbungan,28261,,,null
1472011003,147201,1472,14,"Pangkalan Sesai",28824,,,null
1472011006,147201,1472,14,Purnama,28823,,,null
1472011008,147201,1472,14,"Bagan Keladi",28821,,,null
1472011009,147201,1472,14,"Simapang Tetap Darul Ichsan",28824,,,null
1472021002,147202,1472,14,"Teluk Binjai",28813,,,null
1472021003,147202,1472,14,"Tanjung Palas",28816,,,null
1472021004,147202,1472,14,"Jaya Mukti",28815,,,null
1472021006,147202,1472,14,"Buluh Kasap",28814,,,null
1472021009,147202,1472,14,"Bukit Batrem",28811,,,null
1472031001,147203,1472,14,"Bukit Nenas",28882,,,null
1472031002,147203,1472,14,"Bukit Kayu Kapur",28882,,,null
1472031003,147203,1472,14,"Gurun Panjang",28882,,,null
1472031004,147203,1472,14,"Bagan Besar",28882,,,null
1472031005,147203,1472,14,"Kampung Baru",28882,,,null
1472031006,147203,1472,14,"Bagan Besar Timur",28882,,,null
1472031007,147203,1472,14,"Bukit Kapur",28882,,,null
1472041001,147204,1472,14,"Lubuk Gaung",28826,,,null
1472041002,147204,1472,14,"Tanjung Penyembal",28826,,,null
1472041003,147204,1472,14,"Bangsal Aceh",28826,,,null
1472041004,147204,1472,14,"Basilam Baru",28826,,,null
1472041005,147204,1472,14,"Batu Teritip",28826,,,null
1472041006,147204,1472,14,"Sungai Geniot",28826,,,null
1472051001,147205,1472,14,"Teluk Makmur",28825,,,null
1472051002,147205,1472,14,Mundam,28825,,,null
1472051003,147205,1472,14,Guntung,28825,,,null
1472051004,147205,1472,14,Pelintung,28825,,,null
1472061001,147206,1472,14,Laksamana,28821,,,null
1472061002,147206,1472,14,"Rimba Sekampung",28822,,,null
1472061003,147206,1472,14,"Dumai Kota",28811,,,null
1472061004,147206,1472,14,Bintan,28812,,,null
1472061005,147206,1472,14,Sukajadi,28812,,,null
1472071001,147207,1472,14,"Ratu Sima",28825,,,null
1472071002,147207,1472,14,"Bukit Timah",28826,,,null
1472071003,147207,1472,14,"Mekar Sari",28821,,,null
1472071004,147207,1472,14,"Bukit Datuk",28825,,,null
1472071005,147207,1472,14,"Bumi Ayu",28813,,,null
