[
    {
        "code": 6501011001,
        "district_code": 650101,
        "regency_code": 6501,
        "province_code": 65,
        "name": "Tanjung Palas Hulu",
        "postal_code": "77215",
        "latitude": 2.8142505836643026,
        "longitude": 117.35495782589244
    },
    {
        "code": 6501011002,
        "district_code": 650101,
        "regency_code": 6501,
        "province_code": 65,
        "name": "Tanjung Palas Tengah",
        "postal_code": "77216",
        "latitude": 2.8301735884507084,
        "longitude": 117.35269264038484
    },
    {
        "code": 6501011003,
        "district_code": 650101,
        "regency_code": 6501,
        "province_code": 65,
        "name": "Tanjung Palas Hilir",
        "postal_code": "77211",
        "latitude": 2.892476051571829,
        "longitude": 117.32263099941581
    },
    {
        "code": 6501011004,
        "district_code": 650101,
        "regency_code": 6501,
        "province_code": 65,
        "name": "Karang Anyar",
        "postal_code": "77214",
        "latitude": 2.8367174576079695,
        "longitude": 117.34860325772851
    },
    {
        "code": 6501012005,
        "district_code": 650101,
        "regency_code": 6501,
        "province_code": 65,
        "name": "Gunung Putih",
        "postal_code": "77211",
        "latitude": 2.842107860477587,
        "longitude": 117.33431853114384
    },
    {
        "code": 6501012006,
        "district_code": 650101,
        "regency_code": 6501,
        "province_code": 65,
        "name": "Pejalin",
        "postal_code": "77211",
        "latitude": 2.8473131835972048,
        "longitude": 117.28211785329455
    },
    {
        "code": 6501012007,
        "district_code": 650101,
        "regency_code": 6501,
        "province_code": 65,
        "name": "Antutan",
        "postal_code": "77211",
        "latitude": 2.6248886635651716,
        "longitude": 117.31152313347434
    },
    {
        "code": 6501012008,
        "district_code": 650101,
        "regency_code": 6501,
        "province_code": 65,
        "name": "Teras Baru",
        "postal_code": "77214",
        "latitude": 2.8885791523639783,
        "longitude": 117.32962531058469
    },
    {
        "code": 6501012009,
        "district_code": 650101,
        "regency_code": 6501,
        "province_code": 65,
        "name": "Teras Nawang",
        "postal_code": "77214",
        "latitude": 2.8848048901831485,
        "longitude": 117.3485708345733
    },
    {
        "code": 6501022001,
        "district_code": 650102,
        "regency_code": 6501,
        "province_code": 65,
        "name": "Long Beluah",
        "postal_code": "77217",
        "latitude": 2.7495051818405,
        "longitude": 117.10417844305145
    },
    {
        "code": 6501022002,
        "district_code": 650102,
        "regency_code": 6501,
        "province_code": 65,
        "name": "Long Sam",
        "postal_code": "77217",
        "latitude": 2.654722081889172,
        "longitude": 117.12712584069857
    },
    {
        "code": 6501022003,
        "district_code": 650102,
        "regency_code": 6501,
        "province_code": 65,
        "name": "Mara I",
        "postal_code": "77217",
        "latitude": 2.680353771489893,
        "longitude": 117.20082304941666
    },
    {
        "code": 6501022004,
        "district_code": 650102,
        "regency_code": 6501,
        "province_code": 65,
        "name": "Mara Hilir",
        "postal_code": "77217",
        "latitude": 2.643839168433948,
        "longitude": 117.24841823316804
    },
    {
        "code": 6501022005,
        "district_code": 650102,
        "regency_code": 6501,
        "province_code": 65,
        "name": "Long Pari",
        "postal_code": "77217",
        "latitude": 2.857901478471553,
        "longitude": 117.19025851178846
    },
    {
        "code": 6501032001,
        "district_code": 650103,
        "regency_code": 6501,
        "province_code": 65,
        "name": "Karang Agung",
        "postal_code": "77218",
        "latitude": 3.0350927638033545,
        "longitude": 117.1197773808522
    },
    {
        "code": 6501032002,
        "district_code": 650103,
        "regency_code": 6501,
        "province_code": 65,
        "name": "Pimping",
        "postal_code": "77218",
        "latitude": 2.9741309113291354,
        "longitude": 117.17603094598404
    },
    {
        "code": 6501032003,
        "district_code": 650103,
        "regency_code": 6501,
        "province_code": 65,
        "name": "Panca Agung",
        "postal_code": "77218",
        "latitude": 3.089945263622083,
        "longitude": 117.17113657829917
    },
    {
        "code": 6501032004,
        "district_code": 650103,
        "regency_code": 6501,
        "province_code": 65,
        "name": "Ruhui Rahayu",
        "postal_code": "77218",
        "latitude": 3.062715465225499,
        "longitude": 117.2556922424061
    },
    {
        "code": 6501032005,
        "district_code": 650103,
        "regency_code": 6501,
        "province_code": 65,
        "name": "Ardi Mulyo",
        "postal_code": "77218",
        "latitude": 3.0983404725881027,
        "longitude": 117.23546574256584
    },
    {
        "code": 6501032006,
        "district_code": 650103,
        "regency_code": 6501,
        "province_code": 65,
        "name": "Kelubir",
        "postal_code": "77218",
        "latitude": 3.021799227185154,
        "longitude": 117.26904876402095
    },
    {
        "code": 6501042001,
        "district_code": 650104,
        "regency_code": 6501,
        "province_code": 65,
        "name": "Tanah Kuning",
        "postal_code": "77215",
        "latitude": 2.6199039626137406,
        "longitude": 117.74863023746585
    },
    {
        "code": 6501042002,
        "district_code": 650104,
        "regency_code": 6501,
        "province_code": 65,
        "name": "Mangkupadi",
        "postal_code": "77215",
        "latitude": 2.4587196098452666,
        "longitude": 117.79753626249727
    },
    {
        "code": 6501042003,
        "district_code": 650104,
        "regency_code": 6501,
        "province_code": 65,
        "name": "Sajau",
        "postal_code": "77215",
        "latitude": 2.600044422913253,
        "longitude": 117.56800750305509
    },
    {
        "code": 6501042004,
        "district_code": 650104,
        "regency_code": 6501,
        "province_code": 65,
        "name": "Wonomulyo",
        "postal_code": "77215",
        "latitude": 2.703285143766672,
        "longitude": 117.54254997115886
    },
    {
        "code": 6501042005,
        "district_code": 650104,
        "regency_code": 6501,
        "province_code": 65,
        "name": "Tanjung Agung",
        "postal_code": "77215",
        "latitude": 2.7196049107914533,
        "longitude": 117.5074954323467
    },
    {
        "code": 6501042006,
        "district_code": 650104,
        "regency_code": 6501,
        "province_code": 65,
        "name": "Binai",
        "postal_code": "77215",
        "latitude": 2.613585220098918,
        "longitude": 117.68527226062633
    },
    {
        "code": 6501042007,
        "district_code": 650104,
        "regency_code": 6501,
        "province_code": 65,
        "name": "Sajau Hilir",
        "postal_code": "77215",
        "latitude": 2.761089864545966,
        "longitude": 117.65047748310079
    },
    {
        "code": 6501042008,
        "district_code": 650104,
        "regency_code": 6501,
        "province_code": 65,
        "name": "Pura Sajau",
        "postal_code": "77215",
        "latitude": 2.6858793268062526,
        "longitude": 117.64554359815402
    },
    {
        "code": 6501051001,
        "district_code": 650105,
        "regency_code": 6501,
        "province_code": 65,
        "name": "Tanjung Selor Hulu",
        "postal_code": "77211",
        "latitude": 2.825008917776076,
        "longitude": 117.36969365273873
    },
    {
        "code": 6501051002,
        "district_code": 650105,
        "regency_code": 6501,
        "province_code": 65,
        "name": "Tanjung Selor Hilir",
        "postal_code": "77212",
        "latitude": 2.8675128223290636,
        "longitude": 117.40590108310211
    },
    {
        "code": 6501051008,
        "district_code": 650105,
        "regency_code": 6501,
        "province_code": 65,
        "name": "Tanjung Selor Timur",
        "postal_code": "77212",
        "latitude": 2.8494027185829287,
        "longitude": 117.43652027065177
    },
    {
        "code": 6501052003,
        "district_code": 650105,
        "regency_code": 6501,
        "province_code": 65,
        "name": "Jelarai Selor",
        "postal_code": "77212",
        "latitude": 2.6436202409116674,
        "longitude": 117.43377777395949
    },
    {
        "code": 6501052004,
        "district_code": 650105,
        "regency_code": 6501,
        "province_code": 65,
        "name": "Gunung Seriang",
        "postal_code": "77212",
        "latitude": 2.7247614893438175,
        "longitude": 117.36772258762548
    },
    {
        "code": 6501052005,
        "district_code": 650105,
        "regency_code": 6501,
        "province_code": 65,
        "name": "Bumi Rahayu",
        "postal_code": "77212",
        "latitude": 2.792696443642021,
        "longitude": 117.45674234213914
    },
    {
        "code": 6501052006,
        "district_code": 650105,
        "regency_code": 6501,
        "province_code": 65,
        "name": "Gunung Sari",
        "postal_code": "77212",
        "latitude": 2.7525095179100876,
        "longitude": 117.46048391920066
    },
    {
        "code": 6501052007,
        "district_code": 650105,
        "regency_code": 6501,
        "province_code": 65,
        "name": "Apung",
        "postal_code": "77212",
        "latitude": 2.7729830466590504,
        "longitude": 117.51041965367249
    },
    {
        "code": 6501052009,
        "district_code": 650105,
        "regency_code": 6501,
        "province_code": 65,
        "name": "Tengkapak",
        "postal_code": "77212",
        "latitude": 2.827196460388892,
        "longitude": 117.50644089238787
    },
    {
        "code": 6501062001,
        "district_code": 650106,
        "regency_code": 6501,
        "province_code": 65,
        "name": "Salimbatu",
        "postal_code": "77216",
        "latitude": 3.041173422913161,
        "longitude": 117.4181810002263
    },
    {
        "code": 6501062002,
        "district_code": 650106,
        "regency_code": 6501,
        "province_code": 65,
        "name": "Silva Rahayu",
        "postal_code": "77216",
        "latitude": 2.9954578738138546,
        "longitude": 117.29640578049505
    },
    {
        "code": 6501062003,
        "district_code": 650106,
        "regency_code": 6501,
        "province_code": 65,
        "name": "Tanjung Buka",
        "postal_code": "77216",
        "latitude": 2.898247552976002,
        "longitude": 117.5909845359858
    },
    {
        "code": 6501072001,
        "district_code": 650107,
        "regency_code": 6501,
        "province_code": 65,
        "name": "Lepak Aru",
        "postal_code": "77261",
        "latitude": 2.8499661824444544,
        "longitude": 116.79736789910157
    },
    {
        "code": 6501072002,
        "district_code": 650107,
        "regency_code": 6501,
        "province_code": 65,
        "name": "Long Lasan",
        "postal_code": "77261",
        "latitude": 2.811186820090239,
        "longitude": 116.80435781340736
    },
    {
        "code": 6501072003,
        "district_code": 650107,
        "regency_code": 6501,
        "province_code": 65,
        "name": "Long Peso",
        "postal_code": "77261",
        "latitude": 2.6887328691444354,
        "longitude": 116.76663257808335
    },
    {
        "code": 6501072004,
        "district_code": 650107,
        "regency_code": 6501,
        "province_code": 65,
        "name": "Long Bia",
        "postal_code": "77261",
        "latitude": 2.7363887891545526,
        "longitude": 116.78528707554952
    },
    {
        "code": 6501072005,
        "district_code": 650107,
        "regency_code": 6501,
        "province_code": 65,
        "name": "Muara Pangean",
        "postal_code": "77261",
        "latitude": 2.6909630543354677,
        "longitude": 116.77629017114312
    },
    {
        "code": 6501072006,
        "district_code": 650107,
        "regency_code": 6501,
        "province_code": 65,
        "name": "Long Lian",
        "postal_code": "77261",
        "latitude": 2.613269681822547,
        "longitude": 116.72379482733857
    },
    {
        "code": 6501072007,
        "district_code": 650107,
        "regency_code": 6501,
        "province_code": 65,
        "name": "Long Pelaah",
        "postal_code": "77261",
        "latitude": 2.481361537858971,
        "longitude": 116.62126591500531
    },
    {
        "code": 6501072008,
        "district_code": 650107,
        "regency_code": 6501,
        "province_code": 65,
        "name": "Long Lejuh",
        "postal_code": "77261",
        "latitude": 2.5607310634648655,
        "longitude": 116.36256006199379
    },
    {
        "code": 6501072009,
        "district_code": 650107,
        "regency_code": 6501,
        "province_code": 65,
        "name": "Long Pelban",
        "postal_code": "77261",
        "latitude": 2.430443780789442,
        "longitude": 116.41613648636525
    },
    {
        "code": 6501072010,
        "district_code": 650107,
        "regency_code": 6501,
        "province_code": 65,
        "name": "Long Buang",
        "postal_code": "77261",
        "latitude": 2.5660831285417856,
        "longitude": 116.67164351685001
    },
    {
        "code": 6501082001,
        "district_code": 650108,
        "regency_code": 6501,
        "province_code": 65,
        "name": "Long Tungu",
        "postal_code": "77262",
        "latitude": 2.843212269750092,
        "longitude": 117.0377966713873
    },
    {
        "code": 6501082002,
        "district_code": 650108,
        "regency_code": 6501,
        "province_code": 65,
        "name": "Long Bang",
        "postal_code": "77262",
        "latitude": 2.8550999311783207,
        "longitude": 116.99254745170145
    },
    {
        "code": 6501082003,
        "district_code": 650108,
        "regency_code": 6501,
        "province_code": 65,
        "name": "Long Telenjau",
        "postal_code": "77262",
        "latitude": 2.7198680757113234,
        "longitude": 116.95578334434411
    },
    {
        "code": 6501082004,
        "district_code": 650108,
        "regency_code": 6501,
        "province_code": 65,
        "name": "Naha Aya",
        "postal_code": "77262",
        "latitude": 2.7465734027425053,
        "longitude": 116.88763865707982
    },
    {
        "code": 6501082005,
        "district_code": 650108,
        "regency_code": 6501,
        "province_code": 65,
        "name": "Long Lembu",
        "postal_code": "77262",
        "latitude": 2.806777546255385,
        "longitude": 117.08208119248953
    },
    {
        "code": 6501082006,
        "district_code": 650108,
        "regency_code": 6501,
        "province_code": 65,
        "name": "Long Bang Hulu",
        "postal_code": "77262",
        "latitude": 2.916205904250861,
        "longitude": 116.95721958485665
    },
    {
        "code": 6501092001,
        "district_code": 650109,
        "regency_code": 6501,
        "province_code": 65,
        "name": "Sekatak Buji",
        "postal_code": "77263",
        "latitude": 3.30022229614068,
        "longitude": 117.22915357620097
    },
    {
        "code": 6501092002,
        "district_code": 650109,
        "regency_code": 6501,
        "province_code": 65,
        "name": "Paru Abang",
        "postal_code": "77263",
        "latitude": 3.2952959614577506,
        "longitude": 117.0161182971535
    },
    {
        "code": 6501092003,
        "district_code": 650109,
        "regency_code": 6501,
        "province_code": 65,
        "name": "Bunau",
        "postal_code": "77263",
        "latitude": 3.235881390131338,
        "longitude": 117.02900290022104
    },
    {
        "code": 6501092004,
        "district_code": 650109,
        "regency_code": 6501,
        "province_code": 65,
        "name": "Ujang",
        "postal_code": "77263",
        "latitude": 3.1239615155955156,
        "longitude": 116.81785349682302
    },
    {
        "code": 6501092005,
        "district_code": 650109,
        "regency_code": 6501,
        "province_code": 65,
        "name": "Tenggiling",
        "postal_code": "77263",
        "latitude": 3.1721832098784337,
        "longitude": 116.90974839302022
    },
    {
        "code": 6501092006,
        "district_code": 650109,
        "regency_code": 6501,
        "province_code": 65,
        "name": "Kelembunan",
        "postal_code": "77263",
        "latitude": 3.3512790755081947,
        "longitude": 116.92688002912968
    },
    {
        "code": 6501092007,
        "district_code": 650109,
        "regency_code": 6501,
        "province_code": 65,
        "name": "Turung",
        "postal_code": "77263",
        "latitude": 3.3667983315227903,
        "longitude": 117.04596728489969
    },
    {
        "code": 6501092008,
        "district_code": 650109,
        "regency_code": 6501,
        "province_code": 65,
        "name": "Terindak",
        "postal_code": "77263",
        "latitude": 3.147127250824556,
        "longitude": 116.99459647564449
    },
    {
        "code": 6501092009,
        "district_code": 650109,
        "regency_code": 6501,
        "province_code": 65,
        "name": "Kelising",
        "postal_code": "77263",
        "latitude": 3.2684751708646114,
        "longitude": 116.9603225584455
    },
    {
        "code": 6501092010,
        "district_code": 650109,
        "regency_code": 6501,
        "province_code": 65,
        "name": "Ambalat",
        "postal_code": "77263",
        "latitude": 3.2282649308084954,
        "longitude": 117.13167549551851
    },
    {
        "code": 6501092011,
        "district_code": 650109,
        "regency_code": 6501,
        "province_code": 65,
        "name": "Keriting",
        "postal_code": "77263",
        "latitude": 3.206214670786205,
        "longitude": 117.14113939694155
    },
    {
        "code": 6501092012,
        "district_code": 650109,
        "regency_code": 6501,
        "province_code": 65,
        "name": "Kendari",
        "postal_code": "77263",
        "latitude": 3.2333775888281435,
        "longitude": 117.10076891461905
    },
    {
        "code": 6501092013,
        "district_code": 650109,
        "regency_code": 6501,
        "province_code": 65,
        "name": "Bambang",
        "postal_code": "77263",
        "latitude": 3.3433916705318936,
        "longitude": 116.8901847982334
    },
    {
        "code": 6501092014,
        "district_code": 650109,
        "regency_code": 6501,
        "province_code": 65,
        "name": "Maritam",
        "postal_code": "77263",
        "latitude": 3.3686521792944597,
        "longitude": 116.96941055431635
    },
    {
        "code": 6501092015,
        "district_code": 650109,
        "regency_code": 6501,
        "province_code": 65,
        "name": "Pentian",
        "postal_code": "77263",
        "latitude": 3.2217157648454164,
        "longitude": 117.19528803443848
    },
    {
        "code": 6501092016,
        "district_code": 650109,
        "regency_code": 6501,
        "province_code": 65,
        "name": "Punan Dulau",
        "postal_code": "77263",
        "latitude": 3.301347144833825,
        "longitude": 116.8130576203916
    },
    {
        "code": 6501092017,
        "district_code": 650109,
        "regency_code": 6501,
        "province_code": 65,
        "name": "Kelincauan",
        "postal_code": "77263",
        "latitude": 3.23090712072663,
        "longitude": 117.07996651872467
    },
    {
        "code": 6501092018,
        "district_code": 650109,
        "regency_code": 6501,
        "province_code": 65,
        "name": "Bekiliu",
        "postal_code": "77263",
        "latitude": 3.2992403380773583,
        "longitude": 116.94397430765792
    },
    {
        "code": 6501092019,
        "district_code": 650109,
        "regency_code": 6501,
        "province_code": 65,
        "name": "Sekatak Bengara",
        "postal_code": "77263",
        "latitude": 3.1657384304695615,
        "longitude": 117.22754955706155
    },
    {
        "code": 6501092020,
        "district_code": 650109,
        "regency_code": 6501,
        "province_code": 65,
        "name": "Pungit",
        "postal_code": "77263",
        "latitude": 3.12326432076482,
        "longitude": 117.08052349318757
    },
    {
        "code": 6501092021,
        "district_code": 650109,
        "regency_code": 6501,
        "province_code": 65,
        "name": "Anjar Arip",
        "postal_code": "77263",
        "latitude": 3.2671090747269043,
        "longitude": 117.13923969802693
    },
    {
        "code": 6501092022,
        "district_code": 650109,
        "regency_code": 6501,
        "province_code": 65,
        "name": "Liagu",
        "postal_code": "77263",
        "latitude": 3.3145090644437616,
        "longitude": 117.41116656621666
    },
    {
        "code": 6501102001,
        "district_code": 650110,
        "regency_code": 6501,
        "province_code": 65,
        "name": "Bunyu Barat",
        "postal_code": "77281",
        "latitude": 3.5263382507815177,
        "longitude": 117.60008484864548
    },
    {
        "code": 6501102002,
        "district_code": 650110,
        "regency_code": 6501,
        "province_code": 65,
        "name": "Bunyu Selatan",
        "postal_code": "77281",
        "latitude": 3.459902182536625,
        "longitude": 117.8601735669239
    },
    {
        "code": 6501102003,
        "district_code": 650110,
        "regency_code": 6501,
        "province_code": 65,
        "name": "Bunyu Timur",
        "postal_code": "77281",
        "latitude": 3.537704820240895,
        "longitude": 117.81437451987414
    },
    {
        "code": 6502012002,
        "district_code": 650201,
        "regency_code": 6502,
        "province_code": 65,
        "name": "Long Bisai",
        "postal_code": "77555",
        "latitude": 3.543537062577907,
        "longitude": 116.45287056880895
    },
    {
        "code": 6502012005,
        "district_code": 650201,
        "regency_code": 6502,
        "province_code": 65,
        "name": "Pulau Sapi",
        "postal_code": "77555",
        "latitude": 3.552517648361938,
        "longitude": 116.47840558025271
    },
    {
        "code": 6502012006,
        "district_code": 650201,
        "regency_code": 6502,
        "province_code": 65,
        "name": "Paking",
        "postal_code": "77555",
        "latitude": 3.5903272182400148,
        "longitude": 116.3399022549102
    },
    {
        "code": 6502012007,
        "district_code": 650201,
        "regency_code": 6502,
        "province_code": 65,
        "name": "Lidung Kemenci",
        "postal_code": "77555",
        "latitude": 3.499970225027581,
        "longitude": 116.52890105308553
    },
    {
        "code": 6502012008,
        "district_code": 650201,
        "regency_code": 6502,
        "province_code": 65,
        "name": "Mentarang Baru",
        "postal_code": "77555",
        "latitude": 3.5565210945862504,
        "longitude": 116.5344691475748
    },
    {
        "code": 6502012009,
        "district_code": 650201,
        "regency_code": 6502,
        "province_code": 65,
        "name": "Harapan Maju",
        "postal_code": "77555",
        "latitude": 3.5224014869919182,
        "longitude": 116.19376135255449
    },
    {
        "code": 6502022001,
        "district_code": 650202,
        "regency_code": 6502,
        "province_code": 65,
        "name": "Batu Lidung",
        "postal_code": "77550",
        "latitude": 3.5419101994837745,
        "longitude": 116.65922898914665
    },
    {
        "code": 6502022002,
        "district_code": 650202,
        "regency_code": 6502,
        "province_code": 65,
        "name": "Malinau Kota",
        "postal_code": "77550",
        "latitude": 3.58682554253629,
        "longitude": 116.6426200363264
    },
    {
        "code": 6502022003,
        "district_code": 650202,
        "regency_code": 6502,
        "province_code": 65,
        "name": "Pelita Kanaan",
        "postal_code": "77550",
        "latitude": 3.576742008013372,
        "longitude": 116.61280961519816
    },
    {
        "code": 6502022004,
        "district_code": 650202,
        "regency_code": 6502,
        "province_code": 65,
        "name": "Malinau Hulu",
        "postal_code": "77550",
        "latitude": 3.5623683504324064,
        "longitude": 116.60221431227791
    },
    {
        "code": 6502022005,
        "district_code": 650202,
        "regency_code": 6502,
        "province_code": 65,
        "name": "Malinau Hilir",
        "postal_code": "77550",
        "latitude": 3.5960830445021084,
        "longitude": 116.68792798235481
    },
    {
        "code": 6502022006,
        "district_code": 650202,
        "regency_code": 6502,
        "province_code": 65,
        "name": "Tanjung Keranjang",
        "postal_code": "77550",
        "latitude": 3.5620380156789877,
        "longitude": 116.67165859402049
    },
    {
        "code": 6502032001,
        "district_code": 650203,
        "regency_code": 6502,
        "province_code": 65,
        "name": "Long Pujungan",
        "postal_code": "77563",
        "latitude": 2.646713738845158,
        "longitude": 115.82061360264491
    },
    {
        "code": 6502032002,
        "district_code": 650203,
        "regency_code": 6502,
        "province_code": 65,
        "name": "Long Ketaman",
        "postal_code": "77563",
        "latitude": 2.4995945579059735,
        "longitude": 115.7402333307333
    },
    {
        "code": 6502032003,
        "district_code": 650203,
        "regency_code": 6502,
        "province_code": 65,
        "name": "Long Pua",
        "postal_code": "77563",
        "latitude": 2.5713555241725885,
        "longitude": 115.66275807703313
    },
    {
        "code": 6502032004,
        "district_code": 650203,
        "regency_code": 6502,
        "province_code": 65,
        "name": "Long Lame",
        "postal_code": "77563",
        "latitude": 2.7646593370164645,
        "longitude": 115.26386535491721
    },
    {
        "code": 6502032005,
        "district_code": 650203,
        "regency_code": 6502,
        "province_code": 65,
        "name": "Long Jelet",
        "postal_code": "77563",
        "latitude": 2.4463845099248642,
        "longitude": 115.49291775127189
    },
    {
        "code": 6502032006,
        "district_code": 650203,
        "regency_code": 6502,
        "province_code": 65,
        "name": "Long Aran",
        "postal_code": "77563",
        "latitude": 2.516179055659698,
        "longitude": 116.02630125289379
    },
    {
        "code": 6502032007,
        "district_code": 650203,
        "regency_code": 6502,
        "province_code": 65,
        "name": "Long Peliran",
        "postal_code": "77563",
        "latitude": 2.7179796599527823,
        "longitude": 115.79611033572205
    },
    {
        "code": 6502032008,
        "district_code": 650203,
        "regency_code": 6502,
        "province_code": 65,
        "name": "Long Bena",
        "postal_code": "77563",
        "latitude": 2.796593868643541,
        "longitude": 115.52203084890856
    },
    {
        "code": 6502032009,
        "district_code": 650203,
        "regency_code": 6502,
        "province_code": 65,
        "name": "Long Belaka Pitau",
        "postal_code": "77563",
        "latitude": 2.6731264433646844,
        "longitude": 115.6682272709726
    },
    {
        "code": 6502042001,
        "district_code": 650204,
        "regency_code": 6502,
        "province_code": 65,
        "name": "Data Dian",
        "postal_code": "77571",
        "latitude": 2.2119285496531416,
        "longitude": 115.40355420326857
    },
    {
        "code": 6502042002,
        "district_code": 650204,
        "regency_code": 6502,
        "province_code": 65,
        "name": "Long Pipa",
        "postal_code": "77571",
        "latitude": 1.8656069508212618,
        "longitude": 115.4976425402601
    },
    {
        "code": 6502042003,
        "district_code": 650204,
        "regency_code": 6502,
        "province_code": 65,
        "name": "Long Sule",
        "postal_code": "77571",
        "latitude": 1.8312790012798372,
        "longitude": 115.8825915052668
    },
    {
        "code": 6502042004,
        "district_code": 650204,
        "regency_code": 6502,
        "province_code": 65,
        "name": "Sungai Anai",
        "postal_code": "77571",
        "latitude": 2.166136453564463,
        "longitude": 114.99408539630384
    },
    {
        "code": 6502042005,
        "district_code": 650204,
        "regency_code": 6502,
        "province_code": 65,
        "name": "Long Metun",
        "postal_code": "77571",
        "latitude": 1.9250207025147232,
        "longitude": 115.13224552770963
    },
    {
        "code": 6502052001,
        "district_code": 650205,
        "regency_code": 6502,
        "province_code": 65,
        "name": "Long Nawang",
        "postal_code": "77572",
        "latitude": 1.8668209492445509,
        "longitude": 114.89277364457217
    },
    {
        "code": 6502052002,
        "district_code": 650205,
        "regency_code": 6502,
        "province_code": 65,
        "name": "Nawang Baru",
        "postal_code": "77572",
        "latitude": 1.512991377342048,
        "longitude": 114.79775030156584
    },
    {
        "code": 6502052003,
        "district_code": 650205,
        "regency_code": 6502,
        "province_code": 65,
        "name": "Long Temuyat",
        "postal_code": "77572",
        "latitude": 1.7432757230667566,
        "longitude": 114.8919140737623
    },
    {
        "code": 6502052004,
        "district_code": 650205,
        "regency_code": 6502,
        "province_code": 65,
        "name": "Long Betaoh",
        "postal_code": "77572",
        "latitude": 1.7937078882151374,
        "longitude": 114.77461586883737
    },
    {
        "code": 6502052005,
        "district_code": 650205,
        "regency_code": 6502,
        "province_code": 65,
        "name": "Long Payau",
        "postal_code": "77572",
        "latitude": 1.8341222625527251,
        "longitude": 114.97704862431524
    },
    {
        "code": 6502062001,
        "district_code": 650206,
        "regency_code": 6502,
        "province_code": 65,
        "name": "Bila Bekayuk",
        "postal_code": "77551",
        "latitude": 3.231690345262249,
        "longitude": 116.51226315061571
    },
    {
        "code": 6502062002,
        "district_code": 650206,
        "regency_code": 6502,
        "province_code": 65,
        "name": "Long Loreh",
        "postal_code": "77551",
        "latitude": 3.1890320412637374,
        "longitude": 116.50528270822208
    },
    {
        "code": 6502062003,
        "district_code": 650206,
        "regency_code": 6502,
        "province_code": 65,
        "name": "Langap",
        "postal_code": "77551",
        "latitude": 3.1691137154277484,
        "longitude": 116.51833617880148
    },
    {
        "code": 6502062004,
        "district_code": 650206,
        "regency_code": 6502,
        "province_code": 65,
        "name": "Laban Nyarit",
        "postal_code": "77551",
        "latitude": 3.127385108259124,
        "longitude": 116.5078428405785
    },
    {
        "code": 6502062005,
        "district_code": 650206,
        "regency_code": 6502,
        "province_code": 65,
        "name": "Nunuk Tanah Kibang",
        "postal_code": "77551",
        "latitude": 3.163043037286731,
        "longitude": 116.37091583246247
    },
    {
        "code": 6502062006,
        "district_code": 650206,
        "regency_code": 6502,
        "province_code": 65,
        "name": "Pelencau",
        "postal_code": "77551",
        "latitude": 3.092887783336109,
        "longitude": 116.63479712942706
    },
    {
        "code": 6502062007,
        "district_code": 650206,
        "regency_code": 6502,
        "province_code": 65,
        "name": "Paya Seturan",
        "postal_code": "77551",
        "latitude": 3.0536922554641204,
        "longitude": 116.48390166472743
    },
    {
        "code": 6502062008,
        "district_code": 650206,
        "regency_code": 6502,
        "province_code": 65,
        "name": "Punan Rian",
        "postal_code": "77551",
        "latitude": 2.9660948566889402,
        "longitude": 116.55519991357146
    },
    {
        "code": 6502062009,
        "district_code": 650206,
        "regency_code": 6502,
        "province_code": 65,
        "name": "Sengayan",
        "postal_code": "77551",
        "latitude": 3.20700797811284,
        "longitude": 116.39238611771151
    },
    {
        "code": 6502072001,
        "district_code": 650207,
        "regency_code": 6502,
        "province_code": 65,
        "name": "Kaliamok",
        "postal_code": "77557",
        "latitude": 3.6366685301918,
        "longitude": 116.63609532459124
    },
    {
        "code": 6502072002,
        "district_code": 650207,
        "regency_code": 6502,
        "province_code": 65,
        "name": "Luso",
        "postal_code": "77557",
        "latitude": 3.6122980492847665,
        "longitude": 116.59996329622577
    },
    {
        "code": 6502072003,
        "district_code": 650207,
        "regency_code": 6502,
        "province_code": 65,
        "name": "Malinau Seberang",
        "postal_code": "77557",
        "latitude": 3.6058057661002376,
        "longitude": 116.62657533748019
    },
    {
        "code": 6502072004,
        "district_code": 650207,
        "regency_code": 6502,
        "province_code": 65,
        "name": "Putat",
        "postal_code": "77557",
        "latitude": 3.648388263042569,
        "longitude": 116.68471921909514
    },
    {
        "code": 6502072005,
        "district_code": 650207,
        "regency_code": 6502,
        "province_code": 65,
        "name": "Salap",
        "postal_code": "77557",
        "latitude": 3.6434597820783785,
        "longitude": 116.7073632443033
    },
    {
        "code": 6502072006,
        "district_code": 650207,
        "regency_code": 6502,
        "province_code": 65,
        "name": "Seruyung",
        "postal_code": "77557",
        "latitude": 3.6828258809083763,
        "longitude": 116.7143724403579
    },
    {
        "code": 6502072007,
        "district_code": 650207,
        "regency_code": 6502,
        "province_code": 65,
        "name": "Respen Tubu",
        "postal_code": "77557",
        "latitude": 3.76889065498633,
        "longitude": 116.40785995266117
    },
    {
        "code": 6502072008,
        "district_code": 650207,
        "regency_code": 6502,
        "province_code": 65,
        "name": "Belayan",
        "postal_code": "77557",
        "latitude": 3.7573339978792206,
        "longitude": 116.56893504213645
    },
    {
        "code": 6502072009,
        "district_code": 650207,
        "regency_code": 6502,
        "province_code": 65,
        "name": "Sembuak Warod",
        "postal_code": "77557",
        "latitude": 3.6476285168585014,
        "longitude": 116.48258546986521
    },
    {
        "code": 6502072010,
        "district_code": 650207,
        "regency_code": 6502,
        "province_code": 65,
        "name": "Lubak Manis",
        "postal_code": "77557",
        "latitude": 3.615161253005596,
        "longitude": 116.65292595359222
    },
    {
        "code": 6502072011,
        "district_code": 650207,
        "regency_code": 6502,
        "province_code": 65,
        "name": "Kelapis",
        "postal_code": "77557",
        "latitude": 3.6392990095598545,
        "longitude": 116.65943341263322
    },
    {
        "code": 6502072012,
        "district_code": 650207,
        "regency_code": 6502,
        "province_code": 65,
        "name": "Semengaris",
        "postal_code": "77557",
        "latitude": 3.620762843155337,
        "longitude": 116.66014603318173
    },
    {
        "code": 6502082001,
        "district_code": 650208,
        "regency_code": 6502,
        "province_code": 65,
        "name": "Long Bila",
        "postal_code": "77554",
        "latitude": 3.4785575339601413,
        "longitude": 116.48388038196164
    },
    {
        "code": 6502082002,
        "district_code": 650208,
        "regency_code": 6502,
        "province_code": 65,
        "name": "Long Kenipe",
        "postal_code": "77554",
        "latitude": 3.4955611029089027,
        "longitude": 116.49019323977234
    },
    {
        "code": 6502082003,
        "district_code": 650208,
        "regency_code": 6502,
        "province_code": 65,
        "name": "Punan Bengalun",
        "postal_code": "77554",
        "latitude": 3.2738897076248272,
        "longitude": 116.70457959195554
    },
    {
        "code": 6502082004,
        "district_code": 650208,
        "regency_code": 6502,
        "province_code": 65,
        "name": "Sesua",
        "postal_code": "77554",
        "latitude": 3.394257364451218,
        "longitude": 116.637343790642
    },
    {
        "code": 6502082005,
        "district_code": 650208,
        "regency_code": 6502,
        "province_code": 65,
        "name": "Sentaban",
        "postal_code": "77554",
        "latitude": 3.473669663233655,
        "longitude": 116.48528324918152
    },
    {
        "code": 6502082006,
        "district_code": 650208,
        "regency_code": 6502,
        "province_code": 65,
        "name": "Tanjung Lapang",
        "postal_code": "77554",
        "latitude": 3.517634957934118,
        "longitude": 116.58202883782597
    },
    {
        "code": 6502082007,
        "district_code": 650208,
        "regency_code": 6502,
        "province_code": 65,
        "name": "Taras",
        "postal_code": "77554",
        "latitude": 3.5288467172392006,
        "longitude": 116.55466757063995
    },
    {
        "code": 6502082008,
        "district_code": 650208,
        "regency_code": 6502,
        "province_code": 65,
        "name": "Kuala Lapang",
        "postal_code": "77554",
        "latitude": 3.4596939615796534,
        "longitude": 116.59880088218493
    },
    {
        "code": 6502082009,
        "district_code": 650208,
        "regency_code": 6502,
        "province_code": 65,
        "name": "Sempayang",
        "postal_code": "77554",
        "latitude": 3.5069173933563236,
        "longitude": 116.63892051892603
    },
    {
        "code": 6502092001,
        "district_code": 650209,
        "regency_code": 6502,
        "province_code": 65,
        "name": "Dumu Mahak",
        "postal_code": "77574",
        "latitude": 1.2741814786484693,
        "longitude": 115.27984750078794
    },
    {
        "code": 6502092002,
        "district_code": 650209,
        "regency_code": 6502,
        "province_code": 65,
        "name": "Long Lebusan",
        "postal_code": "77574",
        "latitude": 1.4858763236687293,
        "longitude": 115.50291196276743
    },
    {
        "code": 6502092003,
        "district_code": 650209,
        "regency_code": 6502,
        "province_code": 65,
        "name": "Mahak Baru",
        "postal_code": "77574",
        "latitude": 1.5755005371544983,
        "longitude": 115.2986504861627
    },
    {
        "code": 6502092004,
        "district_code": 650209,
        "regency_code": 6502,
        "province_code": 65,
        "name": "Long Top",
        "postal_code": "77574",
        "latitude": 1.349250665987053,
        "longitude": 115.48858979546753
    },
    {
        "code": 6502092005,
        "district_code": 650209,
        "regency_code": 6502,
        "province_code": 65,
        "name": "Agung Baru",
        "postal_code": "77574",
        "latitude": 1.5132083262031575,
        "longitude": 115.377924313512
    },
    {
        "code": 6502092006,
        "district_code": 650209,
        "regency_code": 6502,
        "province_code": 65,
        "name": "Data Baru",
        "postal_code": "77574",
        "latitude": 1.440821891418082,
        "longitude": 115.3651346266774
    },
    {
        "code": 6502102001,
        "district_code": 650210,
        "regency_code": 6502,
        "province_code": 65,
        "name": "Long Ampung",
        "postal_code": "77573",
        "latitude": 1.6833338690953452,
        "longitude": 114.91705286959709
    },
    {
        "code": 6502102002,
        "district_code": 650210,
        "regency_code": 6502,
        "province_code": 65,
        "name": "Long Uro",
        "postal_code": "77573",
        "latitude": 1.6515090863023325,
        "longitude": 114.99937441929467
    },
    {
        "code": 6502102003,
        "district_code": 650210,
        "regency_code": 6502,
        "province_code": 65,
        "name": "Lidung Payau",
        "postal_code": "77573",
        "latitude": 1.6379109081544663,
        "longitude": 115.04578901205903
    },
    {
        "code": 6502102004,
        "district_code": 650210,
        "regency_code": 6502,
        "province_code": 65,
        "name": "Sungai Barang",
        "postal_code": "77573",
        "latitude": 1.6234592660964107,
        "longitude": 115.13686520852463
    },
    {
        "code": 6502102005,
        "district_code": 650210,
        "regency_code": 6502,
        "province_code": 65,
        "name": "Metulang",
        "postal_code": "77573",
        "latitude": 1.7782935768537773,
        "longitude": 115.02303175526052
    },
    {
        "code": 6502112001,
        "district_code": 650211,
        "regency_code": 6502,
        "province_code": 65,
        "name": "Long Uli",
        "postal_code": "77562",
        "latitude": 2.793386986201534,
        "longitude": 115.84672943446945
    },
    {
        "code": 6502112002,
        "district_code": 650211,
        "regency_code": 6502,
        "province_code": 65,
        "name": "Long Alango",
        "postal_code": "77562",
        "latitude": 2.891520864895405,
        "longitude": 115.79861782740066
    },
    {
        "code": 6502112003,
        "district_code": 650211,
        "regency_code": 6502,
        "province_code": 65,
        "name": "Long Berini",
        "postal_code": "77562",
        "latitude": 3.0379981020096727,
        "longitude": 115.82174675213591
    },
    {
        "code": 6502112004,
        "district_code": 650211,
        "regency_code": 6502,
        "province_code": 65,
        "name": "Long Tebulo",
        "postal_code": "77562",
        "latitude": 2.8517392770745755,
        "longitude": 115.85454340790474
    },
    {
        "code": 6502112005,
        "district_code": 650211,
        "regency_code": 6502,
        "province_code": 65,
        "name": "Apau Ping",
        "postal_code": "77562",
        "latitude": 3.243365704399606,
        "longitude": 115.72419134872085
    },
    {
        "code": 6502112006,
        "district_code": 650211,
        "regency_code": 6502,
        "province_code": 65,
        "name": "Long Kemuat",
        "postal_code": "77562",
        "latitude": 2.963664489983108,
        "longitude": 115.83762939363884
    },
    {
        "code": 6502122001,
        "district_code": 650212,
        "regency_code": 6502,
        "province_code": 65,
        "name": "Lung Fala",
        "postal_code": "77155",
        "latitude": 4.055928368727999,
        "longitude": 116.07684297438207
    },
    {
        "code": 6502122002,
        "district_code": 650212,
        "regency_code": 6502,
        "province_code": 65,
        "name": "Lung Kebinu",
        "postal_code": "77155",
        "latitude": 4.018723408213905,
        "longitude": 116.15749691618602
    },
    {
        "code": 6502122003,
        "district_code": 650212,
        "regency_code": 6502,
        "province_code": 65,
        "name": "Lung Mekatif",
        "postal_code": "77155",
        "latitude": 3.904128162418816,
        "longitude": 116.18822810891102
    },
    {
        "code": 6502122004,
        "district_code": 650212,
        "regency_code": 6502,
        "province_code": 65,
        "name": "Lung Simau",
        "postal_code": "77155",
        "latitude": 3.798738846141733,
        "longitude": 116.27618068520184
    },
    {
        "code": 6502122005,
        "district_code": 650212,
        "regency_code": 6502,
        "province_code": 65,
        "name": "Lung Berang",
        "postal_code": "77155",
        "latitude": 3.8814334449874677,
        "longitude": 116.0995908129967
    },
    {
        "code": 6502122006,
        "district_code": 650212,
        "regency_code": 6502,
        "province_code": 65,
        "name": "Lung Sulit",
        "postal_code": "77155",
        "latitude": 3.841952036778651,
        "longitude": 116.0270817835813
    },
    {
        "code": 6502122007,
        "district_code": 650212,
        "regency_code": 6502,
        "province_code": 65,
        "name": "Lung Semamu",
        "postal_code": "77155",
        "latitude": 3.671570750502137,
        "longitude": 116.0381220823546
    },
    {
        "code": 6502122008,
        "district_code": 650212,
        "regency_code": 6502,
        "province_code": 65,
        "name": "Long Gafid",
        "postal_code": "77555",
        "latitude": 3.9967112442031674,
        "longitude": 116.24089562853172
    },
    {
        "code": 6502122009,
        "district_code": 650212,
        "regency_code": 6502,
        "province_code": 65,
        "name": "Temalang",
        "postal_code": "77555",
        "latitude": 3.730678239181007,
        "longitude": 116.17674774456438
    },
    {
        "code": 6502122010,
        "district_code": 650212,
        "regency_code": 6502,
        "province_code": 65,
        "name": "Long Liku",
        "postal_code": "77555",
        "latitude": 3.4911742491225546,
        "longitude": 116.38801338137844
    },
    {
        "code": 6502132001,
        "district_code": 650213,
        "regency_code": 6502,
        "province_code": 65,
        "name": "Setulang",
        "postal_code": "77552",
        "latitude": 3.4311639477974474,
        "longitude": 116.46209803393104
    },
    {
        "code": 6502132002,
        "district_code": 650213,
        "regency_code": 6502,
        "province_code": 65,
        "name": "Setarap",
        "postal_code": "77552",
        "latitude": 3.4142464567592676,
        "longitude": 116.52527003049406
    },
    {
        "code": 6502132003,
        "district_code": 650213,
        "regency_code": 6502,
        "province_code": 65,
        "name": "Punan Setarap",
        "postal_code": "77552",
        "latitude": 3.3755995222118402,
        "longitude": 116.45290023513594
    },
    {
        "code": 6502132004,
        "district_code": 650213,
        "regency_code": 6502,
        "province_code": 65,
        "name": "Batu Kajang",
        "postal_code": "77552",
        "latitude": 3.371440317208564,
        "longitude": 116.54749269568349
    },
    {
        "code": 6502132005,
        "district_code": 650213,
        "regency_code": 6502,
        "province_code": 65,
        "name": "Gong Solok",
        "postal_code": "77552",
        "latitude": 3.3030288655982982,
        "longitude": 116.56710901059107
    },
    {
        "code": 6502132006,
        "district_code": 650213,
        "regency_code": 6502,
        "province_code": 65,
        "name": "Punan Gong Solok",
        "postal_code": "77552",
        "latitude": 3.2178076662285378,
        "longitude": 116.60186007531748
    },
    {
        "code": 6502132007,
        "district_code": 650213,
        "regency_code": 6502,
        "province_code": 65,
        "name": "Long Adiu",
        "postal_code": "77552",
        "latitude": 3.2911424294739047,
        "longitude": 116.50724360320102
    },
    {
        "code": 6502132008,
        "district_code": 650213,
        "regency_code": 6502,
        "province_code": 65,
        "name": "Punan Long Adiu",
        "postal_code": "77552",
        "latitude": 3.3079454493233547,
        "longitude": 116.4203251480631
    },
    {
        "code": 6502142001,
        "district_code": 650214,
        "regency_code": 6502,
        "province_code": 65,
        "name": "Long Lake",
        "postal_code": "77553",
        "latitude": 2.9464001135091777,
        "longitude": 116.2672117017332
    },
    {
        "code": 6502142002,
        "district_code": 650214,
        "regency_code": 6502,
        "province_code": 65,
        "name": "Punan Mirau",
        "postal_code": "77553",
        "latitude": 3.072811850702407,
        "longitude": 116.29363262600424
    },
    {
        "code": 6502142003,
        "district_code": 650214,
        "regency_code": 6502,
        "province_code": 65,
        "name": "Long Rat",
        "postal_code": "77553",
        "latitude": 3.1783808606535477,
        "longitude": 116.19659338047946
    },
    {
        "code": 6502142004,
        "district_code": 650214,
        "regency_code": 6502,
        "province_code": 65,
        "name": "Halanga",
        "postal_code": "77553",
        "latitude": 3.1106649521282312,
        "longitude": 116.39451476376733
    },
    {
        "code": 6502142005,
        "district_code": 650214,
        "regency_code": 6502,
        "province_code": 65,
        "name": "Metut",
        "postal_code": "77553",
        "latitude": 2.8296694640222455,
        "longitude": 116.33576426020922
    },
    {
        "code": 6502142006,
        "district_code": 650214,
        "regency_code": 6502,
        "province_code": 65,
        "name": "Long Jalan",
        "postal_code": "77553",
        "latitude": 2.8609414129906536,
        "longitude": 116.15366615790126
    },
    {
        "code": 6502142007,
        "district_code": 650214,
        "regency_code": 6502,
        "province_code": 65,
        "name": "Nahakramo",
        "postal_code": "77553",
        "latitude": 2.8034819517506446,
        "longitude": 116.04218707867273
    },
    {
        "code": 6502142008,
        "district_code": 650214,
        "regency_code": 6502,
        "province_code": 65,
        "name": "Tanjung Nanga",
        "postal_code": "77553",
        "latitude": 2.9782716696087745,
        "longitude": 116.47325664707336
    },
    {
        "code": 6502152001,
        "district_code": 650215,
        "regency_code": 6502,
        "province_code": 65,
        "name": "Long Nyau",
        "postal_code": "77556",
        "latitude": 3.023933656376223,
        "longitude": 116.00982161263651
    },
    {
        "code": 6502152002,
        "district_code": 650215,
        "regency_code": 6502,
        "province_code": 65,
        "name": "Long Titi",
        "postal_code": "77556",
        "latitude": 3.4205866244624623,
        "longitude": 116.0247667053397
    },
    {
        "code": 6502152003,
        "district_code": 650215,
        "regency_code": 6502,
        "province_code": 65,
        "name": "Long Ranau",
        "postal_code": "77556",
        "latitude": 3.173800027717121,
        "longitude": 116.08808896421053
    },
    {
        "code": 6502152004,
        "district_code": 650215,
        "regency_code": 6502,
        "province_code": 65,
        "name": "Rian Tubu",
        "postal_code": "77556",
        "latitude": 3.339364661923261,
        "longitude": 116.24472209383887
    },
    {
        "code": 6502152005,
        "district_code": 650215,
        "regency_code": 6502,
        "province_code": 65,
        "name": "Long Pada",
        "postal_code": "77556",
        "latitude": 3.0417450453540518,
        "longitude": 116.14430555291068
    },
    {
        "code": 6503012001,
        "district_code": 650301,
        "regency_code": 6503,
        "province_code": 65,
        "name": "Tanjungkarang",
        "postal_code": "77483",
        "latitude": 4.0568868508664435,
        "longitude": 117.89683515181119
    },
    {
        "code": 6503012002,
        "district_code": 650301,
        "regency_code": 6503,
        "province_code": 65,
        "name": "Balansiku",
        "postal_code": "77483",
        "latitude": 4.061060473998311,
        "longitude": 117.86180921508566
    },
    {
        "code": 6503012003,
        "district_code": 650301,
        "regency_code": 6503,
        "province_code": 65,
        "name": "Sungai Manurung",
        "postal_code": "77483",
        "latitude": 4.076647017783935,
        "longitude": 117.90250595397633
    },
    {
        "code": 6503012004,
        "district_code": 650301,
        "regency_code": 6503,
        "province_code": 65,
        "name": "Padaidi",
        "postal_code": "77483",
        "latitude": 4.091551152332128,
        "longitude": 117.90055087027272
    },
    {
        "code": 6503021001,
        "district_code": 650302,
        "regency_code": 6503,
        "province_code": 65,
        "name": "Nunukan Timur",
        "postal_code": "77482",
        "latitude": 4.140248750486134,
        "longitude": 117.66192148168128
    },
    {
        "code": 6503021002,
        "district_code": 650302,
        "regency_code": 6503,
        "province_code": 65,
        "name": "Nunukan Barat",
        "postal_code": "77482",
        "latitude": 3.9573768281045667,
        "longitude": 117.50215197296797
    },
    {
        "code": 6503021003,
        "district_code": 650302,
        "regency_code": 6503,
        "province_code": 65,
        "name": "Nunukan Utara",
        "postal_code": "77482",
        "latitude": 4.143538351481405,
        "longitude": 117.65146595125157
    },
    {
        "code": 6503021005,
        "district_code": 650302,
        "regency_code": 6503,
        "province_code": 65,
        "name": "Nunukan Tengah",
        "postal_code": "77482",
        "latitude": 4.11721674665445,
        "longitude": 117.65560189640316
    },
    {
        "code": 6503022004,
        "district_code": 650302,
        "regency_code": 6503,
        "province_code": 65,
        "name": "Binusan",
        "postal_code": "77482",
        "latitude": 4.045004256032312,
        "longitude": 117.63177848996703
    },
    {
        "code": 6503032001,
        "district_code": 650303,
        "regency_code": 6503,
        "province_code": 65,
        "name": "Tagul",
        "postal_code": "77453",
        "latitude": 3.81789245864742,
        "longitude": 117.16961638589935
    },
    {
        "code": 6503032002,
        "district_code": 650303,
        "regency_code": 6503,
        "province_code": 65,
        "name": "Lubakan",
        "postal_code": "77453",
        "latitude": 3.8114530901151107,
        "longitude": 117.0959026397459
    },
    {
        "code": 6503032003,
        "district_code": 650303,
        "regency_code": 6503,
        "province_code": 65,
        "name": "Atap",
        "postal_code": "77453",
        "latitude": 3.827554949883197,
        "longitude": 117.04217938437016
    },
    {
        "code": 6503032004,
        "district_code": 650303,
        "regency_code": 6503,
        "province_code": 65,
        "name": "Manuk Bungkul",
        "postal_code": "77453",
        "latitude": 3.8195948429423905,
        "longitude": 116.99724974081585
    },
    {
        "code": 6503032005,
        "district_code": 650303,
        "regency_code": 6503,
        "province_code": 65,
        "name": "Tujung",
        "postal_code": "77453",
        "latitude": 3.8212544215555355,
        "longitude": 116.95938160327084
    },
    {
        "code": 6503032006,
        "district_code": 650303,
        "regency_code": 6503,
        "province_code": 65,
        "name": "Pagar",
        "postal_code": "77453",
        "latitude": 3.827636148331355,
        "longitude": 116.92067599891487
    },
    {
        "code": 6503032007,
        "district_code": 650303,
        "regency_code": 6503,
        "province_code": 65,
        "name": "Labuk",
        "postal_code": "77453",
        "latitude": 3.8323544717865015,
        "longitude": 116.89101686706981
    },
    {
        "code": 6503032008,
        "district_code": 650303,
        "regency_code": 6503,
        "province_code": 65,
        "name": "Butas Bagu",
        "postal_code": "77453",
        "latitude": 3.790883829045695,
        "longitude": 116.88369001786741
    },
    {
        "code": 6503032009,
        "district_code": 650303,
        "regency_code": 6503,
        "province_code": 65,
        "name": "Pelaju",
        "postal_code": "77453",
        "latitude": 3.7998581009483927,
        "longitude": 117.30133045141609
    },
    {
        "code": 6503032010,
        "district_code": 650303,
        "regency_code": 6503,
        "province_code": 65,
        "name": "Tepian",
        "postal_code": "77453",
        "latitude": 3.796186022349527,
        "longitude": 117.56831606709835
    },
    {
        "code": 6503042001,
        "district_code": 650304,
        "regency_code": 6503,
        "province_code": 65,
        "name": "Deralon",
        "postal_code": "77457",
        "latitude": 4.196615046972171,
        "longitude": 116.1683010611203
    },
    {
        "code": 6503042002,
        "district_code": 650304,
        "regency_code": 6503,
        "province_code": 65,
        "name": "Liang",
        "postal_code": "77457",
        "latitude": 4.066726517112102,
        "longitude": 116.60423655624389
    },
    {
        "code": 6503042003,
        "district_code": 650304,
        "regency_code": 6503,
        "province_code": 65,
        "name": "Dabulon",
        "postal_code": "77457",
        "latitude": 4.136148001347031,
        "longitude": 116.52980216607494
    },
    {
        "code": 6503042004,
        "district_code": 650304,
        "regency_code": 6503,
        "province_code": 65,
        "name": "Taluan",
        "postal_code": "77457",
        "latitude": 3.849296904550119,
        "longitude": 116.68921410984376
    },
    {
        "code": 6503042005,
        "district_code": 650304,
        "regency_code": 6503,
        "province_code": 65,
        "name": "Podong",
        "postal_code": "77457",
        "latitude": 3.8840045225034534,
        "longitude": 116.71035794662083
    },
    {
        "code": 6503042006,
        "district_code": 650304,
        "regency_code": 6503,
        "province_code": 65,
        "name": "Patal I",
        "postal_code": "77457",
        "latitude": 3.8576475642132,
        "longitude": 116.72425032834639
    },
    {
        "code": 6503042007,
        "district_code": 650304,
        "regency_code": 6503,
        "province_code": 65,
        "name": "Siawang",
        "postal_code": "77457",
        "latitude": 4.152500714001723,
        "longitude": 116.50922432934378
    },
    {
        "code": 6503042008,
        "district_code": 650304,
        "regency_code": 6503,
        "province_code": 65,
        "name": "Sapuyan",
        "postal_code": "77457",
        "latitude": 3.795906356832982,
        "longitude": 116.7117052438474
    },
    {
        "code": 6503042009,
        "district_code": 650304,
        "regency_code": 6503,
        "province_code": 65,
        "name": "Nainsid",
        "postal_code": "77457",
        "latitude": 3.9237533442889787,
        "longitude": 116.44256238602219
    },
    {
        "code": 6503042010,
        "district_code": 650304,
        "regency_code": 6503,
        "province_code": 65,
        "name": "Sasibu",
        "postal_code": "77457",
        "latitude": 4.145091642950899,
        "longitude": 116.38687179439258
    },
    {
        "code": 6503042011,
        "district_code": 650304,
        "regency_code": 6503,
        "province_code": 65,
        "name": "Saludan",
        "postal_code": "77457",
        "latitude": 4.0712266145249965,
        "longitude": 116.40266452101919
    },
    {
        "code": 6503042012,
        "district_code": 650304,
        "regency_code": 6503,
        "province_code": 65,
        "name": "Semalat",
        "postal_code": "77457",
        "latitude": 4.121085069169654,
        "longitude": 116.45097648412431
    },
    {
        "code": 6503042013,
        "district_code": 650304,
        "regency_code": 6503,
        "province_code": 65,
        "name": "Libang",
        "postal_code": "77457",
        "latitude": 3.7181010734209194,
        "longitude": 116.7192669752427
    },
    {
        "code": 6503042014,
        "district_code": 650304,
        "regency_code": 6503,
        "province_code": 65,
        "name": "Sedongon",
        "postal_code": "77457",
        "latitude": 3.917416697934042,
        "longitude": 116.5854157710617
    },
    {
        "code": 6503042015,
        "district_code": 650304,
        "regency_code": 6503,
        "province_code": 65,
        "name": "Tanjung Hilir",
        "postal_code": "77457",
        "latitude": 3.7592239670500764,
        "longitude": 116.68992028415884
    },
    {
        "code": 6503042016,
        "district_code": 650304,
        "regency_code": 6503,
        "province_code": 65,
        "name": "Sumalumung",
        "postal_code": "77457",
        "latitude": 4.131890043991044,
        "longitude": 116.53378647461
    },
    {
        "code": 6503042017,
        "district_code": 650304,
        "regency_code": 6503,
        "province_code": 65,
        "name": "Lintong",
        "postal_code": "77457",
        "latitude": 3.8085833793148285,
        "longitude": 116.67215349640023
    },
    {
        "code": 6503042018,
        "district_code": 650304,
        "regency_code": 6503,
        "province_code": 65,
        "name": "Pulu Bulawan",
        "postal_code": "77457",
        "latitude": 3.8372479538070245,
        "longitude": 116.68001536426434
    },
    {
        "code": 6503042019,
        "district_code": 650304,
        "regency_code": 6503,
        "province_code": 65,
        "name": "Tanjung Hulu",
        "postal_code": "77457",
        "latitude": 3.781331177284127,
        "longitude": 116.73722160034968
    },
    {
        "code": 6503042020,
        "district_code": 650304,
        "regency_code": 6503,
        "province_code": 65,
        "name": "Patal II",
        "postal_code": "77457",
        "latitude": 3.8399667988575295,
        "longitude": 116.68759933240523
    },
    {
        "code": 6503042021,
        "district_code": 650304,
        "regency_code": 6503,
        "province_code": 65,
        "name": "Pa'loo",
        "postal_code": "77457",
        "latitude": 4.267375878765781,
        "longitude": 115.95730913842023
    },
    {
        "code": 6503042022,
        "district_code": 650304,
        "regency_code": 6503,
        "province_code": 65,
        "name": "Sangkub",
        "postal_code": "77457",
        "latitude": 4.122868481427111,
        "longitude": 116.17594059843185
    },
    {
        "code": 6503042023,
        "district_code": 650304,
        "regency_code": 6503,
        "province_code": 65,
        "name": "Tubus",
        "postal_code": "77457",
        "latitude": 3.829674834517081,
        "longitude": 116.72593424962882
    },
    {
        "code": 6503042024,
        "district_code": 650304,
        "regency_code": 6503,
        "province_code": 65,
        "name": "Likos",
        "postal_code": "77457",
        "latitude": 4.197053393983572,
        "longitude": 116.11276030516706
    },
    {
        "code": 6503042025,
        "district_code": 650304,
        "regency_code": 6503,
        "province_code": 65,
        "name": "Bulan-Bulan",
        "postal_code": "77457",
        "latitude": 3.791472529279737,
        "longitude": 116.73001380588519
    },
    {
        "code": 6503042026,
        "district_code": 650304,
        "regency_code": 6503,
        "province_code": 65,
        "name": "Kalampising",
        "postal_code": "77457",
        "latitude": 3.74383848237451,
        "longitude": 116.7621332852372
    },
    {
        "code": 6503042027,
        "district_code": 650304,
        "regency_code": 6503,
        "province_code": 65,
        "name": "Pa'lemumut",
        "postal_code": "77457",
        "latitude": 4.1529340955901315,
        "longitude": 116.00175565502106
    },
    {
        "code": 6503042028,
        "district_code": 650304,
        "regency_code": 6503,
        "province_code": 65,
        "name": "Mansalong",
        "postal_code": "77457",
        "latitude": 3.7562520688309164,
        "longitude": 116.73578275249538
    },
    {
        "code": 6503052002,
        "district_code": 650305,
        "regency_code": 6503,
        "province_code": 65,
        "name": "Pa' Padi",
        "postal_code": "77456",
        "latitude": 3.8304852422273243,
        "longitude": 115.72969050188635
    },
    {
        "code": 6503052003,
        "district_code": 650305,
        "regency_code": 6503,
        "province_code": 65,
        "name": "Cinglat",
        "postal_code": "77456",
        "latitude": 3.833974123135046,
        "longitude": 115.76104628995654
    },
    {
        "code": 6503052022,
        "district_code": 650305,
        "regency_code": 6503,
        "province_code": 65,
        "name": "Liang Butan",
        "postal_code": "77456",
        "latitude": 3.9021284472477977,
        "longitude": 115.69274805161795
    },
    {
        "code": 6503052029,
        "district_code": 650305,
        "regency_code": 6503,
        "province_code": 65,
        "name": "Pa' Rupai",
        "postal_code": "77456",
        "latitude": 3.9100964347676253,
        "longitude": 115.59226547264063
    },
    {
        "code": 6503052030,
        "district_code": 650305,
        "regency_code": 6503,
        "province_code": 65,
        "name": "Ba Sikor",
        "postal_code": "77456",
        "latitude": 3.932059124767004,
        "longitude": 115.60941415276118
    },
    {
        "code": 6503052031,
        "district_code": 650305,
        "regency_code": 6503,
        "province_code": 65,
        "name": "Pa' Nado",
        "postal_code": "77456",
        "latitude": 3.9394629433325354,
        "longitude": 115.63620071269777
    },
    {
        "code": 6503052032,
        "district_code": 650305,
        "regency_code": 6503,
        "province_code": 65,
        "name": "Buduk Kinangan",
        "postal_code": "77456",
        "latitude": 3.944215392599236,
        "longitude": 115.62975191089329
    },
    {
        "code": 6503052033,
        "district_code": 650305,
        "regency_code": 6503,
        "province_code": 65,
        "name": "Liang Tuer",
        "postal_code": "77456",
        "latitude": 3.9057006181113794,
        "longitude": 115.6219998805579
    },
    {
        "code": 6503052034,
        "district_code": 650305,
        "regency_code": 6503,
        "province_code": 65,
        "name": "Buduk Tumu",
        "postal_code": "77456",
        "latitude": 3.9372345277001233,
        "longitude": 115.64268434613487
    },
    {
        "code": 6503052035,
        "district_code": 650305,
        "regency_code": 6503,
        "province_code": 65,
        "name": "Long Berayang",
        "postal_code": "77456",
        "latitude": 3.916370693819093,
        "longitude": 115.64192436670145
    },
    {
        "code": 6503052036,
        "district_code": 650305,
        "regency_code": 6503,
        "province_code": 65,
        "name": "Pa' Api",
        "postal_code": "77456",
        "latitude": 3.9377335797572353,
        "longitude": 115.65944533906844
    },
    {
        "code": 6503052037,
        "district_code": 650305,
        "regency_code": 6503,
        "province_code": 65,
        "name": "Pa' Sire",
        "postal_code": "77456",
        "latitude": 3.9094268178276996,
        "longitude": 115.6643336767418
    },
    {
        "code": 6503052038,
        "district_code": 650305,
        "regency_code": 6503,
        "province_code": 65,
        "name": "Wa' Yanud",
        "postal_code": "77456",
        "latitude": 3.924854975553399,
        "longitude": 115.67799358250848
    },
    {
        "code": 6503052039,
        "district_code": 650305,
        "regency_code": 6503,
        "province_code": 65,
        "name": "Long Nawang",
        "postal_code": "77456",
        "latitude": 3.9215366319954406,
        "longitude": 115.687251565458
    },
    {
        "code": 6503052040,
        "district_code": 650305,
        "regency_code": 6503,
        "province_code": 65,
        "name": "Long Katung",
        "postal_code": "77456",
        "latitude": 3.9170571795869598,
        "longitude": 115.69533310415243
    },
    {
        "code": 6503052041,
        "district_code": 650305,
        "regency_code": 6503,
        "province_code": 65,
        "name": "Long Bawan",
        "postal_code": "77456",
        "latitude": 3.9032043403653516,
        "longitude": 115.7025107358694
    },
    {
        "code": 6503052044,
        "district_code": 650305,
        "regency_code": 6503,
        "province_code": 65,
        "name": "Long Matung",
        "postal_code": "77456",
        "latitude": 3.897556781567298,
        "longitude": 115.71291664456193
    },
    {
        "code": 6503052045,
        "district_code": 650305,
        "regency_code": 6503,
        "province_code": 65,
        "name": "Long Rupan",
        "postal_code": "77456",
        "latitude": 3.868048292658179,
        "longitude": 115.7262798017303
    },
    {
        "code": 6503052046,
        "district_code": 650305,
        "regency_code": 6503,
        "province_code": 65,
        "name": "Liang Biadung",
        "postal_code": "77456",
        "latitude": 3.8700654613378305,
        "longitude": 115.76588106341977
    },
    {
        "code": 6503052047,
        "district_code": 650305,
        "regency_code": 6503,
        "province_code": 65,
        "name": "Wa' Laya",
        "postal_code": "77456",
        "latitude": 3.8888211271051003,
        "longitude": 115.76112503721468
    },
    {
        "code": 6503052048,
        "district_code": 650305,
        "regency_code": 6503,
        "province_code": 65,
        "name": "Pa' Matung",
        "postal_code": "77456",
        "latitude": 3.8846270156623857,
        "longitude": 115.7106621628874
    },
    {
        "code": 6503052049,
        "district_code": 650305,
        "regency_code": 6503,
        "province_code": 65,
        "name": "Pa' Terutun",
        "postal_code": "77456",
        "latitude": 3.916991795383417,
        "longitude": 115.74158429871714
    },
    {
        "code": 6503052065,
        "district_code": 650305,
        "regency_code": 6503,
        "province_code": 65,
        "name": "Pa' Putuk",
        "postal_code": "77456",
        "latitude": 3.849950675842285,
        "longitude": 115.71213629225821
    },
    {
        "code": 6503062001,
        "district_code": 650306,
        "regency_code": 6503,
        "province_code": 65,
        "name": "Pembeliangan",
        "postal_code": "77481",
        "latitude": 3.9687398518674377,
        "longitude": 117.23410133822796
    },
    {
        "code": 6503062002,
        "district_code": 650306,
        "regency_code": 6503,
        "province_code": 65,
        "name": "Apas",
        "postal_code": "77481",
        "latitude": 4.011720705513315,
        "longitude": 116.97711646064204
    },
    {
        "code": 6503062003,
        "district_code": 650306,
        "regency_code": 6503,
        "province_code": 65,
        "name": "Kunyit",
        "postal_code": "77481",
        "latitude": 3.9464169713897705,
        "longitude": 116.95940441580309
    },
    {
        "code": 6503062004,
        "district_code": 650306,
        "regency_code": 6503,
        "province_code": 65,
        "name": "Tetaban",
        "postal_code": "77481",
        "latitude": 4.012713400772686,
        "longitude": 116.923449657962
    },
    {
        "code": 6503062005,
        "district_code": 650306,
        "regency_code": 6503,
        "province_code": 65,
        "name": "Kekayap",
        "postal_code": "77481",
        "latitude": 3.945090648896811,
        "longitude": 116.99801076053454
    },
    {
        "code": 6503062006,
        "district_code": 650306,
        "regency_code": 6503,
        "province_code": 65,
        "name": "Bebanas",
        "postal_code": "77481",
        "latitude": 4.020683152628146,
        "longitude": 116.87621775060046
    },
    {
        "code": 6503062007,
        "district_code": 650306,
        "regency_code": 6503,
        "province_code": 65,
        "name": "Lulu",
        "postal_code": "77481",
        "latitude": 3.9820802439039644,
        "longitude": 116.84741537423604
    },
    {
        "code": 6503062008,
        "district_code": 650306,
        "regency_code": 6503,
        "province_code": 65,
        "name": "Sujau",
        "postal_code": "77481",
        "latitude": 4.002318006929213,
        "longitude": 116.7594203526063
    },
    {
        "code": 6503062009,
        "district_code": 650306,
        "regency_code": 6503,
        "province_code": 65,
        "name": "Melasu Baru",
        "postal_code": "77481",
        "latitude": 3.9304550923285198,
        "longitude": 116.91888863053681
    },
    {
        "code": 6503062010,
        "district_code": 650306,
        "regency_code": 6503,
        "province_code": 65,
        "name": "Harapan",
        "postal_code": "77481",
        "latitude": 4.001127617211433,
        "longitude": 116.97033376981375
    },
    {
        "code": 6503072001,
        "district_code": 650307,
        "regency_code": 6503,
        "province_code": 65,
        "name": "Long Pasia",
        "postal_code": "77454",
        "latitude": 3.584290512736049,
        "longitude": 115.71398504095508
    },
    {
        "code": 6503072002,
        "district_code": 650307,
        "regency_code": 6503,
        "province_code": 65,
        "name": "Liang Lunuk",
        "postal_code": "77454",
        "latitude": 3.5913646256513654,
        "longitude": 115.72920574802782
    },
    {
        "code": 6503072003,
        "district_code": 650307,
        "regency_code": 6503,
        "province_code": 65,
        "name": "Pa' Ibang",
        "postal_code": "77454",
        "latitude": 3.4916676459119893,
        "longitude": 115.74885160857855
    },
    {
        "code": 6503072004,
        "district_code": 650307,
        "regency_code": 6503,
        "province_code": 65,
        "name": "Pa' Amai",
        "postal_code": "77454",
        "latitude": 3.5044596842508002,
        "longitude": 115.79539117355016
    },
    {
        "code": 6503072005,
        "district_code": 650307,
        "regency_code": 6503,
        "province_code": 65,
        "name": "Pa' Kaber",
        "postal_code": "77454",
        "latitude": 3.56569641030751,
        "longitude": 115.73791658813029
    },
    {
        "code": 6503072006,
        "district_code": 650307,
        "regency_code": 6503,
        "province_code": 65,
        "name": "Pa' Tera",
        "postal_code": "77454",
        "latitude": 3.643848606125334,
        "longitude": 115.71111365888335
    },
    {
        "code": 6503072007,
        "district_code": 650307,
        "regency_code": 6503,
        "province_code": 65,
        "name": "Pa' Sing",
        "postal_code": "77454",
        "latitude": 3.5170744404393632,
        "longitude": 115.66779549364608
    },
    {
        "code": 6503072009,
        "district_code": 650307,
        "regency_code": 6503,
        "province_code": 65,
        "name": "Pa' Dalan",
        "postal_code": "77454",
        "latitude": 3.694696808527894,
        "longitude": 115.76422485801733
    },
    {
        "code": 6503072010,
        "district_code": 650307,
        "regency_code": 6503,
        "province_code": 65,
        "name": "Long Birar",
        "postal_code": "77454",
        "latitude": 3.5740667660684315,
        "longitude": 115.73318028149787
    },
    {
        "code": 6503072011,
        "district_code": 650307,
        "regency_code": 6503,
        "province_code": 65,
        "name": "Pa' Upan",
        "postal_code": "77454",
        "latitude": 3.5552080310408662,
        "longitude": 115.77785872700551
    },
    {
        "code": 6503072016,
        "district_code": 650307,
        "regency_code": 6503,
        "province_code": 65,
        "name": "Long Budung",
        "postal_code": "77454",
        "latitude": 3.643566411856466,
        "longitude": 115.68755134530603
    },
    {
        "code": 6503072018,
        "district_code": 650307,
        "regency_code": 6503,
        "province_code": 65,
        "name": "Long Pupung",
        "postal_code": "77454",
        "latitude": 3.629893233516893,
        "longitude": 115.62642047262233
    },
    {
        "code": 6503072020,
        "district_code": 650307,
        "regency_code": 6503,
        "province_code": 65,
        "name": "Pa' Urang",
        "postal_code": "77454",
        "latitude": 3.657409267070206,
        "longitude": 115.72303272573654
    },
    {
        "code": 6503082001,
        "district_code": 650308,
        "regency_code": 6503,
        "province_code": 65,
        "name": "Liang Bunyu",
        "postal_code": "77486",
        "latitude": 4.126117210310666,
        "longitude": 117.75265549075057
    },
    {
        "code": 6503082002,
        "district_code": 650308,
        "regency_code": 6503,
        "province_code": 65,
        "name": "Binalawan",
        "postal_code": "77486",
        "latitude": 4.113973083200096,
        "longitude": 117.78598788645142
    },
    {
        "code": 6503082003,
        "district_code": 650308,
        "regency_code": 6503,
        "province_code": 65,
        "name": "Setabu",
        "postal_code": "77486",
        "latitude": 4.086517024450776,
        "longitude": 117.82162122050003
    },
    {
        "code": 6503082004,
        "district_code": 650308,
        "regency_code": 6503,
        "province_code": 65,
        "name": "Bambangan",
        "postal_code": "77486",
        "latitude": 4.153779088685656,
        "longitude": 117.72794595833034
    },
    {
        "code": 6503091001,
        "district_code": 650309,
        "regency_code": 6503,
        "province_code": 65,
        "name": "Selisun",
        "postal_code": "77480",
        "latitude": 4.101116439765938,
        "longitude": 117.67398173868722
    },
    {
        "code": 6503091002,
        "district_code": 650309,
        "regency_code": 6503,
        "province_code": 65,
        "name": "Nunukan Selatan",
        "postal_code": "77480",
        "latitude": 4.087889706682815,
        "longitude": 117.69940087548467
    },
    {
        "code": 6503091003,
        "district_code": 650309,
        "regency_code": 6503,
        "province_code": 65,
        "name": "Mansapa",
        "postal_code": "77480",
        "latitude": 4.055879205475947,
        "longitude": 117.70768630124171
    },
    {
        "code": 6503091004,
        "district_code": 650309,
        "regency_code": 6503,
        "province_code": 65,
        "name": "Tanjung Harapan",
        "postal_code": "77480",
        "latitude": 4.011731759251006,
        "longitude": 117.69753261247993
    },
    {
        "code": 6503102001,
        "district_code": 650310,
        "regency_code": 6503,
        "province_code": 65,
        "name": "Sungai Nyamuk",
        "postal_code": "77488",
        "latitude": 4.12891416485068,
        "longitude": 117.88275237516747
    },
    {
        "code": 6503102002,
        "district_code": 650310,
        "regency_code": 6503,
        "province_code": 65,
        "name": "Tanjung Harapan",
        "postal_code": "77488",
        "latitude": 4.118932273807856,
        "longitude": 117.88380734913771
    },
    {
        "code": 6503102003,
        "district_code": 650310,
        "regency_code": 6503,
        "province_code": 65,
        "name": "Bukit Aru Indah",
        "postal_code": "77488",
        "latitude": 4.112330814961011,
        "longitude": 117.88988155712804
    },
    {
        "code": 6503102004,
        "district_code": 650310,
        "regency_code": 6503,
        "province_code": 65,
        "name": "Tanjung Aru",
        "postal_code": "77488",
        "latitude": 4.10137635763295,
        "longitude": 117.89643880303508
    },
    {
        "code": 6503112001,
        "district_code": 650311,
        "regency_code": 6503,
        "province_code": 65,
        "name": "Sungai Pancang",
        "postal_code": "77489",
        "latitude": 4.155370493293865,
        "longitude": 117.90016966242081
    },
    {
        "code": 6503112002,
        "district_code": 650311,
        "regency_code": 6503,
        "province_code": 65,
        "name": "Lapri",
        "postal_code": "77489",
        "latitude": 4.140917149776015,
        "longitude": 117.8746695423605
    },
    {
        "code": 6503112003,
        "district_code": 650311,
        "regency_code": 6503,
        "province_code": 65,
        "name": "Seberang",
        "postal_code": "77489",
        "latitude": 4.157422981826257,
        "longitude": 117.87667070757317
    },
    {
        "code": 6503122001,
        "district_code": 650312,
        "regency_code": 6503,
        "province_code": 65,
        "name": "Sungai Limau",
        "postal_code": "77487",
        "latitude": 4.152708551406901,
        "longitude": 117.79397866898697
    },
    {
        "code": 6503122002,
        "district_code": 650312,
        "regency_code": 6503,
        "province_code": 65,
        "name": "Maspul",
        "postal_code": "77487",
        "latitude": 4.150084309032742,
        "longitude": 117.82807855867011
    },
    {
        "code": 6503122003,
        "district_code": 650312,
        "regency_code": 6503,
        "province_code": 65,
        "name": "Aji Kuning",
        "postal_code": "77487",
        "latitude": 4.1554858718311865,
        "longitude": 117.85304064796188
    },
    {
        "code": 6503122004,
        "district_code": 650312,
        "regency_code": 6503,
        "province_code": 65,
        "name": "Bukit Harapan",
        "postal_code": "77487",
        "latitude": 4.129267939340177,
        "longitude": 117.83693076096509
    },
    {
        "code": 6503132001,
        "district_code": 650313,
        "regency_code": 6503,
        "province_code": 65,
        "name": "Srinanti",
        "postal_code": "77484",
        "latitude": 4.133617948170284,
        "longitude": 117.30972993121178
    },
    {
        "code": 6503132002,
        "district_code": 650313,
        "regency_code": 6503,
        "province_code": 65,
        "name": "Tabur Lestari",
        "postal_code": "77484",
        "latitude": 4.23467388333481,
        "longitude": 117.1731688422577
    },
    {
        "code": 6503132003,
        "district_code": 650313,
        "regency_code": 6503,
        "province_code": 65,
        "name": "Samaenre Semaja",
        "postal_code": "77484",
        "latitude": 4.2717428325423885,
        "longitude": 117.2384190445905
    },
    {
        "code": 6503132004,
        "district_code": 650313,
        "regency_code": 6503,
        "province_code": 65,
        "name": "Sekaduyan Taka",
        "postal_code": "77484",
        "latitude": 4.215880033098037,
        "longitude": 117.38759020838748
    },
    {
        "code": 6503142001,
        "district_code": 650314,
        "regency_code": 6503,
        "province_code": 65,
        "name": "Sanur",
        "postal_code": "77485",
        "latitude": 4.030963257415149,
        "longitude": 116.98731259411369
    },
    {
        "code": 6503142002,
        "district_code": 650314,
        "regency_code": 6503,
        "province_code": 65,
        "name": "Makmur",
        "postal_code": "77485",
        "latitude": 4.053305881573861,
        "longitude": 117.00950764124858
    },
    {
        "code": 6503142003,
        "district_code": 650314,
        "regency_code": 6503,
        "province_code": 65,
        "name": "Semunad",
        "postal_code": "77485",
        "latitude": 4.087033189553,
        "longitude": 117.12331782172282
    },
    {
        "code": 6503142004,
        "district_code": 650314,
        "regency_code": 6503,
        "province_code": 65,
        "name": "Sekikilan",
        "postal_code": "77485",
        "latitude": 4.136790837070577,
        "longitude": 117.08012659109147
    },
    {
        "code": 6503142005,
        "district_code": 650314,
        "regency_code": 6503,
        "province_code": 65,
        "name": "Kalunsayan",
        "postal_code": "77485",
        "latitude": 4.154329165102968,
        "longitude": 117.0369341126609
    },
    {
        "code": 6503142006,
        "district_code": 650314,
        "regency_code": 6503,
        "province_code": 65,
        "name": "Tembalang",
        "postal_code": "77485",
        "latitude": 4.219474889835956,
        "longitude": 117.04504878023
    },
    {
        "code": 6503142007,
        "district_code": 650314,
        "regency_code": 6503,
        "province_code": 65,
        "name": "Salang",
        "postal_code": "77485",
        "latitude": 4.257325518431964,
        "longitude": 117.01516073215554
    },
    {
        "code": 6503142008,
        "district_code": 650314,
        "regency_code": 6503,
        "province_code": 65,
        "name": "Tinampak I",
        "postal_code": "77485",
        "latitude": 4.292163564809009,
        "longitude": 116.97605733747439
    },
    {
        "code": 6503142009,
        "district_code": 650314,
        "regency_code": 6503,
        "province_code": 65,
        "name": "Tinampak II",
        "postal_code": "77485",
        "latitude": 4.261279838627178,
        "longitude": 116.93435865409708
    },
    {
        "code": 6503142010,
        "district_code": 650314,
        "regency_code": 6503,
        "province_code": 65,
        "name": "Naputi",
        "postal_code": "77485",
        "latitude": 4.272589550655678,
        "longitude": 116.7528603721682
    },
    {
        "code": 6503142011,
        "district_code": 650314,
        "regency_code": 6503,
        "province_code": 65,
        "name": "Tau Baru",
        "postal_code": "77485",
        "latitude": 4.256103088918549,
        "longitude": 116.88392678996414
    },
    {
        "code": 6503142012,
        "district_code": 650314,
        "regency_code": 6503,
        "province_code": 65,
        "name": "Balatikon",
        "postal_code": "77485",
        "latitude": 4.133984179049426,
        "longitude": 116.81027745400299
    },
    {
        "code": 6503152001,
        "district_code": 650315,
        "regency_code": 6503,
        "province_code": 65,
        "name": "Payang",
        "postal_code": "77450",
        "latitude": 3.8895345281965095,
        "longitude": 116.69055227004941
    },
    {
        "code": 6503152002,
        "district_code": 650315,
        "regency_code": 6503,
        "province_code": 65,
        "name": "Suyadon",
        "postal_code": "77450",
        "latitude": 3.888103241821004,
        "longitude": 116.67102476704541
    },
    {
        "code": 6503152003,
        "district_code": 650315,
        "regency_code": 6503,
        "province_code": 65,
        "name": "Bulu Mengolom",
        "postal_code": "77450",
        "latitude": 3.8611115238983094,
        "longitude": 116.6424618340063
    },
    {
        "code": 6503152004,
        "district_code": 650315,
        "regency_code": 6503,
        "province_code": 65,
        "name": "Tukulon",
        "postal_code": "77450",
        "latitude": 3.8915889554518586,
        "longitude": 116.64957718530864
    },
    {
        "code": 6503152005,
        "district_code": 650315,
        "regency_code": 6503,
        "province_code": 65,
        "name": "Ubol Sulok",
        "postal_code": "77450",
        "latitude": 3.9898768824160724,
        "longitude": 116.64363149948339
    },
    {
        "code": 6503152006,
        "district_code": 650315,
        "regency_code": 6503,
        "province_code": 65,
        "name": "Batung",
        "postal_code": "77450",
        "latitude": 3.926482432444917,
        "longitude": 116.64164828275571
    },
    {
        "code": 6503152007,
        "district_code": 650315,
        "regency_code": 6503,
        "province_code": 65,
        "name": "Ubol Alung",
        "postal_code": "77450",
        "latitude": 3.8720948914684405,
        "longitude": 116.59371942754066
    },
    {
        "code": 6503152008,
        "district_code": 650315,
        "regency_code": 6503,
        "province_code": 65,
        "name": "Nansapan",
        "postal_code": "77450",
        "latitude": 3.8778494461777533,
        "longitude": 116.58291915031606
    },
    {
        "code": 6503152009,
        "district_code": 650315,
        "regency_code": 6503,
        "province_code": 65,
        "name": "Samunti",
        "postal_code": "77450",
        "latitude": 3.9897213114489154,
        "longitude": 116.51789796315327
    },
    {
        "code": 6503152010,
        "district_code": 650315,
        "regency_code": 6503,
        "province_code": 65,
        "name": "Semata",
        "postal_code": "77450",
        "latitude": 3.966295923955367,
        "longitude": 116.5219028324522
    },
    {
        "code": 6503152011,
        "district_code": 650315,
        "regency_code": 6503,
        "province_code": 65,
        "name": "Sungoi",
        "postal_code": "77450",
        "latitude": 4.010393518808271,
        "longitude": 116.57172246224172
    },
    {
        "code": 6503152012,
        "district_code": 650315,
        "regency_code": 6503,
        "province_code": 65,
        "name": "Salan",
        "postal_code": "77450",
        "latitude": 4.244990977359164,
        "longitude": 116.47235697545631
    },
    {
        "code": 6503152013,
        "district_code": 650315,
        "regency_code": 6503,
        "province_code": 65,
        "name": "Sinampila I",
        "postal_code": "77450",
        "latitude": 3.942093586702107,
        "longitude": 116.51084018974134
    },
    {
        "code": 6503152014,
        "district_code": 650315,
        "regency_code": 6503,
        "province_code": 65,
        "name": "Paluan",
        "postal_code": "77450",
        "latitude": 3.893243961404174,
        "longitude": 116.53264975817837
    },
    {
        "code": 6503152015,
        "district_code": 650315,
        "regency_code": 6503,
        "province_code": 65,
        "name": "Sedalit",
        "postal_code": "77450",
        "latitude": 3.943312336691667,
        "longitude": 116.57389142922872
    },
    {
        "code": 6503152016,
        "district_code": 650315,
        "regency_code": 6503,
        "province_code": 65,
        "name": "Tambalang Hilir",
        "postal_code": "77450",
        "latitude": 3.8951648770985168,
        "longitude": 116.55703478688909
    },
    {
        "code": 6503152017,
        "district_code": 650315,
        "regency_code": 6503,
        "province_code": 65,
        "name": "Tadungus",
        "postal_code": "77450",
        "latitude": 3.970953083944238,
        "longitude": 116.4648684574602
    },
    {
        "code": 6503152018,
        "district_code": 650315,
        "regency_code": 6503,
        "province_code": 65,
        "name": "Sinampila II",
        "postal_code": "77450",
        "latitude": 3.893604383957556,
        "longitude": 116.51484535512496
    },
    {
        "code": 6503152019,
        "district_code": 650315,
        "regency_code": 6503,
        "province_code": 65,
        "name": "Kalambuku",
        "postal_code": "77450",
        "latitude": 3.949553552743363,
        "longitude": 116.54963557274257
    },
    {
        "code": 6503152020,
        "district_code": 650315,
        "regency_code": 6503,
        "province_code": 65,
        "name": "Jukup",
        "postal_code": "77450",
        "latitude": 3.9287395164620222,
        "longitude": 116.52867278293749
    },
    {
        "code": 6503152021,
        "district_code": 650315,
        "regency_code": 6503,
        "province_code": 65,
        "name": "Long Bulu",
        "postal_code": "77450",
        "latitude": 3.8919142476974327,
        "longitude": 116.54499110230869
    },
    {
        "code": 6503152023,
        "district_code": 650315,
        "regency_code": 6503,
        "province_code": 65,
        "name": "Linsayung",
        "postal_code": "77450",
        "latitude": 4.1880760917788065,
        "longitude": 116.56779916816235
    },
    {
        "code": 6503152024,
        "district_code": 650315,
        "regency_code": 6503,
        "province_code": 65,
        "name": "Tumantalas",
        "postal_code": "77450",
        "latitude": 4.228371890530192,
        "longitude": 116.44305659128085
    },
    {
        "code": 6503152025,
        "district_code": 650315,
        "regency_code": 6503,
        "province_code": 65,
        "name": "Sanal",
        "postal_code": "77450",
        "latitude": 4.0491064522229125,
        "longitude": 116.46458845347956
    },
    {
        "code": 6503152026,
        "district_code": 650315,
        "regency_code": 6503,
        "province_code": 65,
        "name": "Limpakon",
        "postal_code": "77450",
        "latitude": 4.296398927909038,
        "longitude": 116.59846289779287
    },
    {
        "code": 6503152027,
        "district_code": 650315,
        "regency_code": 6503,
        "province_code": 65,
        "name": "Labuk",
        "postal_code": "77450",
        "latitude": 4.225633763707845,
        "longitude": 116.55947532524821
    },
    {
        "code": 6503162001,
        "district_code": 650316,
        "regency_code": 6503,
        "province_code": 65,
        "name": "Lubok Buat",
        "postal_code": "77452",
        "latitude": 3.792606800738255,
        "longitude": 116.84052870349426
    },
    {
        "code": 6503162002,
        "district_code": 650316,
        "regency_code": 6503,
        "province_code": 65,
        "name": "Katul",
        "postal_code": "77452",
        "latitude": 3.8057720400647606,
        "longitude": 116.86627517277071
    },
    {
        "code": 6503162003,
        "district_code": 650316,
        "regency_code": 6503,
        "province_code": 65,
        "name": "Mambulu",
        "postal_code": "77452",
        "latitude": 3.80150496637233,
        "longitude": 116.82400236865311
    },
    {
        "code": 6503162004,
        "district_code": 650316,
        "regency_code": 6503,
        "province_code": 65,
        "name": "Pagaluyon",
        "postal_code": "77452",
        "latitude": 3.812559497864958,
        "longitude": 116.85317924029873
    },
    {
        "code": 6503162005,
        "district_code": 650316,
        "regency_code": 6503,
        "province_code": 65,
        "name": "Saduman",
        "postal_code": "77452",
        "latitude": 3.8098751803025137,
        "longitude": 116.81326672056187
    },
    {
        "code": 6503162006,
        "district_code": 650316,
        "regency_code": 6503,
        "province_code": 65,
        "name": "Tulang",
        "postal_code": "77452",
        "latitude": 3.8101548207078357,
        "longitude": 116.80351544423525
    },
    {
        "code": 6503162007,
        "district_code": 650316,
        "regency_code": 6503,
        "province_code": 65,
        "name": "Sabuluan",
        "postal_code": "77452",
        "latitude": 3.8233872844824317,
        "longitude": 116.79281499217562
    },
    {
        "code": 6503162008,
        "district_code": 650316,
        "regency_code": 6503,
        "province_code": 65,
        "name": "Pulau Keras",
        "postal_code": "77452",
        "latitude": 3.8294941284358885,
        "longitude": 116.78434514858492
    },
    {
        "code": 6503162009,
        "district_code": 650316,
        "regency_code": 6503,
        "province_code": 65,
        "name": "Liuk Bulu",
        "postal_code": "77452",
        "latitude": 3.8012209198590483,
        "longitude": 116.77234540500966
    },
    {
        "code": 6503162010,
        "district_code": 650316,
        "regency_code": 6503,
        "province_code": 65,
        "name": "Binanun",
        "postal_code": "77452",
        "latitude": 3.81162564800297,
        "longitude": 116.78080354355848
    },
    {
        "code": 6503172001,
        "district_code": 650317,
        "regency_code": 6503,
        "province_code": 65,
        "name": "Tang Paye",
        "postal_code": "77458",
        "latitude": 3.5681607131746684,
        "longitude": 115.81791431016482
    },
    {
        "code": 6503172002,
        "district_code": 650317,
        "regency_code": 6503,
        "province_code": 65,
        "name": "Long Rungan",
        "postal_code": "77458",
        "latitude": 3.5781775635317943,
        "longitude": 115.90214312868332
    },
    {
        "code": 6503172003,
        "district_code": 650317,
        "regency_code": 6503,
        "province_code": 65,
        "name": "Long Kelupan",
        "postal_code": "77458",
        "latitude": 3.6426722665798152,
        "longitude": 115.83313164347628
    },
    {
        "code": 6503172004,
        "district_code": 650317,
        "regency_code": 6503,
        "province_code": 65,
        "name": "Long Padi",
        "postal_code": "77458",
        "latitude": 3.687450609714319,
        "longitude": 115.84671398529562
    },
    {
        "code": 6503172005,
        "district_code": 650317,
        "regency_code": 6503,
        "province_code": 65,
        "name": "Tang Badui",
        "postal_code": "77458",
        "latitude": 3.720452582173006,
        "longitude": 115.84103687189773
    },
    {
        "code": 6503172006,
        "district_code": 650317,
        "regency_code": 6503,
        "province_code": 65,
        "name": "Binuang",
        "postal_code": "77458",
        "latitude": 3.763673146394482,
        "longitude": 115.8457798472729
    },
    {
        "code": 6503172007,
        "district_code": 650317,
        "regency_code": 6503,
        "province_code": 65,
        "name": "Long Mutan",
        "postal_code": "77458",
        "latitude": 3.731930304840074,
        "longitude": 115.87856447685077
    },
    {
        "code": 6503172008,
        "district_code": 650317,
        "regency_code": 6503,
        "province_code": 65,
        "name": "Pa' Milau",
        "postal_code": "77458",
        "latitude": 3.7803368265694246,
        "longitude": 115.91149024496922
    },
    {
        "code": 6503172009,
        "district_code": 650317,
        "regency_code": 6503,
        "province_code": 65,
        "name": "Ba' Liku",
        "postal_code": "77458",
        "latitude": 3.7747507639599713,
        "longitude": 115.81058814490183
    },
    {
        "code": 6503172010,
        "district_code": 650317,
        "regency_code": 6503,
        "province_code": 65,
        "name": "Long Rian",
        "postal_code": "77458",
        "latitude": 3.8741957424669646,
        "longitude": 115.86412389475545
    },
    {
        "code": 6503172011,
        "district_code": 650317,
        "regency_code": 6503,
        "province_code": 65,
        "name": "Pa' Yalau",
        "postal_code": "77458",
        "latitude": 3.8129565428203978,
        "longitude": 115.8922594054157
    },
    {
        "code": 6503182001,
        "district_code": 650318,
        "regency_code": 6503,
        "province_code": 65,
        "name": "Pa' Betung",
        "postal_code": "77459",
        "latitude": 4.05885142156619,
        "longitude": 115.69920405575371
    },
    {
        "code": 6503182002,
        "district_code": 650318,
        "regency_code": 6503,
        "province_code": 65,
        "name": "Long Sepayang",
        "postal_code": "77459",
        "latitude": 3.971886261758235,
        "longitude": 115.95728615658794
    },
    {
        "code": 6503182003,
        "district_code": 650318,
        "regency_code": 6503,
        "province_code": 65,
        "name": "Pa' Pawan",
        "postal_code": "77459",
        "latitude": 3.8787334428789735,
        "longitude": 115.85629308788876
    },
    {
        "code": 6503182004,
        "district_code": 650318,
        "regency_code": 6503,
        "province_code": 65,
        "name": "Pa' Melade",
        "postal_code": "77459",
        "latitude": 3.9457770684929603,
        "longitude": 115.81991845424342
    },
    {
        "code": 6503182005,
        "district_code": 650318,
        "regency_code": 6503,
        "province_code": 65,
        "name": "Pa' Kebuan",
        "postal_code": "77459",
        "latitude": 4.068416707693166,
        "longitude": 115.81777496108518
    },
    {
        "code": 6503182006,
        "district_code": 650318,
        "regency_code": 6503,
        "province_code": 65,
        "name": "Pa' Umung",
        "postal_code": "77459",
        "latitude": 3.90822549224288,
        "longitude": 115.79705930750121
    },
    {
        "code": 6503182007,
        "district_code": 650318,
        "regency_code": 6503,
        "province_code": 65,
        "name": "Pa' Rangeb",
        "postal_code": "77459",
        "latitude": 3.995348143370544,
        "longitude": 115.90764405019402
    },
    {
        "code": 6503182008,
        "district_code": 650318,
        "regency_code": 6503,
        "province_code": 65,
        "name": "Long Umung",
        "postal_code": "77459",
        "latitude": 4.033483932196097,
        "longitude": 115.85682676037912
    },
    {
        "code": 6503182009,
        "district_code": 650318,
        "regency_code": 6503,
        "province_code": 65,
        "name": "Long Tenem",
        "postal_code": "77459",
        "latitude": 3.975660970928192,
        "longitude": 115.78449463551235
    },
    {
        "code": 6503182010,
        "district_code": 650318,
        "regency_code": 6503,
        "province_code": 65,
        "name": "Long Nuat",
        "postal_code": "77459",
        "latitude": 4.152834854010465,
        "longitude": 115.88155940702205
    },
    {
        "code": 6503182011,
        "district_code": 650318,
        "regency_code": 6503,
        "province_code": 65,
        "name": "Pa' Pala",
        "postal_code": "77459",
        "latitude": 4.006845028013978,
        "longitude": 115.83134162251335
    },
    {
        "code": 6503182012,
        "district_code": 650318,
        "regency_code": 6503,
        "province_code": 65,
        "name": "Sinar Baru",
        "postal_code": "77459",
        "latitude": 3.9774604005639853,
        "longitude": 115.75683158500827
    },
    {
        "code": 6503182013,
        "district_code": 650318,
        "regency_code": 6503,
        "province_code": 65,
        "name": "Pa' Lidung",
        "postal_code": "77459",
        "latitude": 3.915543139238437,
        "longitude": 115.83307218433478
    },
    {
        "code": 6503182014,
        "district_code": 650318,
        "regency_code": 6503,
        "province_code": 65,
        "name": "Pa' Raye",
        "postal_code": "77459",
        "latitude": 4.106304080231932,
        "longitude": 115.76648873269721
    },
    {
        "code": 6503182015,
        "district_code": 650318,
        "regency_code": 6503,
        "province_code": 65,
        "name": "Bungayan",
        "postal_code": "77459",
        "latitude": 3.9128788105008994,
        "longitude": 115.82353231256212
    },
    {
        "code": 6503182016,
        "district_code": 650318,
        "regency_code": 6503,
        "province_code": 65,
        "name": "Wa' Yagung",
        "postal_code": "77459",
        "latitude": 3.976909991473804,
        "longitude": 115.8344907290295
    },
    {
        "code": 6503182017,
        "district_code": 650318,
        "regency_code": 6503,
        "province_code": 65,
        "name": "Kampung Baru",
        "postal_code": "77459",
        "latitude": 3.9248586052279633,
        "longitude": 115.70683359817234
    },
    {
        "code": 6503192001,
        "district_code": 650319,
        "regency_code": 6503,
        "province_code": 65,
        "name": "Pa' Mulak",
        "postal_code": "77455",
        "latitude": 3.748962787150756,
        "longitude": 115.7377793311847
    },
    {
        "code": 6503192002,
        "district_code": 650319,
        "regency_code": 6503,
        "province_code": 65,
        "name": "Long Puak",
        "postal_code": "77455",
        "latitude": 3.787794267517203,
        "longitude": 115.745463633391
    },
    {
        "code": 6503192003,
        "district_code": 650319,
        "regency_code": 6503,
        "province_code": 65,
        "name": "Long Mangan",
        "postal_code": "77455",
        "latitude": 3.7555214926193266,
        "longitude": 115.71542339628388
    },
    {
        "code": 6503192004,
        "district_code": 650319,
        "regency_code": 6503,
        "province_code": 65,
        "name": "Buduk Kubul",
        "postal_code": "77455",
        "latitude": 3.8151060522241975,
        "longitude": 115.69655214730454
    },
    {
        "code": 6503192005,
        "district_code": 650319,
        "regency_code": 6503,
        "province_code": 65,
        "name": "Long Kabid",
        "postal_code": "77455",
        "latitude": 3.7442657970953515,
        "longitude": 115.69687969458481
    },
    {
        "code": 6503192006,
        "district_code": 650319,
        "regency_code": 6503,
        "province_code": 65,
        "name": "Pa' Inan",
        "postal_code": "77455",
        "latitude": 3.771741237361056,
        "longitude": 115.68199137276827
    },
    {
        "code": 6503192007,
        "district_code": 650319,
        "regency_code": 6503,
        "province_code": 65,
        "name": "Lembudud",
        "postal_code": "77455",
        "latitude": 3.755875702683523,
        "longitude": 115.61580377776357
    },
    {
        "code": 6503192008,
        "district_code": 650319,
        "regency_code": 6503,
        "province_code": 65,
        "name": "Long Tugul",
        "postal_code": "77455",
        "latitude": 3.7364586605419023,
        "longitude": 115.65592927337595
    },
    {
        "code": 6503192009,
        "district_code": 650319,
        "regency_code": 6503,
        "province_code": 65,
        "name": "Pa' Butal",
        "postal_code": "77455",
        "latitude": 3.844977817895864,
        "longitude": 115.63659928676658
    },
    {
        "code": 6503192010,
        "district_code": 650319,
        "regency_code": 6503,
        "province_code": 65,
        "name": "Pa' Delung",
        "postal_code": "77455",
        "latitude": 3.8625489767363264,
        "longitude": 115.62991511704926
    },
    {
        "code": 6503192011,
        "district_code": 650319,
        "regency_code": 6503,
        "province_code": 65,
        "name": "Pa' Urud",
        "postal_code": "77455",
        "latitude": 3.8662140851690965,
        "longitude": 115.64835561793348
    },
    {
        "code": 6503192012,
        "district_code": 650319,
        "regency_code": 6503,
        "province_code": 65,
        "name": "Pa' Kemut",
        "postal_code": "77455",
        "latitude": 3.8450937568400705,
        "longitude": 115.67132561800346
    },
    {
        "code": 6503192013,
        "district_code": 650319,
        "regency_code": 6503,
        "province_code": 65,
        "name": "Pa' Kidang",
        "postal_code": "77455",
        "latitude": 3.86994427809502,
        "longitude": 115.62737338499345
    },
    {
        "code": 6503192014,
        "district_code": 650319,
        "regency_code": 6503,
        "province_code": 65,
        "name": "Lembada",
        "postal_code": "77455",
        "latitude": 3.873640278637409,
        "longitude": 115.62798342959817
    },
    {
        "code": 6503192015,
        "district_code": 650319,
        "regency_code": 6503,
        "province_code": 65,
        "name": "Pa' Payak",
        "postal_code": "77455",
        "latitude": 3.8851745404910223,
        "longitude": 115.63307806540794
    },
    {
        "code": 6503192016,
        "district_code": 650319,
        "regency_code": 6503,
        "province_code": 65,
        "name": "Pa' Pirit",
        "postal_code": "77455",
        "latitude": 3.8805291864974167,
        "longitude": 115.62838665121694
    },
    {
        "code": 6503192017,
        "district_code": 650319,
        "regency_code": 6503,
        "province_code": 65,
        "name": "Liang Aliq",
        "postal_code": "77455",
        "latitude": 3.892618512063214,
        "longitude": 115.63170790933164
    },
    {
        "code": 6503192018,
        "district_code": 650319,
        "regency_code": 6503,
        "province_code": 65,
        "name": "Sembudud",
        "postal_code": "77455",
        "latitude": 3.8768200113441686,
        "longitude": 115.65287957036085
    },
    {
        "code": 6503192019,
        "district_code": 650319,
        "regency_code": 6503,
        "province_code": 65,
        "name": "Liang Turan",
        "postal_code": "77455",
        "latitude": 3.89829141857877,
        "longitude": 115.64348827092778
    },
    {
        "code": 6503192020,
        "district_code": 650319,
        "regency_code": 6503,
        "province_code": 65,
        "name": "Liang Bua",
        "postal_code": "77455",
        "latitude": 3.888205989031199,
        "longitude": 115.65808681687398
    },
    {
        "code": 6503192021,
        "district_code": 650319,
        "regency_code": 6503,
        "province_code": 65,
        "name": "Lepatar",
        "postal_code": "77455",
        "latitude": 3.889542962904449,
        "longitude": 115.66784823641788
    },
    {
        "code": 6503192022,
        "district_code": 650319,
        "regency_code": 6503,
        "province_code": 65,
        "name": "Pa' Mering",
        "postal_code": "77455",
        "latitude": 3.8680770545653673,
        "longitude": 115.6783916752137
    },
    {
        "code": 6503192023,
        "district_code": 650319,
        "regency_code": 6503,
        "province_code": 65,
        "name": "Pa' Pani",
        "postal_code": "77455",
        "latitude": 3.8893450306808623,
        "longitude": 115.69358617117483
    },
    {
        "code": 6503192024,
        "district_code": 650319,
        "regency_code": 6503,
        "province_code": 65,
        "name": "Pa' Lutut",
        "postal_code": "77455",
        "latitude": 3.896664531743417,
        "longitude": 115.67610382235232
    },
    {
        "code": 6503192025,
        "district_code": 650319,
        "regency_code": 6503,
        "province_code": 65,
        "name": "Ma' Libu",
        "postal_code": "77455",
        "latitude": 3.8771186909860043,
        "longitude": 115.68911595412304
    },
    {
        "code": 6503202001,
        "district_code": 650320,
        "regency_code": 6503,
        "province_code": 65,
        "name": "Sumentobol",
        "postal_code": "77450",
        "latitude": 4.307814528652116,
        "longitude": 116.52836884635268
    },
    {
        "code": 6503202002,
        "district_code": 650320,
        "regency_code": 6503,
        "province_code": 65,
        "name": "Nantukidan",
        "postal_code": "77450",
        "latitude": 4.2892007389659135,
        "longitude": 116.46105402656175
    },
    {
        "code": 6503202003,
        "district_code": 650320,
        "regency_code": 6503,
        "province_code": 65,
        "name": "Labang",
        "postal_code": "77450",
        "latitude": 4.289565565594499,
        "longitude": 116.41668838053324
    },
    {
        "code": 6503202004,
        "district_code": 650320,
        "regency_code": 6503,
        "province_code": 65,
        "name": "Sumantipal",
        "postal_code": "77450",
        "latitude": 4.352714433774707,
        "longitude": 116.38032728401205
    },
    {
        "code": 6503202005,
        "district_code": 650320,
        "regency_code": 6503,
        "province_code": 65,
        "name": "Ngawol",
        "postal_code": "77450",
        "latitude": 4.351944663634136,
        "longitude": 116.3492683116161
    },
    {
        "code": 6503202006,
        "district_code": 650320,
        "regency_code": 6503,
        "province_code": 65,
        "name": "Bululaun Hilir",
        "postal_code": "77450",
        "latitude": 4.311241171318661,
        "longitude": 116.38905197555782
    },
    {
        "code": 6503202007,
        "district_code": 650320,
        "regency_code": 6503,
        "province_code": 65,
        "name": "Lagas",
        "postal_code": "77450",
        "latitude": 4.24954476359173,
        "longitude": 116.36768240793445
    },
    {
        "code": 6503202008,
        "district_code": 650320,
        "regency_code": 6503,
        "province_code": 65,
        "name": "Panas",
        "postal_code": "77450",
        "latitude": 4.259964927740234,
        "longitude": 116.31690120665623
    },
    {
        "code": 6503202009,
        "district_code": 650320,
        "regency_code": 6503,
        "province_code": 65,
        "name": "Langgason",
        "postal_code": "77450",
        "latitude": 4.280183699331764,
        "longitude": 116.26322323153809
    },
    {
        "code": 6503202010,
        "district_code": 650320,
        "regency_code": 6503,
        "province_code": 65,
        "name": "Tantalujuk",
        "postal_code": "77450",
        "latitude": 4.330776705160349,
        "longitude": 116.33309827251439
    },
    {
        "code": 6503202011,
        "district_code": 650320,
        "regency_code": 6503,
        "province_code": 65,
        "name": "Tambalang Hulu",
        "postal_code": "77450",
        "latitude": 4.334156101054043,
        "longitude": 116.29230539815275
    },
    {
        "code": 6503202012,
        "district_code": 650320,
        "regency_code": 6503,
        "province_code": 65,
        "name": "Kuyo",
        "postal_code": "77450",
        "latitude": 4.210574661561784,
        "longitude": 116.2325666328951
    },
    {
        "code": 6503202013,
        "district_code": 650320,
        "regency_code": 6503,
        "province_code": 65,
        "name": "Bokok",
        "postal_code": "77450",
        "latitude": 4.157831731517069,
        "longitude": 116.30424926046253
    },
    {
        "code": 6503212001,
        "district_code": 650321,
        "regency_code": 6503,
        "province_code": 65,
        "name": "Tau Lumbis",
        "postal_code": "77450",
        "latitude": 4.2996667977671414,
        "longitude": 116.22122539505406
    },
    {
        "code": 6503212002,
        "district_code": 650321,
        "regency_code": 6503,
        "province_code": 65,
        "name": "Lipaga",
        "postal_code": "77450",
        "latitude": 4.296113229972553,
        "longitude": 116.11762495490935
    },
    {
        "code": 6503212003,
        "district_code": 650321,
        "regency_code": 6503,
        "province_code": 65,
        "name": "Bululaun Hulu",
        "postal_code": "77450",
        "latitude": 4.341695720307105,
        "longitude": 116.21706727224083
    },
    {
        "code": 6503212004,
        "district_code": 650321,
        "regency_code": 6503,
        "province_code": 65,
        "name": "Kalisun",
        "postal_code": "77450",
        "latitude": 4.301366556457582,
        "longitude": 116.00329266690649
    },
    {
        "code": 6503212005,
        "district_code": 650321,
        "regency_code": 6503,
        "province_code": 65,
        "name": "Mamasin",
        "postal_code": "77450",
        "latitude": 4.307690737223189,
        "longitude": 116.23367085758746
    },
    {
        "code": 6503212006,
        "district_code": 650321,
        "regency_code": 6503,
        "province_code": 65,
        "name": "Sibalu",
        "postal_code": "77450",
        "latitude": 4.330107910575138,
        "longitude": 116.25293688297162
    },
    {
        "code": 6503212007,
        "district_code": 650321,
        "regency_code": 6503,
        "province_code": 65,
        "name": "Duyan",
        "postal_code": "77450",
        "latitude": 4.283322995828943,
        "longitude": 116.23037377565605
    },
    {
        "code": 6503212008,
        "district_code": 650321,
        "regency_code": 6503,
        "province_code": 65,
        "name": "Tuntulibing",
        "postal_code": "77450",
        "latitude": 4.286153596069507,
        "longitude": 116.20146704405535
    },
    {
        "code": 6503212009,
        "district_code": 650321,
        "regency_code": 6503,
        "province_code": 65,
        "name": "Tetagas",
        "postal_code": "77450",
        "latitude": 4.305421912157675,
        "longitude": 116.16692462591277
    },
    {
        "code": 6503212010,
        "district_code": 650321,
        "regency_code": 6503,
        "province_code": 65,
        "name": "Kabungolor",
        "postal_code": "77450",
        "latitude": 4.354474420366163,
        "longitude": 116.18014327036768
    },
    {
        "code": 6504012001,
        "district_code": 650401,
        "regency_code": 6504,
        "province_code": 65,
        "name": "Tideng Pale",
        "postal_code": "77151",
        "latitude": 3.678764586358726,
        "longitude": 116.9113158982836
    },
    {
        "code": 6504012002,
        "district_code": 650401,
        "regency_code": 6504,
        "province_code": 65,
        "name": "Limbu Sedulun",
        "postal_code": "77151",
        "latitude": 3.544373724612705,
        "longitude": 116.89545531934567
    },
    {
        "code": 6504012003,
        "district_code": 650401,
        "regency_code": 6504,
        "province_code": 65,
        "name": "Sebidai",
        "postal_code": "77151",
        "latitude": 3.5630071026136654,
        "longitude": 116.93415198906715
    },
    {
        "code": 6504012004,
        "district_code": 650401,
        "regency_code": 6504,
        "province_code": 65,
        "name": "Sedulun",
        "postal_code": "77151",
        "latitude": 3.5857853724251525,
        "longitude": 116.85310963814865
    },
    {
        "code": 6504012005,
        "district_code": 650401,
        "regency_code": 6504,
        "province_code": 65,
        "name": "Tideng Pale Timur",
        "postal_code": "77151",
        "latitude": 3.647063214502261,
        "longitude": 116.93723810967234
    },
    {
        "code": 6504012006,
        "district_code": 650401,
        "regency_code": 6504,
        "province_code": 65,
        "name": "Gunawan",
        "postal_code": "77151",
        "latitude": 3.5328174643374664,
        "longitude": 116.91529327736194
    },
    {
        "code": 6504012007,
        "district_code": 650401,
        "regency_code": 6504,
        "province_code": 65,
        "name": "Sebawang",
        "postal_code": "77151",
        "latitude": 3.5586841024263274,
        "longitude": 116.95563093665277
    },
    {
        "code": 6504022001,
        "district_code": 650402,
        "regency_code": 6504,
        "province_code": 65,
        "name": "Sesayap",
        "postal_code": "77153",
        "latitude": 3.6473470671555677,
        "longitude": 116.9941181044115
    },
    {
        "code": 6504022002,
        "district_code": 650402,
        "regency_code": 6504,
        "province_code": 65,
        "name": "Sengkong",
        "postal_code": "77153",
        "latitude": 3.6372388826641324,
        "longitude": 117.33098634417476
    },
    {
        "code": 6504022003,
        "district_code": 650402,
        "regency_code": 6504,
        "province_code": 65,
        "name": "Bebatu",
        "postal_code": "77153",
        "latitude": 3.5167099014167453,
        "longitude": 117.31633667328869
    },
    {
        "code": 6504022004,
        "district_code": 650402,
        "regency_code": 6504,
        "province_code": 65,
        "name": "Bandan Bikis",
        "postal_code": "77153",
        "latitude": 3.4205991386415753,
        "longitude": 117.2786530746881
    },
    {
        "code": 6504022005,
        "district_code": 650402,
        "regency_code": 6504,
        "province_code": 65,
        "name": "Sepala Dalung",
        "postal_code": "77153",
        "latitude": 3.64055211725789,
        "longitude": 117.06182053979852
    },
    {
        "code": 6504022006,
        "district_code": 650402,
        "regency_code": 6504,
        "province_code": 65,
        "name": "Seludau",
        "postal_code": "77153",
        "latitude": 3.5486992338825565,
        "longitude": 116.99954451682625
    },
    {
        "code": 6504022007,
        "district_code": 650402,
        "regency_code": 6504,
        "province_code": 65,
        "name": "Menjelutung",
        "postal_code": "77153",
        "latitude": 3.692713304005129,
        "longitude": 117.18877234274753
    },
    {
        "code": 6504022008,
        "district_code": 650402,
        "regency_code": 6504,
        "province_code": 65,
        "name": "Sesayap Selor",
        "postal_code": "77153",
        "latitude": 3.5746287062959974,
        "longitude": 116.97793532700507
    },
    {
        "code": 6504032001,
        "district_code": 650403,
        "regency_code": 6504,
        "province_code": 65,
        "name": "Tanah Merah",
        "postal_code": "77451",
        "latitude": 3.704938678294644,
        "longitude": 117.60008704040777
    },
    {
        "code": 6504032002,
        "district_code": 650403,
        "regency_code": 6504,
        "province_code": 65,
        "name": "Tengku Dacing",
        "postal_code": "77451",
        "latitude": 3.730353985557052,
        "longitude": 117.70218766335277
    },
    {
        "code": 6504032003,
        "district_code": 650403,
        "regency_code": 6504,
        "province_code": 65,
        "name": "Sambungan",
        "postal_code": "77451",
        "latitude": 3.652603260615774,
        "longitude": 117.62577398315445
    },
    {
        "code": 6504032004,
        "district_code": 650403,
        "regency_code": 6504,
        "province_code": 65,
        "name": "Tanah Merah Barat",
        "postal_code": "77451",
        "latitude": 3.7293110612502773,
        "longitude": 117.517563973547
    },
    {
        "code": 6504032005,
        "district_code": 650403,
        "regency_code": 6504,
        "province_code": 65,
        "name": "Sambungan Selatan",
        "postal_code": "77451",
        "latitude": 3.667921385699856,
        "longitude": 117.56359990139686
    },
    {
        "code": 6504042001,
        "district_code": 650404,
        "regency_code": 6504,
        "province_code": 65,
        "name": "Buong Baru",
        "postal_code": "77152",
        "latitude": 3.4505050123161762,
        "longitude": 117.0984512431475
    },
    {
        "code": 6504042002,
        "district_code": 650404,
        "regency_code": 6504,
        "province_code": 65,
        "name": "Bebakung",
        "postal_code": "77152",
        "latitude": 3.4747253721031846,
        "longitude": 116.9153595493514
    },
    {
        "code": 6504042003,
        "district_code": 650404,
        "regency_code": 6504,
        "province_code": 65,
        "name": "Kujau",
        "postal_code": "77152",
        "latitude": 3.427790401546877,
        "longitude": 117.0113919749474
    },
    {
        "code": 6504042004,
        "district_code": 650404,
        "regency_code": 6504,
        "province_code": 65,
        "name": "Mendupo",
        "postal_code": "77152",
        "latitude": 3.4199775706438156,
        "longitude": 116.88350463218187
    },
    {
        "code": 6504042005,
        "district_code": 650404,
        "regency_code": 6504,
        "province_code": 65,
        "name": "Maning",
        "postal_code": "77152",
        "latitude": 3.473059065975469,
        "longitude": 117.01259127382126
    },
    {
        "code": 6504042006,
        "district_code": 650404,
        "regency_code": 6504,
        "province_code": 65,
        "name": "Periuk",
        "postal_code": "77152",
        "latitude": 3.4387054518951667,
        "longitude": 116.90337660698574
    },
    {
        "code": 6504052001,
        "district_code": 650405,
        "regency_code": 6504,
        "province_code": 65,
        "name": "Seputuk",
        "postal_code": "77154",
        "latitude": 3.5436073954410325,
        "longitude": 116.73226943075555
    },
    {
        "code": 6504052002,
        "district_code": 650405,
        "regency_code": 6504,
        "province_code": 65,
        "name": "Rian",
        "postal_code": "77154",
        "latitude": 3.6031671548951105,
        "longitude": 116.81076579730757
    },
    {
        "code": 6504052003,
        "district_code": 650405,
        "regency_code": 6504,
        "province_code": 65,
        "name": "Balayan Ari",
        "postal_code": "77154",
        "latitude": 3.4317779755571642,
        "longitude": 116.74729452020229
    },
    {
        "code": 6504052004,
        "district_code": 650405,
        "regency_code": 6504,
        "province_code": 65,
        "name": "Rian Rayo",
        "postal_code": "77154",
        "latitude": 3.5573567815592493,
        "longitude": 116.78169529194403
    },
    {
        "code": 6504052005,
        "district_code": 650405,
        "regency_code": 6504,
        "province_code": 65,
        "name": "Kapuak",
        "postal_code": "77154",
        "latitude": 3.6051411920947602,
        "longitude": 116.78794250397341
    },
    {
        "code": 6504052006,
        "district_code": 650405,
        "regency_code": 6504,
        "province_code": 65,
        "name": "Sapari",
        "postal_code": "77154",
        "latitude": 3.53458486809886,
        "longitude": 116.84978446150832
    },
    {
        "code": 6571011001,
        "district_code": 657101,
        "regency_code": 6571,
        "province_code": 65,
        "name": "Karang Anyar",
        "postal_code": "77111",
        "latitude": 3.325506141531946,
        "longitude": 117.58455667400501
    },
    {
        "code": 6571011002,
        "district_code": 657101,
        "regency_code": 6571,
        "province_code": 65,
        "name": "Karang Rejo",
        "postal_code": "77112",
        "latitude": 3.304218995419975,
        "longitude": 117.57974295345667
    },
    {
        "code": 6571011003,
        "district_code": 657101,
        "regency_code": 6571,
        "province_code": 65,
        "name": "Karang Anyar Pantai",
        "postal_code": "77111",
        "latitude": 3.323078286644417,
        "longitude": 117.56477091091234
    },
    {
        "code": 6571011004,
        "district_code": 657101,
        "regency_code": 6571,
        "province_code": 65,
        "name": "Karang Balik",
        "postal_code": "77112",
        "latitude": 3.307450551041291,
        "longitude": 117.58844615396778
    },
    {
        "code": 6571011005,
        "district_code": 657101,
        "regency_code": 6571,
        "province_code": 65,
        "name": "Karang Harapan",
        "postal_code": "77111",
        "latitude": 3.3490616236297956,
        "longitude": 117.55404305957336
    },
    {
        "code": 6571021001,
        "district_code": 657102,
        "regency_code": 6571,
        "province_code": 65,
        "name": "Kampung I Skip",
        "postal_code": "77113",
        "latitude": 3.3609340231920277,
        "longitude": 117.61807137746132
    },
    {
        "code": 6571021002,
        "district_code": 657102,
        "regency_code": 6571,
        "province_code": 65,
        "name": "Pamusian",
        "postal_code": "77113",
        "latitude": 3.3066735218802896,
        "longitude": 117.60375432132658
    },
    {
        "code": 6571021003,
        "district_code": 657102,
        "regency_code": 6571,
        "province_code": 65,
        "name": "Sebengkok",
        "postal_code": "77114",
        "latitude": 3.2986423295607867,
        "longitude": 117.59268430458178
    },
    {
        "code": 6571021004,
        "district_code": 657102,
        "regency_code": 6571,
        "province_code": 65,
        "name": "Selumit",
        "postal_code": "77113",
        "latitude": 3.3013165144595424,
        "longitude": 117.58844029042916
    },
    {
        "code": 6571021005,
        "district_code": 657102,
        "regency_code": 6571,
        "province_code": 65,
        "name": "Selumit Pantai",
        "postal_code": "77113",
        "latitude": 3.2981624177306146,
        "longitude": 117.58345808400809
    },
    {
        "code": 6571031001,
        "district_code": 657103,
        "regency_code": 6571,
        "province_code": 65,
        "name": "Lingkas Ujung",
        "postal_code": "77126",
        "latitude": 3.2846379217907478,
        "longitude": 117.59999930205848
    },
    {
        "code": 6571031002,
        "district_code": 657103,
        "regency_code": 6571,
        "province_code": 65,
        "name": "Gunung Lingkas",
        "postal_code": "77115",
        "latitude": 3.29218013745675,
        "longitude": 117.60169313916951
    },
    {
        "code": 6571031003,
        "district_code": 657103,
        "regency_code": 6571,
        "province_code": 65,
        "name": "Kampung Empat",
        "postal_code": "77124",
        "latitude": 3.300343786630189,
        "longitude": 117.62533236224036
    },
    {
        "code": 6571031004,
        "district_code": 657103,
        "regency_code": 6571,
        "province_code": 65,
        "name": "Kampung Enam",
        "postal_code": "77123",
        "latitude": 3.3282325046227488,
        "longitude": 117.6321722877681
    },
    {
        "code": 6571031005,
        "district_code": 657103,
        "regency_code": 6571,
        "province_code": 65,
        "name": "Mamburungan",
        "postal_code": "77125",
        "latitude": 3.266440486550722,
        "longitude": 117.63000843156144
    },
    {
        "code": 6571031006,
        "district_code": 657103,
        "regency_code": 6571,
        "province_code": 65,
        "name": "Pantai Amal",
        "postal_code": "77115",
        "latitude": 3.3190413650835926,
        "longitude": 117.65050275677332
    },
    {
        "code": 6571031007,
        "district_code": 657103,
        "regency_code": 6571,
        "province_code": 65,
        "name": "Mamburungan Timur",
        "postal_code": "77115",
        "latitude": 3.2703793523750666,
        "longitude": 117.63449936015503
    },
    {
        "code": 6571041001,
        "district_code": 657104,
        "regency_code": 6571,
        "province_code": 65,
        "name": "Juata Laut",
        "postal_code": "77116",
        "latitude": 3.4128489494248098,
        "longitude": 117.59202720365037
    },
    {
        "code": 6571041002,
        "district_code": 657104,
        "regency_code": 6571,
        "province_code": 65,
        "name": "Juata Permai",
        "postal_code": "77116",
        "latitude": 3.3767645773176107,
        "longitude": 117.5322872996822
    },
    {
        "code": 6571041003,
        "district_code": 657104,
        "regency_code": 6571,
        "province_code": 65,
        "name": "Juata Kerikil",
        "postal_code": "77116",
        "latitude": 3.37003036897396,
        "longitude": 117.5692889392047
    }
]