[
    {
        "code": 2101041005,
        "district_code": 210104,
        "regency_code": 2101,
        "province_code": 21,
        "name": "Kawal",
        "postal_code": "29155",
        "latitude": 1.0037514053816192,
        "longitude": 104.61426588869821
    },
    {
        "code": 2101042001,
        "district_code": 210104,
        "regency_code": 2101,
        "province_code": 21,
        "name": "Gunung Kijang",
        "postal_code": "29155",
        "latitude": 0.9391025252996159,
        "longitude": 104.6179924490355
    },
    {
        "code": 2101042002,
        "district_code": 210104,
        "regency_code": 2101,
        "province_code": 21,
        "name": "Malang Rapat",
        "postal_code": "29155",
        "latitude": 1.1173850620601153,
        "longitude": 104.58568510294555
    },
    {
        "code": 2101042003,
        "district_code": 210104,
        "regency_code": 2101,
        "province_code": 21,
        "name": "Teluk Bakau",
        "postal_code": "29155",
        "latitude": 1.0472653231421927,
        "longitude": 104.61907026804168
    },
    {
        "code": 2101061008,
        "district_code": 210106,
        "regency_code": 2101,
        "province_code": 21,
        "name": "Kijang Kota",
        "postal_code": "29150",
        "latitude": 0.8530317428537391,
        "longitude": 104.6002991660429
    },
    {
        "code": 2101061009,
        "district_code": 210106,
        "regency_code": 2101,
        "province_code": 21,
        "name": "Sungai Lekop",
        "postal_code": "29150",
        "latitude": 0.896735372212138,
        "longitude": 104.58938729392072
    },
    {
        "code": 2101061010,
        "district_code": 210106,
        "regency_code": 2101,
        "province_code": 21,
        "name": "Gunung Lengkuas",
        "postal_code": "29150",
        "latitude": 0.8682097980144293,
        "longitude": 104.55340573342482
    },
    {
        "code": 2101061011,
        "district_code": 210106,
        "regency_code": 2101,
        "province_code": 21,
        "name": "Sungai Enam",
        "postal_code": "29150",
        "latitude": 0.8320168740969455,
        "longitude": 104.57235221451408
    },
    {
        "code": 2101071001,
        "district_code": 210107,
        "regency_code": 2101,
        "province_code": 21,
        "name": "Tanjung Uban Kota",
        "postal_code": "29152",
        "latitude": 1.073505646201697,
        "longitude": 104.22149177708782
    },
    {
        "code": 2101071002,
        "district_code": 210107,
        "regency_code": 2101,
        "province_code": 21,
        "name": "Tanjung Uban Utara",
        "postal_code": "29152",
        "latitude": 1.0987543334691623,
        "longitude": 104.24765151707655
    },
    {
        "code": 2101071003,
        "district_code": 210107,
        "regency_code": 2101,
        "province_code": 21,
        "name": "Tanjung Uban Selatan",
        "postal_code": "29152",
        "latitude": 1.0632285695390113,
        "longitude": 104.2355431732687
    },
    {
        "code": 2101071011,
        "district_code": 210107,
        "regency_code": 2101,
        "province_code": 21,
        "name": "Tanjung Uban Timur",
        "postal_code": "29152",
        "latitude": 1.0651791802155404,
        "longitude": 104.25549359505723
    },
    {
        "code": 2101072005,
        "district_code": 210107,
        "regency_code": 2101,
        "province_code": 21,
        "name": "Lancang Kuning",
        "postal_code": "29152",
        "latitude": 1.0816996947800566,
        "longitude": 104.2749056308966
    },
    {
        "code": 2101081006,
        "district_code": 210108,
        "regency_code": 2101,
        "province_code": 21,
        "name": "Tembeling Tanjung",
        "postal_code": "29132",
        "latitude": 1.0011806078410492,
        "longitude": 104.47256419411684
    },
    {
        "code": 2101082001,
        "district_code": 210108,
        "regency_code": 2101,
        "province_code": 21,
        "name": "Bintan Buyu",
        "postal_code": "29133",
        "latitude": 1.077870552206796,
        "longitude": 104.46804132445708
    },
    {
        "code": 2101082002,
        "district_code": 210108,
        "regency_code": 2101,
        "province_code": 21,
        "name": "Pangkil",
        "postal_code": "29136",
        "latitude": 0.8318065010025862,
        "longitude": 104.361677929176
    },
    {
        "code": 2101082003,
        "district_code": 210108,
        "regency_code": 2101,
        "province_code": 21,
        "name": "Penaga",
        "postal_code": "29134",
        "latitude": 1.0579288197242183,
        "longitude": 104.4044646803639
    },
    {
        "code": 2101082004,
        "district_code": 210108,
        "regency_code": 2101,
        "province_code": 21,
        "name": "Pengujan",
        "postal_code": "29135",
        "latitude": 1.015378715800771,
        "longitude": 104.37824026254867
    },
    {
        "code": 2101082005,
        "district_code": 210108,
        "regency_code": 2101,
        "province_code": 21,
        "name": "Tembeling",
        "postal_code": "29132",
        "latitude": 1.0427039567080845,
        "longitude": 104.4998932399781
    },
    {
        "code": 2101091001,
        "district_code": 210109,
        "regency_code": 2101,
        "province_code": 21,
        "name": "Teluk Sekuni",
        "postal_code": "29193",
        "latitude": 0.9953063981611209,
        "longitude": 107.47409995117496
    },
    {
        "code": 2101092002,
        "district_code": 210109,
        "regency_code": 2101,
        "province_code": 21,
        "name": "Batu Lepuk",
        "postal_code": "29193",
        "latitude": 0.9729812862245389,
        "longitude": 107.46871797845598
    },
    {
        "code": 2101092003,
        "district_code": 210109,
        "regency_code": 2101,
        "province_code": 21,
        "name": "Kampung Hilir",
        "postal_code": "29193",
        "latitude": 1.0491702526572295,
        "longitude": 107.48213204341243
    },
    {
        "code": 2101092004,
        "district_code": 210109,
        "regency_code": 2101,
        "province_code": 21,
        "name": "Kampung Melayu",
        "postal_code": "29193",
        "latitude": 0.9556330719652433,
        "longitude": 107.54774091035692
    },
    {
        "code": 2101092005,
        "district_code": 210109,
        "regency_code": 2101,
        "province_code": 21,
        "name": "Pulau Mentebung",
        "postal_code": "29193",
        "latitude": 0.5968717093947798,
        "longitude": 107.13665837334953
    },
    {
        "code": 2101092006,
        "district_code": 210109,
        "regency_code": 2101,
        "province_code": 21,
        "name": "Pulau Pinang",
        "postal_code": "29193",
        "latitude": 0.648177941116754,
        "longitude": 106.98110981274642
    },
    {
        "code": 2101092007,
        "district_code": 210109,
        "regency_code": 2101,
        "province_code": 21,
        "name": "Kukup",
        "postal_code": "29193",
        "latitude": 1.0300720494472189,
        "longitude": 107.46186842363593
    },
    {
        "code": 2101092008,
        "district_code": 210109,
        "regency_code": 2101,
        "province_code": 21,
        "name": "Pengikik",
        "postal_code": "29193",
        "latitude": 0.1311211333424147,
        "longitude": 107.28682932774784
    },
    {
        "code": 2101101007,
        "district_code": 210110,
        "regency_code": 2101,
        "province_code": 21,
        "name": "Kota Baru",
        "postal_code": "29154",
        "latitude": 1.135377435174078,
        "longitude": 104.36021590145737
    },
    {
        "code": 2101102001,
        "district_code": 210110,
        "regency_code": 2101,
        "province_code": 21,
        "name": "Berakit",
        "postal_code": "29154",
        "latitude": 1.2014159480456479,
        "longitude": 104.56219894887128
    },
    {
        "code": 2101102002,
        "district_code": 210110,
        "regency_code": 2101,
        "province_code": 21,
        "name": "Ekang Anculai",
        "postal_code": "29154",
        "latitude": 1.1018922604691992,
        "longitude": 104.38799546777945
    },
    {
        "code": 2101102003,
        "district_code": 210110,
        "regency_code": 2101,
        "province_code": 21,
        "name": "Pengudang",
        "postal_code": "29154",
        "latitude": 1.1532128493577911,
        "longitude": 104.51704442007274
    },
    {
        "code": 2101102004,
        "district_code": 210110,
        "regency_code": 2101,
        "province_code": 21,
        "name": "Sebong Lagoi",
        "postal_code": "29154",
        "latitude": 1.166759846238025,
        "longitude": 104.39612533343337
    },
    {
        "code": 2101102005,
        "district_code": 210110,
        "regency_code": 2101,
        "province_code": 21,
        "name": "Sebong Pereh",
        "postal_code": "29154",
        "latitude": 1.1077426999092685,
        "longitude": 104.30883202437947
    },
    {
        "code": 2101102006,
        "district_code": 210110,
        "regency_code": 2101,
        "province_code": 21,
        "name": "Sri Bintan",
        "postal_code": "29154",
        "latitude": 1.1234843888385337,
        "longitude": 104.45353393966691
    },
    {
        "code": 2101121004,
        "district_code": 210112,
        "regency_code": 2101,
        "province_code": 21,
        "name": "Toapaya Asri",
        "postal_code": "29157",
        "latitude": 0.9908060155244683,
        "longitude": 104.5483397041139
    },
    {
        "code": 2101122001,
        "district_code": 210112,
        "regency_code": 2101,
        "province_code": 21,
        "name": "Toapaya",
        "postal_code": "29157",
        "latitude": 1.0285086695072967,
        "longitude": 104.54856586558154
    },
    {
        "code": 2101122002,
        "district_code": 210112,
        "regency_code": 2101,
        "province_code": 21,
        "name": "Toapaya Utara",
        "postal_code": "29157",
        "latitude": 1.085171654837037,
        "longitude": 104.54237708755426
    },
    {
        "code": 2101122003,
        "district_code": 210112,
        "regency_code": 2101,
        "province_code": 21,
        "name": "Toapaya Selatan",
        "postal_code": "29157",
        "latitude": 0.9500833927651957,
        "longitude": 104.5594404594399
    },
    {
        "code": 2101132001,
        "district_code": 210113,
        "regency_code": 2101,
        "province_code": 21,
        "name": "Mantang Baru",
        "postal_code": "29156",
        "latitude": 0.7628972876493141,
        "longitude": 104.51370774889841
    },
    {
        "code": 2101132002,
        "district_code": 210113,
        "regency_code": 2101,
        "province_code": 21,
        "name": "Mantang Besar",
        "postal_code": "29156",
        "latitude": 0.754224318143735,
        "longitude": 104.60132013784138
    },
    {
        "code": 2101132003,
        "district_code": 210113,
        "regency_code": 2101,
        "province_code": 21,
        "name": "Mantang Lama",
        "postal_code": "29156",
        "latitude": 0.8039224589404403,
        "longitude": 104.59696539842739
    },
    {
        "code": 2101132004,
        "district_code": 210113,
        "regency_code": 2101,
        "province_code": 21,
        "name": "Dendun",
        "postal_code": "29156",
        "latitude": 0.7819724303836766,
        "longitude": 104.5012497793444
    },
    {
        "code": 2101142001,
        "district_code": 210114,
        "regency_code": 2101,
        "province_code": 21,
        "name": "Kelong",
        "postal_code": "29151",
        "latitude": 0.8662034348480563,
        "longitude": 104.67592350009475
    },
    {
        "code": 2101142002,
        "district_code": 210114,
        "regency_code": 2101,
        "province_code": 21,
        "name": "Mapur",
        "postal_code": "29151",
        "latitude": 0.9931415483007168,
        "longitude": 104.82500669844354
    },
    {
        "code": 2101142003,
        "district_code": 210114,
        "regency_code": 2101,
        "province_code": 21,
        "name": "Numbing",
        "postal_code": "29151",
        "latitude": 0.7601360048100072,
        "longitude": 104.72473385007761
    },
    {
        "code": 2101142004,
        "district_code": 210114,
        "regency_code": 2101,
        "province_code": 21,
        "name": "Air Gelubi",
        "postal_code": "29151",
        "latitude": 0.8798285518064809,
        "longitude": 104.6372482279819
    },
    {
        "code": 2101151003,
        "district_code": 210115,
        "regency_code": 2101,
        "province_code": 21,
        "name": "Teluk Lobam",
        "postal_code": "29153",
        "latitude": 1.0281626086041034,
        "longitude": 104.2701703483953
    },
    {
        "code": 2101151005,
        "district_code": 210115,
        "regency_code": 2101,
        "province_code": 21,
        "name": "Tanjung Permai",
        "postal_code": "29153",
        "latitude": 1.0463488275690938,
        "longitude": 104.23909284046852
    },
    {
        "code": 2101152001,
        "district_code": 210115,
        "regency_code": 2101,
        "province_code": 21,
        "name": "Busung",
        "postal_code": "29153",
        "latitude": 1.0167181529623548,
        "longitude": 104.31401204988796
    },
    {
        "code": 2101152002,
        "district_code": 210115,
        "regency_code": 2101,
        "province_code": 21,
        "name": "Teluk Sasah",
        "postal_code": "29153",
        "latitude": 1.0023937435843588,
        "longitude": 104.24330503310911
    },
    {
        "code": 2101152004,
        "district_code": 210115,
        "regency_code": 2101,
        "province_code": 21,
        "name": "Kuala Sempang",
        "postal_code": "29153",
        "latitude": 1.058485085003146,
        "longitude": 104.33363722357555
    },
    {
        "code": 2102011003,
        "district_code": 210201,
        "regency_code": 2102,
        "province_code": 21,
        "name": "Moro",
        "postal_code": "29663",
        "latitude": 0.7871674198661222,
        "longitude": 103.68853573523744
    },
    {
        "code": 2102011010,
        "district_code": 210201,
        "regency_code": 2102,
        "province_code": 21,
        "name": "Moro Timur",
        "postal_code": "29663",
        "latitude": 0.7722814380113497,
        "longitude": 103.70931149050469
    },
    {
        "code": 2102012004,
        "district_code": 210201,
        "regency_code": 2102,
        "province_code": 21,
        "name": "Pauh",
        "postal_code": "29663",
        "latitude": 0.8174969158183177,
        "longitude": 103.68630001163122
    },
    {
        "code": 2102012009,
        "district_code": 210201,
        "regency_code": 2102,
        "province_code": 21,
        "name": "Jang",
        "postal_code": "29663",
        "latitude": 0.7155309309369126,
        "longitude": 103.72137054535915
    },
    {
        "code": 2102012014,
        "district_code": 210201,
        "regency_code": 2102,
        "province_code": 21,
        "name": "Pulaumoro",
        "postal_code": "29663",
        "latitude": 0.7341245489427273,
        "longitude": 103.67568916679453
    },
    {
        "code": 2102021001,
        "district_code": 210202,
        "regency_code": 2102,
        "province_code": 21,
        "name": "Tanjung Batu Barat ",
        "postal_code": "29662",
        "latitude": 0.6874992398319809,
        "longitude": 103.43617789691298
    },
    {
        "code": 2102021002,
        "district_code": 210202,
        "regency_code": 2102,
        "province_code": 21,
        "name": "Tanjung Batu Kota ",
        "postal_code": "29662",
        "latitude": 0.6634827817260303,
        "longitude": 103.4610871022072
    },
    {
        "code": 2102021009,
        "district_code": 210202,
        "regency_code": 2102,
        "province_code": 21,
        "name": "Gading Sari",
        "postal_code": "29662",
        "latitude": 0.6488148868967599,
        "longitude": 103.4426392675063
    },
    {
        "code": 2102022004,
        "district_code": 210202,
        "regency_code": 2102,
        "province_code": 21,
        "name": "Sungai Sebesi",
        "postal_code": "29662",
        "latitude": 0.6979905890866277,
        "longitude": 103.45499653914041
    },
    {
        "code": 2102022005,
        "district_code": 210202,
        "regency_code": 2102,
        "province_code": 21,
        "name": "Sungai Ungar",
        "postal_code": "29662",
        "latitude": 0.7215288458161913,
        "longitude": 103.46148649724051
    },
    {
        "code": 2102022006,
        "district_code": 210202,
        "regency_code": 2102,
        "province_code": 21,
        "name": "Lubuk",
        "postal_code": "29662",
        "latitude": 0.6719052328495694,
        "longitude": 103.41581309871252
    },
    {
        "code": 2102031001,
        "district_code": 210203,
        "regency_code": 2102,
        "province_code": 21,
        "name": "Tanjungbalai",
        "postal_code": "29661",
        "latitude": 0.9995365424026391,
        "longitude": 103.42800414077581
    },
    {
        "code": 2102031002,
        "district_code": 210203,
        "regency_code": 2102,
        "province_code": 21,
        "name": "Telukair",
        "postal_code": "29661",
        "latitude": 0.9958000598279164,
        "longitude": 103.44088708915156
    },
    {
        "code": 2102031003,
        "district_code": 210203,
        "regency_code": 2102,
        "province_code": 21,
        "name": "Sungai Lakam Timur ",
        "postal_code": "29661",
        "latitude": 1.0028141952470244,
        "longitude": 103.41932422930796
    },
    {
        "code": 2102031006,
        "district_code": 210203,
        "regency_code": 2102,
        "province_code": 21,
        "name": "Lubuk Semut",
        "postal_code": "29661",
        "latitude": 1.0046392298570899,
        "longitude": 103.43400782579161
    },
    {
        "code": 2102031007,
        "district_code": 210203,
        "regency_code": 2102,
        "province_code": 21,
        "name": "Tanjungbalai Kota",
        "postal_code": "29661",
        "latitude": 0.9924133570562441,
        "longitude": 103.43381539218414
    },
    {
        "code": 2102031008,
        "district_code": 210203,
        "regency_code": 2102,
        "province_code": 21,
        "name": "Sungailakam Barat",
        "postal_code": "29661",
        "latitude": 1.0005221464253164,
        "longitude": 103.4131813461237
    },
    {
        "code": 2102041001,
        "district_code": 210204,
        "regency_code": 2102,
        "province_code": 21,
        "name": "Meral Kota",
        "postal_code": "29666",
        "latitude": 0.9972806225770551,
        "longitude": 103.39576155979286
    },
    {
        "code": 2102041002,
        "district_code": 210204,
        "regency_code": 2102,
        "province_code": 21,
        "name": "Baran Barat ",
        "postal_code": "29666",
        "latitude": 1.0033900335847992,
        "longitude": 103.40180186586461
    },
    {
        "code": 2102041003,
        "district_code": 210204,
        "regency_code": 2102,
        "province_code": 21,
        "name": "Sungai Raya ",
        "postal_code": "29666",
        "latitude": 1.0224834506297236,
        "longitude": 103.37719763675776
    },
    {
        "code": 2102041006,
        "district_code": 210204,
        "regency_code": 2102,
        "province_code": 21,
        "name": "Baran Timur",
        "postal_code": "29666",
        "latitude": 1.0060918181755285,
        "longitude": 103.40778635525787
    },
    {
        "code": 2102041007,
        "district_code": 210204,
        "regency_code": 2102,
        "province_code": 21,
        "name": "Sungai Pasir",
        "postal_code": "29666",
        "latitude": 1.0010589872050837,
        "longitude": 103.38591104530055
    },
    {
        "code": 2102041008,
        "district_code": 210204,
        "regency_code": 2102,
        "province_code": 21,
        "name": "Parit Benut",
        "postal_code": "29666",
        "latitude": 1.0250356596800259,
        "longitude": 103.35872183049318
    },
    {
        "code": 2102051001,
        "district_code": 210205,
        "regency_code": 2102,
        "province_code": 21,
        "name": "Tebing",
        "postal_code": "29668",
        "latitude": 1.0308281352944162,
        "longitude": 103.41907721130208
    },
    {
        "code": 2102051002,
        "district_code": 210205,
        "regency_code": 2102,
        "province_code": 21,
        "name": "Teluk Uma",
        "postal_code": "29668",
        "latitude": 1.0418199889904352,
        "longitude": 103.40407311744873
    },
    {
        "code": 2102051003,
        "district_code": 210205,
        "regency_code": 2102,
        "province_code": 21,
        "name": "Kapling",
        "postal_code": "29668",
        "latitude": 1.0110993215435389,
        "longitude": 103.42472650847844
    },
    {
        "code": 2102051004,
        "district_code": 210205,
        "regency_code": 2102,
        "province_code": 21,
        "name": "Pamak",
        "postal_code": "29668",
        "latitude": 1.0442982872559918,
        "longitude": 103.38705529930422
    },
    {
        "code": 2102051008,
        "district_code": 210205,
        "regency_code": 2102,
        "province_code": 21,
        "name": "Harjosari",
        "postal_code": "29668",
        "latitude": 1.0248491232380947,
        "longitude": 103.40569988074084
    },
    {
        "code": 2102052007,
        "district_code": 210205,
        "regency_code": 2102,
        "province_code": 21,
        "name": "Pongkar",
        "postal_code": "29668",
        "latitude": 1.1097699164524715,
        "longitude": 103.37947571241207
    },
    {
        "code": 2102061001,
        "district_code": 210206,
        "regency_code": 2102,
        "province_code": 21,
        "name": "Buru",
        "postal_code": "29664",
        "latitude": 0.8927515207076717,
        "longitude": 103.49750561529564
    },
    {
        "code": 2102061002,
        "district_code": 210206,
        "regency_code": 2102,
        "province_code": 21,
        "name": "Lubuk Puding",
        "postal_code": "29664",
        "latitude": 0.8888345205715809,
        "longitude": 103.5133607493241
    },
    {
        "code": 2102062003,
        "district_code": 210206,
        "regency_code": 2102,
        "province_code": 21,
        "name": "Tanjung Hutan",
        "postal_code": "29664",
        "latitude": 0.8756575600754037,
        "longitude": 103.45200511575354
    },
    {
        "code": 2102062004,
        "district_code": 210206,
        "regency_code": 2102,
        "province_code": 21,
        "name": "Tanjung Batu Kecil",
        "postal_code": "29664",
        "latitude": 0.9030675170770796,
        "longitude": 103.4484488106746
    },
    {
        "code": 2102071012,
        "district_code": 210207,
        "regency_code": 2102,
        "province_code": 21,
        "name": "Tanjung Berlian Kota ",
        "postal_code": "29662",
        "latitude": 0.7779688006202273,
        "longitude": 103.47652142412224
    },
    {
        "code": 2102072003,
        "district_code": 210207,
        "regency_code": 2102,
        "province_code": 21,
        "name": "Sungai Ungar Utara",
        "postal_code": "29662",
        "latitude": 0.7434739125463012,
        "longitude": 103.48864029559515
    },
    {
        "code": 2102072004,
        "district_code": 210207,
        "regency_code": 2102,
        "province_code": 21,
        "name": "Teluk Radang",
        "postal_code": "29662",
        "latitude": 0.824852994322064,
        "longitude": 103.41301823461725
    },
    {
        "code": 2102072010,
        "district_code": 210207,
        "regency_code": 2102,
        "province_code": 21,
        "name": "Perayun",
        "postal_code": "29662",
        "latitude": 0.8573215744695337,
        "longitude": 103.39487219515595
    },
    {
        "code": 2102072013,
        "district_code": 210207,
        "regency_code": 2102,
        "province_code": 21,
        "name": "Tanjung Berlian Barat",
        "postal_code": "29662",
        "latitude": 0.7823807148270099,
        "longitude": 103.4305680093157
    },
    {
        "code": 2102081001,
        "district_code": 210208,
        "regency_code": 2102,
        "province_code": 21,
        "name": "Sawang",
        "postal_code": "29662",
        "latitude": 0.747593035103781,
        "longitude": 103.37895318493996
    },
    {
        "code": 2102082002,
        "district_code": 210208,
        "regency_code": 2102,
        "province_code": 21,
        "name": "Sawang Selatan",
        "postal_code": "29662",
        "latitude": 0.7218355199601748,
        "longitude": 103.39994805321913
    },
    {
        "code": 2102082003,
        "district_code": 210208,
        "regency_code": 2102,
        "province_code": 21,
        "name": "Sawang Laut",
        "postal_code": "29662",
        "latitude": 0.7809717295404455,
        "longitude": 103.37089824200035
    },
    {
        "code": 2102082004,
        "district_code": 210208,
        "regency_code": 2102,
        "province_code": 21,
        "name": "Kundur",
        "postal_code": "29662",
        "latitude": 0.8257994110827234,
        "longitude": 103.3673520056719
    },
    {
        "code": 2102082005,
        "district_code": 210208,
        "regency_code": 2102,
        "province_code": 21,
        "name": "Gemuruh",
        "postal_code": "29662",
        "latitude": 0.8772993182181585,
        "longitude": 103.38261672694176
    },
    {
        "code": 2102092002,
        "district_code": 210209,
        "regency_code": 2102,
        "province_code": 21,
        "name": "Sanglar",
        "postal_code": "29665",
        "latitude": 0.6066133260129013,
        "longitude": 103.67644476095046
    },
    {
        "code": 2102092003,
        "district_code": 210209,
        "regency_code": 2102,
        "province_code": 21,
        "name": "Tanjung Kilang",
        "postal_code": "29665",
        "latitude": 0.5309345081311784,
        "longitude": 103.58635877838609
    },
    {
        "code": 2102092004,
        "district_code": 210209,
        "regency_code": 2102,
        "province_code": 21,
        "name": "Semembang",
        "postal_code": "29665",
        "latitude": 0.5172273878508625,
        "longitude": 103.62965993041358
    },
    {
        "code": 2102092005,
        "district_code": 210209,
        "regency_code": 2102,
        "province_code": 21,
        "name": "Telaga Tujuh",
        "postal_code": "29665",
        "latitude": 0.5040998120430309,
        "longitude": 103.61255361444793
    },
    {
        "code": 2102101001,
        "district_code": 210210,
        "regency_code": 2102,
        "province_code": 21,
        "name": "Pasir Panjang",
        "postal_code": "29667",
        "latitude": 1.0986206780696743,
        "longitude": 103.33306339659791
    },
    {
        "code": 2102101002,
        "district_code": 210210,
        "regency_code": 2102,
        "province_code": 21,
        "name": "Darussalam",
        "postal_code": "29667",
        "latitude": 1.062353490113717,
        "longitude": 103.3612858118498
    },
    {
        "code": 2102102003,
        "district_code": 210210,
        "regency_code": 2102,
        "province_code": 21,
        "name": "Pangke",
        "postal_code": "29667",
        "latitude": 1.0355896268552556,
        "longitude": 103.34412666339006
    },
    {
        "code": 2102102004,
        "district_code": 210210,
        "regency_code": 2102,
        "province_code": 21,
        "name": "Pangke Barat",
        "postal_code": "29667",
        "latitude": 1.0484911038650373,
        "longitude": 103.32759351768752
    },
    {
        "code": 2102111001,
        "district_code": 210211,
        "regency_code": 2102,
        "province_code": 21,
        "name": "Alai",
        "postal_code": "29669",
        "latitude": 0.6627521911048686,
        "longitude": 103.49734154068892
    },
    {
        "code": 2102112002,
        "district_code": 210211,
        "regency_code": 2102,
        "province_code": 21,
        "name": "Batu Limau",
        "postal_code": "29669",
        "latitude": 0.6292470764336398,
        "longitude": 103.47371602515864
    },
    {
        "code": 2102112003,
        "district_code": 210211,
        "regency_code": 2102,
        "province_code": 21,
        "name": "Ngal",
        "postal_code": "29669",
        "latitude": 0.6812670089434459,
        "longitude": 103.55726214112656
    },
    {
        "code": 2102112004,
        "district_code": 210211,
        "regency_code": 2102,
        "province_code": 21,
        "name": "Sungaibuluh",
        "postal_code": "29669",
        "latitude": 0.6415522733487341,
        "longitude": 103.47521198267124
    },
    {
        "code": 2102122001,
        "district_code": 210212,
        "regency_code": 2102,
        "province_code": 21,
        "name": "Sebele",
        "postal_code": "29660",
        "latitude": 0.8149555325112643,
        "longitude": 103.49019544248114
    },
    {
        "code": 2102122002,
        "district_code": 210212,
        "regency_code": 2102,
        "province_code": 21,
        "name": "Lebuh",
        "postal_code": "29660",
        "latitude": 0.7870860090760979,
        "longitude": 103.52243256003537
    },
    {
        "code": 2102122003,
        "district_code": 210212,
        "regency_code": 2102,
        "province_code": 21,
        "name": "Penarah",
        "postal_code": "29660",
        "latitude": 0.817070235784129,
        "longitude": 103.50991091917624
    },
    {
        "code": 2102122004,
        "district_code": 210212,
        "regency_code": 2102,
        "province_code": 21,
        "name": "Sei Asam",
        "postal_code": "29660",
        "latitude": 0.8525944256393511,
        "longitude": 103.45046023768892
    },
    {
        "code": 2102122005,
        "district_code": 210212,
        "regency_code": 2102,
        "province_code": 21,
        "name": "Tebias",
        "postal_code": "29660",
        "latitude": 0.8413712161554103,
        "longitude": 103.43621591066183
    },
    {
        "code": 2102122006,
        "district_code": 210212,
        "regency_code": 2102,
        "province_code": 21,
        "name": "Degong",
        "postal_code": "29660",
        "latitude": 0.7686970565438175,
        "longitude": 103.54614135066488
    },
    {
        "code": 2102132001,
        "district_code": 210213,
        "regency_code": 2102,
        "province_code": 21,
        "name": "Parit",
        "postal_code": "29661",
        "latitude": 0.9481259057046152,
        "longitude": 103.4485738644582
    },
    {
        "code": 2102132002,
        "district_code": 210213,
        "regency_code": 2102,
        "province_code": 21,
        "name": "Tulang",
        "postal_code": "29661",
        "latitude": 0.9244185042492123,
        "longitude": 103.39979033376532
    },
    {
        "code": 2102132003,
        "district_code": 210213,
        "regency_code": 2102,
        "province_code": 21,
        "name": "Selat Mendaun",
        "postal_code": "29661",
        "latitude": 0.9344005575316174,
        "longitude": 103.46762401304748
    },
    {
        "code": 2102142001,
        "district_code": 210214,
        "regency_code": 2102,
        "province_code": 21,
        "name": "Sugie",
        "postal_code": "29663",
        "latitude": 0.8175737840316666,
        "longitude": 103.77329919898868
    },
    {
        "code": 2102142002,
        "district_code": 210214,
        "regency_code": 2102,
        "province_code": 21,
        "name": "Niur Permai",
        "postal_code": "29663",
        "latitude": 0.8717332146437755,
        "longitude": 103.74384688955773
    },
    {
        "code": 2102142003,
        "district_code": 210214,
        "regency_code": 2102,
        "province_code": 21,
        "name": "Keban",
        "postal_code": "29663",
        "latitude": 0.8763353181825397,
        "longitude": 103.7917329679686
    },
    {
        "code": 2102142004,
        "district_code": 210214,
        "regency_code": 2102,
        "province_code": 21,
        "name": "Rawa Jaya",
        "postal_code": "29663",
        "latitude": 0.8192522192908002,
        "longitude": 103.80928872968666
    },
    {
        "code": 2102142005,
        "district_code": 210214,
        "regency_code": 2102,
        "province_code": 21,
        "name": "Tanjung Pelanduk",
        "postal_code": "29663",
        "latitude": 0.8654460187943602,
        "longitude": 103.85200857401684
    },
    {
        "code": 2102142006,
        "district_code": 210214,
        "regency_code": 2102,
        "province_code": 21,
        "name": "Buluh Patah",
        "postal_code": "29663",
        "latitude": 0.7885838701453032,
        "longitude": 103.9231639919364
    },
    {
        "code": 2102142007,
        "district_code": 210214,
        "regency_code": 2102,
        "province_code": 21,
        "name": "Selat Mie",
        "postal_code": "29663",
        "latitude": 0.8265449691270563,
        "longitude": 103.8768105566277
    },
    {
        "code": 2103041003,
        "district_code": 210304,
        "regency_code": 2103,
        "province_code": 21,
        "name": "Sabang Barat",
        "postal_code": "29784",
        "latitude": 3.0818538713347183,
        "longitude": 107.74445803493741
    },
    {
        "code": 2103042001,
        "district_code": 210304,
        "regency_code": 2103,
        "province_code": 21,
        "name": "Sebelat",
        "postal_code": "29784",
        "latitude": 2.990406038871897,
        "longitude": 107.77859899421675
    },
    {
        "code": 2103042005,
        "district_code": 210304,
        "regency_code": 2103,
        "province_code": 21,
        "name": "Air Putih",
        "postal_code": "29784",
        "latitude": 2.981703543949277,
        "longitude": 107.76734658303336
    },
    {
        "code": 2103051008,
        "district_code": 210305,
        "regency_code": 2103,
        "province_code": 21,
        "name": "Sedanau",
        "postal_code": "29782",
        "latitude": 3.8840123840836727,
        "longitude": 108.05701973562049
    },
    {
        "code": 2103052007,
        "district_code": 210305,
        "regency_code": 2103,
        "province_code": 21,
        "name": "Mekar Jaya",
        "postal_code": "29782",
        "latitude": 3.7305266526416943,
        "longitude": 108.16960337285066
    },
    {
        "code": 2103052012,
        "district_code": 210305,
        "regency_code": 2103,
        "province_code": 21,
        "name": "Binjai",
        "postal_code": "29782",
        "latitude": 3.829127301308854,
        "longitude": 108.2480728517925
    },
    {
        "code": 2103052013,
        "district_code": 210305,
        "regency_code": 2103,
        "province_code": 21,
        "name": "Piantengah",
        "postal_code": "29782",
        "latitude": 3.7172610023901944,
        "longitude": 108.1313423433929
    },
    {
        "code": 2103052015,
        "district_code": 210305,
        "regency_code": 2103,
        "province_code": 21,
        "name": "Selaut",
        "postal_code": "29782",
        "latitude": 3.8974051069424975,
        "longitude": 107.9070098707986
    },
    {
        "code": 2103061003,
        "district_code": 210306,
        "regency_code": 2103,
        "province_code": 21,
        "name": "Serasan",
        "postal_code": "29781",
        "latitude": 2.51539718902647,
        "longitude": 109.0265635563916
    },
    {
        "code": 2103062002,
        "district_code": 210306,
        "regency_code": 2103,
        "province_code": 21,
        "name": "Kampung Hilir",
        "postal_code": "29781",
        "latitude": 2.5018841293249623,
        "longitude": 109.01867432441297
    },
    {
        "code": 2103062005,
        "district_code": 210306,
        "regency_code": 2103,
        "province_code": 21,
        "name": "Batu Berlian",
        "postal_code": "29781",
        "latitude": 2.4912622258846278,
        "longitude": 108.9496064520538
    },
    {
        "code": 2103062006,
        "district_code": 210306,
        "regency_code": 2103,
        "province_code": 21,
        "name": "Tanjung Setelung",
        "postal_code": "29781",
        "latitude": 2.4926038959172048,
        "longitude": 109.00348701296515
    },
    {
        "code": 2103062007,
        "district_code": 210306,
        "regency_code": 2103,
        "province_code": 21,
        "name": "Tanjung Balau",
        "postal_code": "29781",
        "latitude": 2.478264648437351,
        "longitude": 109.01941579363542
    },
    {
        "code": 2103062010,
        "district_code": 210306,
        "regency_code": 2103,
        "province_code": 21,
        "name": "Pangkalan",
        "postal_code": "29781",
        "latitude": 2.5245769081172593,
        "longitude": 109.04711838779644
    },
    {
        "code": 2103062011,
        "district_code": 210306,
        "regency_code": 2103,
        "province_code": 21,
        "name": "Jermalik",
        "postal_code": "29781",
        "latitude": 2.5413057819635863,
        "longitude": 108.9995438022503
    },
    {
        "code": 2103071011,
        "district_code": 210307,
        "regency_code": 2103,
        "province_code": 21,
        "name": "Ranai Kota",
        "postal_code": "29777",
        "latitude": 3.9506330722184386,
        "longitude": 108.38475156041848
    },
    {
        "code": 2103071016,
        "district_code": 210307,
        "regency_code": 2103,
        "province_code": 21,
        "name": "Ranai Darat",
        "postal_code": "29777",
        "latitude": 3.9522608826359615,
        "longitude": 108.36095910999575
    },
    {
        "code": 2103071017,
        "district_code": 210307,
        "regency_code": 2103,
        "province_code": 21,
        "name": "Bandarsyah",
        "postal_code": "29777",
        "latitude": 3.9307443351181157,
        "longitude": 108.34795864932968
    },
    {
        "code": 2103071019,
        "district_code": 210307,
        "regency_code": 2103,
        "province_code": 21,
        "name": "Batu Hitam",
        "postal_code": "29777",
        "latitude": 3.9141875007516633,
        "longitude": 108.38248161404054
    },
    {
        "code": 2103072002,
        "district_code": 210307,
        "regency_code": 2103,
        "province_code": 21,
        "name": "Sungai Ulu",
        "postal_code": "29777",
        "latitude": 3.9075106948282703,
        "longitude": 108.32547271543035
    },
    {
        "code": 2103072004,
        "district_code": 210307,
        "regency_code": 2103,
        "province_code": 21,
        "name": "Sepempang",
        "postal_code": "29777",
        "latitude": 3.9776740680474942,
        "longitude": 108.36547167186775
    },
    {
        "code": 2103072014,
        "district_code": 210307,
        "regency_code": 2103,
        "province_code": 21,
        "name": "Batu Gajah",
        "postal_code": "29777",
        "latitude": 3.851032199589631,
        "longitude": 108.33683235149041
    },
    {
        "code": 2103082001,
        "district_code": 210308,
        "regency_code": 2103,
        "province_code": 21,
        "name": "Kelarik Utara",
        "postal_code": "29775",
        "latitude": 4.024818738113057,
        "longitude": 108.1068219221141
    },
    {
        "code": 2103082002,
        "district_code": 210308,
        "regency_code": 2103,
        "province_code": 21,
        "name": "Kelarik",
        "postal_code": "29775",
        "latitude": 3.9566609745030834,
        "longitude": 108.00733978347823
    },
    {
        "code": 2103082004,
        "district_code": 210308,
        "regency_code": 2103,
        "province_code": 21,
        "name": "Kelarik Air Mali",
        "postal_code": "29775",
        "latitude": 4.007840680250861,
        "longitude": 107.98123866984302
    },
    {
        "code": 2103082005,
        "district_code": 210308,
        "regency_code": 2103,
        "province_code": 21,
        "name": "Teluk Buton",
        "postal_code": "29775",
        "latitude": 4.167690184649073,
        "longitude": 108.19295593831446
    },
    {
        "code": 2103082006,
        "district_code": 210308,
        "regency_code": 2103,
        "province_code": 21,
        "name": "Belakang Gunung",
        "postal_code": "29775",
        "latitude": 3.9469304868873376,
        "longitude": 108.07620103648016
    },
    {
        "code": 2103082008,
        "district_code": 210308,
        "regency_code": 2103,
        "province_code": 21,
        "name": "Gunung Durian",
        "postal_code": "29775",
        "latitude": 3.9610073142018636,
        "longitude": 108.03435999721908
    },
    {
        "code": 2103092001,
        "district_code": 210309,
        "regency_code": 2103,
        "province_code": 21,
        "name": "Subi",
        "postal_code": "29779",
        "latitude": 3.020547493945198,
        "longitude": 108.86501520456538
    },
    {
        "code": 2103092002,
        "district_code": 210309,
        "regency_code": 2103,
        "province_code": 21,
        "name": "Subi Besar",
        "postal_code": "29779",
        "latitude": 2.9217528054217516,
        "longitude": 108.82677682655232
    },
    {
        "code": 2103092003,
        "district_code": 210309,
        "regency_code": 2103,
        "province_code": 21,
        "name": "Meliah",
        "postal_code": "29779",
        "latitude": 3.042834821117422,
        "longitude": 108.85279772255339
    },
    {
        "code": 2103092005,
        "district_code": 210309,
        "regency_code": 2103,
        "province_code": 21,
        "name": "Terayak",
        "postal_code": "29779",
        "latitude": 3.020693585895815,
        "longitude": 108.85413298403464
    },
    {
        "code": 2103092007,
        "district_code": 210309,
        "regency_code": 2103,
        "province_code": 21,
        "name": "Subi Besar Timur",
        "postal_code": "29779",
        "latitude": 2.917642095105266,
        "longitude": 108.8625439037823
    },
    {
        "code": 2103092008,
        "district_code": 210309,
        "regency_code": 2103,
        "province_code": 21,
        "name": "Meliah Selatan",
        "postal_code": "29779",
        "latitude": 3.0287545845124577,
        "longitude": 108.86020002857353
    },
    {
        "code": 2103102001,
        "district_code": 210310,
        "regency_code": 2103,
        "province_code": 21,
        "name": "Tanjung Pala",
        "postal_code": "29789",
        "latitude": 4.7420419338257895,
        "longitude": 107.99430983864973
    },
    {
        "code": 2103102002,
        "district_code": 210310,
        "regency_code": 2103,
        "province_code": 21,
        "name": "Air Payang",
        "postal_code": "29789",
        "latitude": 4.686994711640807,
        "longitude": 107.94932236497914
    },
    {
        "code": 2103102003,
        "district_code": 210310,
        "regency_code": 2103,
        "province_code": 21,
        "name": "Kadur",
        "postal_code": "29789",
        "latitude": 4.747951655953468,
        "longitude": 107.98670063045729
    },
    {
        "code": 2103112001,
        "district_code": 210311,
        "regency_code": 2103,
        "province_code": 21,
        "name": "Sabang Mawang",
        "postal_code": "29788",
        "latitude": 3.65350237864305,
        "longitude": 108.13888612339497
    },
    {
        "code": 2103112003,
        "district_code": 210311,
        "regency_code": 2103,
        "province_code": 21,
        "name": "Sededap",
        "postal_code": "29788",
        "latitude": 3.5696223758041117,
        "longitude": 108.0431042059611
    },
    {
        "code": 2103112004,
        "district_code": 210311,
        "regency_code": 2103,
        "province_code": 21,
        "name": "Tanjung Batang",
        "postal_code": "29788",
        "latitude": 3.6098382681462877,
        "longitude": 108.08608276622961
    },
    {
        "code": 2103112005,
        "district_code": 210311,
        "regency_code": 2103,
        "province_code": 21,
        "name": "Serantas",
        "postal_code": "29788",
        "latitude": 3.595746191349211,
        "longitude": 108.09210636180647
    },
    {
        "code": 2103112006,
        "district_code": 210311,
        "regency_code": 2103,
        "province_code": 21,
        "name": "Sabang Mawang Barat",
        "postal_code": "29788",
        "latitude": 3.6715320603952835,
        "longitude": 108.12176281834367
    },
    {
        "code": 2103112010,
        "district_code": 210311,
        "regency_code": 2103,
        "province_code": 21,
        "name": "Teluk Labuh",
        "postal_code": "29788",
        "latitude": 3.5883591550710814,
        "longitude": 108.04178299469834
    },
    {
        "code": 2103152001,
        "district_code": 210315,
        "regency_code": 2103,
        "province_code": 21,
        "name": "Tanjung",
        "postal_code": "29776",
        "latitude": 4.014259508207585,
        "longitude": 108.33211501807342
    },
    {
        "code": 2103152002,
        "district_code": 210315,
        "regency_code": 2103,
        "province_code": 21,
        "name": "Ceruk",
        "postal_code": "29776",
        "latitude": 3.9989174544385713,
        "longitude": 108.28937319500481
    },
    {
        "code": 2103152003,
        "district_code": 210315,
        "regency_code": 2103,
        "province_code": 21,
        "name": "Kelanga",
        "postal_code": "29776",
        "latitude": 4.046669288540898,
        "longitude": 108.27260547642253
    },
    {
        "code": 2103152004,
        "district_code": 210315,
        "regency_code": 2103,
        "province_code": 21,
        "name": "Pengadah",
        "postal_code": "29776",
        "latitude": 4.101335790027968,
        "longitude": 108.22236103249787
    },
    {
        "code": 2103152005,
        "district_code": 210315,
        "regency_code": 2103,
        "province_code": 21,
        "name": "Sebadai Ulu",
        "postal_code": "29776",
        "latitude": 4.02910249782241,
        "longitude": 108.2331701279111
    },
    {
        "code": 2103152006,
        "district_code": 210315,
        "regency_code": 2103,
        "province_code": 21,
        "name": "Limau Manis",
        "postal_code": "29776",
        "latitude": 3.9911829559224175,
        "longitude": 108.33942752686589
    },
    {
        "code": 2103152007,
        "district_code": 210315,
        "regency_code": 2103,
        "province_code": 21,
        "name": "Seleman",
        "postal_code": "29776",
        "latitude": 3.975674749472999,
        "longitude": 108.23881295719065
    },
    {
        "code": 2103162001,
        "district_code": 210316,
        "regency_code": 2103,
        "province_code": 21,
        "name": "Tapau",
        "postal_code": "29778",
        "latitude": 3.890778183310362,
        "longitude": 108.26182019323286
    },
    {
        "code": 2103162002,
        "district_code": 210316,
        "regency_code": 2103,
        "province_code": 21,
        "name": "Harapan Jaya",
        "postal_code": "29778",
        "latitude": 3.875569230837949,
        "longitude": 108.29271490026704
    },
    {
        "code": 2103162003,
        "district_code": 210316,
        "regency_code": 2103,
        "province_code": 21,
        "name": "Air Lengit",
        "postal_code": "29778",
        "latitude": 3.92651220959423,
        "longitude": 108.25761393903458
    },
    {
        "code": 2103182001,
        "district_code": 210318,
        "regency_code": 2103,
        "province_code": 21,
        "name": "Cemaga",
        "postal_code": "29783",
        "latitude": 3.771891025307668,
        "longitude": 108.30828509630174
    },
    {
        "code": 2103182002,
        "district_code": 210318,
        "regency_code": 2103,
        "province_code": 21,
        "name": "Cemaga Selatan",
        "postal_code": "29783",
        "latitude": 3.689666994521503,
        "longitude": 108.23134643360798
    },
    {
        "code": 2103182003,
        "district_code": 210318,
        "regency_code": 2103,
        "province_code": 21,
        "name": "Cemaga Utara",
        "postal_code": "29783",
        "latitude": 3.8473782033870183,
        "longitude": 108.38529677083292
    },
    {
        "code": 2103182004,
        "district_code": 210318,
        "regency_code": 2103,
        "province_code": 21,
        "name": "Cemaga Tengah",
        "postal_code": "29783",
        "latitude": 3.81590572752599,
        "longitude": 108.36947251043325
    },
    {
        "code": 2103192001,
        "district_code": 210319,
        "regency_code": 2103,
        "province_code": 21,
        "name": "Arung Ayam",
        "postal_code": "29780",
        "latitude": 2.508731647631524,
        "longitude": 109.05506125933199
    },
    {
        "code": 2103192002,
        "district_code": 210319,
        "regency_code": 2103,
        "province_code": 21,
        "name": "Air Nusa",
        "postal_code": "29780",
        "latitude": 2.505260488559317,
        "longitude": 109.09861966914721
    },
    {
        "code": 2103192004,
        "district_code": 210319,
        "regency_code": 2103,
        "province_code": 21,
        "name": "Air Ringau",
        "postal_code": "29780",
        "latitude": 2.4960924264317,
        "longitude": 109.04167808945296
    },
    {
        "code": 2103192005,
        "district_code": 210319,
        "regency_code": 2103,
        "province_code": 21,
        "name": "Payak",
        "postal_code": "29780",
        "latitude": 2.5255411392208376,
        "longitude": 109.0947608321527
    },
    {
        "code": 2103202001,
        "district_code": 210320,
        "regency_code": 2103,
        "province_code": 21,
        "name": "Batubi Jaya",
        "postal_code": "29787",
        "latitude": 3.854518360782879,
        "longitude": 108.15996096690142
    },
    {
        "code": 2103202002,
        "district_code": 210320,
        "regency_code": 2103,
        "province_code": 21,
        "name": "Gunung Putri",
        "postal_code": "29787",
        "latitude": 3.918478431705811,
        "longitude": 108.16436128346115
    },
    {
        "code": 2103202003,
        "district_code": 210320,
        "regency_code": 2103,
        "province_code": 21,
        "name": "Sedarat Baru",
        "postal_code": "29787",
        "latitude": 3.878055237874661,
        "longitude": 108.1097265858703
    },
    {
        "code": 2103202004,
        "district_code": 210320,
        "regency_code": 2103,
        "province_code": 21,
        "name": "Sedanau Timur",
        "postal_code": "29787",
        "latitude": 3.8316672932725337,
        "longitude": 108.20366478578566
    },
    {
        "code": 2103202005,
        "district_code": 210320,
        "regency_code": 2103,
        "province_code": 21,
        "name": "Semedang",
        "postal_code": "29787",
        "latitude": 3.8225452554829262,
        "longitude": 108.15575917893706
    },
    {
        "code": 2103212001,
        "district_code": 210321,
        "regency_code": 2103,
        "province_code": 21,
        "name": "Pulau Tiga",
        "postal_code": "29786",
        "latitude": 3.667427686803137,
        "longitude": 108.09729607617547
    },
    {
        "code": 2103212002,
        "district_code": 210321,
        "regency_code": 2103,
        "province_code": 21,
        "name": "Tanjung Kumbik Utara",
        "postal_code": "29786",
        "latitude": 3.684383273176949,
        "longitude": 108.10196917762954
    },
    {
        "code": 2103212003,
        "district_code": 210321,
        "regency_code": 2103,
        "province_code": 21,
        "name": "Setumuk",
        "postal_code": "29786",
        "latitude": 3.6683831286257274,
        "longitude": 108.07224680602688
    },
    {
        "code": 2103212004,
        "district_code": 210321,
        "regency_code": 2103,
        "province_code": 21,
        "name": "Selading",
        "postal_code": "29786",
        "latitude": 3.6475967944030865,
        "longitude": 108.05880961701213
    },
    {
        "code": 2103222001,
        "district_code": 210322,
        "regency_code": 2103,
        "province_code": 21,
        "name": "Air Kumpai",
        "postal_code": "29785",
        "latitude": 3.0109451546187516,
        "longitude": 107.78268528319768
    },
    {
        "code": 2103222002,
        "district_code": 210322,
        "regency_code": 2103,
        "province_code": 21,
        "name": "Batu Belanak",
        "postal_code": "29785",
        "latitude": 2.997116190388819,
        "longitude": 107.80090735313021
    },
    {
        "code": 2103222003,
        "district_code": 210322,
        "regency_code": 2103,
        "province_code": 21,
        "name": "Gunung Jambat",
        "postal_code": "29785",
        "latitude": 2.9950822199898828,
        "longitude": 107.78903836330902
    },
    {
        "code": 2103232001,
        "district_code": 210323,
        "regency_code": 2103,
        "province_code": 21,
        "name": "Pulau Panjang",
        "postal_code": "29779",
        "latitude": 2.7475149933504346,
        "longitude": 108.90561952557145
    },
    {
        "code": 2103232002,
        "district_code": 210323,
        "regency_code": 2103,
        "province_code": 21,
        "name": "Pulau Kerdau",
        "postal_code": "29779",
        "latitude": 2.686406381734709,
        "longitude": 108.63131401531399
    },
    {
        "code": 2103242001,
        "district_code": 210324,
        "regency_code": 2103,
        "province_code": 21,
        "name": "Kelarik Barat",
        "postal_code": "29775",
        "latitude": 4.131748306966487,
        "longitude": 107.85689255627854
    },
    {
        "code": 2103242002,
        "district_code": 210324,
        "regency_code": 2103,
        "province_code": 21,
        "name": "Seluan Barat",
        "postal_code": "29775",
        "latitude": 4.138298863135729,
        "longitude": 107.85280674758401
    },
    {
        "code": 2104011001,
        "district_code": 210401,
        "regency_code": 2104,
        "province_code": 21,
        "name": "Dabo",
        "postal_code": "29871",
        "latitude": -0.49163041781533856,
        "longitude": 104.56380039211031
    },
    {
        "code": 2104011007,
        "district_code": 210401,
        "regency_code": 2104,
        "province_code": 21,
        "name": "Dabo Lama",
        "postal_code": "29871",
        "latitude": -0.4963959022459012,
        "longitude": 104.54717560094096
    },
    {
        "code": 2104011012,
        "district_code": 210401,
        "regency_code": 2104,
        "province_code": 21,
        "name": "Sungailumpur",
        "postal_code": "29871",
        "latitude": -0.47676532424505264,
        "longitude": 104.56625811824146
    },
    {
        "code": 2104012008,
        "district_code": 210401,
        "regency_code": 2104,
        "province_code": 21,
        "name": "Batu Berdaun",
        "postal_code": "29871",
        "latitude": -0.5458423196178736,
        "longitude": 104.5029062601719
    },
    {
        "code": 2104012009,
        "district_code": 210401,
        "regency_code": 2104,
        "province_code": 21,
        "name": "Tanjung Harapan",
        "postal_code": "29871",
        "latitude": -0.47990430171716325,
        "longitude": 104.58508901541569
    },
    {
        "code": 2104012010,
        "district_code": 210401,
        "regency_code": 2104,
        "province_code": 21,
        "name": "Batu Kacang",
        "postal_code": "29871",
        "latitude": -0.48429229487078024,
        "longitude": 104.50656437841135
    },
    {
        "code": 2104021010,
        "district_code": 210402,
        "regency_code": 2104,
        "province_code": 21,
        "name": "Daik",
        "postal_code": "29872",
        "latitude": -0.19594107652532583,
        "longitude": 104.59337816015481
    },
    {
        "code": 2104021020,
        "district_code": 210402,
        "regency_code": 2104,
        "province_code": 21,
        "name": "Daik Sepincan",
        "postal_code": "29872",
        "latitude": null,
        "longitude": null
    },
    {
        "code": 2104022001,
        "district_code": 210402,
        "regency_code": 2104,
        "province_code": 21,
        "name": "Pekajang",
        "postal_code": "29872",
        "latitude": -1.1495807996521736,
        "longitude": 105.33723779438812
    },
    {
        "code": 2104022002,
        "district_code": 210402,
        "regency_code": 2104,
        "province_code": 21,
        "name": "Kelombok",
        "postal_code": "29872",
        "latitude": -0.2700777130164759,
        "longitude": 104.63635282574319
    },
    {
        "code": 2104022003,
        "district_code": 210402,
        "regency_code": 2104,
        "province_code": 21,
        "name": "Mepar",
        "postal_code": "29872",
        "latitude": -0.22602493521806355,
        "longitude": 104.54832846514073
    },
    {
        "code": 2104022006,
        "district_code": 210402,
        "regency_code": 2104,
        "province_code": 21,
        "name": "Kelumu",
        "postal_code": "29872",
        "latitude": -0.22919716882023233,
        "longitude": 104.47965212614513
    },
    {
        "code": 2104022007,
        "district_code": 210402,
        "regency_code": 2104,
        "province_code": 21,
        "name": "Mentuda",
        "postal_code": "29872",
        "latitude": -0.12666784841348325,
        "longitude": 104.50808949985685
    },
    {
        "code": 2104022008,
        "district_code": 210402,
        "regency_code": 2104,
        "province_code": 21,
        "name": "Merawang",
        "postal_code": "29872",
        "latitude": -0.20258344215634172,
        "longitude": 104.56746862464529
    },
    {
        "code": 2104022009,
        "district_code": 210402,
        "regency_code": 2104,
        "province_code": 21,
        "name": "Panggak Darat",
        "postal_code": "29872",
        "latitude": -0.1600225254720231,
        "longitude": 104.59233735792384
    },
    {
        "code": 2104022011,
        "district_code": 210402,
        "regency_code": 2104,
        "province_code": 21,
        "name": "Panggak Laut",
        "postal_code": "29872",
        "latitude": -0.19905619585440495,
        "longitude": 104.63927295419543
    },
    {
        "code": 2104022012,
        "district_code": 210402,
        "regency_code": 2104,
        "province_code": 21,
        "name": "Musai",
        "postal_code": "29872",
        "latitude": -0.1780492968138405,
        "longitude": 104.68226241843847
    },
    {
        "code": 2104022019,
        "district_code": 210402,
        "regency_code": 2104,
        "province_code": 21,
        "name": "Nerekeh",
        "postal_code": "29872",
        "latitude": -0.1808735905314509,
        "longitude": 104.6518565751001
    },
    {
        "code": 2104031001,
        "district_code": 210403,
        "regency_code": 2104,
        "province_code": 21,
        "name": "Senayang",
        "postal_code": "29873",
        "latitude": 0.06386685729928603,
        "longitude": 104.6321378490787
    },
    {
        "code": 2104032002,
        "district_code": 210403,
        "regency_code": 2104,
        "province_code": 21,
        "name": "Mamut",
        "postal_code": "29873",
        "latitude": 0.10014148779531361,
        "longitude": 104.51790039786506
    },
    {
        "code": 2104032012,
        "district_code": 210403,
        "regency_code": 2104,
        "province_code": 21,
        "name": "Laboh",
        "postal_code": "29873",
        "latitude": 0.10793709522949257,
        "longitude": 104.63711647057788
    },
    {
        "code": 2104032013,
        "district_code": 210403,
        "regency_code": 2104,
        "province_code": 21,
        "name": "Penaah",
        "postal_code": "29873",
        "latitude": -0.09296277860720079,
        "longitude": 104.81468927119056
    },
    {
        "code": 2104032015,
        "district_code": 210403,
        "regency_code": 2104,
        "province_code": 21,
        "name": "Baran",
        "postal_code": "29873",
        "latitude": 0.17602814568533576,
        "longitude": 104.52414216579398
    },
    {
        "code": 2104041006,
        "district_code": 210404,
        "regency_code": 2104,
        "province_code": 21,
        "name": "Raya",
        "postal_code": "29875",
        "latitude": -0.4515079196227856,
        "longitude": 104.45669578239908
    },
    {
        "code": 2104042001,
        "district_code": 210404,
        "regency_code": 2104,
        "province_code": 21,
        "name": "Bakong",
        "postal_code": "29875",
        "latitude": -0.399854172378584,
        "longitude": 104.33639694858739
    },
    {
        "code": 2104042002,
        "district_code": 210404,
        "regency_code": 2104,
        "province_code": 21,
        "name": "Kuala Raya",
        "postal_code": "29875",
        "latitude": -0.42169716513274863,
        "longitude": 104.4007058436469
    },
    {
        "code": 2104042003,
        "district_code": 210404,
        "regency_code": 2104,
        "province_code": 21,
        "name": "Marok Tua",
        "postal_code": "29875",
        "latitude": -0.5472102791321053,
        "longitude": 104.33677106671861
    },
    {
        "code": 2104042005,
        "district_code": 210404,
        "regency_code": 2104,
        "province_code": 21,
        "name": "Sungai Buluh",
        "postal_code": "29875",
        "latitude": -0.37456823627763386,
        "longitude": 104.4560091724789
    },
    {
        "code": 2104042007,
        "district_code": 210404,
        "regency_code": 2104,
        "province_code": 21,
        "name": "Sungai Raya",
        "postal_code": "29875",
        "latitude": -0.48178537598068355,
        "longitude": 104.43456813704623
    },
    {
        "code": 2104042008,
        "district_code": 210404,
        "regency_code": 2104,
        "province_code": 21,
        "name": "Sungai Harapan",
        "postal_code": "29875",
        "latitude": -0.4130956208282429,
        "longitude": 104.46157408199208
    },
    {
        "code": 2104042009,
        "district_code": 210404,
        "regency_code": 2104,
        "province_code": 21,
        "name": "Jagoh",
        "postal_code": "29875",
        "latitude": -0.3544792335242217,
        "longitude": 104.46616696775641
    },
    {
        "code": 2104042012,
        "district_code": 210404,
        "regency_code": 2104,
        "province_code": 21,
        "name": "Tinjul",
        "postal_code": "29875",
        "latitude": -0.46446607408881285,
        "longitude": 104.37289142840079
    },
    {
        "code": 2104042013,
        "district_code": 210404,
        "regency_code": 2104,
        "province_code": 21,
        "name": "Langkap",
        "postal_code": "29875",
        "latitude": -0.4596685502292525,
        "longitude": 104.31334332561998
    },
    {
        "code": 2104042014,
        "district_code": 210404,
        "regency_code": 2104,
        "province_code": 21,
        "name": "Tanjung Irat",
        "postal_code": "29875",
        "latitude": -0.43958312258653043,
        "longitude": 104.2828087061963
    },
    {
        "code": 2104042015,
        "district_code": 210404,
        "regency_code": 2104,
        "province_code": 21,
        "name": "Bukit Belah",
        "postal_code": "29875",
        "latitude": -0.4372946098433035,
        "longitude": 104.42836876365973
    },
    {
        "code": 2104051007,
        "district_code": 210405,
        "regency_code": 2104,
        "province_code": 21,
        "name": "Pancur",
        "postal_code": "29874",
        "latitude": -0.07471370066778835,
        "longitude": 104.6518892375268
    },
    {
        "code": 2104052001,
        "district_code": 210405,
        "regency_code": 2104,
        "province_code": 21,
        "name": "Bukit Harapan",
        "postal_code": "29874",
        "latitude": -0.19807605752850047,
        "longitude": 104.74906445554993
    },
    {
        "code": 2104052002,
        "district_code": 210405,
        "regency_code": 2104,
        "province_code": 21,
        "name": "Duara",
        "postal_code": "29874",
        "latitude": -0.03874556045695322,
        "longitude": 104.60066269712476
    },
    {
        "code": 2104052003,
        "district_code": 210405,
        "regency_code": 2104,
        "province_code": 21,
        "name": "Limbung",
        "postal_code": "29874",
        "latitude": -0.1988555536230598,
        "longitude": 104.82874598104043
    },
    {
        "code": 2104052004,
        "district_code": 210405,
        "regency_code": 2104,
        "province_code": 21,
        "name": "Resun",
        "postal_code": "29874",
        "latitude": -0.12552955105823732,
        "longitude": 104.59879497009331
    },
    {
        "code": 2104052005,
        "district_code": 210405,
        "regency_code": 2104,
        "province_code": 21,
        "name": "Sekanah",
        "postal_code": "29874",
        "latitude": -0.018040480188377898,
        "longitude": 104.58540793193913
    },
    {
        "code": 2104052008,
        "district_code": 210405,
        "regency_code": 2104,
        "province_code": 21,
        "name": "Linau",
        "postal_code": "29874",
        "latitude": -0.14360340660524779,
        "longitude": 104.70691123661047
    },
    {
        "code": 2104052009,
        "district_code": 210405,
        "regency_code": 2104,
        "province_code": 21,
        "name": "Sungaibesar",
        "postal_code": "29874",
        "latitude": -0.05658293994430526,
        "longitude": 104.57964597106384
    },
    {
        "code": 2104052010,
        "district_code": 210405,
        "regency_code": 2104,
        "province_code": 21,
        "name": "Rantau Panjang",
        "postal_code": "29874",
        "latitude": -0.09660641252218681,
        "longitude": 104.59925389098133
    },
    {
        "code": 2104052012,
        "district_code": 210405,
        "regency_code": 2104,
        "province_code": 21,
        "name": "Resun Pesisir",
        "postal_code": "29874",
        "latitude": -0.1204792296196364,
        "longitude": 104.66589434424934
    },
    {
        "code": 2104062001,
        "district_code": 210406,
        "regency_code": 2104,
        "province_code": 21,
        "name": "Berindat",
        "postal_code": "29870",
        "latitude": -0.4566708016590336,
        "longitude": 104.53587380029653
    },
    {
        "code": 2104062002,
        "district_code": 210406,
        "regency_code": 2104,
        "province_code": 21,
        "name": "Sedamai",
        "postal_code": "29870",
        "latitude": -0.4268234569192695,
        "longitude": 104.52896248435991
    },
    {
        "code": 2104062003,
        "district_code": 210406,
        "regency_code": 2104,
        "province_code": 21,
        "name": "Lanjut",
        "postal_code": "29870",
        "latitude": -0.4087679202457964,
        "longitude": 104.52206970650909
    },
    {
        "code": 2104062004,
        "district_code": 210406,
        "regency_code": 2104,
        "province_code": 21,
        "name": "Kote",
        "postal_code": "29870",
        "latitude": -0.38380804600832463,
        "longitude": 104.50629007388474
    },
    {
        "code": 2104062005,
        "district_code": 210406,
        "regency_code": 2104,
        "province_code": 21,
        "name": "Persing",
        "postal_code": "29870",
        "latitude": -0.436060706115521,
        "longitude": 104.55086042948227
    },
    {
        "code": 2104062006,
        "district_code": 210406,
        "regency_code": 2104,
        "province_code": 21,
        "name": "Pelakak",
        "postal_code": "29870",
        "latitude": -0.3559582473984566,
        "longitude": 104.48618285672843
    },
    {
        "code": 2104072001,
        "district_code": 210407,
        "regency_code": 2104,
        "province_code": 21,
        "name": "Bukitlangkap",
        "postal_code": "29872",
        "latitude": -0.18809681733981556,
        "longitude": 104.71864164386173
    },
    {
        "code": 2104072002,
        "district_code": 210407,
        "regency_code": 2104,
        "province_code": 21,
        "name": "Keton",
        "postal_code": "29872",
        "latitude": -0.24372487320699732,
        "longitude": 104.79397594712968
    },
    {
        "code": 2104072003,
        "district_code": 210407,
        "regency_code": 2104,
        "province_code": 21,
        "name": "Pekaka",
        "postal_code": "29872",
        "latitude": -0.24098043423842588,
        "longitude": 104.76859631842487
    },
    {
        "code": 2104072004,
        "district_code": 210407,
        "regency_code": 2104,
        "province_code": 21,
        "name": "Kerandin",
        "postal_code": "29872",
        "latitude": -0.2166963311117855,
        "longitude": 104.73596507755839
    },
    {
        "code": 2104072005,
        "district_code": 210407,
        "regency_code": 2104,
        "province_code": 21,
        "name": "Sungai Pinang",
        "postal_code": "29872",
        "latitude": -0.27785522764116816,
        "longitude": 104.83480220052866
    },
    {
        "code": 2104072006,
        "district_code": 210407,
        "regency_code": 2104,
        "province_code": 21,
        "name": "Kudung",
        "postal_code": "29872",
        "latitude": -0.2933252790953628,
        "longitude": 104.88670866788243
    },
    {
        "code": 2104072007,
        "district_code": 210407,
        "regency_code": 2104,
        "province_code": 21,
        "name": "Teluk",
        "postal_code": "29874",
        "latitude": -0.24587084019230832,
        "longitude": 104.8905186338274
    },
    {
        "code": 2104072008,
        "district_code": 210407,
        "regency_code": 2104,
        "province_code": 21,
        "name": "Belungkur",
        "postal_code": "29874",
        "latitude": -0.2882360170971597,
        "longitude": 104.971026011018
    },
    {
        "code": 2104082001,
        "district_code": 210408,
        "regency_code": 2104,
        "province_code": 21,
        "name": "Selayar",
        "postal_code": "29877",
        "latitude": -0.2946213417105449,
        "longitude": 104.41782645221404
    },
    {
        "code": 2104082002,
        "district_code": 210408,
        "regency_code": 2104,
        "province_code": 21,
        "name": "Penuba",
        "postal_code": "29877",
        "latitude": -0.31132169487113476,
        "longitude": 104.45216576026998
    },
    {
        "code": 2104082003,
        "district_code": 210408,
        "regency_code": 2104,
        "province_code": 21,
        "name": "Penuba Timur",
        "postal_code": "29877",
        "latitude": -0.2998281837511048,
        "longitude": 104.47235993875816
    },
    {
        "code": 2104082004,
        "district_code": 210408,
        "regency_code": 2104,
        "province_code": 21,
        "name": "Pantai Harapan",
        "postal_code": "29877",
        "latitude": -0.31335612440316263,
        "longitude": 104.42723029892457
    },
    {
        "code": 2104092001,
        "district_code": 210409,
        "regency_code": 2104,
        "province_code": 21,
        "name": "Marok Kecil",
        "postal_code": "29878",
        "latitude": -0.5566606106762291,
        "longitude": 104.43832314631665
    },
    {
        "code": 2104092002,
        "district_code": 210409,
        "regency_code": 2104,
        "province_code": 21,
        "name": "Berhala",
        "postal_code": "29878",
        "latitude": -0.7425705491222109,
        "longitude": 104.57698861262136
    },
    {
        "code": 2104092003,
        "district_code": 210409,
        "regency_code": 2104,
        "province_code": 21,
        "name": "Resang",
        "postal_code": "29878",
        "latitude": -0.61615879357835,
        "longitude": 104.38037305779258
    },
    {
        "code": 2104102001,
        "district_code": 210410,
        "regency_code": 2104,
        "province_code": 21,
        "name": "Busung Panjang",
        "postal_code": "29876",
        "latitude": -0.34714015452345004,
        "longitude": 104.24619997542804
    },
    {
        "code": 2104102002,
        "district_code": 210410,
        "regency_code": 2104,
        "province_code": 21,
        "name": "Posek",
        "postal_code": "29876",
        "latitude": -0.3941104960111634,
        "longitude": 104.20000524532576
    },
    {
        "code": 2104102003,
        "district_code": 210410,
        "regency_code": 2104,
        "province_code": 21,
        "name": "Suak Buaya",
        "postal_code": "29876",
        "latitude": -0.35077759303953343,
        "longitude": 104.15785351548591
    },
    {
        "code": 2104112001,
        "district_code": 210411,
        "regency_code": 2104,
        "province_code": 21,
        "name": "Benan",
        "postal_code": "29873",
        "latitude": 0.47688104441013046,
        "longitude": 104.41400133070819
    },
    {
        "code": 2104112002,
        "district_code": 210411,
        "regency_code": 2104,
        "province_code": 21,
        "name": "Mensanak",
        "postal_code": "29873",
        "latitude": 0.3980286831034722,
        "longitude": 104.53419540474798
    },
    {
        "code": 2104112003,
        "district_code": 210411,
        "regency_code": 2104,
        "province_code": 21,
        "name": "Pulau Bukit",
        "postal_code": "29873",
        "latitude": 0.44848091768551496,
        "longitude": 104.3946059580569
    },
    {
        "code": 2104112004,
        "district_code": 210411,
        "regency_code": 2104,
        "province_code": 21,
        "name": "Pulau Duyung",
        "postal_code": "29873",
        "latitude": 0.36432709868386504,
        "longitude": 104.47053964538296
    },
    {
        "code": 2104112005,
        "district_code": 210411,
        "regency_code": 2104,
        "province_code": 21,
        "name": "Pulau Medang",
        "postal_code": "29873",
        "latitude": 0.3828513132656784,
        "longitude": 104.42674913882853
    },
    {
        "code": 2104122001,
        "district_code": 210412,
        "regency_code": 2104,
        "province_code": 21,
        "name": "Temiang",
        "postal_code": "29873",
        "latitude": 0.3416116109280338,
        "longitude": 104.37701762732173
    },
    {
        "code": 2104122002,
        "district_code": 210412,
        "regency_code": 2104,
        "province_code": 21,
        "name": "Tajur Biru",
        "postal_code": "29873",
        "latitude": 0.27543465983657056,
        "longitude": 104.43736675208999
    },
    {
        "code": 2104122003,
        "district_code": 210412,
        "regency_code": 2104,
        "province_code": 21,
        "name": "Pulau Batang",
        "postal_code": "29873",
        "latitude": 0.2985234432690347,
        "longitude": 104.34223650000425
    },
    {
        "code": 2104132001,
        "district_code": 210413,
        "regency_code": 2104,
        "province_code": 21,
        "name": "Batu Belubang",
        "postal_code": "29873",
        "latitude": 0.1749674432374372,
        "longitude": 104.2241981556708
    },
    {
        "code": 2104132002,
        "district_code": 210413,
        "regency_code": 2104,
        "province_code": 21,
        "name": "Cempa",
        "postal_code": "29873",
        "latitude": 0.1391249178818406,
        "longitude": 104.31211119697485
    },
    {
        "code": 2104132003,
        "district_code": 210413,
        "regency_code": 2104,
        "province_code": 21,
        "name": "Pasir Panjang",
        "postal_code": "29873",
        "latitude": 0.12307143056957878,
        "longitude": 104.41081795197083
    },
    {
        "code": 2104132004,
        "district_code": 210413,
        "regency_code": 2104,
        "province_code": 21,
        "name": "Tanjung Kelit",
        "postal_code": "29873",
        "latitude": 0.0468860615919609,
        "longitude": 104.48296510026495
    },
    {
        "code": 2104132005,
        "district_code": 210413,
        "regency_code": 2104,
        "province_code": 21,
        "name": "Tanjung Lipat",
        "postal_code": "29873",
        "latitude": 0.09808387321541377,
        "longitude": 104.48227052099985
    },
    {
        "code": 2104132006,
        "district_code": 210413,
        "regency_code": 2104,
        "province_code": 21,
        "name": "Rejai",
        "postal_code": "29873",
        "latitude": 0.15959258372947144,
        "longitude": 104.44039958936135
    },
    {
        "code": 2105011001,
        "district_code": 210501,
        "regency_code": 2105,
        "province_code": 21,
        "name": "Terempa",
        "postal_code": "29791",
        "latitude": 3.2166642500173936,
        "longitude": 106.22114535449745
    },
    {
        "code": 2105012002,
        "district_code": 210501,
        "regency_code": 2105,
        "province_code": 21,
        "name": "Terempa Barat",
        "postal_code": "29791",
        "latitude": 3.2070839610027124,
        "longitude": 106.2077495895109
    },
    {
        "code": 2105012003,
        "district_code": 210501,
        "regency_code": 2105,
        "province_code": 21,
        "name": "Tarempa Selatan",
        "postal_code": "29791",
        "latitude": 3.175108614585167,
        "longitude": 106.23272633160072
    },
    {
        "code": 2105012004,
        "district_code": 210501,
        "regency_code": 2105,
        "province_code": 21,
        "name": "Tarempa Timur",
        "postal_code": "29791",
        "latitude": 3.234391051561084,
        "longitude": 106.24609816223108
    },
    {
        "code": 2105012005,
        "district_code": 210501,
        "regency_code": 2105,
        "province_code": 21,
        "name": "Pesisir Timur",
        "postal_code": "29791",
        "latitude": 3.20165080159062,
        "longitude": 106.2528997574324
    },
    {
        "code": 2105012006,
        "district_code": 210501,
        "regency_code": 2105,
        "province_code": 21,
        "name": "Sri Tanjung",
        "postal_code": "29791",
        "latitude": 3.2249660662043698,
        "longitude": 106.20888968609128
    },
    {
        "code": 2105012007,
        "district_code": 210501,
        "regency_code": 2105,
        "province_code": 21,
        "name": "Tarempa Barat Daya",
        "postal_code": "29791",
        "latitude": 3.215459224941516,
        "longitude": 106.21419220951726
    },
    {
        "code": 2105022002,
        "district_code": 210502,
        "regency_code": 2105,
        "province_code": 21,
        "name": "Tebang",
        "postal_code": "29796",
        "latitude": 3.320338768569586,
        "longitude": 106.2888131008741
    },
    {
        "code": 2105022003,
        "district_code": 210502,
        "regency_code": 2105,
        "province_code": 21,
        "name": "Ladan",
        "postal_code": "29796",
        "latitude": 3.3430893629274068,
        "longitude": 106.29215240607986
    },
    {
        "code": 2105022005,
        "district_code": 210502,
        "regency_code": 2105,
        "province_code": 21,
        "name": "Piabung",
        "postal_code": "29796",
        "latitude": 3.2804920073220982,
        "longitude": 106.28832789470499
    },
    {
        "code": 2105022006,
        "district_code": 210502,
        "regency_code": 2105,
        "province_code": 21,
        "name": "Langir",
        "postal_code": "29796",
        "latitude": 3.2973165906675703,
        "longitude": 106.27560667140935
    },
    {
        "code": 2105022007,
        "district_code": 210502,
        "regency_code": 2105,
        "province_code": 21,
        "name": "Candi",
        "postal_code": "29796",
        "latitude": 3.3019448278152073,
        "longitude": 106.28585769481566
    },
    {
        "code": 2105022008,
        "district_code": 210502,
        "regency_code": 2105,
        "province_code": 21,
        "name": "Putik",
        "postal_code": "29796",
        "latitude": 3.369308173885627,
        "longitude": 106.30839632980359
    },
    {
        "code": 2105022015,
        "district_code": 210502,
        "regency_code": 2105,
        "province_code": 21,
        "name": "Belibak",
        "postal_code": "29796",
        "latitude": 3.322525425836031,
        "longitude": 106.3991148226571
    },
    {
        "code": 2105032001,
        "district_code": 210503,
        "regency_code": 2105,
        "province_code": 21,
        "name": "Nyamuk",
        "postal_code": "29794",
        "latitude": 3.0745441102997892,
        "longitude": 106.35611746235678
    },
    {
        "code": 2105032002,
        "district_code": 210503,
        "regency_code": 2105,
        "province_code": 21,
        "name": "Batu Belah",
        "postal_code": "29794",
        "latitude": 3.173911941278243,
        "longitude": 106.41480357414432
    },
    {
        "code": 2105032003,
        "district_code": 210503,
        "regency_code": 2105,
        "province_code": 21,
        "name": "Munjan",
        "postal_code": "29794",
        "latitude": 3.09821347601727,
        "longitude": 106.3457327196276
    },
    {
        "code": 2105032004,
        "district_code": 210503,
        "regency_code": 2105,
        "province_code": 21,
        "name": "Serat",
        "postal_code": "29794",
        "latitude": 3.1018124054729346,
        "longitude": 106.31148730325381
    },
    {
        "code": 2105032005,
        "district_code": 210503,
        "regency_code": 2105,
        "province_code": 21,
        "name": "Air Putih",
        "postal_code": "29794",
        "latitude": 3.124976551936617,
        "longitude": 106.27337377507799
    },
    {
        "code": 2105032006,
        "district_code": 210503,
        "regency_code": 2105,
        "province_code": 21,
        "name": "Temburun",
        "postal_code": "29794",
        "latitude": 3.1536070014677926,
        "longitude": 106.28478293206433
    },
    {
        "code": 2105042001,
        "district_code": 210504,
        "regency_code": 2105,
        "province_code": 21,
        "name": "Kiabu",
        "postal_code": "29790",
        "latitude": 2.7446413121348017,
        "longitude": 106.20779506246423
    },
    {
        "code": 2105042002,
        "district_code": 210504,
        "regency_code": 2105,
        "province_code": 21,
        "name": "Telaga",
        "postal_code": "29790",
        "latitude": 3.052029654725217,
        "longitude": 105.97457841886573
    },
    {
        "code": 2105042003,
        "district_code": 210504,
        "regency_code": 2105,
        "province_code": 21,
        "name": "Mengkait",
        "postal_code": "29790",
        "latitude": 2.948101734954001,
        "longitude": 106.1453480460487
    },
    {
        "code": 2105042004,
        "district_code": 210504,
        "regency_code": 2105,
        "province_code": 21,
        "name": "Tiangau",
        "postal_code": "29790",
        "latitude": 3.1557119342710513,
        "longitude": 106.2152189407485
    },
    {
        "code": 2105042005,
        "district_code": 210504,
        "regency_code": 2105,
        "province_code": 21,
        "name": "Telaga Kecil",
        "postal_code": "29790",
        "latitude": 3.087236775065824,
        "longitude": 105.95659742538331
    },
    {
        "code": 2105042006,
        "district_code": 210504,
        "regency_code": 2105,
        "province_code": 21,
        "name": "Lingai",
        "postal_code": "29790",
        "latitude": 3.134086825939507,
        "longitude": 106.10022012783433
    },
    {
        "code": 2105042007,
        "district_code": 210504,
        "regency_code": 2105,
        "province_code": 21,
        "name": "Air Bini",
        "postal_code": "29790",
        "latitude": 3.1141756296617165,
        "longitude": 106.24202641781308
    },
    {
        "code": 2105052001,
        "district_code": 210505,
        "regency_code": 2105,
        "province_code": 21,
        "name": "Kuala Maras",
        "postal_code": "29793",
        "latitude": 2.9500750412502184,
        "longitude": 105.80689050867034
    },
    {
        "code": 2105052002,
        "district_code": 210505,
        "regency_code": 2105,
        "province_code": 21,
        "name": "Ulu Maras",
        "postal_code": "29793",
        "latitude": 2.918295868198668,
        "longitude": 105.7513115097428
    },
    {
        "code": 2105052003,
        "district_code": 210505,
        "regency_code": 2105,
        "province_code": 21,
        "name": "Bukit Padi",
        "postal_code": "29793",
        "latitude": 2.954972178576426,
        "longitude": 105.7524481087591
    },
    {
        "code": 2105052004,
        "district_code": 210505,
        "regency_code": 2105,
        "province_code": 21,
        "name": "Genting Pulur",
        "postal_code": "29793",
        "latitude": 2.8624289128572755,
        "longitude": 105.742405561471
    },
    {
        "code": 2105061005,
        "district_code": 210506,
        "regency_code": 2105,
        "province_code": 21,
        "name": "Letung",
        "postal_code": "29792",
        "latitude": 2.994289228920898,
        "longitude": 105.70650321077112
    },
    {
        "code": 2105062001,
        "district_code": 210506,
        "regency_code": 2105,
        "province_code": 21,
        "name": "Mampok",
        "postal_code": "29792",
        "latitude": 2.9554381189441714,
        "longitude": 105.72140390753826
    },
    {
        "code": 2105062002,
        "district_code": 210506,
        "regency_code": 2105,
        "province_code": 21,
        "name": "Rewak",
        "postal_code": "29792",
        "latitude": 3.033344125649842,
        "longitude": 105.71454720100621
    },
    {
        "code": 2105062006,
        "district_code": 210506,
        "regency_code": 2105,
        "province_code": 21,
        "name": "Air Biru",
        "postal_code": "29792",
        "latitude": 2.8813015112552582,
        "longitude": 105.70517602974307
    },
    {
        "code": 2105062008,
        "district_code": 210506,
        "regency_code": 2105,
        "province_code": 21,
        "name": "Batu Berapit",
        "postal_code": "29792",
        "latitude": 2.9846670239879223,
        "longitude": 105.71750440014739
    },
    {
        "code": 2105062009,
        "district_code": 210506,
        "regency_code": 2105,
        "province_code": 21,
        "name": "Landak",
        "postal_code": "29792",
        "latitude": 3.0069852757623625,
        "longitude": 105.69640443487927
    },
    {
        "code": 2105072001,
        "district_code": 210507,
        "regency_code": 2105,
        "province_code": 21,
        "name": "Air Asuk",
        "postal_code": "29795",
        "latitude": 3.25234608979699,
        "longitude": 106.29672895268138
    },
    {
        "code": 2105072002,
        "district_code": 210507,
        "regency_code": 2105,
        "province_code": 21,
        "name": "Air Sena",
        "postal_code": "29795",
        "latitude": 3.238089964197407,
        "longitude": 106.28665041803478
    },
    {
        "code": 2105072003,
        "district_code": 210507,
        "regency_code": 2105,
        "province_code": 21,
        "name": "Teluk Siantan",
        "postal_code": "29795",
        "latitude": 3.261105650041613,
        "longitude": 106.26882814039737
    },
    {
        "code": 2105072004,
        "district_code": 210507,
        "regency_code": 2105,
        "province_code": 21,
        "name": "Lidi",
        "postal_code": "29795",
        "latitude": 3.277623606977152,
        "longitude": 106.30424740949371
    },
    {
        "code": 2105072005,
        "district_code": 210507,
        "regency_code": 2105,
        "province_code": 21,
        "name": "Liuk",
        "postal_code": "29795",
        "latitude": 3.251047111519453,
        "longitude": 106.30368827129881
    },
    {
        "code": 2105072006,
        "district_code": 210507,
        "regency_code": 2105,
        "province_code": 21,
        "name": "Teluk Sunting",
        "postal_code": "29795",
        "latitude": 3.272774603200033,
        "longitude": 106.25543472297412
    },
    {
        "code": 2105082001,
        "district_code": 210508,
        "regency_code": 2105,
        "province_code": 21,
        "name": "Mubur",
        "postal_code": "29796",
        "latitude": 3.3552649618244303,
        "longitude": 106.21537271185852
    },
    {
        "code": 2105082002,
        "district_code": 210508,
        "regency_code": 2105,
        "province_code": 21,
        "name": "Piasan",
        "postal_code": "29796",
        "latitude": 3.3070099876357593,
        "longitude": 106.21761449257404
    },
    {
        "code": 2105082003,
        "district_code": 210508,
        "regency_code": 2105,
        "province_code": 21,
        "name": "Bayat",
        "postal_code": "29796",
        "latitude": 3.323401831033775,
        "longitude": 106.18892377099132
    },
    {
        "code": 2105092001,
        "district_code": 210509,
        "regency_code": 2105,
        "province_code": 21,
        "name": "Impol",
        "postal_code": "29792",
        "latitude": 3.0864770458073467,
        "longitude": 105.7198235770638
    },
    {
        "code": 2105092002,
        "district_code": 210509,
        "regency_code": 2105,
        "province_code": 21,
        "name": "Keramut",
        "postal_code": "29792",
        "latitude": 3.098588127546961,
        "longitude": 105.64006631235053
    },
    {
        "code": 2105092003,
        "district_code": 210509,
        "regency_code": 2105,
        "province_code": 21,
        "name": "Sunggak",
        "postal_code": "29792",
        "latitude": 3.1006627926770727,
        "longitude": 105.6946072432948
    },
    {
        "code": 2105102001,
        "district_code": 210510,
        "regency_code": 2105,
        "province_code": 21,
        "name": "Payalaman",
        "postal_code": "29796",
        "latitude": 3.3312269952599984,
        "longitude": 106.26841056457161
    },
    {
        "code": 2105102002,
        "district_code": 210510,
        "regency_code": 2105,
        "province_code": 21,
        "name": "Payamaram",
        "postal_code": "29796",
        "latitude": 3.3403272186754447,
        "longitude": 106.25431815339753
    },
    {
        "code": 2105102003,
        "district_code": 210510,
        "regency_code": 2105,
        "province_code": 21,
        "name": "Batu Ampar",
        "postal_code": "29796",
        "latitude": 3.370643221436282,
        "longitude": 106.27175107303391
    },
    {
        "code": 2105102004,
        "district_code": 210510,
        "regency_code": 2105,
        "province_code": 21,
        "name": "Matak",
        "postal_code": "29796",
        "latitude": 3.318420155007237,
        "longitude": 106.24248586709065
    },
    {
        "code": 2105102005,
        "district_code": 210510,
        "regency_code": 2105,
        "province_code": 21,
        "name": "Teluk Bayur",
        "postal_code": "29796",
        "latitude": 3.3039589287932447,
        "longitude": 106.25746037945162
    },
    {
        "code": 2171011002,
        "district_code": 217101,
        "regency_code": 2171,
        "province_code": 21,
        "name": "Pemping",
        "postal_code": "29412",
        "latitude": 1.1010475890416829,
        "longitude": 103.78375630718413
    },
    {
        "code": 2171011003,
        "district_code": 217101,
        "regency_code": 2171,
        "province_code": 21,
        "name": "Kasu",
        "postal_code": "29413",
        "latitude": 1.0344638009883955,
        "longitude": 103.81381444345118
    },
    {
        "code": 2171011004,
        "district_code": 217101,
        "regency_code": 2171,
        "province_code": 21,
        "name": "Pulau Terung",
        "postal_code": "29416",
        "latitude": 0.9717427103604711,
        "longitude": 103.78411191120087
    },
    {
        "code": 2171011005,
        "district_code": 217101,
        "regency_code": 2171,
        "province_code": 21,
        "name": "Pecong",
        "postal_code": "29414",
        "latitude": 0.98903804175878,
        "longitude": 103.81861602182705
    },
    {
        "code": 2171011006,
        "district_code": 217101,
        "regency_code": 2171,
        "province_code": 21,
        "name": "Tanjung Sari",
        "postal_code": "29416",
        "latitude": 1.158546667297925,
        "longitude": 103.88977161058072
    },
    {
        "code": 2171011007,
        "district_code": 217101,
        "regency_code": 2171,
        "province_code": 21,
        "name": "Sekanak Raya",
        "postal_code": "29416",
        "latitude": 1.1377742933866266,
        "longitude": 103.87321765996808
    },
    {
        "code": 2171021001,
        "district_code": 217102,
        "regency_code": 2171,
        "province_code": 21,
        "name": "Tanjung Sengkuang",
        "postal_code": "29453",
        "latitude": 1.1780256478329025,
        "longitude": 104.01856746992694
    },
    {
        "code": 2171021002,
        "district_code": 217102,
        "regency_code": 2171,
        "province_code": 21,
        "name": "Sungai Jodoh",
        "postal_code": "29453",
        "latitude": 1.1562966180186252,
        "longitude": 104.003564569863
    },
    {
        "code": 2171021003,
        "district_code": 217102,
        "regency_code": 2171,
        "province_code": 21,
        "name": "Batu Merah",
        "postal_code": "29452",
        "latitude": 1.1751764547984567,
        "longitude": 104.00659101463911
    },
    {
        "code": 2171021004,
        "district_code": 217102,
        "regency_code": 2171,
        "province_code": 21,
        "name": "Kampung Seraya",
        "postal_code": "29454",
        "latitude": 1.1548013047821226,
        "longitude": 104.01463097929565
    },
    {
        "code": 2171031001,
        "district_code": 217103,
        "regency_code": 2171,
        "province_code": 21,
        "name": "Sungai Harapan",
        "postal_code": "29428",
        "latitude": 1.1087696644251879,
        "longitude": 103.94973949213389
    },
    {
        "code": 2171031002,
        "district_code": 217103,
        "regency_code": 2171,
        "province_code": 21,
        "name": "Tanjung Pinggir",
        "postal_code": "29428",
        "latitude": 1.1283410686922875,
        "longitude": 103.94051978022846
    },
    {
        "code": 2171031003,
        "district_code": 217103,
        "regency_code": 2171,
        "province_code": 21,
        "name": "Tanjung Riau",
        "postal_code": "29425",
        "latitude": 1.08262742684557,
        "longitude": 103.94490279696085
    },
    {
        "code": 2171031005,
        "district_code": 217103,
        "regency_code": 2171,
        "province_code": 21,
        "name": "Tiban Indah",
        "postal_code": "29426",
        "latitude": 1.1202840089600339,
        "longitude": 103.98875434428531
    },
    {
        "code": 2171031006,
        "district_code": 217103,
        "regency_code": 2171,
        "province_code": 21,
        "name": "Tiban Baru",
        "postal_code": "29426",
        "latitude": 1.1002750086687807,
        "longitude": 103.96904873335029
    },
    {
        "code": 2171031007,
        "district_code": 217103,
        "regency_code": 2171,
        "province_code": 21,
        "name": "Tiban Lama",
        "postal_code": "29425",
        "latitude": 1.0963010781635676,
        "longitude": 103.99752173493086
    },
    {
        "code": 2171031008,
        "district_code": 217103,
        "regency_code": 2171,
        "province_code": 21,
        "name": "Patam Lestari",
        "postal_code": "29427",
        "latitude": 1.1231005278961321,
        "longitude": 103.96677320714198
    },
    {
        "code": 2171041001,
        "district_code": 217104,
        "regency_code": 2171,
        "province_code": 21,
        "name": "Sambau",
        "postal_code": "29465",
        "latitude": 1.1721163318643737,
        "longitude": 104.09729360018449
    },
    {
        "code": 2171041002,
        "district_code": 217104,
        "regency_code": 2171,
        "province_code": 21,
        "name": "Batu Besar",
        "postal_code": "29466",
        "latitude": 1.128589824082504,
        "longitude": 104.1242126403556
    },
    {
        "code": 2171041003,
        "district_code": 217104,
        "regency_code": 2171,
        "province_code": 21,
        "name": "Kabil",
        "postal_code": "29467",
        "latitude": 1.0652525437376694,
        "longitude": 104.1218665686416
    },
    {
        "code": 2171041004,
        "district_code": 217104,
        "regency_code": 2171,
        "province_code": 21,
        "name": "Ngenang",
        "postal_code": "29468",
        "latitude": 1.0247098560466479,
        "longitude": 104.16390018901245
    },
    {
        "code": 2171051001,
        "district_code": 217105,
        "regency_code": 2171,
        "province_code": 21,
        "name": "Bulang Lintang",
        "postal_code": "29471",
        "latitude": 0.9970373629914945,
        "longitude": 103.86812054722326
    },
    {
        "code": 2171051002,
        "district_code": 217105,
        "regency_code": 2171,
        "province_code": 21,
        "name": "Pulau Buluh",
        "postal_code": "29472",
        "latitude": 1.0146456554025338,
        "longitude": 103.91285264986807
    },
    {
        "code": 2171051003,
        "district_code": 217105,
        "regency_code": 2171,
        "province_code": 21,
        "name": "Temoyong",
        "postal_code": "29475",
        "latitude": 0.909752544670529,
        "longitude": 103.95707946498793
    },
    {
        "code": 2171051004,
        "district_code": 217105,
        "regency_code": 2171,
        "province_code": 21,
        "name": "Batu Legong",
        "postal_code": "29474",
        "latitude": 0.9738904081088873,
        "longitude": 103.94112544626682
    },
    {
        "code": 2171051005,
        "district_code": 217105,
        "regency_code": 2171,
        "province_code": 21,
        "name": "Pantai Gelam",
        "postal_code": "29473",
        "latitude": 0.9460191703689244,
        "longitude": 103.91359973931155
    },
    {
        "code": 2171051006,
        "district_code": 217105,
        "regency_code": 2171,
        "province_code": 21,
        "name": "Pulau Setokok",
        "postal_code": "29476",
        "latitude": 0.9455516233310239,
        "longitude": 104.06198431817579
    },
    {
        "code": 2171061001,
        "district_code": 217106,
        "regency_code": 2171,
        "province_code": 21,
        "name": "Kampung Pelita",
        "postal_code": "29443",
        "latitude": 1.1414450640189218,
        "longitude": 104.01985515820752
    },
    {
        "code": 2171061003,
        "district_code": 217106,
        "regency_code": 2171,
        "province_code": 21,
        "name": "Lubuk Baja Kota",
        "postal_code": "29444",
        "latitude": 1.1430487789861021,
        "longitude": 104.0112629255047
    },
    {
        "code": 2171061004,
        "district_code": 217106,
        "regency_code": 2171,
        "province_code": 21,
        "name": "Batu Selicin",
        "postal_code": "29441",
        "latitude": 1.1367250310018833,
        "longitude": 104.00753312134333
    },
    {
        "code": 2171061005,
        "district_code": 217106,
        "regency_code": 2171,
        "province_code": 21,
        "name": "Tanjung Uma",
        "postal_code": "29445",
        "latitude": 1.1367743693488157,
        "longitude": 103.99646394638283
    },
    {
        "code": 2171061006,
        "district_code": 217106,
        "regency_code": 2171,
        "province_code": 21,
        "name": "Baloi Indah",
        "postal_code": "29432",
        "latitude": 1.1232159339395809,
        "longitude": 104.00904080911242
    },
    {
        "code": 2171071001,
        "district_code": 217107,
        "regency_code": 2171,
        "province_code": 21,
        "name": "Muka Kuning",
        "postal_code": "29433",
        "latitude": 1.0739315115498562,
        "longitude": 104.05613279630579
    },
    {
        "code": 2171071002,
        "district_code": 217107,
        "regency_code": 2171,
        "province_code": 21,
        "name": "Duriangkang",
        "postal_code": "29437",
        "latitude": 1.0135139494597487,
        "longitude": 104.05120551742102
    },
    {
        "code": 2171071003,
        "district_code": 217107,
        "regency_code": 2171,
        "province_code": 21,
        "name": "Mangsang",
        "postal_code": "29437",
        "latitude": 1.033532230908138,
        "longitude": 104.0399005765663
    },
    {
        "code": 2171071004,
        "district_code": 217107,
        "regency_code": 2171,
        "province_code": 21,
        "name": "Tanjung Piayu",
        "postal_code": "29437",
        "latitude": 1.0231960574988745,
        "longitude": 104.07836962725143
    },
    {
        "code": 2171081001,
        "district_code": 217108,
        "regency_code": 2171,
        "province_code": 21,
        "name": "Sijantung",
        "postal_code": "29485",
        "latitude": 0.7660251231008549,
        "longitude": 104.2085667236597
    },
    {
        "code": 2171081002,
        "district_code": 217108,
        "regency_code": 2171,
        "province_code": 21,
        "name": "Karas",
        "postal_code": "29486",
        "latitude": 0.7415610286045238,
        "longitude": 104.25740712582984
    },
    {
        "code": 2171081003,
        "district_code": 217108,
        "regency_code": 2171,
        "province_code": 21,
        "name": "Galang Baru",
        "postal_code": "29484",
        "latitude": 0.6730895360920279,
        "longitude": 104.27190874741254
    },
    {
        "code": 2171081004,
        "district_code": 217108,
        "regency_code": 2171,
        "province_code": 21,
        "name": "Sembulang",
        "postal_code": "29481",
        "latitude": 0.8298669366595,
        "longitude": 104.20263741727061
    },
    {
        "code": 2171081005,
        "district_code": 217108,
        "regency_code": 2171,
        "province_code": 21,
        "name": "Rempang Cate",
        "postal_code": "29482",
        "latitude": 0.896704585472104,
        "longitude": 104.141384905544
    },
    {
        "code": 2171081006,
        "district_code": 217108,
        "regency_code": 2171,
        "province_code": 21,
        "name": "Subang Mas",
        "postal_code": "29483",
        "latitude": 0.9343731495960942,
        "longitude": 104.17448601853266
    },
    {
        "code": 2171081007,
        "district_code": 217108,
        "regency_code": 2171,
        "province_code": 21,
        "name": "Pulau Abang",
        "postal_code": "29487",
        "latitude": 0.5697369461669507,
        "longitude": 104.1993017512649
    },
    {
        "code": 2171081008,
        "district_code": 217108,
        "regency_code": 2171,
        "province_code": 21,
        "name": "Air Raja",
        "postal_code": "29483",
        "latitude": 0.9665290195867632,
        "longitude": 104.15891621603852
    },
    {
        "code": 2171091001,
        "district_code": 217109,
        "regency_code": 2171,
        "province_code": 21,
        "name": "Bengkong Indah",
        "postal_code": "29458",
        "latitude": 1.1488025531821757,
        "longitude": 104.02787244726444
    },
    {
        "code": 2171091002,
        "district_code": 217109,
        "regency_code": 2171,
        "province_code": 21,
        "name": "Bengkong Laut",
        "postal_code": "29458",
        "latitude": 1.1558222711799677,
        "longitude": 104.02708216321562
    },
    {
        "code": 2171091003,
        "district_code": 217109,
        "regency_code": 2171,
        "province_code": 21,
        "name": "Sadai",
        "postal_code": "29432",
        "latitude": 1.148331804035168,
        "longitude": 104.04291410485021
    },
    {
        "code": 2171091004,
        "district_code": 217109,
        "regency_code": 2171,
        "province_code": 21,
        "name": "Tanjung Buntung",
        "postal_code": "29432",
        "latitude": 1.167433408268225,
        "longitude": 104.0327166364162
    },
    {
        "code": 2171101001,
        "district_code": 217110,
        "regency_code": 2171,
        "province_code": 21,
        "name": "Baloi Permai",
        "postal_code": "29431",
        "latitude": 1.1058573753274212,
        "longitude": 104.05477101741127
    },
    {
        "code": 2171101002,
        "district_code": 217110,
        "regency_code": 2171,
        "province_code": 21,
        "name": "Taman Baloi",
        "postal_code": "29432",
        "latitude": 1.1152572962892,
        "longitude": 104.03232642474522
    },
    {
        "code": 2171101003,
        "district_code": 217110,
        "regency_code": 2171,
        "province_code": 21,
        "name": "Teluk Tering",
        "postal_code": "29461",
        "latitude": 1.1261839338873427,
        "longitude": 104.04638165980529
    },
    {
        "code": 2171101004,
        "district_code": 217110,
        "regency_code": 2171,
        "province_code": 21,
        "name": "Belian",
        "postal_code": "29464",
        "latitude": 1.1210342387595928,
        "longitude": 104.08164480628042
    },
    {
        "code": 2171101005,
        "district_code": 217110,
        "regency_code": 2171,
        "province_code": 21,
        "name": "Sukajadi",
        "postal_code": "29432",
        "latitude": 1.1044090857134643,
        "longitude": 104.02652783079967
    },
    {
        "code": 2171101006,
        "district_code": 217110,
        "regency_code": 2171,
        "province_code": 21,
        "name": "Sungai Panas",
        "postal_code": "29433",
        "latitude": 1.1328158280481204,
        "longitude": 104.02736693633402
    },
    {
        "code": 2171111001,
        "district_code": 217111,
        "regency_code": 2171,
        "province_code": 21,
        "name": "Tembesi",
        "postal_code": "29439",
        "latitude": 1.0168346517587983,
        "longitude": 104.01266348851607
    },
    {
        "code": 2171111002,
        "district_code": 217111,
        "regency_code": 2171,
        "province_code": 21,
        "name": "Sungai Binti",
        "postal_code": "29439",
        "latitude": 1.035431423770889,
        "longitude": 103.93473398382247
    },
    {
        "code": 2171111003,
        "district_code": 217111,
        "regency_code": 2171,
        "province_code": 21,
        "name": "Sungai Lekop",
        "postal_code": "29439",
        "latitude": 1.0243754259626094,
        "longitude": 103.94541796337536
    },
    {
        "code": 2171111004,
        "district_code": 217111,
        "regency_code": 2171,
        "province_code": 21,
        "name": "Sagulung Kota",
        "postal_code": "29439",
        "latitude": 1.0440763751270121,
        "longitude": 103.94980736443158
    },
    {
        "code": 2171111005,
        "district_code": 217111,
        "regency_code": 2171,
        "province_code": 21,
        "name": "Sungai Langkai",
        "postal_code": "29439",
        "latitude": 1.037621835594451,
        "longitude": 103.96928432755722
    },
    {
        "code": 2171111006,
        "district_code": 217111,
        "regency_code": 2171,
        "province_code": 21,
        "name": "Sungai Pelunggut",
        "postal_code": "29439",
        "latitude": 1.0188437999568725,
        "longitude": 103.96382646156906
    },
    {
        "code": 2171121001,
        "district_code": 217112,
        "regency_code": 2171,
        "province_code": 21,
        "name": "Tanjung Uncang",
        "postal_code": "29424",
        "latitude": 1.0618968793919712,
        "longitude": 103.9125954372571
    },
    {
        "code": 2171121002,
        "district_code": 217112,
        "regency_code": 2171,
        "province_code": 21,
        "name": "Buliang",
        "postal_code": "29438",
        "latitude": 1.0537472499018679,
        "longitude": 103.97381417625101
    },
    {
        "code": 2171121003,
        "district_code": 217112,
        "regency_code": 2171,
        "province_code": 21,
        "name": "Kibing",
        "postal_code": "29422",
        "latitude": 1.0631557356712549,
        "longitude": 103.9890812384693
    },
    {
        "code": 2171121004,
        "district_code": 217112,
        "regency_code": 2171,
        "province_code": 21,
        "name": "Bukit Tempayan",
        "postal_code": "29438",
        "latitude": 1.051010664381426,
        "longitude": 103.96153242094036
    },
    {
        "code": 2172011001,
        "district_code": 217201,
        "regency_code": 2172,
        "province_code": 21,
        "name": "Tanjung Pinang Barat",
        "postal_code": "29113",
        "latitude": 0.9158712308787229,
        "longitude": 104.44220680927336
    },
    {
        "code": 2172011002,
        "district_code": 217201,
        "regency_code": 2172,
        "province_code": 21,
        "name": "Kemboja",
        "postal_code": "29112",
        "latitude": 0.9263787370673572,
        "longitude": 104.45024926053586
    },
    {
        "code": 2172011003,
        "district_code": 217201,
        "regency_code": 2172,
        "province_code": 21,
        "name": "Kampung Baru",
        "postal_code": "29113",
        "latitude": 0.9081944130526864,
        "longitude": 104.44953777594083
    },
    {
        "code": 2172011004,
        "district_code": 217201,
        "regency_code": 2172,
        "province_code": 21,
        "name": "Bukit Cermin",
        "postal_code": "29111",
        "latitude": 0.9211861926907609,
        "longitude": 104.44825589034163
    },
    {
        "code": 2172021001,
        "district_code": 217202,
        "regency_code": 2172,
        "province_code": 21,
        "name": "Melayu Kota Piring",
        "postal_code": "29123",
        "latitude": 0.9173639490536176,
        "longitude": 104.48528054007976
    },
    {
        "code": 2172021002,
        "district_code": 217202,
        "regency_code": 2172,
        "province_code": 21,
        "name": "Kampung Bulang",
        "postal_code": "29122",
        "latitude": 0.9194707001794501,
        "longitude": 104.47183768775072
    },
    {
        "code": 2172021003,
        "district_code": 217202,
        "regency_code": 2172,
        "province_code": 21,
        "name": "Air Raja",
        "postal_code": "29122",
        "latitude": 0.9518313406430847,
        "longitude": 104.50173698086
    },
    {
        "code": 2172021004,
        "district_code": 217202,
        "regency_code": 2172,
        "province_code": 21,
        "name": "Batu IX",
        "postal_code": "29125",
        "latitude": 0.9010018238768536,
        "longitude": 104.51202977377964
    },
    {
        "code": 2172021005,
        "district_code": 217202,
        "regency_code": 2172,
        "province_code": 21,
        "name": "Pinang Kencana",
        "postal_code": "29122",
        "latitude": 0.9300784917812771,
        "longitude": 104.53043329930186
    },
    {
        "code": 2172031001,
        "district_code": 217203,
        "regency_code": 2172,
        "province_code": 21,
        "name": "Tanjung Pinang Kota",
        "postal_code": "29111",
        "latitude": 0.9293265651123639,
        "longitude": 104.44156619780225
    },
    {
        "code": 2172031003,
        "district_code": 217203,
        "regency_code": 2172,
        "province_code": 21,
        "name": "Senggarang",
        "postal_code": "29111",
        "latitude": 0.9644461593788164,
        "longitude": 104.43253554996657
    },
    {
        "code": 2172031004,
        "district_code": 217203,
        "regency_code": 2172,
        "province_code": 21,
        "name": "Penyengat",
        "postal_code": "29114",
        "latitude": 0.9280687220665176,
        "longitude": 104.41771461024047
    },
    {
        "code": 2172031005,
        "district_code": 217203,
        "regency_code": 2172,
        "province_code": 21,
        "name": "Kampung Bugis",
        "postal_code": "29115",
        "latitude": 0.9574190251215768,
        "longitude": 104.47219783899315
    },
    {
        "code": 2172041001,
        "district_code": 217204,
        "regency_code": 2172,
        "province_code": 21,
        "name": "Tanjung Pinang Timur",
        "postal_code": "29122",
        "latitude": 0.9152745526748681,
        "longitude": 104.45828042607731
    },
    {
        "code": 2172041002,
        "district_code": 217204,
        "regency_code": 2172,
        "province_code": 21,
        "name": "Dompak",
        "postal_code": "29124",
        "latitude": 0.8696994168236396,
        "longitude": 104.49192782256272
    },
    {
        "code": 2172041003,
        "district_code": 217204,
        "regency_code": 2172,
        "province_code": 21,
        "name": "Tanjung Ayun Sakti",
        "postal_code": "29124",
        "latitude": 0.9030187477286965,
        "longitude": 104.46120913094549
    },
    {
        "code": 2172041004,
        "district_code": 217204,
        "regency_code": 2172,
        "province_code": 21,
        "name": "Sei Jang",
        "postal_code": "29124",
        "latitude": 0.8997037302396158,
        "longitude": 104.47496882466916
    },
    {
        "code": 2172041005,
        "district_code": 217204,
        "regency_code": 2172,
        "province_code": 21,
        "name": "Tanjung Unggat",
        "postal_code": "29122",
        "latitude": 0.9242933132502326,
        "longitude": 104.46226964786734
    }
]