code,district_code,regency_code,province_code,name,postal_code,latitude,longitude,coordinates
1301012001,130101,1301,13,Inderapura,25671,,,null
1301012002,130101,1301,13,"Muaro Sakai Inderapura",25671,,,null
1301012003,130101,1301,13,"Tiga Sepakat Inderapura",25671,,,null
1301012004,130101,1301,13,"Inderapura Barat",25671,,,null
1301012005,130101,1301,13,"Kudo-Kudo Inderapura",25671,,,null
1301012006,130101,1301,13,"Inderapura Selatan",25671,,,null
1301012009,130101,1301,13,"Simpang Lama Inderapura",25671,,,null
1301012010,130101,1301,13,"Tigo Sungai Inderapura",25671,,,null
1301012011,130101,1301,13,"Tluk Amplu Inderapura",25671,,,null
1301012012,130101,1301,13,"Inderapura Tengah",25671,,,null
1301022001,130102,1301,13,Pelangai,25666,,,null
1301022002,130102,1301,13,"Sungai Tunu",25666,,,null
1301022003,130102,1301,13,"Sungai Tunu Utara",25666,,,null
1301022004,130102,1301,13,"Sungai Tunu Barat",25666,,,null
1301022005,130102,1301,13,"Nyiur Melambai Pelangai",25666,,,null
1301022006,130102,1301,13,"Sungai Liku Pelangai",25666,,,null
1301022007,130102,1301,13,"Koto VIII Pelangai",25666,,,null
1301022008,130102,1301,13,"Pelangai Gadang",25666,,,null
1301022009,130102,1301,13,"Pelangai Kaciak",25666,,,null
1301022010,130102,1301,13,"Pasia Pelangai",25666,,,null
1301032001,130103,1301,13,Kambang,25663,,,null
1301032002,130103,1301,13,Lakitan,25663,,,null
1301032003,130103,1301,13,"Kambang Utara",25663,,,null
1301032004,130103,1301,13,"Kambang Timur",25663,,,null
1301032005,130103,1301,13,"Kambang Barat",25663,,,null
1301032006,130103,1301,13,"Lakitan Utara",25663,,,null
1301032007,130103,1301,13,"Lakitan Selatan",25663,,,null
1301032008,130103,1301,13,"Lakitan Timur",25663,,,null
1301032009,130103,1301,13,"Lakitan Tengah",25663,,,null
1301042001,130104,1301,13,"IV Koto Hilie",25661,,,null
1301042002,130104,1301,13,"IV Koto Mudiek",25661,,,null
1301042003,130104,1301,13,Taluak,25661,,,null
1301042004,130104,1301,13,"Koto Nan Duo IV Koto Hilie",25661,,,null
1301042005,130104,1301,13,"Koto Nan Tigo IV Koto Hilie",25661,,,null
1301042006,130104,1301,13,"Teratak Tempatih IV Koto Mudiek",25661,,,null
1301042007,130104,1301,13,"Tuik IV Koto Mudiek",25661,,,null
1301042008,130104,1301,13,"Sungai Nyalo IV Koto Mudiek",25661,,,null
1301042009,130104,1301,13,"Taluk Tigo Sakato",25661,,,null
1301052001,130105,1301,13,Painan,25651,,,null
1301052002,130105,1301,13,Tambang,25651,,,null
1301052003,130105,1301,13,Salido,25651,,,null
1301052004,130105,1301,13,Lumpo,25651,,,null
1301052005,130105,1301,13,"Bunga Pasang Salido",25651,,,null
1301052006,130105,1301,13,"Sago Salido",25651,,,null
1301052007,130105,1301,13,"Salido Sari Bulan",25651,,,null
1301052008,130105,1301,13,"Koto Rawang",25651,,,null
1301052009,130105,1301,13,"Limau Gadang Lumpo",25651,,,null
1301052010,130105,1301,13,"Batu Kunik Lumpo",25651,,,null
1301052011,130105,1301,13,"Taratak Tangah Lumpo",25651,,,null
1301052012,130105,1301,13,"Ampuan Lumpo",25651,,,null
1301052013,130105,1301,13,"Ampang Tareh Lumpo",25651,,,null
1301052014,130105,1301,13,"Balai Sinayan Lumpo",25651,,,null
1301052015,130105,1301,13,"Sungai Gayo Lumpo",25651,,,null
1301052016,130105,1301,13,"Sungai Sariak Lumpo",25651,,,null
1301052017,130105,1301,13,"Bukik Kaciak Lumpo",25651,,,null
1301052018,130105,1301,13,"Gunung Bungkuak Lumpo",25651,,,null
1301052019,130105,1301,13,"Painan Selatan Painan",25651,,,null
1301052020,130105,1301,13,"Painan Timur Painan",25651,,,null
1301062005,130106,1301,13,"Koto Berapak",25652,,,null
1301062006,130106,1301,13,Talaok,25652,,,null
1301062007,130106,1301,13,"Pasar Baru",25652,,,null
1301062008,130106,1301,13,"Gurun Panjang",25652,,,null
1301062009,130106,1301,13,"Api-api Pasar Baru",25652,,,null
1301062010,130106,1301,13,"Tanjung Durian Pasar Baru",25652,,,null
1301062011,130106,1301,13,"Asam Kamba Pasar Baru",25652,,,null
1301062012,130106,1301,13,"Sawah Laweh Pasar Baru",25652,,,null
1301062013,130106,1301,13,"Kapeh Panji Jaya Talaok",25652,,,null
1301062014,130106,1301,13,"Aur Begalung Talaok",25652,,,null
1301062015,130106,1301,13,"Kapelgam Koto Berapak",25652,,,null
1301062016,130106,1301,13,"Koto Baru Koto Berapak",25652,,,null
1301062017,130106,1301,13,"Kubang Koto Berapak",25652,,,null
1301062018,130106,1301,13,"Kapujan Koto Berapak",25652,,,null
1301062019,130106,1301,13,"Gurun Panjang Utara",25652,,,null
1301062020,130106,1301,13,"Gurun Panjang Barat",25652,,,null
1301062021,130106,1301,13,"Gurun Panjang Selatan",25652,,,null
1301072001,130107,1301,13,Siguntur,25654,,,null
1301072002,130107,1301,13,"Sungai Pinang",25654,,,null
1301072003,130107,1301,13,Duku,25654,,,null
1301072004,130107,1301,13,"Batu Hampa",25654,,,null
1301072005,130107,1301,13,Nanggalo,25654,,,null
1301072006,130107,1301,13,"Ampang Pulai",25654,,,null
1301072007,130107,1301,13,Kapuh,25654,,,null
1301072008,130107,1301,13,"Barung-Barung Balantai",25654,,,null
1301072009,130107,1301,13,"Barung-Barung Balantai Selatan",25654,,,null
1301072010,130107,1301,13,Mandeh,25654,,,null
1301072011,130107,1301,13,"Kapuah Utara",25654,,,null
1301072012,130107,1301,13,"Taratak Sungai Lundang",25654,,,null
1301072013,130107,1301,13,"Siguntur Tua",25654,,,null
1301072014,130107,1301,13,"Kampung Baru Korong Nan Ampek",25654,,,null
1301072015,130107,1301,13,"Duku Utara",25654,,,null
1301072016,130107,1301,13,"Pulau Karam Ampang Pulai",25654,,,null
1301072017,130107,1301,13,"Jinang Kampung Pansur Ampang Pulai",25654,,,null
1301072018,130107,1301,13,"Cerocok Anau Ampang Pulai",25654,,,null
1301072019,130107,1301,13,"Sungai Nyalo Mudiak Aia",25654,,,null
1301072020,130107,1301,13,"Batu Hampar Selatan",25654,,,null
1301072021,130107,1301,13,"Barung-Barung Balantai Timur",25654,,,null
1301072022,130107,1301,13,"Barung-Barung Balantai Tengah",25654,,,null
1301072023,130107,1301,13,"Setara Nanggalo",25654,,,null
1301082001,130108,1301,13,Taratak,25662,,,null
1301082002,130108,1301,13,Surantih,25662,,,null
1301082003,130108,1301,13,"Amping Parak",25662,,,null
1301082004,130108,1301,13,"Amping Parak Timur",25662,,,null
1301082005,130108,1301,13,"Koto Taratak",25662,,,null
1301082006,130108,1301,13,"Lansano Taratak",25662,,,null
1301082007,130108,1301,13,"Aur Duri Surantih",25662,,,null
1301082008,130108,1301,13,"Rawang Gunung Malelo Surantih",25662,,,null
1301082009,130108,1301,13,"Koto Nan Tigo Selatan Surantih",25662,,,null
1301082010,130108,1301,13,"Koto Nan Tigo Utara Surantih",25662,,,null
1301082011,130108,1301,13,"Ganting Mudiak Selatan Surantih",25662,,,null
1301082012,130108,1301,13,"Ganting Mudiak Utara Surantih",25662,,,null
1301092001,130109,1301,13,Punggasan,25668,,,null
1301092002,130109,1301,13,"Air Haji",25668,,,null
1301092003,130109,1301,13,"Punggasan Utara",25668,,,null
1301092004,130109,1301,13,"Punggasan Timur",25668,,,null
1301092005,130109,1301,13,"Padang XI Punggasan",25668,,,null
1301092006,130109,1301,13,"Lagan Mudik Punggasan",25668,,,null
1301092007,130109,1301,13,"Lagan Hilir Punggasan",25668,,,null
1301092008,130109,1301,13,"Air Haji Tenggara",25668,,,null
1301092009,130109,1301,13,"Pasar Lama Muara Air Haji",25668,,,null
1301092010,130109,1301,13,"Pasar Bukit Air Haji",25668,,,null
1301092011,130109,1301,13,"Air Haji Barat",25668,,,null
1301092012,130109,1301,13,"Air Haji Tengah",25668,,,null
1301092013,130109,1301,13,"Rantau Simalenang Air Haji",25668,,,null
1301092014,130109,1301,13,"Muara Gadang Air Haji",25668,,,null
1301092015,130109,1301,13,"Sungai Sirah Air Haji",25668,,,null
1301092016,130109,1301,13,"Muara Kandis Punggasan",25668,,,null
1301102001,130110,1301,13,Lunang,25674,,,null
1301102003,130110,1301,13,"Lunang Utara",25674,,,null
1301102004,130110,1301,13,"Lunang Selatan",25674,,,null
1301102005,130110,1301,13,"Lunang Barat",25674,,,null
1301102015,130110,1301,13,"Sindang Lunang",25674,,,null
1301102016,130110,1301,13,"Pondok Parian Lunang",25674,,,null
1301102017,130110,1301,13,"Lunang Tengah",25674,,,null
1301102018,130110,1301,13,"Lunang Satu",25674,,,null
1301102019,130110,1301,13,"Lunang Dua",25674,,,null
1301102020,130110,1301,13,"Lunang Tiga",25674,,,null
1301112001,130111,1301,13,Tapan,25672,,,null
1301112002,130111,1301,13,"Pasar Tapan",25672,,,null
1301112007,130111,1301,13,"Batang Arah Tapan",25672,,,null
1301112008,130111,1301,13,"Ampang Tulak Tapan",25672,,,null
1301112009,130111,1301,13,"Tanjung Pondok Tapan",25672,,,null
1301112010,130111,1301,13,"Batang Betung Tapan",25672,,,null
1301112016,130111,1301,13,"Bukit Buai Tapan",25672,,,null
1301112017,130111,1301,13,"Riak Danau Tapan",25672,,,null
1301112018,130111,1301,13,"Koto Anau Tapan",25672,,,null
1301112019,130111,1301,13,"Dusun Baru Tapan",25672,,,null
1301122001,130112,1301,13,Puluik-Puluik,25653,,,null
1301122002,130112,1301,13,"Koto Ranah",25653,,,null
1301122003,130112,1301,13,"Muaro Aie",25653,,,null
1301122004,130112,1301,13,"Pancuang Taba",25653,,,null
1301122005,130112,1301,13,"Puluik-Puluik Selatan",25653,,,null
1301122006,130112,1301,13,"Limau Gadang Pancung Taba",25653,,,null
1301132001,130113,1301,13,"Inderapura Utara",25673,,,null
1301132002,130113,1301,13,"Muara Inderapura",25673,,,null
1301132003,130113,1301,13,"Damar Lapan Batang Inderapura",25673,,,null
1301132004,130113,1301,13,"Lalang Panjang Inderapura",25673,,,null
1301132005,130113,1301,13,"Palokan Inderapura",25673,,,null
1301132006,130113,1301,13,"Lubuk Betung Inderapura",25673,,,null
1301132007,130113,1301,13,"Tluk Kualo Inderapura",25673,,,null
1301132008,130113,1301,13,"Tanah Bakali Inderapura",25673,,,null
1301132009,130113,1301,13,"Inderapura Timur",25673,,,null
1301132010,130113,1301,13,"Pulau Rajo Inderapura",25673,,,null
1301142001,130114,1301,13,"Sungai Gambir Sako Tapan",25670,,,null
1301142002,130114,1301,13,"Limau Purut Tapan",25670,,,null
1301142003,130114,1301,13,"Talang Balarik Tapan",25670,,,null
1301142004,130114,1301,13,"Tebing Tinggi Tapan",25670,,,null
1301142005,130114,1301,13,"Binjai Tapan",25670,,,null
1301142006,130114,1301,13,"Sungai Pinang Tapan",25670,,,null
1301142007,130114,1301,13,"Talang Koto Pulai Tapan",25670,,,null
1301142008,130114,1301,13,"Kampung Tengah Tapan",25670,,,null
1301142009,130114,1301,13,"Kubu Tapan",25670,,,null
1301142010,130114,1301,13,"Simpang Gunung Tapan",25670,,,null
1301152001,130115,1301,13,Silaut,25675,,,null
1301152002,130115,1301,13,"Sungai Sirah",25675,,,null
1301152003,130115,1301,13,"Sungai Sarik",25675,,,null
1301152004,130115,1301,13,"Sungai Pulai",25675,,,null
1301152005,130115,1301,13,"Pasir Binjai",25675,,,null
1301152006,130115,1301,13,"Talang Binjai",25675,,,null
1301152007,130115,1301,13,"Durian Seribu",25675,,,null
1301152008,130115,1301,13,"Lubuk Bunta",25675,,,null
1301152009,130115,1301,13,"Air Hitam",25675,,,null
1301152010,130115,1301,13,Sambungo,25675,,,null
1302032001,130203,1302,13,Lolo,27373,,,null
1302032002,130203,1302,13,Surian,27373,,,null
1302042001,130204,1302,13,"Alahan Panjang",27371,,,null
1302042002,130204,1302,13,"Sungai Nanam",27371,,,null
1302042003,130204,1302,13,Salimpat,27371,,,null
1302042004,130204,1302,13,"Aie Dingin",27371,,,null
1302052001,130205,1302,13,Supayang,27387,,,null
1302052002,130205,1302,13,Sirukam,27387,,,null
1302052003,130205,1302,13,"Aie Luo",27387,,,null
1302062001,130206,1302,13,"Batu Banyak",27384,,,null
1302062002,130206,1302,13,"Batu Bajanjang",27384,,,null
1302062003,130206,1302,13,"Koto Laweh",27384,,,null
1302062004,130206,1302,13,"Limau Lunggo",27384,,,null
1302062005,130206,1302,13,"Koto Gadang Koto Anau",27384,,,null
1302062006,130206,1302,13,"Selayo Tanang B. Sileh",27384,,,null
1302072001,130207,1302,13,Cupak,27365,,,null
1302072002,130207,1302,13,Talang,27365,,,null
1302072003,130207,1302,13,"Koto Gadang Guguak",27365,,,null
1302072004,130207,1302,13,"Jawi Jawi",27365,,,null
1302072005,130207,1302,13,"Sungai Janiah",27365,,,null
1302072006,130207,1302,13,"Batang Barus",27365,,,null
1302072007,130207,1302,13,"Aie Batumbuak",27365,,,null
1302072008,130207,1302,13,"Koto Gaek Guguk",27365,,,null
1302082001,130208,1302,13,"Muaro Paneh",27381,,,null
1302082002,130208,1302,13,Kinari,27381,,,null
1302082003,130208,1302,13,"Bukit Tandang",27381,,,null
1302082004,130208,1302,13,Parambahan,27381,,,null
1302082005,130208,1302,13,Dilam,27381,,,null
1302092001,130209,1302,13,Taruang-Taruang,27388,,,null
1302092002,130209,1302,13,Siaro-Aro,27388,,,null
1302092003,130209,1302,13,Pianggu,27388,,,null
1302092004,130209,1302,13,"Sungai Durian",27388,,,null
1302092005,130209,1302,13,"Bukik Bais",27388,,,null
1302092006,130209,1302,13,"Sungai Jambur",27388,,,null
1302092007,130209,1302,13,"Guguak Sarai",27388,,,null
1302092008,130209,1302,13,"Koto Laweh",27388,,,null
1302092009,130209,1302,13,Indudur,27388,,,null
1302102001,130210,1302,13,"Koto Baru",27361,,,null
1302102002,130210,1302,13,Selayo,27361,,,null
1302102003,130210,1302,13,Panyakalan,27361,,,null
1302102004,130210,1302,13,Gaung,27361,,,null
1302102005,130210,1302,13,"Gantuang Ciri",27361,,,null
1302102006,130210,1302,13,"Saok Laweh",27361,,,null
1302102007,130210,1302,13,"Koto Hilalang",27361,,,null
1302102008,130210,1302,13,"Tanjung Bingkung",27361,,,null
1302112001,130211,1302,13,Sumani,27356,,,null
1302112002,130211,1302,13,Tikalak,27356,,,null
1302112003,130211,1302,13,"Koto Sani",27356,,,null
1302112004,130211,1302,13,Singkarak,27356,,,null
1302112005,130211,1302,13,Aripan,27356,,,null
1302112006,130211,1302,13,Kacang,27356,,,null
1302112007,130211,1302,13,"Tanjung Alai",27356,,,null
1302112008,130211,1302,13,Saniangbaka,27356,,,null
1302122001,130212,1302,13,"Sulit Air",27355,,,null
1302122002,130212,1302,13,"Tanjung Balik",27355,,,null
1302122003,130212,1302,13,Paninjauan,27355,,,null
1302122004,130212,1302,13,Kuncir,27355,,,null
1302122005,130212,1302,13,Katialo,27355,,,null
1302122006,130212,1302,13,Pasilihan,27355,,,null
1302122007,130212,1302,13,"Bukit Kanduang",27355,,,null
1302122008,130212,1302,13,Sibarambang,27355,,,null
1302122009,130212,1302,13,"Labuh Panjang",27355,,,null
1302132001,130213,1302,13,Paninggahan,27389,,,null
1302132002,130213,1302,13,"Muaro Pingai",27389,,,null
1302172001,130217,1302,13,"Talang Babungo",27372,,,null
1302172002,130217,1302,13,"Sariak Alahan Tigo",27372,,,null
1302172003,130217,1302,13,"Sungai Abu",27372,,,null
1302182001,130218,1302,13,"Rangkiang Luluih",27374,,,null
1302182002,130218,1302,13,"Batu Bajanjang",27374,,,null
1302182003,130218,1302,13,"Garabak Data",27374,,,null
1302182004,130218,1302,13,"Tanjung Balik Sumiso",27374,,,null
1302182005,130218,1302,13,Simanau,27374,,,null
1302192001,130219,1302,13,"Simpang Tj. Nan IV",27383,,,null
1302192002,130219,1302,13,"Kampung Batu Dalam",27383,,,null
1303032001,130303,1303,13,Timbulun,27571,,,null
1303032002,130303,1303,13,"Tanjung Gadang",27571,,,null
1303032003,130303,1303,13,"Taratak Baru",27571,,,null
1303032004,130303,1303,13,Pulasan,27571,,,null
1303032005,130303,1303,13,Langki,27571,,,null
1303032006,130303,1303,13,Sibakur,27571,,,null
1303032007,130303,1303,13,"Tanjung Lolo",27571,,,null
1303032008,130303,1303,13,"Taratak Baru Utara",27571,,,null
1303032009,130303,1303,13,Sinyamu,27571,,,null
1303042001,130304,1303,13,Muaro,27554,,,null
1303042002,130304,1303,13,"Kandang Baru",27554,,,null
1303042003,130304,1303,13,Silokek,27554,,,null
1303042004,130304,1303,13,"Pematang Panjang",27554,,,null
1303042005,130304,1303,13,"Solok Ambah",27554,,,null
1303042006,130304,1303,13,Paru,27554,,,null
1303042007,130304,1303,13,"Durian Gadang",27554,,,null
1303042008,130304,1303,13,"Aie Angek",27554,,,null
1303042009,130304,1303,13,Sijunjung,27554,,,null
1303052001,130305,1303,13,Palangki,27561,,,null
1303052002,130305,1303,13,"Koto Baru",27561,,,null
1303052003,130305,1303,13,"Muaro Bodi",27561,,,null
1303052004,130305,1303,13,"Mundam Sakti",27561,,,null
1303052005,130305,1303,13,"Koto Tuo",27561,,,null
1303062001,130306,1303,13,"Sungai Lansek",27572,,,null
1303062002,130306,1303,13,Kamang,27572,,,null
1303062003,130306,1303,13,"Muaro Takuang",27572,,,null
1303062004,130306,1303,13,"Aie Amo",27572,,,null
1303062005,130306,1303,13,"Sungai Batuang",27572,,,null
1303062006,130306,1303,13,"Kunangan Parik Rantang",27572,,,null
1303062007,130306,1303,13,"Tanjung Kaliang",27572,,,null
1303062008,130306,1303,13,"Padang Tarok",27572,,,null
1303062009,130306,1303,13,Siaur,27572,,,null
1303062010,130306,1303,13,"Lubuk Tarantang",27572,,,null
1303062011,130306,1303,13,Maloro,27572,,,null
1303072001,130307,1303,13,"Lubuak Tarok",27553,,,null
1303072002,130307,1303,13,Lalan,27553,,,null
1303072003,130307,1303,13,"Buluah Kasok",27553,,,null
1303072004,130307,1303,13,"Kampung Dalam",27553,,,null
1303072005,130307,1303,13,Silongo,27553,,,null
1303072006,130307,1303,13,Latang,27553,,,null
1303082001,130308,1303,13,"Limo Koto",27562,,,null
1303082002,130308,1303,13,Palaluar,27562,,,null
1303082003,130308,1303,13,Guguak,27562,,,null
1303082004,130308,1303,13,"Padang Laweh",27562,,,null
1303082005,130308,1303,13,Tanjung,27562,,,null
1303082006,130308,1303,13,"Bukit Bual",27562,,,null
1303082007,130308,1303,13,"Padang Laweh Selatan",,,,null
1303092001,130309,1303,13,Silantai,27563,,,null
1303092002,130309,1303,13,Sisawah,27563,,,null
1303092003,130309,1303,13,Unggan,27563,,,null
1303092004,130309,1303,13,"Tanjung Bonai Aur",27563,,,null
1303092005,130309,1303,13,"Sumpur Kudus",27563,,,null
1303092006,130309,1303,13,Tamparungo,27563,,,null
1303092007,130309,1303,13,Kumanis,27563,,,null
1303092008,130309,1303,13,Manganti,27563,,,null
1303092009,130309,1303,13,"Sumpur Kudus Selatan",27563,,,null
1303092010,130309,1303,13,"Tanjung Labuah",27563,,,null
1303092011,130309,1303,13,"Tanjung Bonai Aur Selatan",27563,,,null
1303102001,130310,1303,13,"Batu Manjulur",27564,,,null
1303102002,130310,1303,13,Pamuatan,27564,,,null
1303102003,130310,1303,13,"Padang Sibusuk",27564,,,null
1303102004,130310,1303,13,"Desa Kampung Baru",27564,,,null
1304012001,130401,1304,13,Tambangan,27151,,,null
1304012002,130401,1304,13,Jaho,27151,,,null
1304012003,130401,1304,13,Singgalang,27151,,,null
1304012004,130401,1304,13,Paninjauan,27151,,,null
1304012005,130401,1304,13,Panyalaian,27151,,,null
1304012006,130401,1304,13,"Koto Laweh",27151,,,null
1304012007,130401,1304,13,"Aie Angek",27151,,,null
1304012008,130401,1304,13,"Pandai Sikek",27151,,,null
1304012009,130401,1304,13,"Koto Baru",27151,,,null
1304022001,130402,1304,13,Andaleh,27265,,,null
1304022002,130402,1304,13,Sabu,27265,,,null
1304022003,130402,1304,13,"Batipuah Ateh",27265,,,null
1304022004,130402,1304,13,"Batipuah Baruh",27265,,,null
1304022005,130402,1304,13,"Gunuang Rajo",27265,,,null
1304022006,130402,1304,13,Pitalah,27265,,,null
1304022007,130402,1304,13,"Tanjuang Barulak",27265,,,null
1304022008,130402,1304,13,"Bungo Tanjuang",27265,,,null
1304032001,130403,1304,13,Simawang,27271,,,null
1304032002,130403,1304,13,Balimbiang,27271,,,null
1304032003,130403,1304,13,"III Koto",27271,,,null
1304032004,130403,1304,13,"Padang Magek",27271,,,null
1304032005,130403,1304,13,Rambatan,27271,,,null
1304042001,130404,1304,13,Baringin,27213,,,null
1304042002,130404,1304,13,"Limo Kaum",27211,,,null
1304042003,130404,1304,13,Parambahan,27211,,,null
1304042004,130404,1304,13,Cubadak,27216,,,null
1304042005,130404,1304,13,Labuh,27211,,,null
1304052001,130405,1304,13,"Tanjung Barulak",27280,,,null
1304052002,130405,1304,13,Saruaso,27280,,,null
1304052003,130405,1304,13,"Koto Tangah",27280,,,null
1304052004,130405,1304,13,Pagaruyung,27280,,,null
1304062001,130406,1304,13,Taluak,27292,,,null
1304062002,130406,1304,13,Buo,27292,,,null
1304062003,130406,1304,13,"Tigo Jangko",27292,,,null
1304062004,130406,1304,13,Pangian,27292,,,null
1304072001,130407,1304,13,"Sungai Patai",27294,,,null
1304072002,130407,1304,13,"Andaleh Baruh Bukik",27294,,,null
1304072003,130407,1304,13,Tanjung,27294,,,null
1304072004,130407,1304,13,Sungayang,27294,,,null
1304072005,130407,1304,13,"Minang Kabau",27294,,,null
1304082001,130408,1304,13,Simpuruik,27261,,,null
1304082002,130408,1304,13,"Sungai Tarab",27261,,,null
1304082003,130408,1304,13,Gurun,27261,,,null
1304082004,130408,1304,13,"Talang Tangah",27261,,,null
1304082005,130408,1304,13,"Padang Laweh",27261,,,null
1304082006,130408,1304,13,"Pasie Laweh",27261,,,null
1304082007,130408,1304,13,"Koto Tuo",27261,,,null
1304082008,130408,1304,13,"Rao Rao",27261,,,null
1304082009,130408,1304,13,Kumango,27261,,,null
1304082010,130408,1304,13,"Koto Baru",27261,,,null
1304092001,130409,1304,13,"Batu Basa",27264,,,null
1304092002,130409,1304,13,Tabek,27264,,,null
1304092003,130409,1304,13,"Sawah Tangah",27264,,,null
1304092004,130409,1304,13,Simabur,27264,,,null
1304092005,130409,1304,13,Pariangan,27264,,,null
1304092006,130409,1304,13,"Sungai Jambu",27264,,,null
1304102001,130410,1304,13,Sumanik,27263,,,null
1304102002,130410,1304,13,Situmbuk,27263,,,null
1304102003,130410,1304,13,"Lawang Mandahiling",27263,,,null
1304102004,130410,1304,13,Supayang,27263,,,null
1304102005,130410,1304,13,Salimpaung,27263,,,null
1304102006,130410,1304,13,"Tabek Patah",27262,,,null
1304112001,130411,1304,13,Atar,27282,,,null
1304112002,130411,1304,13,"Padang Ganting",27282,,,null
1304122001,130412,1304,13,"Tanjuang Alam",27281,,,null
1304122002,130412,1304,13,Barulak,27281,,,null
1304132001,130413,1304,13,"Batu Bulek",27293,,,null
1304132002,130413,1304,13,"Balai Tangah",27293,,,null
1304132003,130413,1304,13,"Tanjuang Bonai",27293,,,null
1304132004,130413,1304,13,"Lubuak Jantan",27293,,,null
1304132005,130413,1304,13,"Tapi Selo",27293,,,null
1304142001,130414,1304,13,"Batu Taba",27266,,,null
1304142002,130414,1304,13,Sumpur,27266,,,null
1304142003,130414,1304,13,"Padang Laweh Malalo",27266,,,null
1304142004,130414,1304,13,"Guguak Malalo",27266,,,null
1305012001,130501,1305,13,"Lubuk Alung",25581,,,null
1305012002,130501,1305,13,"Pungguang Kasiak Lubuk Alung",25581,,,null
1305012003,130501,1305,13,"Pasie Laweh Lubuk Alung",25581,,,null
1305012004,130501,1305,13,"Aie Tajun Lubuk Alung",25581,,,null
1305012005,130501,1305,13,"Sikabu Lubuk Alung",25581,,,null
1305012006,130501,1305,13,"Sungai Abang Lubuk Alung",25581,,,null
1305012007,130501,1305,13,"Singguliang Lubuk Alung",25581,,,null
1305012008,130501,1305,13,"Salibutan Lubuk Alung",25581,,,null
1305012009,130501,1305,13,"Nagari Balah Hilia Lubuk Alung",25581,,,null
1305022001,130502,1305,13,Katapiang,25586,,,null
1305022002,130502,1305,13,Kasang,25586,,,null
1305022003,130502,1305,13,"Sungai Buluah",25586,,,null
1305022004,130502,1305,13,"Buayan Lubuk Alung",25586,,,null
1305022005,130502,1305,13,"Sungai Buluah Timur",25586,,,null
1305022006,130502,1305,13,"Sungai Buluah Barat",25586,,,null
1305022007,130502,1305,13,"Sungai Buluah Utara",25586,,,null
1305022008,130502,1305,13,"Sungai Buluah Selatan",25586,,,null
1305032001,130503,1305,13,"Kapalo Koto",25571,,,null
1305032002,130503,1305,13,"Pauh Kambar",25571,,,null
1305032003,130503,1305,13,"Padang Bintungan",25571,,,null
1305032004,130503,1305,13,"Kurai Taji",25571,,,null
1305032005,130503,1305,13,Sunua,25571,,,null
1305032006,130503,1305,13,"Padang Kandang Pulau Air Padang",25571,,,null
1305032007,130503,1305,13,"Sunua Tengah",25571,,,null
1305032008,130503,1305,13,"Sunua Barat",25571,,,null
1305032009,130503,1305,13,"Kurai Taji Timur",25571,,,null
1305042002,130504,1305,13,Sicincin,25584,,,null
1305042003,130504,1305,13,"Lubuk Pandan",25584,,,null
1305042004,130504,1305,13,"Sungai Asam",25584,,,null
1305052001,130505,1305,13,"Balah Aie",25576,,,null
1305052002,130505,1305,13,"Sungai Sariak",25576,,,null
1305052003,130505,1305,13,"Lurah Ampalu",25576,,,null
1305052004,130505,1305,13,"Lareh Nan Panjang",25576,,,null
1305052005,130505,1305,13,"Lareh Nan Panjang Selatan",25576,,,null
1305052006,130505,1305,13,"Lareh Nan Panjang Barat",25576,,,null
1305052007,130505,1305,13,"Bisati Sungai Sariak",25576,,,null
1305052008,130505,1305,13,"Ambuang Kapua Sungai Sariak",25576,,,null
1305052009,130505,1305,13,"Lareh Nan Panjang Sungai Sariak",25576,,,null
1305052010,130505,1305,13,"Limpato Sungai Sariak",25576,,,null
1305052011,130505,1305,13,"Balah Aie Utara",25576,,,null
1305052012,130505,1305,13,"Balah Aie Timur",25576,,,null
1305062001,130506,1305,13,Campago,25552,,,null
1305062002,130506,1305,13,Sikucua,25552,,,null
1305062003,130506,1305,13,"Campago Barat",25552,,,null
1305062004,130506,1305,13,"Campago Selatan",25552,,,null
1305062005,130506,1305,13,"Sikucua Utara",25552,,,null
1305062006,130506,1305,13,"Sikucua Timur",25552,,,null
1305062007,130506,1305,13,"Sikucua Tengah",25552,,,null
1305062008,130506,1305,13,"Sikucua Barat",25552,,,null
1305072001,130507,1305,13,"Kuranji Hulu",25562,,,null
1305072002,130507,1305,13,"Malai III Koto",25562,,,null
1305072003,130507,1305,13,"Batu Gadang Kuranji Hulu",25562,,,null
1305072004,130507,1305,13,"Sungai Sirah Kuranji Hulu",25562,,,null
1305082001,130508,1305,13,"Kuranji Hilir",25561,,,null
1305082002,130508,1305,13,Pilubang,25561,,,null
1305082003,130508,1305,13,"Guguak Kuranji Hilir",25561,,,null
1305082004,130508,1305,13,"Koto Tinggi Kuranji Hilir",25561,,,null
1305092001,130509,1305,13,"III Koto Aur Malintang",25564,,,null
1305092002,130509,1305,13,"III Koto Aur Malintang Utara",25564,,,null
1305092003,130509,1305,13,"III Koto Aur Malintang Timur",25564,,,null
1305092004,130509,1305,13,"III Koto Aur Malintang Selatan",25564,,,null
1305092005,130509,1305,13,"Balai Baiak Malai III Koto",25564,,,null
1305102001,130510,1305,13,Tapakih,25572,,,null
1305102002,130510,1305,13,Ulakan,25572,,,null
1305102003,130510,1305,13,"Padang Toboh Ulakan",25572,,,null
1305102004,130510,1305,13,"Sungai Gimba Ulakan",25572,,,null
1305102005,130510,1305,13,"Seulayat Ulakan",25572,,,null
1305102006,130510,1305,13,"Manggopoh Palak Gadang Ulakan",25572,,,null
1305102007,130510,1305,13,"Sandi Ulakan",25572,,,null
1305102008,130510,1305,13,"Kampuang Gelapuang Ulakan",25572,,,null
1305112001,130511,1305,13,Sintuak,25582,,,null
1305112002,130511,1305,13,"Toboh Gadang",25582,,,null
1305112003,130511,1305,13,"Toboh Gadang Selatan",25582,,,null
1305112004,130511,1305,13,"Toboh Gadang Barat",25582,,,null
1305112005,130511,1305,13,"Toboh Gadang Timur",25582,,,null
1305122001,130512,1305,13,"Koto Baru",25573,,,null
1305122002,130512,1305,13,"Koto Dalam",25573,,,null
1305122003,130512,1305,13,"Batu Kalang",25573,,,null
1305122004,130512,1305,13,"Koto Dalam Barat",25573,,,null
1305122005,130512,1305,13,"Koto Dalam Selatan",25573,,,null
1305122006,130512,1305,13,"Batu Kalang Utara",25573,,,null
1305132001,130513,1305,13,"Malai V Suku",25563,,,null
1305132002,130513,1305,13,"Gasan Gadang",25563,,,null
1305132003,130513,1305,13,"Malai V Suku Timur",25563,,,null
1305142001,130514,1305,13,"Kudu Gantiang",25575,,,null
1305142002,130514,1305,13,"Limau Puruik",25575,,,null
1305142003,130514,1305,13,"Gunung Padang Alai",25575,,,null
1305142004,130514,1305,13,"Kudu Gantiang Barat",25575,,,null
1305152001,130515,1305,13,"Kayu Tanam",25585,,,null
1305152002,130515,1305,13,Guguak,25585,,,null
1305152003,130515,1305,13,Anduriang,25585,,,null
1305152004,130515,1305,13,"Kapalo Hilalang",25585,,,null
1305162001,130516,1305,13,"Sungai Durian",25574,,,null
1305162002,130516,1305,13,Tandikek,25574,,,null
1305162003,130516,1305,13,"Tandikek Utara",25574,,,null
1305162004,130516,1305,13,"Tandikek Selatan",25574,,,null
1305162005,130516,1305,13,"Tandikek Barat",25574,,,null
1305162006,130516,1305,13,"Kampuang Tanjuang Koto Mambang Sungai",25574,,,null
1305172001,130517,1305,13,Pakandangan,25583,,,null
1305172002,130517,1305,13,"Koto Tinggi",25583,,,null
1305172003,130517,1305,13,"Toboh Ketek",25583,,,null
1305172004,130517,1305,13,"Parit Malintang",25583,,,null
1305172005,130517,1305,13,Gadur,25583,,,null
1306012001,130601,1306,13,"Tiku Selatan",26473,,,null
1306012002,130601,1306,13,"Tiku Utara",26473,,,null
1306012003,130601,1306,13,"Tiku Limo Jorong",26473,,,null
1306022001,130602,1306,13,"Lubuk Basung",26451,,,null
1306022002,130602,1306,13,Geragahan,26451,,,null
1306022003,130602,1306,13,"Kampung Pinang",26451,,,null
1306022004,130602,1306,13,"Kampung Tangah",26451,,,null
1306022005,130602,1306,13,Manggopoh,26451,,,null
1306032001,130603,1306,13,"Tanjung Sani",26471,,,null
1306032002,130603,1306,13,"Sungai Batang",26471,,,null
1306032003,130603,1306,13,Maninjau,26471,,,null
1306032004,130603,1306,13,Bayua,26471,,,null
1306032006,130603,1306,13,"Koto Kaciak",26471,,,null
1306032007,130603,1306,13,"Duo Koto",26471,,,null
1306032008,130603,1306,13,"Koto Gadang",26471,,,null
1306032009,130603,1306,13,"Koto Malintang",26471,,,null
1306032010,130603,1306,13,Paninjauan,26471,,,null
1306042001,130604,1306,13,"Matua Hilia",26162,,,null
1306042002,130604,1306,13,"Matua Mudiak",26162,,,null
1306042003,130604,1306,13,"Tigo Balai",26162,,,null
1306042004,130604,1306,13,Lawang,26162,,,null
1306042005,130604,1306,13,"Parik Panjang",26162,,,null
1306042006,130604,1306,13,"Panta Pauh",26162,,,null
1306052002,130605,1306,13,"Sungai Landia",26160,,,null
1306052003,130605,1306,13,Balingka,26160,,,null
1306052004,130605,1306,13,"Koto Tuo",26160,,,null
1306052005,130605,1306,13,"Guguk Tabek Sarajo",26160,,,null
1306052006,130605,1306,13,"Koto Panjang",26160,,,null
1306052007,130605,1306,13,"Sianok Anam Suku",26160,,,null
1306052008,130605,1306,13,"Koto Gadang",26160,,,null
1306062001,130606,1306,13,"Padang Lua",26181,,,null
1306062002,130606,1306,13,"Taluak Ampek Suku",26181,,,null
1306062003,130606,1306,13,"Pakan Sinayan",26181,,,null
1306062004,130606,1306,13,"Kubang Putiah",26181,,,null
1306062005,130606,1306,13,"Ladang Laweh",26181,,,null
1306062006,130606,1306,13,Cingkariang,26181,,,null
1306062007,130606,1306,13,"Sungai Tanang",26181,,,null
1306072001,130607,1306,13,"Batu Taba",26190,,,null
1306072002,130607,1306,13,"Biaro Gadang",26190,,,null
1306072003,130607,1306,13,Lambah,26190,,,null
1306072004,130607,1306,13,Panampung,26190,,,null
1306072005,130607,1306,13,"Ampang Gadang",26190,,,null
1306072006,130607,1306,13,Pasia,26190,,,null
1306072008,130607,1306,13,"Balai Gurah",26190,,,null
1306082001,130608,1306,13,"Koto Tinggi",26192,,,null
1306082002,130608,1306,13,"Tabek Panjang",26192,,,null
1306082004,130608,1306,13,Simarasok,26192,,,null
1306082005,130608,1306,13,"Padang Tarok",26192,,,null
1306082006,130608,1306,13,Salo,26192,,,null
1306082007,130608,1306,13,"Koto Baru",26192,,,null
1306092001,130609,1306,13,"Koto Tangah",26153,,,null
1306092003,130609,1306,13,Gadut,26153,,,null
1306092004,130609,1306,13,Kapau,26153,,,null
1306102001,130610,1306,13,"Koto Rantang",26151,,,null
1306102002,130610,1306,13,"Pasia Laweh",26151,,,null
1306102003,130610,1306,13,Pagadih,26151,,,null
1306102004,130610,1306,13,"Nan Tujuah",26151,,,null
1306112001,130611,1306,13,Baringin,26164,,,null
1306112002,130611,1306,13,Sipinang,26164,,,null
1306112003,130611,1306,13,"Sungai Puar",26164,,,null
1306112004,130611,1306,13,"Ampek Koto Palembayan",26164,,,null
1306112005,130611,1306,13,"Tigo Koto Silungkang",26164,,,null
1306112006,130611,1306,13,"Salareh Aia",26164,,,null
1306122001,130612,1306,13,"Padang Laweh",26182,,,null
1306122002,130612,1306,13,"Sungai Pua",26182,,,null
1306122003,130612,1306,13,Batagak,26182,,,null
1306122004,130612,1306,13,"Batu Palano",26182,,,null
1306122005,130612,1306,13,Sariak,26182,,,null
1306132001,130613,1306,13,"Batu Kambing",26161,,,null
1306132002,130613,1306,13,Sitalang,26161,,,null
1306132003,130613,1306,13,Bawan,26161,,,null
1306132004,130613,1306,13,Sitanang,26161,,,null
1306142001,130614,1306,13,"Canduang Koto Laweh",26191,,,null
1306142002,130614,1306,13,Lasi,26191,,,null
1306142003,130614,1306,13,"Bukik Batabuah",26191,,,null
1306152001,130615,1306,13,Magek,26152,,,null
1306152002,130615,1306,13,"Kamang Hilia",26152,,,null
1306152003,130615,1306,13,"Kamang Mudiak",26152,,,null
1306162001,130616,1306,13,"Malalak Utara",26163,,,null
1306162002,130616,1306,13,"Malalak Timur",26163,,,null
1306162003,130616,1306,13,"Malalak Selatan",26163,,,null
1306162004,130616,1306,13,"Malalak Barat",26163,,,null
1307012001,130701,1307,13,Kurai,26255,,,null
1307012002,130701,1307,13,"Sungai Rimbang",26255,,,null
1307012003,130701,1307,13,"Tanjuang Bungo",26255,,,null
1307012004,130701,1307,13,Suliki,26255,,,null
1307012005,130701,1307,13,Limbanang,26255,,,null
1307012006,130701,1307,13,Andiang,26255,,,null
1307022001,130702,1307,13,"Guguak VIII Koto",26253,,,null
1307022002,130702,1307,13,"VII Koto Talago",26253,,,null
1307022003,130702,1307,13,"Sungai Talang",26253,,,null
1307022004,130702,1307,13,Kubang,26253,,,null
1307022005,130702,1307,13,"Simpang Sugiran",26253,,,null
1307032001,130703,1307,13,"Koto Baru Simalanggang",26251,,,null
1307032002,130703,1307,13,"Taeh Bukik",26251,,,null
1307032003,130703,1307,13,Simalanggang,26251,,,null
1307032004,130703,1307,13,"Sungai Beringin",26251,,,null
1307032005,130703,1307,13,Piobang,26251,,,null
1307032006,130703,1307,13,"Taeh Baruah",26251,,,null
1307032007,130703,1307,13,"Koto Tangah Simalanggang",26251,,,null
1307042001,130704,1307,13,"Tj. Haro Sikabu-kabu Pd. Panjang",26261,,,null
1307042002,130704,1307,13,Mungo,26261,,,null
1307042003,130704,1307,13,"Sungai Kamuyang",26261,,,null
1307042004,130704,1307,13,Andaleh,26261,,,null
1307052001,130705,1307,13,Taram,26271,,,null
1307052002,130705,1307,13,"Solok Bio Bio",26271,,,null
1307052003,130705,1307,13,Tarantang,26271,,,null
1307052004,130705,1307,13,"Bukik Limbuku",26271,,,null
1307052005,130705,1307,13,Harau,26271,,,null
1307052006,130705,1307,13,"Batu Balang",26271,,,null
1307052007,130705,1307,13,Sarilamak,26271,,,null
1307052008,130705,1307,13,Gurun,26271,,,null
1307052009,130705,1307,13,"Lubuak Batingkok",26271,,,null
1307052010,130705,1307,13,"Koto Tuo",26271,,,null
1307052011,130705,1307,13,Pilubang,26271,,,null
1307062001,130706,1307,13,Manggilang,26272,,,null
1307062002,130706,1307,13,"Tanjuang Balik",26272,,,null
1307062003,130706,1307,13,"Gunuang Malintang",26272,,,null
1307062004,130706,1307,13,Pangkalan,26272,,,null
1307062005,130706,1307,13,"Koto Alam",26272,,,null
1307062006,130706,1307,13,"Tanjung Pauh",26272,,,null
1307072001,130707,1307,13,"Muaro Paiti",26273,,,null
1307072002,130707,1307,13,"Koto Bangun",26273,,,null
1307072003,130707,1307,13,"Lubuak Alai",26273,,,null
1307072004,130707,1307,13,"Koto Lamo",26273,,,null
1307072005,130707,1307,13,"Durian Tinggi",26273,,,null
1307072006,130707,1307,13,Sialang,26273,,,null
1307072007,130707,1307,13,Galugua,26273,,,null
1307082001,130708,1307,13,"Pandam Gadang",26256,,,null
1307082002,130708,1307,13,"Koto Tinggi",26256,,,null
1307082003,130708,1307,13,"Talang Anau",26256,,,null
1307092001,130709,1307,13,"Labuah Gunuang",26262,,,null
1307092002,130709,1307,13,"Batu Payuang",26262,,,null
1307092003,130709,1307,13,Ampalu,26262,,,null
1307092004,130709,1307,13,"Bukik Sikumpa",26262,,,null
1307092005,130709,1307,13,"Balai Panjang",26262,,,null
1307092006,130709,1307,13,Halaban,26262,,,null
1307092007,130709,1307,13,"Tanjuang Gadang",26262,,,null
1307092008,130709,1307,13,Sitanang,26262,,,null
1307102001,130710,1307,13,"Situjuah Batua",26250,,,null
1307102002,130710,1307,13,"Situjuah Ladang Laweh",26250,,,null
1307102003,130710,1307,13,Tungka,26250,,,null
1307102004,130710,1307,13,"Situjuah Banda Dalam",26250,,,null
1307102005,130710,1307,13,"Situjuah Gadang",26250,,,null
1307112001,130711,1307,13,"Jopang Manganti",26254,,,null
1307112002,130711,1307,13,"Simpang Kapuak",26254,,,null
1307112003,130711,1307,13,Mungka,26254,,,null
1307112004,130711,1307,13,"Talang Maur",26254,,,null
1307112005,130711,1307,13,"Sungai Antuan",26254,,,null
1307122001,130712,1307,13,Maek,26257,,,null
1307122002,130712,1307,13,"Banja Loweh",26257,,,null
1307122003,130712,1307,13,"Baruah Gunuang",26257,,,null
1307122004,130712,1307,13,"Sungai Naniang",26257,,,null
1307122005,130712,1307,13,"Koto Tangah",26257,,,null
1307132001,130713,1307,13,"Sariak Laweh",26252,,,null
1307132002,130713,1307,13,"Koto Tangah Batu Ampa",26252,,,null
1307132003,130713,1307,13,Batuhampar,26252,,,null
1307132004,130713,1307,13,Suayan,26252,,,null
1307132005,130713,1307,13,"Sungai Balantiak",26252,,,null
1307132006,130713,1307,13,"Pauh Sangik",26252,,,null
1307132007,130713,1307,13,"Durian Gadang",26252,,,null
1308042001,130804,1308,13,"Limo Koto",26381,,,null
1308042002,130804,1308,13,"Koto Kaciak",26381,,,null
1308042003,130804,1308,13,"Ganggo Mudiak",26381,,,null
1308042004,130804,1308,13,"Ganggo Hilia",26381,,,null
1308052001,130805,1308,13,"Tanjuang Baringin",26318,,,null
1308052002,130805,1308,13,Jambak,26318,,,null
1308052003,130805,1308,13,"Durian Tinggi",26318,,,null
1308052004,130805,1308,13,Pauah,26318,,,null
1308052005,130805,1308,13,"Aia Manggih",26318,,,null
1308052006,130805,1308,13,Sundata,26318,,,null
1308072001,130807,1308,13,Panti,26351,,,null
1308072003,130807,1308,13,"Panti Timur",26351,,,null
1308072004,130807,1308,13,"Panti Selatan",26351,,,null
1308082001,130808,1308,13,"Muara Tais",26353,,,null
1308082002,130808,1308,13,"Lubuak Gadang",26353,,,null
1308082005,130808,1308,13,"Pintu Padang",26353,,,null
1308122001,130812,1308,13,"Simpang Tonang",26311,,,null
1308122002,130812,1308,13,Cubadak,26311,,,null
1308132001,130813,1308,13,Malampah,26358,,,null
1308132002,130813,1308,13,"Ladang Panjang",26358,,,null
1308132003,130813,1308,13,Binjai,26358,,,null
1308142002,130814,1308,13,"Taruang Taruang",26355,,,null
1308142005,130814,1308,13,"Padang Mantinggi",26355,,,null
1308152001,130815,1308,13,Silayang,26354,,,null
1308152002,130815,1308,13,"Muaro Sungai Lolo",26354,,,null
1308162001,130816,1308,13,"Alahan Mati",26382,,,null
1308162002,130816,1308,13,Simpang,26382,,,null
1308172001,130817,1308,13,"Padang Gelugur",26352,,,null
1308172002,130817,1308,13,"Sontang Cubadak",26352,,,null
1308172003,130817,1308,13,"Sitombol Padang Gelugua",26352,,,null
1308172004,130817,1308,13,"Bahagia Padang Gelugua",26352,,,null
1308182001,130818,1308,13,"Koto Nopan",26357,,,null
1308182002,130818,1308,13,"Koto Rajo",26357,,,null
1308182003,130818,1308,13,Languang,26357,,,null
1308192001,130819,1308,13,"Lansek Kadok",26356,,,null
1308192002,130819,1308,13,"Lubuak Layang",26356,,,null
1308192003,130819,1308,13,"Tanjung Betung",26356,,,null
1309012007,130901,1309,13,Betumonga,25390,,,null
1309012008,130901,1309,13,Silabu,25390,,,null
1309012009,130901,1309,13,Saumanganya,25390,,,null
1309022001,130902,1309,13,Bosua,25392,,,null
1309022002,130902,1309,13,Beriulou,25392,,,null
1309022003,130902,1309,13,Nemnemleleu,25392,,,null
1309022004,130902,1309,13,Mara,25392,,,null
1309022006,130902,1309,13,Sioban,25392,,,null
1309022007,130902,1309,13,Matobe,25392,,,null
1309022008,130902,1309,13,Saureinu,25392,,,null
1309032002,130903,1309,13,"Muara Siberut",25397,,,null
1309032003,130903,1309,13,Maileppet,25397,,,null
1309032004,130903,1309,13,Muntei,25397,,,null
1309032005,130903,1309,13,Matotonan,25397,,,null
1309032007,130903,1309,13,Madobag,25397,,,null
1309042003,130904,1309,13,Bojakan,25395,,,null
1309042004,130904,1309,13,Sotboyak,25395,,,null
1309042005,130904,1309,13,"Mongan Poula",25395,,,null
1309042006,130904,1309,13,"Muara Sikabaluan",25395,,,null
1309042007,130904,1309,13,Sirilogui,25395,,,null
1309042008,130904,1309,13,Malancan,25395,,,null
1309052001,130905,1309,13,Simatalu,25394,,,null
1309052002,130905,1309,13,Simalegi,25394,,,null
1309052003,130905,1309,13,Sigapokna,25394,,,null
1309062001,130906,1309,13,Katurei,25393,,,null
1309062002,130906,1309,13,Sagulubbeg,25393,,,null
1309062003,130906,1309,13,"Pasakiat Taileleu",25393,,,null
1309072001,130907,1309,13,"Saibi Samukop",25396,,,null
1309072002,130907,1309,13,Cimpungan,25396,,,null
1309072003,130907,1309,13,Saliguma,25396,,,null
1309082001,130908,1309,13,Betumonga,25398,,,null
1309082002,130908,1309,13,Goisooinan,25398,,,null
1309082003,130908,1309,13,Tuapejat,25398,,,null
1309082004,130908,1309,13,"Sido Makmur",25398,,,null
1309082005,130908,1309,13,"Bukit Pamewa",25398,,,null
1309082006,130908,1309,13,"Sipora Jaya",25398,,,null
1309092001,130909,1309,13,Sikakap,25399,,,null
1309092002,130909,1309,13,Taikako,25399,,,null
1309092003,130909,1309,13,Matobe,25399,,,null
1309102001,130910,1309,13,Sinaka,25391,,,null
1309102002,130910,1309,13,Bulasat,25391,,,null
1309102003,130910,1309,13,Malakopa,25391,,,null
1309102004,130910,1309,13,Makalo,25391,,,null
1310012002,131001,1310,13,"Koto Baru",27681,,,null
1310012003,131001,1310,13,"Sialang Gaung",27681,,,null
1310012005,131001,1310,13,"Ampang Kuranji",27681,,,null
1310012008,131001,1310,13,"Koto Padang",27681,,,null
1310022001,131002,1310,13,"Sungai Dareh",27573,,,null
1310022002,131002,1310,13,"Tebing Tinggi",27573,,,null
1310022006,131002,1310,13,"Empat Koto Pulau Punjung",27573,,,null
1310022007,131002,1310,13,"Sungai Kambut",27573,,,null
1310022008,131002,1310,13,"Gunung Selasih",27573,,,null
1310022009,131002,1310,13,Sikabau,27573,,,null
1310032003,131003,1310,13,"Sungai Rumbai",27686,,,null
1310032004,131003,1310,13,"Kurnia Koto Salak",27686,,,null
1310032007,131003,1310,13,"Sungai Rumbai Timur",27686,,,null
1310032008,131003,1310,13,"Kurnia Selatan",27686,,,null
1310042001,131004,1310,13,Sitiung,27678,,,null
1310042002,131004,1310,13,Siguntur,27678,,,null
1310042004,131004,1310,13,"Gunung Medan",27678,,,null
1310042005,131004,1310,13,"Sungai Duo",27678,,,null
1310052001,131005,1310,13,Silago,27683,,,null
1310052002,131005,1310,13,"Lubuak Karak",27683,,,null
1310052003,131005,1310,13,"Koto Nan Empat Dibawuh",27683,,,null
1310052004,131005,1310,13,Banai,27683,,,null
1310062001,131006,1310,13,Timpeh,27679,,,null
1310062002,131006,1310,13,"Taratak Tinggi",27679,,,null
1310062003,131006,1310,13,Tabek,27679,,,null
1310062004,131006,1310,13,Panyubarangan,27679,,,null
1310062005,131006,1310,13,"Ranah Palabi",27679,,,null
1310072001,131007,1310,13,"Koto Salak",27680,,,null
1310072002,131007,1310,13,Ampalu,27680,,,null
1310072003,131007,1310,13,Padukuan,27680,,,null
1310072004,131007,1310,13,"Pulau Mainan",27680,,,null
1310072005,131007,1310,13,Simalidu,27680,,,null
1310082001,131008,1310,13,Tiumang,27687,,,null
1310082002,131008,1310,13,"Sungai Langkok",27687,,,null
1310082003,131008,1310,13,"Koto Beringin",27687,,,null
1310082004,131008,1310,13,Sipangkur,27687,,,null
1310092001,131009,1310,13,"Padang Laweh",27682,,,null
1310092002,131009,1310,13,"Batu Rijal",27682,,,null
1310092003,131009,1310,13,"Muaro Sopan",27682,,,null
1310092004,131009,1310,13,"Sopan Jaya",27682,,,null
1310102001,131010,1310,13,"Sungai Limau",27684,,,null
1310102002,131010,1310,13,"Alahan Nan Tigo",27684,,,null
1310102003,131010,1310,13,"Lubuk Besar",27684,,,null
1310102004,131010,1310,13,"Tanjung Alam",27684,,,null
1310102005,131010,1310,13,Sinamar,27684,,,null
1310112001,131011,1310,13,"Koto Besar",27685,,,null
1310112002,131011,1310,13,"Koto Tinggi",27685,,,null
1310112003,131011,1310,13,"Koto Gadang",27685,,,null
1310112004,131011,1310,13,Bonjol,27685,,,null
1310112005,131011,1310,13,"Abai Siat",27685,,,null
1310112006,131011,1310,13,"Koto Laweh",27685,,,null
1310112007,131011,1310,13,"Koto Ranah",27685,,,null
1311012001,131101,1311,13,"Lubuk Gadang",27778,,,null
1311012002,131101,1311,13,"Lubuk Gadang Timur",27778,,,null
1311012003,131101,1311,13,"Lubuk Gadang Selatan",27778,,,null
1311012004,131101,1311,13,"Lubuk Gadang Utara",27778,,,null
1311022001,131102,1311,13,"Pasir Talang",27774,,,null
1311022002,131102,1311,13,"Koto Baru",27774,,,null
1311022004,131102,1311,13,"Sako Pasia Talang",27774,,,null
1311022005,131102,1311,13,"Pasar Muara Labuh",27774,,,null
1311022006,131102,1311,13,"Pulakek Koto Baru",27774,,,null
1311022007,131102,1311,13,Bomas,27774,,,null
1311022008,131102,1311,13,"Sako Utara Pasia Talang",27774,,,null
1311022009,131102,1311,13,"Sako Selatan Pasia Talang",27774,,,null
1311022010,131102,1311,13,"Pasir Talang Barat",27774,,,null
1311022011,131102,1311,13,"Pasir Talang Timur",27774,,,null
1311022012,131102,1311,13,"Pasir Talang Selatan",27774,,,null
1311032001,131103,1311,13,"Pakan Rabaa",27775,,,null
1311032002,131103,1311,13,"Pakan Rabaa Timur",27775,,,null
1311032003,131103,1311,13,"Pakan Rabaa Utara",27775,,,null
1311032004,131103,1311,13,"Pakan Rabaa Tengah",27775,,,null
1311042001,131104,1311,13,"Lubuk Malako",27773,,,null
1311042002,131104,1311,13,"Bidar Alam",27773,,,null
1311042004,131104,1311,13,"Padang Air Dingin",27773,,,null
1311042005,131104,1311,13,"Padang Limau Sundai",27773,,,null
1311042006,131104,1311,13,"Padang Gantiang",27773,,,null
1311052001,131105,1311,13,Abai,27779,,,null
1311052002,131105,1311,13,"Dusun Tangah",27779,,,null
1311052003,131105,1311,13,"Lubuk Ulang Aling",27779,,,null
1311052004,131105,1311,13,"Ranah Pantai Cermin",27779,,,null
1311052005,131105,1311,13,Sitapus,27779,,,null
1311052006,131105,1311,13,"Lubuk Ulang Aling Selatan",27779,,,null
1311052007,131105,1311,13,"Lubuk Ulang Aling Tengah",27779,,,null
1311062001,131106,1311,13,"Alam Pauh Duo",27776,,,null
1311062002,131106,1311,13,"Kapau Alam Pauh Duo",27776,,,null
1311062003,131106,1311,13,"Luak Kapau Alam Pauh Duo",27776,,,null
1311062004,131106,1311,13,"Pauh Duo Nan Batigo",27776,,,null
1311072001,131107,1311,13,"Sungai Kunyit",27777,,,null
1311072002,131107,1311,13,"Talao Sungai Kunyit",27777,,,null
1311072003,131107,1311,13,"Sungai Kunyit Barat",27777,,,null
1311072004,131107,1311,13,"Talunan Maju",27777,,,null
1312012001,131201,1312,13,"Aia Bangih",26573,,,null
1312022001,131202,1312,13,"Ujung Gading",26570,,,null
1312032003,131203,1312,13,"Lingkuang Aua",26566,,,null
1312032004,131203,1312,13,"Aua Kuniang",26566,,,null
1312032006,131203,1312,13,"Aia Gadang",26566,,,null
1312042001,131204,1312,13,Kajai,26561,,,null
1312042002,131204,1312,13,Talu,26561,,,null
1312042003,131204,1312,13,Sinuruik,26561,,,null
1312052001,131205,1312,13,Kinali,26567,,,null
1312052002,131205,1312,13,Katiagan,26567,,,null
1312062001,131206,1312,13,"Muaro Kiawai",26571,,,null
1312062002,131206,1312,13,"Rabi Jonggor",26571,,,null
1312072001,131207,1312,13,Batahan,26366,,,null
1312072002,131207,1312,13,"Desa Baru",26366,,,null
1312082001,131208,1312,13,Parit,26572,,,null
1312092001,131209,1312,13,"Sungai Aua",26574,,,null
1312102001,131210,1312,13,"Koto Baru",26568,,,null
1312102002,131210,1312,13,Kapa,26568,,,null
1312112001,131211,1312,13,Sasak,26367,,,null
1371011001,137101,1371,13,"Belakang Pondok",25211,,,null
1371011002,137101,1371,13,"Alang Laweh",25211,,,null
1371011003,137101,1371,13,"Ranah Parak Rumbio",25212,,,null
1371011004,137101,1371,13,"Pasa Gadang",25213,,,null
1371011005,137101,1371,13,"Batang Arau",25215,,,null
1371011006,137101,1371,13,"Seberang Palinggam",25215,,,null
1371011007,137101,1371,13,"Seberang Padang",25214,,,null
1371011008,137101,1371,13,"Mata Air",25216,,,null
1371011009,137101,1371,13,Rawang,25216,,,null
1371011010,137101,1371,13,"Teluk Bayur",25217,,,null
1371011011,137101,1371,13,"Air Manis",25217,,,null
1371011012,137101,1371,13,"Bukit Gado-gado",25215,,,null
1371021001,137102,1371,13,Sawahan,25121,,,null
1371021002,137102,1371,13,"Jati Baru",25129,,,null
1371021003,137102,1371,13,Jati,25129,,,null
1371021004,137102,1371,13,"Sawahan Timur",25121,,,null
1371021005,137102,1371,13,"Simpang Haru",25123,,,null
1371021006,137102,1371,13,"Kubu Marapalam",25125,,,null
1371021007,137102,1371,13,Andalas,25126,,,null
1371021008,137102,1371,13,"Kubu Dalam Parak Karakah",25126,,,null
1371021009,137102,1371,13,"Parak Gadang Timur",25123,,,null
1371021010,137102,1371,13,"Ganting Parak Gadang",25122,,,null
1371031001,137103,1371,13,"Flamboyan Baru",25114,,,null
1371031002,137103,1371,13,"Rimbo Kaluang",25111,,,null
1371031003,137103,1371,13,"Ujung Gurun",25114,,,null
1371031004,137103,1371,13,Purus,25115,,,null
1371031005,137103,1371,13,"Padang Pasir",25112,,,null
1371031006,137103,1371,13,Olo,25117,,,null
1371031007,137103,1371,13,"Kampung Jao",25112,,,null
1371031008,137103,1371,13,"Belakang Tangsi",25118,,,null
1371031009,137103,1371,13,"Kampung Pondok",25119,,,null
1371031010,137103,1371,13,"Berok Nipah",25118,,,null
1371041001,137104,1371,13,"Air Tawar Timur",25132,,,null
1371041002,137104,1371,13,"Air Tawar Barat",25132,,,null
1371041003,137104,1371,13,"Ulak Karang Utara",25133,,,null
1371041004,137104,1371,13,"Ulak Karang Selatan",25134,,,null
1371041005,137104,1371,13,"Lolong Belanti",25136,,,null
1371041006,137104,1371,13,"Alai Parak Kopi",25139,,,null
1371041007,137104,1371,13,"Gunung Pangilun",25137,,,null
1371051001,137105,1371,13,"Bungus Timur",25237,,,null
1371051002,137105,1371,13,"Bungus Barat",25237,,,null
1371051003,137105,1371,13,"Bungus Selatan",25237,,,null
1371051004,137105,1371,13,"Teluk Kabung Utara",25237,,,null
1371051005,137105,1371,13,"Teluk Kabung Tengah",25237,,,null
1371051006,137105,1371,13,"Teluk Kabung Selatan",25237,,,null
1371061001,137106,1371,13,"Cangkeh Nan XX",25225,,,null
1371061002,137106,1371,13,"Kampung Baru Nan XX",25225,,,null
1371061003,137106,1371,13,"Tanah Sirah Piai Nan XX",25224,,,null
1371061004,137106,1371,13,"Tanjung Saba Pitamen Nan XX",25224,,,null
1371061005,137106,1371,13,"Lubuk Begalung Nan XX",25221,,,null
1371061006,137106,1371,13,"Gurun Laweh Nan XX",25221,,,null
1371061007,137106,1371,13,"Tanjung Aua Nan XX",25222,,,null
1371061008,137106,1371,13,"Koto Baru Nan XX",25227,,,null
1371061009,137106,1371,13,"Banuaran Nan XX",25222,,,null
1371061010,137106,1371,13,"Parak Laweh Pulau Aia Nan XX",25223,,,null
1371061011,137106,1371,13,"Batung Taba Nan XX",25223,,,null
1371061012,137106,1371,13,"Pagambiran Ampalu Nan XX",25226,,,null
1371061013,137106,1371,13,"Pampangan Nan XX",25227,,,null
1371061014,137106,1371,13,"Gates Nan XX",25227,,,null
1371061015,137106,1371,13,"Kampung Jua Nan XX",25225,,,null
1371071001,137107,1371,13,Indarung,25237,,,null
1371071002,137107,1371,13,"Padang Besi",25233,,,null
1371071003,137107,1371,13,"Batu Gadang",25236,,,null
1371071004,137107,1371,13,"Bandar Buat",25231,,,null
1371071005,137107,1371,13,"Koto Lalang",25232,,,null
1371071006,137107,1371,13,Baringin,25235,,,null
1371071007,137107,1371,13,Tarantang,25234,,,null
1371081001,137108,1371,13,"Limau Manis",25166,,,null
1371081002,137108,1371,13,"Koto Lua",25164,,,null
1371081003,137108,1371,13,"Limau Manis Selatan",25163,,,null
1371081004,137108,1371,13,"Piai Tangah",25162,,,null
1371081005,137108,1371,13,"Cupak Tangah",25162,,,null
1371081006,137108,1371,13,Pisang,25161,,,null
1371081007,137108,1371,13,"Binuang Kampuang Dalam",25161,,,null
1371081008,137108,1371,13,"Kapalo Koto",25163,,,null
1371081009,137108,1371,13,"Lambung Bukik",25168,,,null
1371091001,137109,1371,13,"Pasar Ambacang",25152,,,null
1371091002,137109,1371,13,Anduring,25151,,,null
1371091003,137109,1371,13,"Lubuk Lintah",25153,,,null
1371091004,137109,1371,13,Ampang,25154,,,null
1371091005,137109,1371,13,Kalumbuk,25155,,,null
1371091006,137109,1371,13,"Korong Gadang",25156,,,null
1371091007,137109,1371,13,Kuranji,25157,,,null
1371091008,137109,1371,13,"Gunung Sarik",25158,,,null
1371091009,137109,1371,13,"Sungai Sapih",25159,,,null
1371101001,137110,1371,13,"Surau Gadang",25146,,,null
1371101002,137110,1371,13,"Kampung Olo",25143,,,null
1371101003,137110,1371,13,"Kurao Pagang",25147,,,null
1371101004,137110,1371,13,"Gurun Laweh",25145,,,null
1371101005,137110,1371,13,"Tabing Banda Gadang",25144,,,null
1371101006,137110,1371,13,"Kampung Lapai",25142,,,null
1371111001,137111,1371,13,"Balai Gadang",25171,,,null
1371111002,137111,1371,13,"Lubuk Minturun",25175,,,null
1371111003,137111,1371,13,"Aie Pacah",25176,,,null
1371111004,137111,1371,13,"Dadok Tunggul Hitam",25176,,,null
1371111005,137111,1371,13,"Koto Panjang Ikua Koto",25175,,,null
1371111006,137111,1371,13,"Koto Pulai",25171,,,null
1371111007,137111,1371,13,"Batipuh Panjang",25171,,,null
1371111008,137111,1371,13,"Padang Sarai",25173,,,null
1371111009,137111,1371,13,"Lubuk Buaya",25173,,,null
1371111010,137111,1371,13,"Batang Kabung Ganting",25172,,,null
1371111011,137111,1371,13,"Bungo Pasang",25171,,,null
1371111012,137111,1371,13,"Parupuk Tabing",25171,,,null
1371111013,137111,1371,13,"Pasie Nan Tigo",25171,,,null
1372011001,137201,1372,13,"Tanah Garam",27312,,,null
1372011002,137201,1372,13,"VI Suku",27311,,,null
1372011003,137201,1372,13,"Sinapa Piliang",27313,,,null
1372011004,137201,1372,13,"IX Korong",27314,,,null
1372011005,137201,1372,13,"Kampai Tabu Karambia",27315,,,null
1372011006,137201,1372,13,"Aro IV Korong",27317,,,null
1372011007,137201,1372,13,"Simpang Rumbio",27316,,,null
1372021001,137202,1372,13,"Koto Panjang",27323,,,null
1372021002,137202,1372,13,"Pasar Pandan Air Mati",27322,,,null
1372021003,137202,1372,13,"Tanjung Paku",27324,,,null
1372021004,137202,1372,13,"Nan Balimo",27326,,,null
1372021005,137202,1372,13,"Kampung Jawa",27321,,,null
1372021006,137202,1372,13,Laing,27325,,,null
1373011001,137301,1373,13,"Aur Mulio",27418,,,null
1373011002,137301,1373,13,"Kubang Sirakuk Utara",27415,,,null
1373011003,137301,1373,13,"Kubang S. Selatan",27415,,,null
1373011004,137301,1373,13,Pasar,27411,,,null
1373011005,137301,1373,13,"Tanah Lapang",27411,,,null
1373011006,137301,1373,13,"Aia Dingin",27419,,,null
1373012007,137301,1373,13,"Lunto Timur",27416,,,null
1373012008,137301,1373,13,"Lunto Barat",27418,,,null
1373012009,137301,1373,13,"Kubang Tangah",27413,,,null
1373012010,137301,1373,13,"Kubang Utara Sikabu",27412,,,null
1373012011,137301,1373,13,"Pasa Kubang",27415,,,null
1373021001,137302,1373,13,Saringan,27421,,,null
1373021002,137302,1373,13,"Lubang Panjang",27424,,,null
1373021003,137302,1373,13,"Durian I",27425,,,null
1373021004,137302,1373,13,"Durian II",27425,,,null
1373022005,137302,1373,13,Santua,27424,,,null
1373022006,137302,1373,13,"Kolok Mudiak",27425,,,null
1373022007,137302,1373,13,"Kolok Nan Tuo",27427,,,null
1373022008,137302,1373,13,"Talago Gunung",27423,,,null
1373022009,137302,1373,13,Lumindai,27421,,,null
1373022010,137302,1373,13,"Balai Batu Sadara",27422,,,null
1373032001,137303,1373,13,"Silungkang Duo",27432,,,null
1373032002,137303,1373,13,"Silungkang Oso",27433,,,null
1373032003,137303,1373,13,"Silungkang Tigo",27431,,,null
1373032004,137303,1373,13,"Muaro Kalaban",27435,,,null
1373032005,137303,1373,13,"Taratak Boncah",27434,,,null
1373042001,137304,1373,13,"Talawi Hilie",27445,,,null
1373042002,137304,1373,13,"Talawi Mudiak",27444,,,null
1373042003,137304,1373,13,"Bukit Gadang",27444,,,null
1373042004,137304,1373,13,"Batu Tanjung",27443,,,null
1373042005,137304,1373,13,Kumbayau,27443,,,null
1373042006,137304,1373,13,"Tumpuk Tangah",27442,,,null
1373042007,137304,1373,13,"Data Mansiang",27441,,,null
1373042008,137304,1373,13,"Sijantang Koto",27446,,,null
1373042009,137304,1373,13,Salak,27447,,,null
1373042010,137304,1373,13,Sikalang,27448,,,null
1373042011,137304,1373,13,Rantih,27449,,,null
1374011001,137401,1374,13,Ganting,27127,,,null
1374011002,137401,1374,13,Sigando,27126,,,null
1374011003,137401,1374,13,"Ekor Lubuk",27125,,,null
1374011004,137401,1374,13,Ngalau,27124,,,null
1374011005,137401,1374,13,"Guguk Malintang",27128,,,null
1374011006,137401,1374,13,"Koto Panjang",27122,,,null
1374011007,137401,1374,13,"Koto Katik",27123,,,null
1374011008,137401,1374,13,"Tanah Pak Lambik",27121,,,null
1374021001,137402,1374,13,"Bukit Surungan",27115,,,null
1374021002,137402,1374,13,"Pasar Usang",27116,,,null
1374021003,137402,1374,13,"Kampung Manggis",27111,,,null
1374021004,137402,1374,13,"Silaing Bawah",27118,,,null
1374021005,137402,1374,13,"Silaing Atas",27117,,,null
1374021006,137402,1374,13,"Pasar Baru",27113,,,null
1374021007,137402,1374,13,"Tanah Hitam",27112,,,null
1374021008,137402,1374,13,Balai-balai,27114,,,null
1375011001,137501,1375,13,"Tarok Dipo",26117,,,null
1375011002,137501,1375,13,"Bukik Cangang/Kayu Rmg.",26116,,,null
1375011003,137501,1375,13,"Pakan Kurai",26112,,,null
1375011004,137501,1375,13,"Aur Tajungkang/Tgh. Sawah",26111,,,null
1375011005,137501,1375,13,"Benteng Pasar Atas",26113,,,null
1375011006,137501,1375,13,"Kayu Kubu",26115,,,null
1375011007,137501,1375,13,"Bukik Apik Puhun",26114,,,null
1375021001,137502,1375,13,"Campago Guguk Bulek",26128,,,null
1375021002,137502,1375,13,"Campago Ipuh",26121,,,null
1375021003,137502,1375,13,"Puhun Tembok",26124,,,null
1375021004,137502,1375,13,"Kubu Gulai Bancah",26122,,,null
1375021005,137502,1375,13,"Puhun Pintu Kabun",26123,,,null
1375021006,137502,1375,13,"Pulai Anak Air",26125,,,null
1375021007,137502,1375,13,"Koto Selayan",26126,,,null
1375021008,137502,1375,13,Garegeh,26127,,,null
1375021009,137502,1375,13,Manggis/Ganting,26129,,,null
1375031001,137503,1375,13,"Aur Kuning",26131,,,null
1375031002,137503,1375,13,Birugo,26138,,,null
1375031003,137503,1375,13,"Belakang Balok",26136,,,null
1375031004,137503,1375,13,Sapiran,26137,,,null
1375031005,137503,1375,13,"Kubu Tanjung",26133,,,null
1375031006,137503,1375,13,"Pakan Labuh",26134,,,null
1375031007,137503,1375,13,"Parit Rantang",26132,,,null
1375031008,137503,1375,13,"Ladang Cakiah",26135,,,null
1376011002,137601,1376,13,"Pakan Sinayan",26226,,,null
1376011003,137601,1376,13,"Kubu Gadang",26226,,,null
1376011004,137601,1376,13,"Bulakan Balai Kandi",26225,,,null
1376011005,137601,1376,13,Payolansek,26225,,,null
1376011007,137601,1376,13,Talang,26225,,,null
1376011009,137601,1376,13,"Padang Tinggi Piliang",26224,,,null
1376011011,137601,1376,13,"Koto Tangah",26223,,,null
1376011013,137601,1376,13,"Subarang Batuang",26223,,,null
1376011016,137601,1376,13,"Parik Rantang",26222,,,null
1376011017,137601,1376,13,"Parak Batuang",26222,,,null
1376011018,137601,1376,13,"Nunang Daya Bangun",26221,,,null
1376011020,137601,1376,13,"Labuah Basilang",26229,,,null
1376011021,137601,1376,13,Ibuah,26229,,,null
1376011022,137601,1376,13,"Tanjuang Pauh",26229,,,null
1376011032,137601,1376,13,"Tanjuanggodang Sungaipinago",26225,,,null
1376011033,137601,1376,13,"Padangtongah Balainanduo",26224,,,null
1376011034,137601,1376,13,"Padangdata Tanahmati",26223,,,null
1376021002,137602,1376,13,Napar,26218,,,null
1376021032,137602,1376,13,"Ompang Tanah Sirah",26216,,,null
1376021033,137602,1376,13,"Taratak Padang Kampuang",26217,,,null
1376021034,137602,1376,13,"Tigo Koto Dibaruah",26215,,,null
1376021035,137602,1376,13,"Tigo Koto Diate",26218,,,null
1376021036,137602,1376,13,"Ikua Koto Dibalai",26212,,,null
1376021037,137602,1376,13,"Balai Tongah Koto",26214,,,null
1376021038,137602,1376,13,"Kapalo Koto Dibalai",26211,,,null
1376021039,137602,1376,13,"Kotokociak Kubu Tapakrajo",26213,,,null
1376031001,137603,1376,13,"Balai Jaring",26235,,,null
1376031002,137603,1376,13,"Padang Alai Bodi",26236,,,null
1376031003,137603,1376,13,"Padang Tangah Payobadar",26231,,,null
1376031005,137603,1376,13,Sicincin,26233,,,null
1376031007,137603,1376,13,"Padang Tiakar",26232,,,null
1376031009,137603,1376,13,Payobasung,26237,,,null
1376031010,137603,1376,13,"Koto Panjang",26237,,,null
1376031011,137603,1376,13,"Koto Baru",26237,,,null
1376031015,137603,1376,13,Tiakar,26231,,,null
1376041001,137604,1376,13,"Sungai Durian",26219,,,null
1376041002,137604,1376,13,"Parit Muko Aie",26219,,,null
1376041003,137604,1376,13,Parambahan,26219,,,null
1376041004,137604,1376,13,"Padang Sikabu",26219,,,null
1376041005,137604,1376,13,"Koto Panjang Padang",26219,,,null
1376041006,137604,1376,13,"Koto Panjang Dalam",26219,,,null
1376051001,137605,1376,13,"Padang Karambia",26227,,,null
1376051002,137605,1376,13,"Kototuo Limokampuang",26226,,,null
1376051003,137605,1376,13,Limbukan,26227,,,null
1376051005,137605,1376,13,"Balai Panjang",26226,,,null
1376051006,137605,1376,13,"Kapalo Koto Ampangan",26228,,,null
1376051010,137605,1376,13,"Sawahpadang Aua Kuniang",26228,,,null
1377011001,137701,1377,13,"Karan Aur",25514,,,null
1377011002,137701,1377,13,"Kampung Perak",25513,,,null
1377011003,137701,1377,13,Lohong,25513,,,null
1377011004,137701,1377,13,Pasir,25513,,,null
1377011005,137701,1377,13,"Kampung Pondok",25512,,,null
1377011006,137701,1377,13,"Pondok II",25512,,,null
1377011007,137701,1377,13,"Kampung Jawa I",25511,,,null
1377011008,137701,1377,13,"Kampung Jawa II",25511,,,null
1377011009,137701,1377,13,"Alai Gelombang",25519,,,null
1377011010,137701,1377,13,"Jawi Jawi I",25518,,,null
1377011011,137701,1377,13,"Jawi Jawi II",25518,,,null
1377011012,137701,1377,13,"Jalan Baru",25515,,,null
1377011013,137701,1377,13,Taratak,25517,,,null
1377011014,137701,1377,13,"Jalan Kereta Api",25515,,,null
1377011015,137701,1377,13,"Ujung Batung",25516,,,null
1377011016,137701,1377,13,"Jati Hilir",25519,,,null
1377012017,137701,1377,13,"Pauh Barat",25512,,,null
1377012018,137701,1377,13,"Pauh Timur",25512,,,null
1377012019,137701,1377,13,Rawang,25511,,,null
1377012020,137701,1377,13,"Kampung Baru",25514,,,null
1377012021,137701,1377,13,Cimparuh,25511,,,null
1377012025,137701,1377,13,"Jati Mudik",25517,,,null
1377022005,137702,1377,13,Ampalu,25522,,,null
1377022006,137702,1377,13,Apar,25522,,,null
1377022007,137702,1377,13,"Tanjung Sabar",25523,,,null
1377022008,137702,1377,13,"Cubadak Air Selatan",25524,,,null
1377022009,137702,1377,13,"Sikapak Barat",25526,,,null
1377022010,137702,1377,13,"Sikapak Timur",25526,,,null
1377022011,137702,1377,13,Manggung,25522,,,null
1377022012,137702,1377,13,"Cubadak Air Utara",25524,,,null
1377022013,137702,1377,13,"Tungkal Selatan",25521,,,null
1377022014,137702,1377,13,"Naras Hilir",25522,,,null
1377022015,137702,1377,13,"Naras I",25521,,,null
1377022016,137702,1377,13,"Balai Naras",25521,,,null
1377022017,137702,1377,13,"Padang Birik Birik",25521,,,null
1377022018,137702,1377,13,Sintuk,25521,,,null
1377022019,137702,1377,13,"Sungai Rambai",25529,,,null
1377022020,137702,1377,13,"Tungkal Utara",25521,,,null
1377022021,137702,1377,13,"Cubadak Air",25524,,,null
1377032006,137703,1377,13,"Pasir Sunur",25538,,,null
1377032007,137703,1377,13,"Balai Kurai Taji",25531,,,null
1377032008,137703,1377,13,"Pauh Kurai Taji",25532,,,null
1377032009,137703,1377,13,Simpang,25532,,,null
1377032010,137703,1377,13,"Toboh Palabah",25536,,,null
1377032011,137703,1377,13,Marabau,25537,,,null
1377032012,137703,1377,13,"Batang Tajongkek",25531,,,null
1377032013,137703,1377,13,Sikabu,25539,,,null
1377032014,137703,1377,13,"Sungai Kasai",25537,,,null
1377032015,137703,1377,13,"Palak Aneh",25539,,,null
1377032016,137703,1377,13,"Kampung Apar",25539,,,null
1377032017,137703,1377,13,Marunggi,25538,,,null
1377032018,137703,1377,13,Taluk,25538,,,null
1377032019,137703,1377,13,"Padang Cakur",25537,,,null
1377032020,137703,1377,13,"Punggung Lading",25533,,,null
1377032021,137703,1377,13,Rambai,25533,,,null
1377042001,137704,1377,13,"Talago Sarik",25523,,,null
1377042002,137704,1377,13,Pakasai,25524,,,null
1377042003,137704,1377,13,"Kampung Baru Padusunan",25524,,,null
1377042004,137704,1377,13,"Kampung Gadang",25523,,,null
1377042005,137704,1377,13,"Koto Marapak",25519,,,null
1377042006,137704,1377,13,"Batang Kabung",25519,,,null
1377042007,137704,1377,13,Bato,25519,,,null
1377042008,137704,1377,13,"Air Santok",25531,,,null
1377042009,137704,1377,13,"Cubadak Mentawai",25516,,,null
1377042010,137704,1377,13,"Sungai Sirah",25516,,,null
1377042011,137704,1377,13,"Sungai Pasak",25516,,,null
1377042012,137704,1377,13,"Bungo Tanjung",25535,,,null
1377042013,137704,1377,13,"Kampung Tangah",25535,,,null
1377042014,137704,1377,13,"Kampung Kandang",25536,,,null
1377042015,137704,1377,13,Kaluat,25534,,,null
1377042016,137704,1377,13,Kajai,25534,,,null
