[
    {
        "code": 9301011002,
        "district_code": 930101,
        "regency_code": 9301,
        "province_code": 93,
        "name": "Samkai",
        "postal_code": "99615",
        "latitude": -8.491015533921473,
        "longitude": 140.37125490684068
    },
    {
        "code": 9301011003,
        "district_code": 930101,
        "regency_code": 9301,
        "province_code": 93,
        "name": "Karang Indah",
        "postal_code": "99614",
        "latitude": -8.48191362577129,
        "longitude": 140.37781848006037
    },
    {
        "code": 9301011004,
        "district_code": 930101,
        "regency_code": 9301,
        "province_code": 93,
        "name": "Mandala",
        "postal_code": "99617",
        "latitude": -8.499726027414093,
        "longitude": 140.40133248606043
    },
    {
        "code": 9301011005,
        "district_code": 930101,
        "regency_code": 9301,
        "province_code": 93,
        "name": "Maro",
        "postal_code": "99613",
        "latitude": -8.482620635269404,
        "longitude": 140.3949420849078
    },
    {
        "code": 9301011006,
        "district_code": 930101,
        "regency_code": 9301,
        "province_code": 93,
        "name": "Kelapa Lima",
        "postal_code": "99612",
        "latitude": -8.48305544895289,
        "longitude": 140.41327306684545
    },
    {
        "code": 9301011007,
        "district_code": 930101,
        "regency_code": 9301,
        "province_code": 93,
        "name": "Rimba Jaya",
        "postal_code": "99610",
        "latitude": -8.52776428013491,
        "longitude": 140.457456998642
    },
    {
        "code": 9301011009,
        "district_code": 930101,
        "regency_code": 9301,
        "province_code": 93,
        "name": "Bambu Pemali",
        "postal_code": "99616",
        "latitude": -8.506067858905721,
        "longitude": 140.39519876172
    },
    {
        "code": 9301011010,
        "district_code": 930101,
        "regency_code": 9301,
        "province_code": 93,
        "name": "Seringgu Jaya",
        "postal_code": "99619",
        "latitude": -8.496837690952683,
        "longitude": 140.38779049187704
    },
    {
        "code": 9301011011,
        "district_code": 930101,
        "regency_code": 9301,
        "province_code": 93,
        "name": "Kamundu",
        "postal_code": "99607",
        "latitude": -8.494245673955271,
        "longitude": 140.4428131365619
    },
    {
        "code": 9301011012,
        "district_code": 930101,
        "regency_code": 9301,
        "province_code": 93,
        "name": "Kamahedoga",
        "postal_code": "99606",
        "latitude": -8.457267445095848,
        "longitude": 140.39346792666208
    },
    {
        "code": 9301011013,
        "district_code": 930101,
        "regency_code": 9301,
        "province_code": 93,
        "name": "Muli",
        "postal_code": "99608",
        "latitude": -8.521104078365262,
        "longitude": 140.41318273666698
    },
    {
        "code": 9301012001,
        "district_code": 930101,
        "regency_code": 9301,
        "province_code": 93,
        "name": "Nasem",
        "postal_code": "99618",
        "latitude": -8.57006227646356,
        "longitude": 140.57935421768545
    },
    {
        "code": 9301012008,
        "district_code": 930101,
        "regency_code": 9301,
        "province_code": 93,
        "name": "Wasur",
        "postal_code": "99611",
        "latitude": -8.476079009577488,
        "longitude": 140.59645660121728
    },
    {
        "code": 9301012014,
        "district_code": 930101,
        "regency_code": 9301,
        "province_code": 93,
        "name": "Bokem",
        "postal_code": "99604",
        "latitude": -8.576615306887962,
        "longitude": 140.4722544230136
    },
    {
        "code": 9301012015,
        "district_code": 930101,
        "regency_code": 9301,
        "province_code": 93,
        "name": "Buti",
        "postal_code": "99605",
        "latitude": -8.534146939103092,
        "longitude": 140.41063381024065
    },
    {
        "code": 9301012016,
        "district_code": 930101,
        "regency_code": 9301,
        "province_code": 93,
        "name": "Nggolar",
        "postal_code": "99609",
        "latitude": -8.476385930245394,
        "longitude": 140.4817925892379
    },
    {
        "code": 9301022001,
        "district_code": 930102,
        "regency_code": 9301,
        "province_code": 93,
        "name": "Muting",
        "postal_code": "99634",
        "latitude": -7.311151326117146,
        "longitude": 140.58470566327208
    },
    {
        "code": 9301022002,
        "district_code": 930102,
        "regency_code": 9301,
        "province_code": 93,
        "name": "Boha",
        "postal_code": "99634",
        "latitude": -7.314690449260124,
        "longitude": 140.4327629519655
    },
    {
        "code": 9301022003,
        "district_code": 930102,
        "regency_code": 9301,
        "province_code": 93,
        "name": "Wan",
        "postal_code": "99634",
        "latitude": -7.4851265036545165,
        "longitude": 140.38718226518245
    },
    {
        "code": 9301022004,
        "district_code": 930102,
        "regency_code": 9301,
        "province_code": 93,
        "name": "Kolam",
        "postal_code": "99634",
        "latitude": -7.353156777204672,
        "longitude": 140.40093073501214
    },
    {
        "code": 9301022005,
        "district_code": 930102,
        "regency_code": 9301,
        "province_code": 93,
        "name": "Selauw",
        "postal_code": "99634",
        "latitude": -7.29797518912287,
        "longitude": 140.24581426780554
    },
    {
        "code": 9301022006,
        "district_code": 930102,
        "regency_code": 9301,
        "province_code": 93,
        "name": "Pachas",
        "postal_code": "99634",
        "latitude": -7.233012767684816,
        "longitude": 140.43634156107697
    },
    {
        "code": 9301022007,
        "district_code": 930102,
        "regency_code": 9301,
        "province_code": 93,
        "name": "Seed Agung",
        "postal_code": "99634",
        "latitude": -7.402669194230305,
        "longitude": 140.60043297283394
    },
    {
        "code": 9301022008,
        "district_code": 930102,
        "regency_code": 9301,
        "province_code": 93,
        "name": "Enggol Jaya",
        "postal_code": "99634",
        "latitude": -7.393455410495724,
        "longitude": 140.52453007896958
    },
    {
        "code": 9301022009,
        "district_code": 930102,
        "regency_code": 9301,
        "province_code": 93,
        "name": "Manway Bop",
        "postal_code": "99634",
        "latitude": -7.4616184702849715,
        "longitude": 140.4953614749105
    },
    {
        "code": 9301022010,
        "district_code": 930102,
        "regency_code": 9301,
        "province_code": 93,
        "name": "Afkab Makmur",
        "postal_code": "99634",
        "latitude": -7.616296059629675,
        "longitude": 140.41550437308166
    },
    {
        "code": 9301022011,
        "district_code": 930102,
        "regency_code": 9301,
        "province_code": 93,
        "name": "Sigabel Jaya",
        "postal_code": "99634",
        "latitude": -7.366908524275374,
        "longitude": 140.5903016960581
    },
    {
        "code": 9301022012,
        "district_code": 930102,
        "regency_code": 9301,
        "province_code": 93,
        "name": "Andaito",
        "postal_code": "99634",
        "latitude": -7.418800479546062,
        "longitude": 140.49711145844984
    },
    {
        "code": 9301032001,
        "district_code": 930103,
        "regency_code": 9301,
        "province_code": 93,
        "name": "Okaba",
        "postal_code": "99638",
        "latitude": -7.9874143734772245,
        "longitude": 139.68656022384883
    },
    {
        "code": 9301032002,
        "district_code": 930103,
        "regency_code": 9301,
        "province_code": 93,
        "name": "Wambi",
        "postal_code": "99638",
        "latitude": -8.098023035548659,
        "longitude": 139.348626419693
    },
    {
        "code": 9301032003,
        "district_code": 930103,
        "regency_code": 9301,
        "province_code": 93,
        "name": "Makaling",
        "postal_code": "99638",
        "latitude": -8.018352492187008,
        "longitude": 139.6495208617048
    },
    {
        "code": 9301032004,
        "district_code": 930103,
        "regency_code": 9301,
        "province_code": 93,
        "name": "Alatep",
        "postal_code": "99638",
        "latitude": -8.0081358418125,
        "longitude": 139.8201623922635
    },
    {
        "code": 9301032005,
        "district_code": 930103,
        "regency_code": 9301,
        "province_code": 93,
        "name": "Iwol",
        "postal_code": "99638",
        "latitude": -8.006320295239279,
        "longitude": 139.5987323555109
    },
    {
        "code": 9301032006,
        "district_code": 930103,
        "regency_code": 9301,
        "province_code": 93,
        "name": "Duf Miraf",
        "postal_code": "99638",
        "latitude": -8.031672241681234,
        "longitude": 139.55117084781187
    },
    {
        "code": 9301032007,
        "district_code": 930103,
        "regency_code": 9301,
        "province_code": 93,
        "name": "Alaku",
        "postal_code": "99638",
        "latitude": -8.011074233040064,
        "longitude": 139.75206294003976
    },
    {
        "code": 9301032008,
        "district_code": 930103,
        "regency_code": 9301,
        "province_code": 93,
        "name": "Sanggase",
        "postal_code": "99638",
        "latitude": -8.042999850723938,
        "longitude": 139.89566911408875
    },
    {
        "code": 9301032009,
        "district_code": 930103,
        "regency_code": 9301,
        "province_code": 93,
        "name": "Es Wambi",
        "postal_code": "99638",
        "latitude": -8.015960185637121,
        "longitude": 139.45850650480045
    },
    {
        "code": 9301042001,
        "district_code": 930104,
        "regency_code": 9301,
        "province_code": 93,
        "name": "Kimaam",
        "postal_code": "99641",
        "latitude": -7.923093810034194,
        "longitude": 138.77455668415624
    },
    {
        "code": 9301042002,
        "district_code": 930104,
        "regency_code": 9301,
        "province_code": 93,
        "name": "Komolom",
        "postal_code": "99641",
        "latitude": -8.297151361689536,
        "longitude": 138.73244478923857
    },
    {
        "code": 9301042003,
        "district_code": 930104,
        "regency_code": 9301,
        "province_code": 93,
        "name": "Kumbis",
        "postal_code": "99641",
        "latitude": -8.050413269785901,
        "longitude": 138.97601048749314
    },
    {
        "code": 9301042004,
        "district_code": 930104,
        "regency_code": 9301,
        "province_code": 93,
        "name": "Kalilam",
        "postal_code": "99641",
        "latitude": -8.047964095899662,
        "longitude": 138.88363796064726
    },
    {
        "code": 9301042005,
        "district_code": 930104,
        "regency_code": 9301,
        "province_code": 93,
        "name": "Teri",
        "postal_code": "99641",
        "latitude": -7.7964930734797955,
        "longitude": 138.76488105714057
    },
    {
        "code": 9301042006,
        "district_code": 930104,
        "regency_code": 9301,
        "province_code": 93,
        "name": "Mambum",
        "postal_code": "99641",
        "latitude": -7.982344445704651,
        "longitude": 138.72200985726556
    },
    {
        "code": 9301042007,
        "district_code": 930104,
        "regency_code": 9301,
        "province_code": 93,
        "name": "Kiworo",
        "postal_code": "99641",
        "latitude": -7.9982447212992716,
        "longitude": 138.87403264510496
    },
    {
        "code": 9301042008,
        "district_code": 930104,
        "regency_code": 9301,
        "province_code": 93,
        "name": "Woner",
        "postal_code": "99641",
        "latitude": -7.995791491883638,
        "longitude": 138.8502197636644
    },
    {
        "code": 9301042009,
        "district_code": 930104,
        "regency_code": 9301,
        "province_code": 93,
        "name": "Deka",
        "postal_code": "99641",
        "latitude": -8.000005616749092,
        "longitude": 138.8462746250621
    },
    {
        "code": 9301042010,
        "district_code": 930104,
        "regency_code": 9301,
        "province_code": 93,
        "name": "Turiram",
        "postal_code": "99641",
        "latitude": -8.10380878776217,
        "longitude": 138.78085096659694
    },
    {
        "code": 9301042011,
        "district_code": 930104,
        "regency_code": 9301,
        "province_code": 93,
        "name": "Purawanderu",
        "postal_code": "99641",
        "latitude": -7.936105555155175,
        "longitude": 138.8733006553847
    },
    {
        "code": 9301042012,
        "district_code": 930104,
        "regency_code": 9301,
        "province_code": 93,
        "name": "Umanderu",
        "postal_code": "99641",
        "latitude": -8.048943650020895,
        "longitude": 138.74836150977745
    },
    {
        "code": 9301042013,
        "district_code": 930104,
        "regency_code": 9301,
        "province_code": 93,
        "name": "Webu",
        "postal_code": "99641",
        "latitude": -8.1444415634327,
        "longitude": 138.4961473968816
    },
    {
        "code": 9301052001,
        "district_code": 930105,
        "regency_code": 9301,
        "province_code": 93,
        "name": "Matara",
        "postal_code": "99631",
        "latitude": -8.369093557778264,
        "longitude": 140.3007979338439
    },
    {
        "code": 9301052002,
        "district_code": 930105,
        "regency_code": 9301,
        "province_code": 93,
        "name": "Waninggap Nanggo",
        "postal_code": "99631",
        "latitude": -8.410257047969365,
        "longitude": 140.33863438979037
    },
    {
        "code": 9301052003,
        "district_code": 930105,
        "regency_code": 9301,
        "province_code": 93,
        "name": "Urumb",
        "postal_code": "99631",
        "latitude": -8.432404107806502,
        "longitude": 140.37341214155555
    },
    {
        "code": 9301052004,
        "district_code": 930105,
        "regency_code": 9301,
        "province_code": 93,
        "name": "Sido Mulyo",
        "postal_code": "99631",
        "latitude": -8.45149741091152,
        "longitude": 140.42106307809604
    },
    {
        "code": 9301052005,
        "district_code": 930105,
        "regency_code": 9301,
        "province_code": 93,
        "name": "Kuprik",
        "postal_code": "99631",
        "latitude": -8.466833421728237,
        "longitude": 140.4349046492971
    },
    {
        "code": 9301052006,
        "district_code": 930105,
        "regency_code": 9301,
        "province_code": 93,
        "name": "Kuper",
        "postal_code": "99631",
        "latitude": -8.460840151842962,
        "longitude": 140.4517811564901
    },
    {
        "code": 9301052007,
        "district_code": 930105,
        "regency_code": 9301,
        "province_code": 93,
        "name": "Semangga Jaya",
        "postal_code": "99631",
        "latitude": -8.43002969484343,
        "longitude": 140.4374164805645
    },
    {
        "code": 9301052008,
        "district_code": 930105,
        "regency_code": 9301,
        "province_code": 93,
        "name": "Marga Mulya",
        "postal_code": "99631",
        "latitude": -8.408453574097399,
        "longitude": 140.4704040393705
    },
    {
        "code": 9301052009,
        "district_code": 930105,
        "regency_code": 9301,
        "province_code": 93,
        "name": "Muram Sari",
        "postal_code": "99631",
        "latitude": -8.362267053594282,
        "longitude": 140.3697491996376
    },
    {
        "code": 9301052010,
        "district_code": 930105,
        "regency_code": 9301,
        "province_code": 93,
        "name": "Waninggap Kai",
        "postal_code": "99631",
        "latitude": -8.347909342156692,
        "longitude": 140.4062533099376
    },
    {
        "code": 9301062001,
        "district_code": 930106,
        "regency_code": 9301,
        "province_code": 93,
        "name": "Yasa Mulya",
        "postal_code": "99632",
        "latitude": -8.38293750804818,
        "longitude": 140.49942827577365
    },
    {
        "code": 9301062002,
        "district_code": 930106,
        "regency_code": 9301,
        "province_code": 93,
        "name": "Sumber Harapan",
        "postal_code": "99632",
        "latitude": -8.359134974656017,
        "longitude": 140.46868992771786
    },
    {
        "code": 9301062003,
        "district_code": 930106,
        "regency_code": 9301,
        "province_code": 93,
        "name": "Waninggap Say",
        "postal_code": "99632",
        "latitude": -8.353993905917944,
        "longitude": 140.51071466749386
    },
    {
        "code": 9301062004,
        "district_code": 930106,
        "regency_code": 9301,
        "province_code": 93,
        "name": "Amun Kay",
        "postal_code": "99632",
        "latitude": -8.174744080142682,
        "longitude": 140.57432540697133
    },
    {
        "code": 9301062005,
        "district_code": 930106,
        "regency_code": 9301,
        "province_code": 93,
        "name": "Hidup Baru",
        "postal_code": "99632",
        "latitude": -8.353465576193912,
        "longitude": 140.54245610236794
    },
    {
        "code": 9301062006,
        "district_code": 930106,
        "regency_code": 9301,
        "province_code": 93,
        "name": "Sarmayam Indah",
        "postal_code": "99632",
        "latitude": -8.280371540574373,
        "longitude": 140.63877332970205
    },
    {
        "code": 9301062007,
        "district_code": 930106,
        "regency_code": 9301,
        "province_code": 93,
        "name": "Ngguti Bob",
        "postal_code": "99632",
        "latitude": -8.277266477056317,
        "longitude": 140.694418952333
    },
    {
        "code": 9301062008,
        "district_code": 930106,
        "regency_code": 9301,
        "province_code": 93,
        "name": "Waninggap Miraf",
        "postal_code": "99632",
        "latitude": -8.335114748839443,
        "longitude": 140.48774870388775
    },
    {
        "code": 9301062009,
        "district_code": 930106,
        "regency_code": 9301,
        "province_code": 93,
        "name": "Isano Mbias",
        "postal_code": "99632",
        "latitude": -8.311911390693913,
        "longitude": 140.43067681831786
    },
    {
        "code": 9301062010,
        "district_code": 930106,
        "regency_code": 9301,
        "province_code": 93,
        "name": "Yaba Maru",
        "postal_code": "99632",
        "latitude": -8.213620568783117,
        "longitude": 140.47746036756615
    },
    {
        "code": 9301062011,
        "district_code": 930106,
        "regency_code": 9301,
        "province_code": 93,
        "name": "Soa",
        "postal_code": "99632",
        "latitude": -8.304470833785567,
        "longitude": 140.72312126978622
    },
    {
        "code": 9301062012,
        "district_code": 930106,
        "regency_code": 9301,
        "province_code": 93,
        "name": "Tambat",
        "postal_code": "99632",
        "latitude": -8.374640324291178,
        "longitude": 140.64052148941363
    },
    {
        "code": 9301062013,
        "district_code": 930106,
        "regency_code": 9301,
        "province_code": 93,
        "name": "Bersehati",
        "postal_code": "99632",
        "latitude": -8.283718556530303,
        "longitude": 140.78018409325415
    },
    {
        "code": 9301062014,
        "district_code": 930106,
        "regency_code": 9301,
        "province_code": 93,
        "name": "Kamangi",
        "postal_code": "99632",
        "latitude": -8.397718435653013,
        "longitude": 140.52328083117385
    },
    {
        "code": 9301072001,
        "district_code": 930107,
        "regency_code": 9301,
        "province_code": 93,
        "name": "Kartini",
        "postal_code": "99645",
        "latitude": -8.054509263175763,
        "longitude": 140.67416146513705
    },
    {
        "code": 9301072002,
        "district_code": 930107,
        "regency_code": 9301,
        "province_code": 93,
        "name": "Makarti Jaya",
        "postal_code": "99645",
        "latitude": -8.014546179944821,
        "longitude": 140.69420973995042
    },
    {
        "code": 9301072003,
        "district_code": 930107,
        "regency_code": 9301,
        "province_code": 93,
        "name": "Nalkin",
        "postal_code": "99645",
        "latitude": -7.969385856888395,
        "longitude": 140.76148011639754
    },
    {
        "code": 9301072004,
        "district_code": 930107,
        "regency_code": 9301,
        "province_code": 93,
        "name": "Angger Permegi",
        "postal_code": "99645",
        "latitude": -8.074047474165479,
        "longitude": 140.7735928904611
    },
    {
        "code": 9301072005,
        "district_code": 930107,
        "regency_code": 9301,
        "province_code": 93,
        "name": "Poo",
        "postal_code": "99645",
        "latitude": -8.078075446999376,
        "longitude": 140.88925483133085
    },
    {
        "code": 9301072006,
        "district_code": 930107,
        "regency_code": 9301,
        "province_code": 93,
        "name": "Mimi Baru",
        "postal_code": "99645",
        "latitude": -8.152416268448091,
        "longitude": 140.77975862839517
    },
    {
        "code": 9301072007,
        "district_code": 930107,
        "regency_code": 9301,
        "province_code": 93,
        "name": "Kamno Sari",
        "postal_code": "99645",
        "latitude": -8.192536252522821,
        "longitude": 140.79315876683012
    },
    {
        "code": 9301072008,
        "district_code": 930107,
        "regency_code": 9301,
        "province_code": 93,
        "name": "Blandin Kakayo",
        "postal_code": "99645",
        "latitude": -7.884698005529639,
        "longitude": 140.71636316654886
    },
    {
        "code": 9301072009,
        "district_code": 930107,
        "regency_code": 9301,
        "province_code": 93,
        "name": "Gurinda Jaya",
        "postal_code": "99645",
        "latitude": -8.19161302398227,
        "longitude": 140.75389911111765
    },
    {
        "code": 9301072010,
        "district_code": 930107,
        "regency_code": 9301,
        "province_code": 93,
        "name": "Jagebob Raya",
        "postal_code": "99645",
        "latitude": -8.151043418629417,
        "longitude": 140.68383179741127
    },
    {
        "code": 9301072011,
        "district_code": 930107,
        "regency_code": 9301,
        "province_code": 93,
        "name": "Wenda Asri",
        "postal_code": "99645",
        "latitude": -8.223861061066552,
        "longitude": 140.70233991303223
    },
    {
        "code": 9301072012,
        "district_code": 930107,
        "regency_code": 9301,
        "province_code": 93,
        "name": "Melin Megikar",
        "postal_code": "99645",
        "latitude": -7.770969198393155,
        "longitude": 140.6967957532923
    },
    {
        "code": 9301072013,
        "district_code": 930107,
        "regency_code": 9301,
        "province_code": 93,
        "name": "Obaat Throw",
        "postal_code": "99645",
        "latitude": -8.227041975406522,
        "longitude": 140.78479814638936
    },
    {
        "code": 9301072014,
        "district_code": 930107,
        "regency_code": 9301,
        "province_code": 93,
        "name": "Yemunain Jaya",
        "postal_code": "99645",
        "latitude": -7.820767935488587,
        "longitude": 140.7068522517252
    },
    {
        "code": 9301082001,
        "district_code": 930108,
        "regency_code": 9301,
        "province_code": 93,
        "name": "Sota",
        "postal_code": "99648",
        "latitude": -8.397746047720902,
        "longitude": 140.89186426056506
    },
    {
        "code": 9301082002,
        "district_code": 930108,
        "regency_code": 9301,
        "province_code": 93,
        "name": "Yanggandur",
        "postal_code": "99648",
        "latitude": -8.547911964844904,
        "longitude": 140.848898597191
    },
    {
        "code": 9301082003,
        "district_code": 930108,
        "regency_code": 9301,
        "province_code": 93,
        "name": "Rawa Biru",
        "postal_code": "99648",
        "latitude": -8.637089196671424,
        "longitude": 140.86843101603668
    },
    {
        "code": 9301082004,
        "district_code": 930108,
        "regency_code": 9301,
        "province_code": 93,
        "name": "Toray",
        "postal_code": "99648",
        "latitude": -7.876387796510273,
        "longitude": 140.9481738038215
    },
    {
        "code": 9301082005,
        "district_code": 930108,
        "regency_code": 9301,
        "province_code": 93,
        "name": "Erambu",
        "postal_code": "99648",
        "latitude": -8.178466591845064,
        "longitude": 140.92189896760092
    },
    {
        "code": 9301092001,
        "district_code": 930109,
        "regency_code": 9301,
        "province_code": 93,
        "name": "Selil",
        "postal_code": "99635",
        "latitude": -7.003919663230785,
        "longitude": 140.60029696331364
    },
    {
        "code": 9301092002,
        "district_code": 930109,
        "regency_code": 9301,
        "province_code": 93,
        "name": "Kindiki",
        "postal_code": "99635",
        "latitude": -7.235097488024998,
        "longitude": 140.79646157897292
    },
    {
        "code": 9301092003,
        "district_code": 930109,
        "regency_code": 9301,
        "province_code": 93,
        "name": "Kumaaf",
        "postal_code": "99635",
        "latitude": -7.387210817290175,
        "longitude": 140.6643590760556
    },
    {
        "code": 9301092004,
        "district_code": 930109,
        "regency_code": 9301,
        "province_code": 93,
        "name": "Nggayu",
        "postal_code": "99635",
        "latitude": -7.290642874454578,
        "longitude": 140.6490491022513
    },
    {
        "code": 9301092005,
        "district_code": 930109,
        "regency_code": 9301,
        "province_code": 93,
        "name": "Kafyamke",
        "postal_code": "99635",
        "latitude": -7.282160006465839,
        "longitude": 140.6941483089673
    },
    {
        "code": 9301092006,
        "district_code": 930109,
        "regency_code": 9301,
        "province_code": 93,
        "name": "Mandekman",
        "postal_code": "99635",
        "latitude": -7.268134695649389,
        "longitude": 140.7771522702061
    },
    {
        "code": 9301092007,
        "district_code": 930109,
        "regency_code": 9301,
        "province_code": 93,
        "name": "Rawahayu",
        "postal_code": "99635",
        "latitude": -7.223438844325823,
        "longitude": 140.6768472944928
    },
    {
        "code": 9301092008,
        "district_code": 930109,
        "regency_code": 9301,
        "province_code": 93,
        "name": "Belbeland",
        "postal_code": "99635",
        "latitude": -7.311550202861895,
        "longitude": 140.77097655772286
    },
    {
        "code": 9301092009,
        "district_code": 930109,
        "regency_code": 9301,
        "province_code": 93,
        "name": "Kir-ely",
        "postal_code": "99635",
        "latitude": -7.337574937804009,
        "longitude": 140.90474845049857
    },
    {
        "code": 9301092010,
        "district_code": 930109,
        "regency_code": 9301,
        "province_code": 93,
        "name": "Kandrakay",
        "postal_code": "99635",
        "latitude": -7.087455710894976,
        "longitude": 140.93008075211992
    },
    {
        "code": 9301092011,
        "district_code": 930109,
        "regency_code": 9301,
        "province_code": 93,
        "name": "Baidub",
        "postal_code": "99635",
        "latitude": -7.297844269984001,
        "longitude": 140.83497365591458
    },
    {
        "code": 9301102001,
        "district_code": 930110,
        "regency_code": 9301,
        "province_code": 93,
        "name": "Bupul",
        "postal_code": "99633",
        "latitude": -7.487813457450609,
        "longitude": 140.92706592006397
    },
    {
        "code": 9301102002,
        "district_code": 930110,
        "regency_code": 9301,
        "province_code": 93,
        "name": "Tanas",
        "postal_code": "99633",
        "latitude": -7.649152878750657,
        "longitude": 140.68608836142664
    },
    {
        "code": 9301102003,
        "district_code": 930110,
        "regency_code": 9301,
        "province_code": 93,
        "name": "Kweel",
        "postal_code": "99633",
        "latitude": -7.670780495189694,
        "longitude": 140.93988352115898
    },
    {
        "code": 9301102004,
        "district_code": 930110,
        "regency_code": 9301,
        "province_code": 93,
        "name": "Sipias",
        "postal_code": "99633",
        "latitude": -7.50902547906323,
        "longitude": 140.76197222635776
    },
    {
        "code": 9301102005,
        "district_code": 930110,
        "regency_code": 9301,
        "province_code": 93,
        "name": "Metaat Makmur",
        "postal_code": "99633",
        "latitude": -7.44784025077984,
        "longitude": 140.80674057704084
    },
    {
        "code": 9301102006,
        "district_code": 930110,
        "regency_code": 9301,
        "province_code": 93,
        "name": "Enggal Jaya",
        "postal_code": "99633",
        "latitude": -7.476172644799102,
        "longitude": 140.71255453734963
    },
    {
        "code": 9301102007,
        "district_code": 930110,
        "regency_code": 9301,
        "province_code": 93,
        "name": "Gerisar",
        "postal_code": "99633",
        "latitude": -7.389137971835265,
        "longitude": 140.84610229618846
    },
    {
        "code": 9301102008,
        "district_code": 930110,
        "regency_code": 9301,
        "province_code": 93,
        "name": "Bupul Indah",
        "postal_code": "99633",
        "latitude": -7.39786588518218,
        "longitude": 140.73048499674772
    },
    {
        "code": 9301102009,
        "district_code": 930110,
        "regency_code": 9301,
        "province_code": 93,
        "name": "Tof-Tof",
        "postal_code": "99633",
        "latitude": -7.345891747039766,
        "longitude": 140.7367885488641
    },
    {
        "code": 9301102010,
        "district_code": 930110,
        "regency_code": 9301,
        "province_code": 93,
        "name": "Bunggay",
        "postal_code": "99633",
        "latitude": -7.3583738508656555,
        "longitude": 140.70670981002908
    },
    {
        "code": 9301102011,
        "district_code": 930110,
        "regency_code": 9301,
        "province_code": 93,
        "name": "Bouwer",
        "postal_code": "99633",
        "latitude": -7.486967986791403,
        "longitude": 140.62438758496126
    },
    {
        "code": 9301102012,
        "district_code": 930110,
        "regency_code": 9301,
        "province_code": 93,
        "name": "Bumun",
        "postal_code": "99633",
        "latitude": -7.363241942194813,
        "longitude": 140.7906194565548
    },
    {
        "code": 9301112001,
        "district_code": 930111,
        "regency_code": 9301,
        "province_code": 93,
        "name": "Harapan Makmur",
        "postal_code": "99646",
        "latitude": -8.260547402475328,
        "longitude": 140.3164592271777
    },
    {
        "code": 9301112002,
        "district_code": 930111,
        "regency_code": 9301,
        "province_code": 93,
        "name": "Kurik",
        "postal_code": "99646",
        "latitude": -8.287395780878827,
        "longitude": 140.26207259114386
    },
    {
        "code": 9301112003,
        "district_code": 930111,
        "regency_code": 9301,
        "province_code": 93,
        "name": "Telaga Sari",
        "postal_code": "99646",
        "latitude": -8.254534286098677,
        "longitude": 140.40215181909423
    },
    {
        "code": 9301112004,
        "district_code": 930111,
        "regency_code": 9301,
        "province_code": 93,
        "name": "Sumber Rejeki",
        "postal_code": "99646",
        "latitude": -8.130128887879712,
        "longitude": 140.38072636160868
    },
    {
        "code": 9301112005,
        "district_code": 930111,
        "regency_code": 9301,
        "province_code": 93,
        "name": "Jaya Makmur",
        "postal_code": "99646",
        "latitude": -8.249792184155682,
        "longitude": 140.2480859994718
    },
    {
        "code": 9301112006,
        "district_code": 930111,
        "regency_code": 9301,
        "province_code": 93,
        "name": "Sumber Mulya",
        "postal_code": "99646",
        "latitude": -8.216055301587534,
        "longitude": 140.21651120810685
    },
    {
        "code": 9301112007,
        "district_code": 930111,
        "regency_code": 9301,
        "province_code": 93,
        "name": "Kaliki",
        "postal_code": "99646",
        "latitude": -8.13257097802247,
        "longitude": 140.25008696406957
    },
    {
        "code": 9301112008,
        "district_code": 930111,
        "regency_code": 9301,
        "province_code": 93,
        "name": "Ivimahad",
        "postal_code": "99646",
        "latitude": -8.294356232954172,
        "longitude": 140.35738966207953
    },
    {
        "code": 9301112009,
        "district_code": 930111,
        "regency_code": 9301,
        "province_code": 93,
        "name": "Salor Indah",
        "postal_code": "99646",
        "latitude": -8.247169355830193,
        "longitude": 140.36113204827151
    },
    {
        "code": 9301112010,
        "district_code": 930111,
        "regency_code": 9301,
        "province_code": 93,
        "name": "Candra Jaya",
        "postal_code": "99646",
        "latitude": -8.295092739714564,
        "longitude": 140.29338908588954
    },
    {
        "code": 9301112011,
        "district_code": 930111,
        "regency_code": 9301,
        "province_code": 93,
        "name": "Wonorejo",
        "postal_code": "99646",
        "latitude": -8.310666363783838,
        "longitude": 140.28349164120777
    },
    {
        "code": 9301112012,
        "district_code": 930111,
        "regency_code": 9301,
        "province_code": 93,
        "name": "Anum Bob",
        "postal_code": "99646",
        "latitude": -8.255969497869188,
        "longitude": 140.2814571546852
    },
    {
        "code": 9301112013,
        "district_code": 930111,
        "regency_code": 9301,
        "province_code": 93,
        "name": "Wapeko",
        "postal_code": "99646",
        "latitude": -8.174507153749756,
        "longitude": 140.41152100263713
    },
    {
        "code": 9301122001,
        "district_code": 930112,
        "regency_code": 9301,
        "province_code": 93,
        "name": "Kuler",
        "postal_code": "99621",
        "latitude": -8.630069751575713,
        "longitude": 140.61205990941116
    },
    {
        "code": 9301122002,
        "district_code": 930112,
        "regency_code": 9301,
        "province_code": 93,
        "name": "Onggaya",
        "postal_code": "99621",
        "latitude": -8.696200389716692,
        "longitude": 140.63519142450883
    },
    {
        "code": 9301122003,
        "district_code": 930112,
        "regency_code": 9301,
        "province_code": 93,
        "name": "Tomer",
        "postal_code": "99621",
        "latitude": -8.749067212810658,
        "longitude": 140.72540651535166
    },
    {
        "code": 9301122004,
        "district_code": 930112,
        "regency_code": 9301,
        "province_code": 93,
        "name": "Tomerau",
        "postal_code": "99621",
        "latitude": -8.79448224250233,
        "longitude": 140.84099896817742
    },
    {
        "code": 9301122005,
        "district_code": 930112,
        "regency_code": 9301,
        "province_code": 93,
        "name": "Kondo",
        "postal_code": "99621",
        "latitude": -8.937902435122837,
        "longitude": 140.92133006425797
    },
    {
        "code": 9301132001,
        "district_code": 930113,
        "regency_code": 9301,
        "province_code": 93,
        "name": "Koa",
        "postal_code": "99644",
        "latitude": -7.914969410751107,
        "longitude": 140.51027096756482
    },
    {
        "code": 9301132002,
        "district_code": 930113,
        "regency_code": 9301,
        "province_code": 93,
        "name": "Baad",
        "postal_code": "99644",
        "latitude": -8.036262288196264,
        "longitude": 140.51304596730046
    },
    {
        "code": 9301132003,
        "district_code": 930113,
        "regency_code": 9301,
        "province_code": 93,
        "name": "Senegi",
        "postal_code": "99644",
        "latitude": -7.973311981158179,
        "longitude": 140.23369969389486
    },
    {
        "code": 9301132004,
        "district_code": 930113,
        "regency_code": 9301,
        "province_code": 93,
        "name": "Wayau",
        "postal_code": "99644",
        "latitude": -7.953797409911432,
        "longitude": 140.44035110872298
    },
    {
        "code": 9301132005,
        "district_code": 930113,
        "regency_code": 9301,
        "province_code": 93,
        "name": "Kaisah",
        "postal_code": "99644",
        "latitude": -7.802998527427827,
        "longitude": 140.38960730614292
    },
    {
        "code": 9301142001,
        "district_code": 930114,
        "regency_code": 9301,
        "province_code": 93,
        "name": "Kumbe",
        "postal_code": "99647",
        "latitude": -8.340425579634221,
        "longitude": 140.245886600103
    },
    {
        "code": 9301142002,
        "district_code": 930114,
        "regency_code": 9301,
        "province_code": 93,
        "name": "Onggari",
        "postal_code": "99647",
        "latitude": -8.256675121865893,
        "longitude": 140.13516755173168
    },
    {
        "code": 9301142003,
        "district_code": 930114,
        "regency_code": 9301,
        "province_code": 93,
        "name": "Rawa Sari",
        "postal_code": "99647",
        "latitude": -8.307383832867162,
        "longitude": 140.24666292770874
    },
    {
        "code": 9301142004,
        "district_code": 930114,
        "regency_code": 9301,
        "province_code": 93,
        "name": "Padang Raharja",
        "postal_code": "99647",
        "latitude": -8.282454423256578,
        "longitude": 140.22288856794484
    },
    {
        "code": 9301142005,
        "district_code": 930114,
        "regency_code": 9301,
        "province_code": 93,
        "name": "Kaiburse",
        "postal_code": "99647",
        "latitude": -8.328247041543348,
        "longitude": 140.19436370275417
    },
    {
        "code": 9301142006,
        "district_code": 930114,
        "regency_code": 9301,
        "province_code": 93,
        "name": "Domande",
        "postal_code": "99647",
        "latitude": -8.150751285213106,
        "longitude": 140.0603054371765
    },
    {
        "code": 9301142007,
        "district_code": 930114,
        "regency_code": 9301,
        "province_code": 93,
        "name": "Suka Maju",
        "postal_code": "99647",
        "latitude": -8.251316327820973,
        "longitude": 140.20391189496496
    },
    {
        "code": 9301152001,
        "district_code": 930115,
        "regency_code": 9301,
        "province_code": 93,
        "name": "Yowied",
        "postal_code": "99639",
        "latitude": -8.069535768927619,
        "longitude": 139.16419413610686
    },
    {
        "code": 9301152002,
        "district_code": 930115,
        "regency_code": 9301,
        "province_code": 93,
        "name": "Dokib",
        "postal_code": "99639",
        "latitude": -8.07668285001277,
        "longitude": 139.09975812631117
    },
    {
        "code": 9301152003,
        "district_code": 930115,
        "regency_code": 9301,
        "province_code": 93,
        "name": "Wamal",
        "postal_code": "99639",
        "latitude": -8.15706757793253,
        "longitude": 139.00571042632657
    },
    {
        "code": 9301152004,
        "district_code": 930115,
        "regency_code": 9301,
        "province_code": 93,
        "name": "Dodalim",
        "postal_code": "99639",
        "latitude": -7.998831214012487,
        "longitude": 139.16499935569598
    },
    {
        "code": 9301152005,
        "district_code": 930115,
        "regency_code": 9301,
        "province_code": 93,
        "name": "Woboyo",
        "postal_code": "99639",
        "latitude": -7.8779635848078735,
        "longitude": 139.1897907895986
    },
    {
        "code": 9301152006,
        "district_code": 930115,
        "regency_code": 9301,
        "province_code": 93,
        "name": "Welbuti",
        "postal_code": "99639",
        "latitude": -7.768431357208883,
        "longitude": 139.36799861087806
    },
    {
        "code": 9301162001,
        "district_code": 930116,
        "regency_code": 9301,
        "province_code": 93,
        "name": "Po-Epe",
        "postal_code": "99637",
        "latitude": -7.675241528820119,
        "longitude": 139.67412194716832
    },
    {
        "code": 9301162002,
        "district_code": 930116,
        "regency_code": 9301,
        "province_code": 93,
        "name": "Yawimu",
        "postal_code": "99637",
        "latitude": -7.812123218975571,
        "longitude": 139.7043067232057
    },
    {
        "code": 9301162003,
        "district_code": 930116,
        "regency_code": 9301,
        "province_code": 93,
        "name": "Taga Epe",
        "postal_code": "99637",
        "latitude": -7.530219229086643,
        "longitude": 139.75706828213572
    },
    {
        "code": 9301162004,
        "district_code": 930116,
        "regency_code": 9301,
        "province_code": 93,
        "name": "Nakias",
        "postal_code": "99637",
        "latitude": -7.5451990555709205,
        "longitude": 139.57429813551533
    },
    {
        "code": 9301162005,
        "district_code": 930116,
        "regency_code": 9301,
        "province_code": 93,
        "name": "Salam Epe",
        "postal_code": "99637",
        "latitude": -7.435510805905526,
        "longitude": 139.4698514835828
    },
    {
        "code": 9301162006,
        "district_code": 930116,
        "regency_code": 9301,
        "province_code": 93,
        "name": "Yomop",
        "postal_code": "99637",
        "latitude": -7.8153976512380225,
        "longitude": 139.60119837788096
    },
    {
        "code": 9301172001,
        "district_code": 930117,
        "regency_code": 9301,
        "province_code": 93,
        "name": "Kwemsid",
        "postal_code": "99636",
        "latitude": -7.885288665188265,
        "longitude": 139.88792599541972
    },
    {
        "code": 9301172002,
        "district_code": 930117,
        "regency_code": 9301,
        "province_code": 93,
        "name": "Kaptel",
        "postal_code": "99636",
        "latitude": -7.480378423474521,
        "longitude": 140.14750141010325
    },
    {
        "code": 9301172003,
        "district_code": 930117,
        "regency_code": 9301,
        "province_code": 93,
        "name": "Kaniskobat",
        "postal_code": "99636",
        "latitude": -7.672819940194258,
        "longitude": 139.9831831442468
    },
    {
        "code": 9301172004,
        "district_code": 930117,
        "regency_code": 9301,
        "province_code": 93,
        "name": "Ihalik",
        "postal_code": "99636",
        "latitude": -7.478380359132791,
        "longitude": 140.01163956844468
    },
    {
        "code": 9301172005,
        "district_code": 930117,
        "regency_code": 9301,
        "province_code": 93,
        "name": "Bu Epe",
        "postal_code": "99636",
        "latitude": -7.910331203389207,
        "longitude": 140.04936304745306
    },
    {
        "code": 9301182001,
        "district_code": 930118,
        "regency_code": 9301,
        "province_code": 93,
        "name": "Tabonji",
        "postal_code": "99642",
        "latitude": -7.468228332111163,
        "longitude": 138.819418150492
    },
    {
        "code": 9301182002,
        "district_code": 930118,
        "regency_code": 9301,
        "province_code": 93,
        "name": "Wanggambi",
        "postal_code": "99642",
        "latitude": -7.789358469901665,
        "longitude": 138.47609762114314
    },
    {
        "code": 9301182003,
        "district_code": 930118,
        "regency_code": 9301,
        "province_code": 93,
        "name": "Suam",
        "postal_code": "99642",
        "latitude": -7.400171902050261,
        "longitude": 138.7114364684814
    },
    {
        "code": 9301182004,
        "district_code": 930118,
        "regency_code": 9301,
        "province_code": 93,
        "name": "Yamuka",
        "postal_code": "99642",
        "latitude": -7.41222373354132,
        "longitude": 138.60724799522615
    },
    {
        "code": 9301182005,
        "district_code": 930118,
        "regency_code": 9301,
        "province_code": 93,
        "name": "Iromoro",
        "postal_code": "99642",
        "latitude": -7.4772506425730345,
        "longitude": 138.53011144205527
    },
    {
        "code": 9301182006,
        "district_code": 930118,
        "regency_code": 9301,
        "province_code": 93,
        "name": "Konjombando",
        "postal_code": "99642",
        "latitude": -7.555338470143037,
        "longitude": 138.42625023451743
    },
    {
        "code": 9301182007,
        "district_code": 930118,
        "regency_code": 9301,
        "province_code": 93,
        "name": "Yeraha",
        "postal_code": "99642",
        "latitude": -7.6584468505685495,
        "longitude": 138.23942179527418
    },
    {
        "code": 9301192001,
        "district_code": 930119,
        "regency_code": 9301,
        "province_code": 93,
        "name": "Konorau",
        "postal_code": "99643",
        "latitude": -8.326703700051372,
        "longitude": 138.1248072910943
    },
    {
        "code": 9301192002,
        "district_code": 930119,
        "regency_code": 9301,
        "province_code": 93,
        "name": "Waan",
        "postal_code": "99643",
        "latitude": -8.326958047708235,
        "longitude": 137.94839452647898
    },
    {
        "code": 9301192003,
        "district_code": 930119,
        "regency_code": 9301,
        "province_code": 93,
        "name": "Toor",
        "postal_code": "99643",
        "latitude": -8.29358388614832,
        "longitude": 137.84007297225435
    },
    {
        "code": 9301192004,
        "district_code": 930119,
        "regency_code": 9301,
        "province_code": 93,
        "name": "Kladar",
        "postal_code": "99643",
        "latitude": -8.405608488954451,
        "longitude": 137.68002641390189
    },
    {
        "code": 9301192005,
        "district_code": 930119,
        "regency_code": 9301,
        "province_code": 93,
        "name": "Sabon",
        "postal_code": "99643",
        "latitude": -8.279220636949514,
        "longitude": 137.7185799331278
    },
    {
        "code": 9301192006,
        "district_code": 930119,
        "regency_code": 9301,
        "province_code": 93,
        "name": "Dafnawanga",
        "postal_code": "99643",
        "latitude": -8.133275532625456,
        "longitude": 137.78694239725917
    },
    {
        "code": 9301202001,
        "district_code": 930120,
        "regency_code": 9301,
        "province_code": 93,
        "name": "Wanam",
        "postal_code": "99640",
        "latitude": -7.35344002973499,
        "longitude": 139.08741346357783
    },
    {
        "code": 9301202002,
        "district_code": 930120,
        "regency_code": 9301,
        "province_code": 93,
        "name": "Bibikem",
        "postal_code": "99640",
        "latitude": -7.831524289253746,
        "longitude": 139.08499913014285
    },
    {
        "code": 9301202003,
        "district_code": 930120,
        "regency_code": 9301,
        "province_code": 93,
        "name": "Wogekel",
        "postal_code": "99640",
        "latitude": -7.516015320029837,
        "longitude": 139.1166453787149
    },
    {
        "code": 9301202004,
        "district_code": 930120,
        "regency_code": 9301,
        "province_code": 93,
        "name": "Uli Uli",
        "postal_code": "99640",
        "latitude": -7.620462878993274,
        "longitude": 139.1808583420107
    },
    {
        "code": 9301212001,
        "district_code": 930121,
        "regency_code": 9301,
        "province_code": 93,
        "name": "Sabudom",
        "postal_code": "99641",
        "latitude": -7.849274365728614,
        "longitude": 138.90524256424044
    },
    {
        "code": 9301212002,
        "district_code": 930121,
        "regency_code": 9301,
        "province_code": 93,
        "name": "Padua",
        "postal_code": "99640",
        "latitude": -7.566479377879164,
        "longitude": 138.9208694142816
    },
    {
        "code": 9301212003,
        "district_code": 930121,
        "regency_code": 9301,
        "province_code": 93,
        "name": "Sigad",
        "postal_code": "99640",
        "latitude": -7.687206970262964,
        "longitude": 138.96453649044003
    },
    {
        "code": 9301212004,
        "district_code": 930121,
        "regency_code": 9301,
        "province_code": 93,
        "name": "Bamol I",
        "postal_code": "99642",
        "latitude": -7.62906993509162,
        "longitude": 138.69344545834005
    },
    {
        "code": 9301212005,
        "district_code": 930121,
        "regency_code": 9301,
        "province_code": 93,
        "name": "Bamol II",
        "postal_code": "99642",
        "latitude": -7.525922110706127,
        "longitude": 138.76980636280294
    },
    {
        "code": 9301222001,
        "district_code": 930122,
        "regency_code": 9301,
        "province_code": 93,
        "name": "Kawe",
        "postal_code": "99643",
        "latitude": -7.82259406622172,
        "longitude": 138.08383284443192
    },
    {
        "code": 9301222002,
        "district_code": 930122,
        "regency_code": 9301,
        "province_code": 93,
        "name": "Wetau",
        "postal_code": "99643",
        "latitude": -7.991266170537424,
        "longitude": 137.93941923898464
    },
    {
        "code": 9301222003,
        "district_code": 930122,
        "regency_code": 9301,
        "province_code": 93,
        "name": "Pembri",
        "postal_code": "99643",
        "latitude": -7.887628538312579,
        "longitude": 137.96110585508904
    },
    {
        "code": 9301222004,
        "district_code": 930122,
        "regency_code": 9301,
        "province_code": 93,
        "name": "Sibenda",
        "postal_code": "99643",
        "latitude": -8.037732316164263,
        "longitude": 138.30573254351975
    },
    {
        "code": 9301222005,
        "district_code": 930122,
        "regency_code": 9301,
        "province_code": 93,
        "name": "Wantarma",
        "postal_code": "99643",
        "latitude": -8.157058715353719,
        "longitude": 138.0805703054712
    },
    {
        "code": 9302012001,
        "district_code": 930201,
        "regency_code": 9302,
        "province_code": 93,
        "name": "Ampera",
        "postal_code": null,
        "latitude": -6.161734020973517,
        "longitude": 140.16801845635584
    },
    {
        "code": 9302012002,
        "district_code": 930201,
        "regency_code": 9302,
        "province_code": 93,
        "name": "Sokanggo",
        "postal_code": null,
        "latitude": -6.078156715422837,
        "longitude": 140.29331836297675
    },
    {
        "code": 9302012003,
        "district_code": 930201,
        "regency_code": 9302,
        "province_code": 93,
        "name": "Persatuan",
        "postal_code": "99674",
        "latitude": -6.174005667838923,
        "longitude": 140.33674754032876
    },
    {
        "code": 9302012004,
        "district_code": 930201,
        "regency_code": 9302,
        "province_code": 93,
        "name": "Mariam",
        "postal_code": "99674",
        "latitude": -5.955463937357525,
        "longitude": 140.2513724339238
    },
    {
        "code": 9302012005,
        "district_code": 930201,
        "regency_code": 9302,
        "province_code": 93,
        "name": "Mawan",
        "postal_code": "99674",
        "latitude": -6.097847252555599,
        "longitude": 140.546758291692
    },
    {
        "code": 9302022001,
        "district_code": 930202,
        "regency_code": 9302,
        "province_code": 93,
        "name": "Mindiptana",
        "postal_code": "99663",
        "latitude": -5.904114519169949,
        "longitude": 140.67938594980703
    },
    {
        "code": 9302022002,
        "district_code": 930202,
        "regency_code": 9302,
        "province_code": 93,
        "name": "Umap",
        "postal_code": null,
        "latitude": -5.959613450934419,
        "longitude": 140.81384668703654
    },
    {
        "code": 9302022003,
        "district_code": 930202,
        "regency_code": 9302,
        "province_code": 93,
        "name": "Awayanka",
        "postal_code": "99663",
        "latitude": -5.868790835910522,
        "longitude": 140.7408574282796
    },
    {
        "code": 9302022004,
        "district_code": 930202,
        "regency_code": 9302,
        "province_code": 93,
        "name": "Wanggatkibi",
        "postal_code": null,
        "latitude": -5.753839249067254,
        "longitude": 140.7396373990036
    },
    {
        "code": 9302022005,
        "district_code": 930202,
        "regency_code": 9302,
        "province_code": 93,
        "name": "Epsembit",
        "postal_code": "99663",
        "latitude": -5.876833740475788,
        "longitude": 140.7061630670961
    },
    {
        "code": 9302022006,
        "district_code": 930202,
        "regency_code": 9302,
        "province_code": 93,
        "name": "Andobit",
        "postal_code": null,
        "latitude": -5.925272135717474,
        "longitude": 140.69212844281017
    },
    {
        "code": 9302022007,
        "district_code": 930202,
        "regency_code": 9302,
        "province_code": 93,
        "name": "Niyimbang",
        "postal_code": null,
        "latitude": -5.879993754604859,
        "longitude": 140.7105271471331
    },
    {
        "code": 9302022008,
        "district_code": 930202,
        "regency_code": 9302,
        "province_code": 93,
        "name": "Anggumbit",
        "postal_code": null,
        "latitude": -5.924595287565991,
        "longitude": 140.73173890409578
    },
    {
        "code": 9302022009,
        "district_code": 930202,
        "regency_code": 9302,
        "province_code": 93,
        "name": "Imko",
        "postal_code": "99663",
        "latitude": -5.807885272282517,
        "longitude": 140.71852314245817
    },
    {
        "code": 9302022010,
        "district_code": 930202,
        "regency_code": 9302,
        "province_code": 93,
        "name": "Kamka",
        "postal_code": null,
        "latitude": -5.835859622346528,
        "longitude": 140.68221463987942
    },
    {
        "code": 9302022011,
        "district_code": 930202,
        "regency_code": 9302,
        "province_code": 93,
        "name": "Osso",
        "postal_code": null,
        "latitude": -5.847142751310751,
        "longitude": 140.67675687322284
    },
    {
        "code": 9302022012,
        "district_code": 930202,
        "regency_code": 9302,
        "province_code": 93,
        "name": "Tinggam",
        "postal_code": "99663",
        "latitude": -5.886944542201405,
        "longitude": 140.65688852306508
    },
    {
        "code": 9302022013,
        "district_code": 930202,
        "regency_code": 9302,
        "province_code": 93,
        "name": "Kakuna",
        "postal_code": "99663",
        "latitude": -5.838748652657252,
        "longitude": 140.72191302334235
    },
    {
        "code": 9302032001,
        "district_code": 930203,
        "regency_code": 9302,
        "province_code": 93,
        "name": "Woropko",
        "postal_code": "99684",
        "latitude": -5.6170822631753206,
        "longitude": 140.83814894021998
    },
    {
        "code": 9302032002,
        "district_code": 930203,
        "regency_code": 9302,
        "province_code": 93,
        "name": "Winiktit",
        "postal_code": "99684",
        "latitude": -5.677168292007038,
        "longitude": 140.7449763609798
    },
    {
        "code": 9302032003,
        "district_code": 930203,
        "regency_code": 9302,
        "province_code": 93,
        "name": "Kanggewot",
        "postal_code": "99684",
        "latitude": -5.704411804447211,
        "longitude": 140.764908322856
    },
    {
        "code": 9302032004,
        "district_code": 930203,
        "regency_code": 9302,
        "province_code": 93,
        "name": "Jetetkun",
        "postal_code": "99684",
        "latitude": -5.513585798939121,
        "longitude": 140.7549406692002
    },
    {
        "code": 9302032005,
        "district_code": 930203,
        "regency_code": 9302,
        "province_code": 93,
        "name": "Inggembit",
        "postal_code": "99684",
        "latitude": -5.554778474778333,
        "longitude": 140.9588684437406
    },
    {
        "code": 9302032006,
        "district_code": 930203,
        "regency_code": 9302,
        "province_code": 93,
        "name": "Wametkapa",
        "postal_code": "99684",
        "latitude": -5.610000839258003,
        "longitude": 140.98739440888988
    },
    {
        "code": 9302032007,
        "district_code": 930203,
        "regency_code": 9302,
        "province_code": 93,
        "name": "Wombon",
        "postal_code": null,
        "latitude": -5.61270414970872,
        "longitude": 140.7622790181857
    },
    {
        "code": 9302032008,
        "district_code": 930203,
        "regency_code": 9302,
        "province_code": 93,
        "name": "Upkim",
        "postal_code": null,
        "latitude": -5.529492810656673,
        "longitude": 140.84684710901945
    },
    {
        "code": 9302032009,
        "district_code": 930203,
        "regency_code": 9302,
        "province_code": 93,
        "name": "Ikcan",
        "postal_code": "99684",
        "latitude": -5.411922106528304,
        "longitude": 140.91688609918236
    },
    {
        "code": 9302042001,
        "district_code": 930204,
        "regency_code": 9302,
        "province_code": 93,
        "name": "Kouh",
        "postal_code": "99655",
        "latitude": -5.783632476838526,
        "longitude": 140.09978986471378
    },
    {
        "code": 9302042002,
        "district_code": 930204,
        "regency_code": 9302,
        "province_code": 93,
        "name": "Jair",
        "postal_code": null,
        "latitude": -5.860312410870268,
        "longitude": 140.1820763151356
    },
    {
        "code": 9302042003,
        "district_code": 930204,
        "regency_code": 9302,
        "province_code": 93,
        "name": "Mandobo",
        "postal_code": null,
        "latitude": -5.780038625768854,
        "longitude": 140.23727512664396
    },
    {
        "code": 9302052001,
        "district_code": 930205,
        "regency_code": 9302,
        "province_code": 93,
        "name": "Getentiri",
        "postal_code": null,
        "latitude": -6.5936738656280145,
        "longitude": 140.32600309002692
    },
    {
        "code": 9302052002,
        "district_code": 930205,
        "regency_code": 9302,
        "province_code": 93,
        "name": "Anggai",
        "postal_code": null,
        "latitude": -6.359512883183149,
        "longitude": 140.25077134144183
    },
    {
        "code": 9302052003,
        "district_code": 930205,
        "regency_code": 9302,
        "province_code": 93,
        "name": "Butiptiri",
        "postal_code": null,
        "latitude": -6.487716915517438,
        "longitude": 140.67903991896736
    },
    {
        "code": 9302052004,
        "district_code": 930205,
        "regency_code": 9302,
        "province_code": 93,
        "name": "Asiki",
        "postal_code": null,
        "latitude": -6.624498399632279,
        "longitude": 140.46473228044732
    },
    {
        "code": 9302052005,
        "district_code": 930205,
        "regency_code": 9302,
        "province_code": 93,
        "name": "Kapogu",
        "postal_code": null,
        "latitude": -6.62650510371388,
        "longitude": 140.19936833101147
    },
    {
        "code": 9302052006,
        "district_code": 930205,
        "regency_code": 9302,
        "province_code": 93,
        "name": "Miri",
        "postal_code": "99651",
        "latitude": -6.34548050420468,
        "longitude": 140.41664846262006
    },
    {
        "code": 9302062001,
        "district_code": 930206,
        "regency_code": 9302,
        "province_code": 93,
        "name": "Bomakia I",
        "postal_code": "99672",
        "latitude": -5.809848795866326,
        "longitude": 139.85306040518947
    },
    {
        "code": 9302062002,
        "district_code": 930206,
        "regency_code": 9302,
        "province_code": 93,
        "name": "Bomakia II",
        "postal_code": "99672",
        "latitude": -5.79568804873638,
        "longitude": 139.92174052790193
    },
    {
        "code": 9302062003,
        "district_code": 930206,
        "regency_code": 9302,
        "province_code": 93,
        "name": "Somi",
        "postal_code": "99672",
        "latitude": -5.854642514194306,
        "longitude": 139.94409623093009
    },
    {
        "code": 9302062004,
        "district_code": 930206,
        "regency_code": 9302,
        "province_code": 93,
        "name": "Aifa",
        "postal_code": "99672",
        "latitude": -5.715918831816832,
        "longitude": 139.78484646291582
    },
    {
        "code": 9302062005,
        "district_code": 930206,
        "regency_code": 9302,
        "province_code": 93,
        "name": "Uni",
        "postal_code": "99672",
        "latitude": -5.733863752507658,
        "longitude": 139.91137689618648
    },
    {
        "code": 9302072001,
        "district_code": 930207,
        "regency_code": 9302,
        "province_code": 93,
        "name": "Kombut",
        "postal_code": "99662",
        "latitude": -5.916767532833525,
        "longitude": 140.95642696146137
    },
    {
        "code": 9302072002,
        "district_code": 930207,
        "regency_code": 9302,
        "province_code": 93,
        "name": "Moukbiran",
        "postal_code": "99662",
        "latitude": -5.882161083684064,
        "longitude": 140.8636792830382
    },
    {
        "code": 9302072003,
        "district_code": 930207,
        "regency_code": 9302,
        "province_code": 93,
        "name": "Kawangtet",
        "postal_code": "99662",
        "latitude": -5.770547073107444,
        "longitude": 140.8538320014797
    },
    {
        "code": 9302072004,
        "district_code": 930207,
        "regency_code": 9302,
        "province_code": 93,
        "name": "Amuan",
        "postal_code": "99662",
        "latitude": -5.8017265863652785,
        "longitude": 140.79512461583124
    },
    {
        "code": 9302082001,
        "district_code": 930208,
        "regency_code": 9302,
        "province_code": 93,
        "name": "Langgoan",
        "postal_code": "99661",
        "latitude": -5.772276210196844,
        "longitude": 140.6408192758973
    },
    {
        "code": 9302082002,
        "district_code": 930208,
        "regency_code": 9302,
        "province_code": 93,
        "name": "Tetop",
        "postal_code": "99661",
        "latitude": -5.640434019737769,
        "longitude": 140.66913974459686
    },
    {
        "code": 9302082003,
        "district_code": 930208,
        "regency_code": 9302,
        "province_code": 93,
        "name": "Wariktop",
        "postal_code": "99661",
        "latitude": -5.715775108090193,
        "longitude": 140.65629907776392
    },
    {
        "code": 9302082004,
        "district_code": 930208,
        "regency_code": 9302,
        "province_code": 93,
        "name": "Autriop",
        "postal_code": "99661",
        "latitude": -5.901726868549759,
        "longitude": 140.59320180585735
    },
    {
        "code": 9302082005,
        "district_code": 930208,
        "regency_code": 9302,
        "province_code": 93,
        "name": "Ogenatan",
        "postal_code": "99661",
        "latitude": -5.839975126871808,
        "longitude": 140.60918386726397
    },
    {
        "code": 9302092001,
        "district_code": 930209,
        "regency_code": 9302,
        "province_code": 93,
        "name": "Maju",
        "postal_code": "99671",
        "latitude": -5.694792791164564,
        "longitude": 140.53653877619914
    },
    {
        "code": 9302092002,
        "district_code": 930209,
        "regency_code": 9302,
        "province_code": 93,
        "name": "Bukit",
        "postal_code": "99671",
        "latitude": -5.575340846078513,
        "longitude": 140.59095404454538
    },
    {
        "code": 9302092003,
        "district_code": 930209,
        "regency_code": 9302,
        "province_code": 93,
        "name": "Ujung",
        "postal_code": "99671",
        "latitude": -5.598832976350137,
        "longitude": 140.44968460838382
    },
    {
        "code": 9302092004,
        "district_code": 930209,
        "regency_code": 9302,
        "province_code": 93,
        "name": "Ginggimop",
        "postal_code": "99671",
        "latitude": -5.840075527051919,
        "longitude": 140.53781526611937
    },
    {
        "code": 9302092005,
        "district_code": 930209,
        "regency_code": 9302,
        "province_code": 93,
        "name": "Patriot",
        "postal_code": "99671",
        "latitude": -5.81636451128033,
        "longitude": 140.38725692820492
    },
    {
        "code": 9302092006,
        "district_code": 930209,
        "regency_code": 9302,
        "province_code": 93,
        "name": "Arimbet",
        "postal_code": "99671",
        "latitude": -5.895731810113417,
        "longitude": 140.50306849523756
    },
    {
        "code": 9302092007,
        "district_code": 930209,
        "regency_code": 9302,
        "province_code": 93,
        "name": "Aroa",
        "postal_code": "99671",
        "latitude": -5.776945028172606,
        "longitude": 140.52471442106955
    },
    {
        "code": 9302102001,
        "district_code": 930210,
        "regency_code": 9302,
        "province_code": 93,
        "name": "Sadar",
        "postal_code": "99673",
        "latitude": -6.236125676231496,
        "longitude": 139.86277437524893
    },
    {
        "code": 9302102002,
        "district_code": 930210,
        "regency_code": 9302,
        "province_code": 93,
        "name": "Bangun",
        "postal_code": "99673",
        "latitude": -6.326044081296767,
        "longitude": 139.8226782315377
    },
    {
        "code": 9302102003,
        "district_code": 930210,
        "regency_code": 9302,
        "province_code": 93,
        "name": "Makmur",
        "postal_code": "99673",
        "latitude": -6.0018767685251975,
        "longitude": 140.01344911294274
    },
    {
        "code": 9302102004,
        "district_code": 930210,
        "regency_code": 9302,
        "province_code": 93,
        "name": "Sohokanggo",
        "postal_code": "99673",
        "latitude": -6.016932572500247,
        "longitude": 139.9021593652535
    },
    {
        "code": 9302102005,
        "district_code": 930210,
        "regency_code": 9302,
        "province_code": 93,
        "name": "Domo",
        "postal_code": "99673",
        "latitude": -6.192427444787143,
        "longitude": 139.85816361259427
    },
    {
        "code": 9302102006,
        "district_code": 930210,
        "regency_code": 9302,
        "province_code": 93,
        "name": "Hamkhu",
        "postal_code": "99673",
        "latitude": -6.397688243882676,
        "longitude": 139.77692219617208
    },
    {
        "code": 9302102007,
        "district_code": 930210,
        "regency_code": 9302,
        "province_code": 93,
        "name": "Hello",
        "postal_code": "99673",
        "latitude": -6.4552383923063905,
        "longitude": 139.8062946036108
    },
    {
        "code": 9302102008,
        "district_code": 930210,
        "regency_code": 9302,
        "province_code": 93,
        "name": "Navini",
        "postal_code": "99673",
        "latitude": -6.189166782099935,
        "longitude": 139.98993467586428
    },
    {
        "code": 9302112001,
        "district_code": 930211,
        "regency_code": 9302,
        "province_code": 93,
        "name": "Kuken",
        "postal_code": "99681",
        "latitude": -5.391737948087226,
        "longitude": 140.66622394271585
    },
    {
        "code": 9302112002,
        "district_code": 930211,
        "regency_code": 9302,
        "province_code": 93,
        "name": "Kolopkam",
        "postal_code": "99681",
        "latitude": -5.344602323259011,
        "longitude": 140.50711153450715
    },
    {
        "code": 9302112003,
        "district_code": 930211,
        "regency_code": 9302,
        "province_code": 93,
        "name": "Awaken",
        "postal_code": "99681",
        "latitude": -5.394073795001745,
        "longitude": 140.53857005502493
    },
    {
        "code": 9302112004,
        "district_code": 930211,
        "regency_code": 9302,
        "province_code": 93,
        "name": "Arimbit",
        "postal_code": "99681",
        "latitude": -5.31786266870313,
        "longitude": 140.65736178605536
    },
    {
        "code": 9302112005,
        "district_code": 930211,
        "regency_code": 9302,
        "province_code": 93,
        "name": "Anyumka",
        "postal_code": "99681",
        "latitude": -5.455390139998578,
        "longitude": 140.72145121442796
    },
    {
        "code": 9302122001,
        "district_code": 930212,
        "regency_code": 9302,
        "province_code": 93,
        "name": "Manggelum",
        "postal_code": "99692",
        "latitude": -5.379490711874876,
        "longitude": 140.44344612960992
    },
    {
        "code": 9302122002,
        "district_code": 930212,
        "regency_code": 9302,
        "province_code": 93,
        "name": "Burunggop",
        "postal_code": "99692",
        "latitude": -5.267299531486589,
        "longitude": 140.41747296866717
    },
    {
        "code": 9302122003,
        "district_code": 930212,
        "regency_code": 9302,
        "province_code": 93,
        "name": "Bayanggop",
        "postal_code": "99692",
        "latitude": -5.2892516481359255,
        "longitude": 140.55528980016416
    },
    {
        "code": 9302122004,
        "district_code": 930212,
        "regency_code": 9302,
        "province_code": 93,
        "name": "Gaguop",
        "postal_code": "99692",
        "latitude": -5.213116056364858,
        "longitude": 140.259552632069
    },
    {
        "code": 9302122005,
        "district_code": 930212,
        "regency_code": 9302,
        "province_code": 93,
        "name": "Kewam",
        "postal_code": "99692",
        "latitude": -5.42470819670608,
        "longitude": 140.43567565994417
    },
    {
        "code": 9302122006,
        "district_code": 930212,
        "regency_code": 9302,
        "province_code": 93,
        "name": "Mangga Tiga",
        "postal_code": "99692",
        "latitude": -5.366925809163446,
        "longitude": 140.37519797379392
    },
    {
        "code": 9302132001,
        "district_code": 930213,
        "regency_code": 9302,
        "province_code": 93,
        "name": "Firiwage",
        "postal_code": "99691",
        "latitude": -5.5171153965363695,
        "longitude": 140.14549489591096
    },
    {
        "code": 9302132002,
        "district_code": 930213,
        "regency_code": 9302,
        "province_code": 93,
        "name": "Karuwage",
        "postal_code": "99691",
        "latitude": -5.420627236282892,
        "longitude": 140.063490747234
    },
    {
        "code": 9302132003,
        "district_code": 930213,
        "regency_code": 9302,
        "province_code": 93,
        "name": "Waliburu",
        "postal_code": null,
        "latitude": -5.412083677775526,
        "longitude": 140.26259224725194
    },
    {
        "code": 9302132004,
        "district_code": 930213,
        "regency_code": 9302,
        "province_code": 93,
        "name": "Kabuwage",
        "postal_code": null,
        "latitude": -5.217571717297342,
        "longitude": 140.10946404187956
    },
    {
        "code": 9302142001,
        "district_code": 930214,
        "regency_code": 9302,
        "province_code": 93,
        "name": "Yaniruma",
        "postal_code": "99685",
        "latitude": -5.407238110025448,
        "longitude": 139.81971757285118
    },
    {
        "code": 9302142002,
        "district_code": 930214,
        "regency_code": 9302,
        "province_code": 93,
        "name": "Manggemahe",
        "postal_code": null,
        "latitude": -5.349221835949858,
        "longitude": 139.91982983932098
    },
    {
        "code": 9302142003,
        "district_code": 930214,
        "regency_code": 9302,
        "province_code": 93,
        "name": "Fefero",
        "postal_code": "99685",
        "latitude": -5.602436414483047,
        "longitude": 139.8381355260962
    },
    {
        "code": 9302152001,
        "district_code": 930215,
        "regency_code": 9302,
        "province_code": 93,
        "name": "Subur",
        "postal_code": "99653",
        "latitude": -6.878864051538722,
        "longitude": 140.2719996301056
    },
    {
        "code": 9302152002,
        "district_code": 930215,
        "regency_code": 9302,
        "province_code": 93,
        "name": "Kaisa",
        "postal_code": "99653",
        "latitude": -7.0114294756395354,
        "longitude": 140.17215296915458
    },
    {
        "code": 9302152003,
        "district_code": 930215,
        "regency_code": 9302,
        "province_code": 93,
        "name": "Waghai",
        "postal_code": "99653",
        "latitude": -7.021750671703755,
        "longitude": 140.10168973607287
    },
    {
        "code": 9302152004,
        "district_code": 930215,
        "regency_code": 9302,
        "province_code": 93,
        "name": "Aiwat",
        "postal_code": "99653",
        "latitude": -6.842142985461496,
        "longitude": 140.57591221104101
    },
    {
        "code": 9302162001,
        "district_code": 930216,
        "regency_code": 9302,
        "province_code": 93,
        "name": "Wanggemalo",
        "postal_code": "99682",
        "latitude": -5.505395383425981,
        "longitude": 139.9623439790241
    },
    {
        "code": 9302162002,
        "district_code": 930216,
        "regency_code": 9302,
        "province_code": 93,
        "name": "Sinimburu",
        "postal_code": "99682",
        "latitude": -5.206147786996841,
        "longitude": 140.00529186791647
    },
    {
        "code": 9302162003,
        "district_code": 930216,
        "regency_code": 9302,
        "province_code": 93,
        "name": "Yafufla",
        "postal_code": "99682",
        "latitude": -5.232069961683398,
        "longitude": 139.9258476413698
    },
    {
        "code": 9302162004,
        "district_code": 930216,
        "regency_code": 9302,
        "province_code": 93,
        "name": "Ugo",
        "postal_code": "99682",
        "latitude": -5.624174845491523,
        "longitude": 139.90365371263567
    },
    {
        "code": 9302162005,
        "district_code": 930216,
        "regency_code": 9302,
        "province_code": 93,
        "name": "Dema",
        "postal_code": "99682",
        "latitude": -5.624078018266749,
        "longitude": 139.96745792459797
    },
    {
        "code": 9302172001,
        "district_code": 930217,
        "regency_code": 9302,
        "province_code": 93,
        "name": "Ninati",
        "postal_code": "99683",
        "latitude": -5.720630741484313,
        "longitude": 140.92992627822233
    },
    {
        "code": 9302172002,
        "district_code": 930217,
        "regency_code": 9302,
        "province_code": 93,
        "name": "Upyetetko",
        "postal_code": "99683",
        "latitude": -5.688365871908767,
        "longitude": 140.8265195728366
    },
    {
        "code": 9302172003,
        "district_code": 930217,
        "regency_code": 9302,
        "province_code": 93,
        "name": "Kawaktembut",
        "postal_code": "99683",
        "latitude": -5.654726926359397,
        "longitude": 140.97195057732364
    },
    {
        "code": 9302172004,
        "district_code": 930217,
        "regency_code": 9302,
        "province_code": 93,
        "name": "Tembutka",
        "postal_code": "99683",
        "latitude": -5.628124749858672,
        "longitude": 140.8756926036098
    },
    {
        "code": 9302172005,
        "district_code": 930217,
        "regency_code": 9302,
        "province_code": 93,
        "name": "Timka",
        "postal_code": "99683",
        "latitude": -5.647018484120384,
        "longitude": 140.91567719267746
    },
    {
        "code": 9302182001,
        "district_code": 930218,
        "regency_code": 9302,
        "province_code": 93,
        "name": "Sesnuk",
        "postal_code": "99664",
        "latitude": -6.213647747473037,
        "longitude": 140.77443160245878
    },
    {
        "code": 9302182002,
        "district_code": 930218,
        "regency_code": 9302,
        "province_code": 93,
        "name": "Anggamburan",
        "postal_code": "99664",
        "latitude": -5.995068292363174,
        "longitude": 140.7150731170473
    },
    {
        "code": 9302182003,
        "district_code": 930218,
        "regency_code": 9302,
        "province_code": 93,
        "name": "Kanggup",
        "postal_code": "99664",
        "latitude": -6.237820347105233,
        "longitude": 140.90928834194554
    },
    {
        "code": 9302182004,
        "district_code": 930218,
        "regency_code": 9302,
        "province_code": 93,
        "name": "Yomkondo",
        "postal_code": "99664",
        "latitude": -6.0587471048853825,
        "longitude": 140.82568480131044
    },
    {
        "code": 9302182005,
        "district_code": 930218,
        "regency_code": 9302,
        "province_code": 93,
        "name": "Amboran",
        "postal_code": "99664",
        "latitude": -6.049691651604965,
        "longitude": 140.72945847749799
    },
    {
        "code": 9302192001,
        "district_code": 930219,
        "regency_code": 9302,
        "province_code": 93,
        "name": "Metto",
        "postal_code": "99652",
        "latitude": -6.782141958428462,
        "longitude": 140.16587525907912
    },
    {
        "code": 9302192002,
        "district_code": 930219,
        "regency_code": 9302,
        "province_code": 93,
        "name": "Obinangge",
        "postal_code": "99652",
        "latitude": -6.389519493148005,
        "longitude": 140.01010833673064
    },
    {
        "code": 9302192003,
        "district_code": 930219,
        "regency_code": 9302,
        "province_code": 93,
        "name": "Watemu",
        "postal_code": "99652",
        "latitude": -6.488885651911335,
        "longitude": 140.1567879137974
    },
    {
        "code": 9302192004,
        "district_code": 930219,
        "regency_code": 9302,
        "province_code": 93,
        "name": "Ujungkia",
        "postal_code": "99652",
        "latitude": -6.677667939885207,
        "longitude": 140.1739352306042
    },
    {
        "code": 9302202001,
        "district_code": 930220,
        "regency_code": 9302,
        "province_code": 93,
        "name": "Wanggom",
        "postal_code": "99654",
        "latitude": -5.649843600028548,
        "longitude": 140.1932728707525
    },
    {
        "code": 9302202002,
        "district_code": 930220,
        "regency_code": 9302,
        "province_code": 93,
        "name": "Kawagit",
        "postal_code": "99654",
        "latitude": -5.629094162937216,
        "longitude": 140.30245704984603
    },
    {
        "code": 9302202003,
        "district_code": 930220,
        "regency_code": 9302,
        "province_code": 93,
        "name": "Kombai",
        "postal_code": "99654",
        "latitude": -5.643077239652831,
        "longitude": 140.0648381975924
    },
    {
        "code": 9302202004,
        "district_code": 930220,
        "regency_code": 9302,
        "province_code": 93,
        "name": "Biwage",
        "postal_code": "99654",
        "latitude": -5.53940242905621,
        "longitude": 140.25198938457467
    },
    {
        "code": 9302202005,
        "district_code": 930220,
        "regency_code": 9302,
        "province_code": 93,
        "name": "Biwage Dua",
        "postal_code": "99654",
        "latitude": -5.512030996663871,
        "longitude": 140.24177245046218
    },
    {
        "code": 9302202006,
        "district_code": 930220,
        "regency_code": 9302,
        "province_code": 93,
        "name": "Niop",
        "postal_code": "99654",
        "latitude": -5.535620701611654,
        "longitude": 140.38770722866064
    },
    {
        "code": 9303011013,
        "district_code": 930301,
        "regency_code": 9303,
        "province_code": 93,
        "name": "Kepi",
        "postal_code": null,
        "latitude": -6.538921014467291,
        "longitude": 139.32012129234974
    },
    {
        "code": 9303012001,
        "district_code": 930301,
        "regency_code": 9303,
        "province_code": 93,
        "name": "Obaa",
        "postal_code": "99870",
        "latitude": -6.51814091919538,
        "longitude": 139.33406794094196
    },
    {
        "code": 9303012002,
        "district_code": 930301,
        "regency_code": 9303,
        "province_code": 93,
        "name": "Dagimon",
        "postal_code": "99870",
        "latitude": -6.677261876017313,
        "longitude": 139.32109159181138
    },
    {
        "code": 9303012003,
        "district_code": 930301,
        "regency_code": 9303,
        "province_code": 93,
        "name": "Rep",
        "postal_code": "99870",
        "latitude": -6.583368249514571,
        "longitude": 139.41945370143756
    },
    {
        "code": 9303012004,
        "district_code": 930301,
        "regency_code": 9303,
        "province_code": 93,
        "name": "Mappi Bawah\/Yamui",
        "postal_code": "99870",
        "latitude": -6.762364297856107,
        "longitude": 139.40769541472523
    },
    {
        "code": 9303012005,
        "district_code": 930301,
        "regency_code": 9303,
        "province_code": 93,
        "name": "Wanggate",
        "postal_code": "99870",
        "latitude": -6.502471108266739,
        "longitude": 139.5312402878367
    },
    {
        "code": 9303012006,
        "district_code": 930301,
        "regency_code": 9303,
        "province_code": 93,
        "name": "Piai",
        "postal_code": null,
        "latitude": -6.400261397617861,
        "longitude": 139.4509348863628
    },
    {
        "code": 9303012007,
        "district_code": 930301,
        "regency_code": 9303,
        "province_code": 93,
        "name": "Muin",
        "postal_code": null,
        "latitude": -6.4814341838380845,
        "longitude": 139.33578534766752
    },
    {
        "code": 9303012008,
        "district_code": 930301,
        "regency_code": 9303,
        "province_code": 93,
        "name": "Gauda",
        "postal_code": null,
        "latitude": -6.159824723775939,
        "longitude": 139.39166668903874
    },
    {
        "code": 9303012009,
        "district_code": 930301,
        "regency_code": 9303,
        "province_code": 93,
        "name": "Soba",
        "postal_code": "99870",
        "latitude": -6.572009469210023,
        "longitude": 139.3516386157664
    },
    {
        "code": 9303012010,
        "district_code": 930301,
        "regency_code": 9303,
        "province_code": 93,
        "name": "Enem",
        "postal_code": "99870",
        "latitude": -6.50512878698431,
        "longitude": 139.371626537629
    },
    {
        "code": 9303012011,
        "district_code": 930301,
        "regency_code": 9303,
        "province_code": 93,
        "name": "Kogo",
        "postal_code": "99870",
        "latitude": -6.483079039101058,
        "longitude": 139.41308958284975
    },
    {
        "code": 9303012012,
        "district_code": 930301,
        "regency_code": 9303,
        "province_code": 93,
        "name": "Kadam\/Oyim",
        "postal_code": "99870",
        "latitude": -6.6108772925237735,
        "longitude": 139.5241385436391
    },
    {
        "code": 9303012014,
        "district_code": 930301,
        "regency_code": 9303,
        "province_code": 93,
        "name": "Tokhom",
        "postal_code": "99870",
        "latitude": -6.498863755404657,
        "longitude": 139.2632345544547
    },
    {
        "code": 9303012015,
        "district_code": 930301,
        "regency_code": 9303,
        "province_code": 93,
        "name": "Emete",
        "postal_code": "99870",
        "latitude": -6.557215832261199,
        "longitude": 139.2814390275396
    },
    {
        "code": 9303012016,
        "district_code": 930301,
        "regency_code": 9303,
        "province_code": 93,
        "name": "Wairu",
        "postal_code": null,
        "latitude": -6.423288199013994,
        "longitude": 139.34587775655646
    },
    {
        "code": 9303012017,
        "district_code": 930301,
        "regency_code": 9303,
        "province_code": 93,
        "name": "Rayam",
        "postal_code": null,
        "latitude": -6.400718644836667,
        "longitude": 139.39112153505314
    },
    {
        "code": 9303012018,
        "district_code": 930301,
        "regency_code": 9303,
        "province_code": 93,
        "name": "Harome",
        "postal_code": null,
        "latitude": -6.590956352575751,
        "longitude": 139.48704431089678
    },
    {
        "code": 9303012019,
        "district_code": 930301,
        "regency_code": 9303,
        "province_code": 93,
        "name": "Metim",
        "postal_code": null,
        "latitude": -6.385971640519429,
        "longitude": 139.3361729890471
    },
    {
        "code": 9303012020,
        "district_code": 930301,
        "regency_code": 9303,
        "province_code": 93,
        "name": "Masin",
        "postal_code": null,
        "latitude": -6.286890162792201,
        "longitude": 139.39198410368775
    },
    {
        "code": 9303012021,
        "district_code": 930301,
        "regency_code": 9303,
        "province_code": 93,
        "name": "Madu",
        "postal_code": null,
        "latitude": -6.4375424365676555,
        "longitude": 139.2840983497718
    },
    {
        "code": 9303012022,
        "district_code": 930301,
        "regency_code": 9303,
        "province_code": 93,
        "name": "Yangpop",
        "postal_code": null,
        "latitude": -6.495933732478808,
        "longitude": 139.46457903034707
    },
    {
        "code": 9303012023,
        "district_code": 930301,
        "regency_code": 9303,
        "province_code": 93,
        "name": "Paedam",
        "postal_code": "99870",
        "latitude": -6.534491307285677,
        "longitude": 139.4033389138042
    },
    {
        "code": 9303012024,
        "district_code": 930301,
        "regency_code": 9303,
        "province_code": 93,
        "name": "Marbin",
        "postal_code": "99870",
        "latitude": -6.605914082128745,
        "longitude": 139.5589993662434
    },
    {
        "code": 9303022001,
        "district_code": 930302,
        "regency_code": 9303,
        "province_code": 93,
        "name": "Mur",
        "postal_code": "99873",
        "latitude": -6.895619071784964,
        "longitude": 139.15976880234237
    },
    {
        "code": 9303022002,
        "district_code": 930302,
        "regency_code": 9303,
        "province_code": 93,
        "name": "Agham",
        "postal_code": null,
        "latitude": -6.598762957959232,
        "longitude": 139.2179571637888
    },
    {
        "code": 9303022003,
        "district_code": 930302,
        "regency_code": 9303,
        "province_code": 93,
        "name": "Waghien\/Koba",
        "postal_code": "99873",
        "latitude": -6.610928168483656,
        "longitude": 139.05071444607952
    },
    {
        "code": 9303022004,
        "district_code": 930302,
        "regency_code": 9303,
        "province_code": 93,
        "name": "Khatan",
        "postal_code": "99873",
        "latitude": -6.718032954416372,
        "longitude": 139.19308594334885
    },
    {
        "code": 9303022005,
        "district_code": 930302,
        "regency_code": 9303,
        "province_code": 93,
        "name": "Monana",
        "postal_code": "99873",
        "latitude": -6.829605354282382,
        "longitude": 139.08664808142603
    },
    {
        "code": 9303022006,
        "district_code": 930302,
        "regency_code": 9303,
        "province_code": 93,
        "name": "Wagin",
        "postal_code": null,
        "latitude": -7.063284164594039,
        "longitude": 138.98367050231218
    },
    {
        "code": 9303022007,
        "district_code": 930302,
        "regency_code": 9303,
        "province_code": 93,
        "name": "Waman",
        "postal_code": null,
        "latitude": -6.641316332174581,
        "longitude": 139.13049736332562
    },
    {
        "code": 9303022008,
        "district_code": 930302,
        "regency_code": 9303,
        "province_code": 93,
        "name": "Ima",
        "postal_code": "99873",
        "latitude": -6.5526056806007915,
        "longitude": 139.14612044758687
    },
    {
        "code": 9303022009,
        "district_code": 930302,
        "regency_code": 9303,
        "province_code": 93,
        "name": "Kogoyaman",
        "postal_code": "99873",
        "latitude": -6.54793210534693,
        "longitude": 139.08635007857103
    },
    {
        "code": 9303022010,
        "district_code": 930302,
        "regency_code": 9303,
        "province_code": 93,
        "name": "Magabag",
        "postal_code": null,
        "latitude": -6.456596797413588,
        "longitude": 139.1878922661038
    },
    {
        "code": 9303022011,
        "district_code": 930302,
        "regency_code": 9303,
        "province_code": 93,
        "name": "Tereyemu",
        "postal_code": null,
        "latitude": -6.503495671706646,
        "longitude": 139.12910128037723
    },
    {
        "code": 9303022012,
        "district_code": 930302,
        "regency_code": 9303,
        "province_code": 93,
        "name": "Yatan",
        "postal_code": null,
        "latitude": -6.777361802835234,
        "longitude": 139.22586657796808
    },
    {
        "code": 9303022013,
        "district_code": 930302,
        "regency_code": 9303,
        "province_code": 93,
        "name": "Linggua",
        "postal_code": "99873",
        "latitude": -6.843156683641786,
        "longitude": 139.25333529980207
    },
    {
        "code": 9303022014,
        "district_code": 930302,
        "regency_code": 9303,
        "province_code": 93,
        "name": "Waruwe",
        "postal_code": "99873",
        "latitude": -6.464895693177938,
        "longitude": 139.1111357633728
    },
    {
        "code": 9303022015,
        "district_code": 930302,
        "regency_code": 9303,
        "province_code": 93,
        "name": "Ghanu",
        "postal_code": "99873",
        "latitude": -6.749411527101174,
        "longitude": 139.04030911611594
    },
    {
        "code": 9303032001,
        "district_code": 930303,
        "regency_code": 9303,
        "province_code": 93,
        "name": "Bidnew",
        "postal_code": null,
        "latitude": -5.7911640631023085,
        "longitude": 139.3837697751414
    },
    {
        "code": 9303032002,
        "district_code": 930303,
        "regency_code": 9303,
        "province_code": 93,
        "name": "Senggo",
        "postal_code": null,
        "latitude": -5.7251710402556855,
        "longitude": 139.34900909622837
    },
    {
        "code": 9303032003,
        "district_code": 930303,
        "regency_code": 9303,
        "province_code": 93,
        "name": "Kumasma",
        "postal_code": "99875",
        "latitude": -5.682509546750127,
        "longitude": 139.49948722665434
    },
    {
        "code": 9303032004,
        "district_code": 930303,
        "regency_code": 9303,
        "province_code": 93,
        "name": "Womin",
        "postal_code": "99875",
        "latitude": -5.86243809345316,
        "longitude": 139.42035843018175
    },
    {
        "code": 9303032005,
        "district_code": 930303,
        "regency_code": 9303,
        "province_code": 93,
        "name": "Tamanin",
        "postal_code": "99875",
        "latitude": -5.673827537098484,
        "longitude": 139.30467885370206
    },
    {
        "code": 9303032006,
        "district_code": 930303,
        "regency_code": 9303,
        "province_code": 93,
        "name": "Epem",
        "postal_code": null,
        "latitude": -5.719651346674594,
        "longitude": 139.23281600613177
    },
    {
        "code": 9303032007,
        "district_code": 930303,
        "regency_code": 9303,
        "province_code": 93,
        "name": "Abau",
        "postal_code": null,
        "latitude": -5.652113713827833,
        "longitude": 139.40411599756683
    },
    {
        "code": 9303041001,
        "district_code": 930304,
        "regency_code": 9303,
        "province_code": 93,
        "name": "Bade",
        "postal_code": "99852",
        "latitude": -7.237999711481051,
        "longitude": 139.65585554032037
    },
    {
        "code": 9303042002,
        "district_code": 930304,
        "regency_code": 9303,
        "province_code": 93,
        "name": "Geturki",
        "postal_code": "99852",
        "latitude": -7.092456660811026,
        "longitude": 139.53041218620285
    },
    {
        "code": 9303042003,
        "district_code": 930304,
        "regency_code": 9303,
        "province_code": 93,
        "name": "Mememu",
        "postal_code": null,
        "latitude": -7.130784005747579,
        "longitude": 139.58766296487212
    },
    {
        "code": 9303042004,
        "district_code": 930304,
        "regency_code": 9303,
        "province_code": 93,
        "name": "Gimikya",
        "postal_code": null,
        "latitude": -7.079633518270132,
        "longitude": 139.68613312530815
    },
    {
        "code": 9303042005,
        "district_code": 930304,
        "regency_code": 9303,
        "province_code": 93,
        "name": "Banamepe",
        "postal_code": null,
        "latitude": -7.31554990243443,
        "longitude": 139.5549251597535
    },
    {
        "code": 9303042006,
        "district_code": 930304,
        "regency_code": 9303,
        "province_code": 93,
        "name": "Yodom",
        "postal_code": null,
        "latitude": -7.2281031174511785,
        "longitude": 139.41395853401787
    },
    {
        "code": 9303042007,
        "district_code": 930304,
        "regency_code": 9303,
        "province_code": 93,
        "name": "Isyaman",
        "postal_code": null,
        "latitude": -7.085734481835746,
        "longitude": 139.42189495952002
    },
    {
        "code": 9303052001,
        "district_code": 930305,
        "regency_code": 9303,
        "province_code": 93,
        "name": "Yagatsu",
        "postal_code": "99881",
        "latitude": -6.275381033972364,
        "longitude": 139.0535341983178
    },
    {
        "code": 9303052002,
        "district_code": 930305,
        "regency_code": 9303,
        "province_code": 93,
        "name": "Amagatsu",
        "postal_code": "99881",
        "latitude": -6.2524889628618725,
        "longitude": 139.02360315235921
    },
    {
        "code": 9303052003,
        "district_code": 930305,
        "regency_code": 9303,
        "province_code": 93,
        "name": "Katage",
        "postal_code": "99881",
        "latitude": -6.354835058336213,
        "longitude": 139.05348993660454
    },
    {
        "code": 9303052004,
        "district_code": 930305,
        "regency_code": 9303,
        "province_code": 93,
        "name": "Sogope",
        "postal_code": "99881",
        "latitude": -6.283340911866819,
        "longitude": 139.02560193298615
    },
    {
        "code": 9303052005,
        "district_code": 930305,
        "regency_code": 9303,
        "province_code": 93,
        "name": "Wiyage",
        "postal_code": "99881",
        "latitude": -6.375942852243422,
        "longitude": 138.94746148926345
    },
    {
        "code": 9303052006,
        "district_code": 930305,
        "regency_code": 9303,
        "province_code": 93,
        "name": "Kasima",
        "postal_code": "99881",
        "latitude": -6.22244914456806,
        "longitude": 139.01370539386542
    },
    {
        "code": 9303052007,
        "district_code": 930305,
        "regency_code": 9303,
        "province_code": 93,
        "name": "Amenda",
        "postal_code": "99881",
        "latitude": -6.158575646924031,
        "longitude": 138.99609192336018
    },
    {
        "code": 9303052008,
        "district_code": 930305,
        "regency_code": 9303,
        "province_code": 93,
        "name": "Kaibu",
        "postal_code": "99881",
        "latitude": -6.1895168527502475,
        "longitude": 138.981081647924
    },
    {
        "code": 9303052009,
        "district_code": 930305,
        "regency_code": 9303,
        "province_code": 93,
        "name": "Omuro",
        "postal_code": "99881",
        "latitude": -6.100764209433425,
        "longitude": 138.9859196178108
    },
    {
        "code": 9303052010,
        "district_code": 930305,
        "regency_code": 9303,
        "province_code": 93,
        "name": "Okor",
        "postal_code": "99881",
        "latitude": -6.2339314894994695,
        "longitude": 138.89600037062345
    },
    {
        "code": 9303052011,
        "district_code": 930305,
        "regency_code": 9303,
        "province_code": 93,
        "name": "Atsipim",
        "postal_code": "99881",
        "latitude": -6.235863025281139,
        "longitude": 138.96503177843744
    },
    {
        "code": 9303052012,
        "district_code": 930305,
        "regency_code": 9303,
        "province_code": 93,
        "name": "Semtaipim",
        "postal_code": "99881",
        "latitude": -6.271025836922039,
        "longitude": 138.99294127646166
    },
    {
        "code": 9303052013,
        "district_code": 930305,
        "regency_code": 9303,
        "province_code": 93,
        "name": "Geiripim",
        "postal_code": "99881",
        "latitude": -6.313811952208646,
        "longitude": 138.93328415088962
    },
    {
        "code": 9303052014,
        "district_code": 930305,
        "regency_code": 9303,
        "province_code": 93,
        "name": "Warogom",
        "postal_code": "99881",
        "latitude": -6.288688658777927,
        "longitude": 138.9696035626012
    },
    {
        "code": 9303052015,
        "district_code": 930305,
        "regency_code": 9303,
        "province_code": 93,
        "name": "Kaibusene",
        "postal_code": "99881",
        "latitude": -6.3206407960701405,
        "longitude": 138.86167335838178
    },
    {
        "code": 9303052016,
        "district_code": 930305,
        "regency_code": 9303,
        "province_code": 93,
        "name": "Arare",
        "postal_code": "99881",
        "latitude": -6.357303858403009,
        "longitude": 139.13021079194667
    },
    {
        "code": 9303052017,
        "district_code": 930305,
        "regency_code": 9303,
        "province_code": 93,
        "name": "Paghai",
        "postal_code": "99881",
        "latitude": -6.340186959783537,
        "longitude": 139.2161805684516
    },
    {
        "code": 9303052018,
        "district_code": 930305,
        "regency_code": 9303,
        "province_code": 93,
        "name": "Kerke",
        "postal_code": "99881",
        "latitude": -6.316959667406744,
        "longitude": 139.2769086792296
    },
    {
        "code": 9303052019,
        "district_code": 930305,
        "regency_code": 9303,
        "province_code": 93,
        "name": "Mani",
        "postal_code": "99881",
        "latitude": -6.2535356407988685,
        "longitude": 139.0879368403705
    },
    {
        "code": 9303062001,
        "district_code": 930306,
        "regency_code": 9303,
        "province_code": 93,
        "name": "Sigare",
        "postal_code": "99874",
        "latitude": -6.243960130997479,
        "longitude": 139.12516319086663
    },
    {
        "code": 9303062002,
        "district_code": 930306,
        "regency_code": 9303,
        "province_code": 93,
        "name": "Jufo Besar",
        "postal_code": "99874",
        "latitude": -5.975534382552122,
        "longitude": 138.9788142456581
    },
    {
        "code": 9303062003,
        "district_code": 930306,
        "regency_code": 9303,
        "province_code": 93,
        "name": "Eci",
        "postal_code": "99874",
        "latitude": -6.115192029836068,
        "longitude": 139.2330256101632
    },
    {
        "code": 9303062004,
        "district_code": 930306,
        "regency_code": 9303,
        "province_code": 93,
        "name": "Aboge",
        "postal_code": "99874",
        "latitude": -6.068630555043726,
        "longitude": 139.30251677174775
    },
    {
        "code": 9303062005,
        "district_code": 930306,
        "regency_code": 9303,
        "province_code": 93,
        "name": "Khanami",
        "postal_code": "99874",
        "latitude": -5.757093365783053,
        "longitude": 139.06724450023103
    },
    {
        "code": 9303062006,
        "district_code": 930306,
        "regency_code": 9303,
        "province_code": 93,
        "name": "Yame",
        "postal_code": "99874",
        "latitude": -6.186989713197496,
        "longitude": 139.16901964258906
    },
    {
        "code": 9303062007,
        "district_code": 930306,
        "regency_code": 9303,
        "province_code": 93,
        "name": "Kaitok",
        "postal_code": "99874",
        "latitude": -6.223015826079149,
        "longitude": 139.2517828971162
    },
    {
        "code": 9303062008,
        "district_code": 930306,
        "regency_code": 9303,
        "province_code": 93,
        "name": "Homang",
        "postal_code": "99874",
        "latitude": -6.149111363486328,
        "longitude": 139.08082523245542
    },
    {
        "code": 9303062009,
        "district_code": 930306,
        "regency_code": 9303,
        "province_code": 93,
        "name": "Jufo Kecil",
        "postal_code": "99874",
        "latitude": -6.1169459019782755,
        "longitude": 139.1218263596684
    },
    {
        "code": 9303062010,
        "district_code": 930306,
        "regency_code": 9303,
        "province_code": 93,
        "name": "Khabu",
        "postal_code": "99874",
        "latitude": -6.026516713823572,
        "longitude": 139.04829356070883
    },
    {
        "code": 9303062011,
        "district_code": 930306,
        "regency_code": 9303,
        "province_code": 93,
        "name": "Kiki",
        "postal_code": "99874",
        "latitude": -5.9471607210940824,
        "longitude": 139.10674633314338
    },
    {
        "code": 9303062012,
        "district_code": 930306,
        "regency_code": 9303,
        "province_code": 93,
        "name": "Isage",
        "postal_code": "99874",
        "latitude": -5.951591331448962,
        "longitude": 139.1802725309641
    },
    {
        "code": 9303062013,
        "district_code": 930306,
        "regency_code": 9303,
        "province_code": 93,
        "name": "Kopi",
        "postal_code": "99874",
        "latitude": -5.998310206000502,
        "longitude": 139.2378741844205
    },
    {
        "code": 9303062014,
        "district_code": 930306,
        "regency_code": 9303,
        "province_code": 93,
        "name": "Asaren",
        "postal_code": "99874",
        "latitude": -5.812570289343501,
        "longitude": 139.11946778691075
    },
    {
        "code": 9303062015,
        "district_code": 930306,
        "regency_code": 9303,
        "province_code": 93,
        "name": "Keru",
        "postal_code": "99874",
        "latitude": -5.823601251789714,
        "longitude": 138.97323209662338
    },
    {
        "code": 9303062016,
        "district_code": 930306,
        "regency_code": 9303,
        "province_code": 93,
        "name": "Girimio",
        "postal_code": "99874",
        "latitude": -6.015336035128372,
        "longitude": 139.28692771539676
    },
    {
        "code": 9303062017,
        "district_code": 930306,
        "regency_code": 9303,
        "province_code": 93,
        "name": "Haffo",
        "postal_code": "99874",
        "latitude": -6.139293350457463,
        "longitude": 139.15566005950717
    },
    {
        "code": 9303062018,
        "district_code": 930306,
        "regency_code": 9303,
        "province_code": 93,
        "name": "Meda",
        "postal_code": "99874",
        "latitude": -5.661334127342118,
        "longitude": 139.06432025863674
    },
    {
        "code": 9303072001,
        "district_code": 930307,
        "regency_code": 9303,
        "province_code": 93,
        "name": "Amazu",
        "postal_code": "99876",
        "latitude": -5.603738994241352,
        "longitude": 139.7064883440021
    },
    {
        "code": 9303072002,
        "district_code": 930307,
        "regency_code": 9303,
        "province_code": 93,
        "name": "Imembi",
        "postal_code": "99876",
        "latitude": -5.558157985106591,
        "longitude": 139.7320293560362
    },
    {
        "code": 9303072003,
        "district_code": 930307,
        "regency_code": 9303,
        "province_code": 93,
        "name": "Yemu",
        "postal_code": "99876",
        "latitude": -5.522208752219329,
        "longitude": 139.70800788911706
    },
    {
        "code": 9303072004,
        "district_code": 930307,
        "regency_code": 9303,
        "province_code": 93,
        "name": "Fomu",
        "postal_code": null,
        "latitude": -5.91464282259076,
        "longitude": 139.73010859063697
    },
    {
        "code": 9303072005,
        "district_code": 930307,
        "regency_code": 9303,
        "province_code": 93,
        "name": "Tiau",
        "postal_code": "99876",
        "latitude": -5.641734176818145,
        "longitude": 139.6795865468849
    },
    {
        "code": 9303072006,
        "district_code": 930307,
        "regency_code": 9303,
        "province_code": 93,
        "name": "Binerbis",
        "postal_code": "99876",
        "latitude": -5.601430962816542,
        "longitude": 139.58268519313026
    },
    {
        "code": 9303072007,
        "district_code": 930307,
        "regency_code": 9303,
        "province_code": 93,
        "name": "Tayau",
        "postal_code": "99876",
        "latitude": -5.623886556890168,
        "longitude": 139.55491072967152
    },
    {
        "code": 9303082001,
        "district_code": 930308,
        "regency_code": 9303,
        "province_code": 93,
        "name": "Sepoh",
        "postal_code": "99871",
        "latitude": -6.209543315211029,
        "longitude": 139.66141356856758
    },
    {
        "code": 9303082002,
        "district_code": 930308,
        "regency_code": 9303,
        "province_code": 93,
        "name": "Bagaram",
        "postal_code": "99871",
        "latitude": -6.259048140900664,
        "longitude": 139.711441670049
    },
    {
        "code": 9303082003,
        "district_code": 930308,
        "regency_code": 9303,
        "province_code": 93,
        "name": "Passue\/Taim",
        "postal_code": "99871",
        "latitude": -6.3166145101055,
        "longitude": 139.69946138335712
    },
    {
        "code": 9303082004,
        "district_code": 930308,
        "regency_code": 9303,
        "province_code": 93,
        "name": "Nohon",
        "postal_code": "99871",
        "latitude": -6.330785202100653,
        "longitude": 139.58634996350898
    },
    {
        "code": 9303082005,
        "district_code": 930308,
        "regency_code": 9303,
        "province_code": 93,
        "name": "Kotiak",
        "postal_code": "99871",
        "latitude": -6.448499259403282,
        "longitude": 139.62691923746007
    },
    {
        "code": 9303082006,
        "district_code": 930308,
        "regency_code": 9303,
        "province_code": 93,
        "name": "Menya",
        "postal_code": "99871",
        "latitude": -6.247403592209117,
        "longitude": 139.59003452939254
    },
    {
        "code": 9303082007,
        "district_code": 930308,
        "regency_code": 9303,
        "province_code": 93,
        "name": "Tokhompatu",
        "postal_code": "99871",
        "latitude": -6.28142597505566,
        "longitude": 139.50351238631032
    },
    {
        "code": 9303082008,
        "district_code": 930308,
        "regency_code": 9303,
        "province_code": 93,
        "name": "Kotup",
        "postal_code": "99871",
        "latitude": -6.387405062373891,
        "longitude": 139.5196277423098
    },
    {
        "code": 9303082009,
        "district_code": 930308,
        "regency_code": 9303,
        "province_code": 93,
        "name": "Rimba Jaya\/Gayu",
        "postal_code": "99871",
        "latitude": -6.5094574784344825,
        "longitude": 139.67801309042417
    },
    {
        "code": 9303082010,
        "district_code": 930308,
        "regency_code": 9303,
        "province_code": 93,
        "name": "Kaime",
        "postal_code": "99871",
        "latitude": -6.532987668221758,
        "longitude": 139.76079431633795
    },
    {
        "code": 9303082011,
        "district_code": 930308,
        "regency_code": 9303,
        "province_code": 93,
        "name": "Baitate",
        "postal_code": "99871",
        "latitude": -6.646105741349792,
        "longitude": 139.6344539167691
    },
    {
        "code": 9303082012,
        "district_code": 930308,
        "regency_code": 9303,
        "province_code": 93,
        "name": "Urufu",
        "postal_code": "99871",
        "latitude": -6.192800002943136,
        "longitude": 139.78578241754462
    },
    {
        "code": 9303082013,
        "district_code": 930308,
        "regency_code": 9303,
        "province_code": 93,
        "name": "Afogoma",
        "postal_code": "99871",
        "latitude": -6.208142692576494,
        "longitude": 139.57821816199086
    },
    {
        "code": 9303092001,
        "district_code": 930309,
        "regency_code": 9303,
        "province_code": 93,
        "name": "Kabe",
        "postal_code": "99872",
        "latitude": -6.702896402145403,
        "longitude": 138.9069586530023
    },
    {
        "code": 9303092002,
        "district_code": 930309,
        "regency_code": 9303,
        "province_code": 93,
        "name": "Kaumi",
        "postal_code": "99872",
        "latitude": -6.585662993272368,
        "longitude": 138.98774259676708
    },
    {
        "code": 9303092003,
        "district_code": 930309,
        "regency_code": 9303,
        "province_code": 93,
        "name": "Kayagai",
        "postal_code": "99872",
        "latitude": -6.472988796453217,
        "longitude": 139.02396572510582
    },
    {
        "code": 9303092004,
        "district_code": 930309,
        "regency_code": 9303,
        "province_code": 93,
        "name": "Ati",
        "postal_code": "99872",
        "latitude": -6.483235767532432,
        "longitude": 138.9310529764758
    },
    {
        "code": 9303092005,
        "district_code": 930309,
        "regency_code": 9303,
        "province_code": 93,
        "name": "Upin",
        "postal_code": "99872",
        "latitude": -6.54457719263473,
        "longitude": 138.92249832822998
    },
    {
        "code": 9303092006,
        "district_code": 930309,
        "regency_code": 9303,
        "province_code": 93,
        "name": "Taragai",
        "postal_code": "99872",
        "latitude": -6.567033769223571,
        "longitude": 138.8445003298082
    },
    {
        "code": 9303092007,
        "district_code": 930309,
        "regency_code": 9303,
        "province_code": 93,
        "name": "Sene",
        "postal_code": "99872",
        "latitude": -6.410933013965189,
        "longitude": 138.83485269818988
    },
    {
        "code": 9303092008,
        "district_code": 930309,
        "regency_code": 9303,
        "province_code": 93,
        "name": "Komru",
        "postal_code": "99872",
        "latitude": -6.516846010744931,
        "longitude": 138.83308925929617
    },
    {
        "code": 9303092009,
        "district_code": 930309,
        "regency_code": 9303,
        "province_code": 93,
        "name": "Kofar",
        "postal_code": "99872",
        "latitude": -6.544566880037547,
        "longitude": 138.7103131459981
    },
    {
        "code": 9303092010,
        "district_code": 930309,
        "regency_code": 9303,
        "province_code": 93,
        "name": "Sumuraman",
        "postal_code": "99872",
        "latitude": -6.749169593500868,
        "longitude": 138.748936067337
    },
    {
        "code": 9303092011,
        "district_code": 930309,
        "regency_code": 9303,
        "province_code": 93,
        "name": "Pano",
        "postal_code": "99872",
        "latitude": -6.605909021242898,
        "longitude": 138.88887031066855
    },
    {
        "code": 9303092012,
        "district_code": 930309,
        "regency_code": 9303,
        "province_code": 93,
        "name": "Kogir",
        "postal_code": "99872",
        "latitude": -6.462863071233996,
        "longitude": 138.77542817012176
    },
    {
        "code": 9303102001,
        "district_code": 930310,
        "regency_code": 9303,
        "province_code": 93,
        "name": "Sien",
        "postal_code": null,
        "latitude": -6.652710586467768,
        "longitude": 139.7595106305367
    },
    {
        "code": 9303102002,
        "district_code": 930310,
        "regency_code": 9303,
        "province_code": 93,
        "name": "Sahapikya",
        "postal_code": null,
        "latitude": -6.8920602138649345,
        "longitude": 139.97827378982527
    },
    {
        "code": 9303102003,
        "district_code": 930310,
        "regency_code": 9303,
        "province_code": 93,
        "name": "Harapan",
        "postal_code": null,
        "latitude": -6.805267837397489,
        "longitude": 139.98886346604127
    },
    {
        "code": 9303102004,
        "district_code": 930310,
        "regency_code": 9303,
        "province_code": 93,
        "name": "Yibin",
        "postal_code": null,
        "latitude": -6.821202619237997,
        "longitude": 139.86000303007953
    },
    {
        "code": 9303102005,
        "district_code": 930310,
        "regency_code": 9303,
        "province_code": 93,
        "name": "Mopio",
        "postal_code": null,
        "latitude": -6.642332233516261,
        "longitude": 139.8747392920873
    },
    {
        "code": 9303102006,
        "district_code": 930310,
        "regency_code": 9303,
        "province_code": 93,
        "name": "Pies",
        "postal_code": "99854",
        "latitude": -6.736559540180392,
        "longitude": 140.00743478573284
    },
    {
        "code": 9303102007,
        "district_code": 930310,
        "regency_code": 9303,
        "province_code": 93,
        "name": "Memes",
        "postal_code": "99854",
        "latitude": -6.579969747822084,
        "longitude": 139.98782163780513
    },
    {
        "code": 9303102008,
        "district_code": 930310,
        "regency_code": 9303,
        "province_code": 93,
        "name": "Getiyo",
        "postal_code": "99854",
        "latitude": -6.782703729879557,
        "longitude": 139.82852012973478
    },
    {
        "code": 9303112001,
        "district_code": 930311,
        "regency_code": 9303,
        "province_code": 93,
        "name": "Homlikia",
        "postal_code": "99853",
        "latitude": -7.031638554554667,
        "longitude": 139.60403855705056
    },
    {
        "code": 9303112002,
        "district_code": 930311,
        "regency_code": 9303,
        "province_code": 93,
        "name": "Kobeta",
        "postal_code": "99853",
        "latitude": -6.992701543040411,
        "longitude": 139.60000944849514
    },
    {
        "code": 9303112003,
        "district_code": 930311,
        "regency_code": 9303,
        "province_code": 93,
        "name": "Asset",
        "postal_code": "99853",
        "latitude": -6.958886294447758,
        "longitude": 139.65591316854395
    },
    {
        "code": 9303112004,
        "district_code": 930311,
        "regency_code": 9303,
        "province_code": 93,
        "name": "Osso",
        "postal_code": "99853",
        "latitude": -6.810908811796322,
        "longitude": 139.6119807925338
    },
    {
        "code": 9303112005,
        "district_code": 930311,
        "regency_code": 9303,
        "province_code": 93,
        "name": "Bosma",
        "postal_code": "99853",
        "latitude": -6.8951725444730165,
        "longitude": 139.662642148376
    },
    {
        "code": 9303112006,
        "district_code": 930311,
        "regency_code": 9303,
        "province_code": 93,
        "name": "Oghoto",
        "postal_code": "99853",
        "latitude": -6.9484578898098714,
        "longitude": 139.55860100807877
    },
    {
        "code": 9303122001,
        "district_code": 930312,
        "regency_code": 9303,
        "province_code": 93,
        "name": "Amk",
        "postal_code": "99855",
        "latitude": -7.203449507708828,
        "longitude": 139.8958102772869
    },
    {
        "code": 9303122002,
        "district_code": 930312,
        "regency_code": 9303,
        "province_code": 93,
        "name": "Yame",
        "postal_code": "99855",
        "latitude": -7.052864621130026,
        "longitude": 139.94165854052895
    },
    {
        "code": 9303122003,
        "district_code": 930312,
        "regency_code": 9303,
        "province_code": 93,
        "name": "Benggo",
        "postal_code": "99855",
        "latitude": -6.9961195332395,
        "longitude": 139.75759364688895
    },
    {
        "code": 9303122004,
        "district_code": 930312,
        "regency_code": 9303,
        "province_code": 93,
        "name": "Kokoya",
        "postal_code": "99855",
        "latitude": -6.923859174234487,
        "longitude": 139.77463575687665
    },
    {
        "code": 9303122005,
        "district_code": 930312,
        "regency_code": 9303,
        "province_code": 93,
        "name": "Borohaba",
        "postal_code": "99855",
        "latitude": -6.775896529677582,
        "longitude": 139.72934930051485
    },
    {
        "code": 9303122006,
        "district_code": 930312,
        "regency_code": 9303,
        "province_code": 93,
        "name": "Ogorito",
        "postal_code": "99855",
        "latitude": -6.855510271601624,
        "longitude": 139.69590771122398
    },
    {
        "code": 9303122007,
        "district_code": 930312,
        "regency_code": 9303,
        "province_code": 93,
        "name": "Hebeske",
        "postal_code": "99855",
        "latitude": -6.87732912154068,
        "longitude": 139.82568927603495
    },
    {
        "code": 9303132001,
        "district_code": 930313,
        "regency_code": 9303,
        "province_code": 93,
        "name": "Yeloba",
        "postal_code": "99851",
        "latitude": -7.001193130951057,
        "longitude": 139.31803791048614
    },
    {
        "code": 9303132002,
        "district_code": 930313,
        "regency_code": 9303,
        "province_code": 93,
        "name": "Konebi",
        "postal_code": "99851",
        "latitude": -6.953276567046206,
        "longitude": 139.3680394867344
    },
    {
        "code": 9303132003,
        "district_code": 930313,
        "regency_code": 9303,
        "province_code": 93,
        "name": "Sibi",
        "postal_code": "99851",
        "latitude": -6.831276844542563,
        "longitude": 139.514156129851
    },
    {
        "code": 9303132004,
        "district_code": 930313,
        "regency_code": 9303,
        "province_code": 93,
        "name": "Tagaimon Sino",
        "postal_code": "99851",
        "latitude": -6.8962434636951375,
        "longitude": 139.41414039140935
    },
    {
        "code": 9303132005,
        "district_code": 930313,
        "regency_code": 9303,
        "province_code": 93,
        "name": "Tagaimon Karome",
        "postal_code": "99851",
        "latitude": -6.904711891267181,
        "longitude": 139.44772628841108
    },
    {
        "code": 9303142001,
        "district_code": 930314,
        "regency_code": 9303,
        "province_code": 93,
        "name": "Wonggi",
        "postal_code": "99877",
        "latitude": -6.07752079712474,
        "longitude": 139.5248526671835
    },
    {
        "code": 9303142002,
        "district_code": 930314,
        "regency_code": 9303,
        "province_code": 93,
        "name": "Busiri",
        "postal_code": "99877",
        "latitude": -6.075845274690502,
        "longitude": 139.38988445868802
    },
    {
        "code": 9303142003,
        "district_code": 930314,
        "regency_code": 9303,
        "province_code": 93,
        "name": "Keta",
        "postal_code": "99877",
        "latitude": -5.965606503823745,
        "longitude": 139.50553193333926
    },
    {
        "code": 9303142004,
        "district_code": 930314,
        "regency_code": 9303,
        "province_code": 93,
        "name": "Veta",
        "postal_code": "99877",
        "latitude": -6.034711358201399,
        "longitude": 139.6265967113573
    },
    {
        "code": 9303142005,
        "district_code": 930314,
        "regency_code": 9303,
        "province_code": 93,
        "name": "Honya",
        "postal_code": "99877",
        "latitude": -5.851717674810196,
        "longitude": 139.60421989085324
    },
    {
        "code": 9303142006,
        "district_code": 930314,
        "regency_code": 9303,
        "province_code": 93,
        "name": "Haku",
        "postal_code": "99877",
        "latitude": -5.89682642873627,
        "longitude": 139.5499921901601
    },
    {
        "code": 9303142007,
        "district_code": 930314,
        "regency_code": 9303,
        "province_code": 93,
        "name": "Bifo",
        "postal_code": "99877",
        "latitude": -6.151772741697311,
        "longitude": 139.52166673066014
    },
    {
        "code": 9303142008,
        "district_code": 930314,
        "regency_code": 9303,
        "province_code": 93,
        "name": "Samurukie",
        "postal_code": "99877",
        "latitude": -5.979638407308143,
        "longitude": 139.39569990167985
    },
    {
        "code": 9303152001,
        "district_code": 930315,
        "regency_code": 9303,
        "province_code": 93,
        "name": "Sagis",
        "postal_code": "99878",
        "latitude": -5.491939686030175,
        "longitude": 139.53507280050025
    },
    {
        "code": 9303152002,
        "district_code": 930315,
        "regency_code": 9303,
        "province_code": 93,
        "name": "Kumaban",
        "postal_code": "99878",
        "latitude": -5.443758855467674,
        "longitude": 139.58607249751867
    },
    {
        "code": 9303152003,
        "district_code": 930315,
        "regency_code": 9303,
        "province_code": 93,
        "name": "Tugumau",
        "postal_code": "99878",
        "latitude": -5.530799737728691,
        "longitude": 139.57539183713706
    },
    {
        "code": 9303152004,
        "district_code": 930315,
        "regency_code": 9303,
        "province_code": 93,
        "name": "Basman",
        "postal_code": "99878",
        "latitude": -5.402465932565534,
        "longitude": 139.6825045745381
    },
    {
        "code": 9303152005,
        "district_code": 930315,
        "regency_code": 9303,
        "province_code": 93,
        "name": "Merokima",
        "postal_code": "99878",
        "latitude": -5.485243367414171,
        "longitude": 139.6372937593616
    },
    {
        "code": 9303152006,
        "district_code": 930315,
        "regency_code": 9303,
        "province_code": 93,
        "name": "Mu",
        "postal_code": "99878",
        "latitude": -5.362274986501002,
        "longitude": 139.74614764962058
    },
    {
        "code": 9303152007,
        "district_code": 930315,
        "regency_code": 9303,
        "province_code": 93,
        "name": "Pier",
        "postal_code": "99878",
        "latitude": -5.5720864555548895,
        "longitude": 139.53915463403598
    },
    {
        "code": 9303152008,
        "district_code": 930315,
        "regency_code": 9303,
        "province_code": 93,
        "name": "Tarwa",
        "postal_code": "99878",
        "latitude": -5.459366355652919,
        "longitude": 139.7299998717034
    },
    {
        "code": 9304012001,
        "district_code": 930401,
        "regency_code": 9304,
        "province_code": 93,
        "name": "Yomoth",
        "postal_code": "99777",
        "latitude": -5.586355166355052,
        "longitude": 138.13050246817957
    },
    {
        "code": 9304012002,
        "district_code": 930401,
        "regency_code": 9304,
        "province_code": 93,
        "name": "Uwus",
        "postal_code": "99777",
        "latitude": -5.633261178806242,
        "longitude": 138.16537384929444
    },
    {
        "code": 9304012003,
        "district_code": 930401,
        "regency_code": 9304,
        "province_code": 93,
        "name": "Asuwetsy",
        "postal_code": "99777",
        "latitude": -5.541987885087334,
        "longitude": 138.1292822704423
    },
    {
        "code": 9304012004,
        "district_code": 930401,
        "regency_code": 9304,
        "province_code": 93,
        "name": "Bismam",
        "postal_code": "99777",
        "latitude": -5.450927774917053,
        "longitude": 138.1630471482051
    },
    {
        "code": 9304012005,
        "district_code": 930401,
        "regency_code": 9304,
        "province_code": 93,
        "name": "Bis Agats",
        "postal_code": "99777",
        "latitude": -5.547211448263919,
        "longitude": 138.14988710370807
    },
    {
        "code": 9304012006,
        "district_code": 930401,
        "regency_code": 9304,
        "province_code": 93,
        "name": "Per",
        "postal_code": "99777",
        "latitude": -5.628196629179626,
        "longitude": 138.1175833546376
    },
    {
        "code": 9304012007,
        "district_code": 930401,
        "regency_code": 9304,
        "province_code": 93,
        "name": "Beriten",
        "postal_code": "99777",
        "latitude": -5.693431638355363,
        "longitude": 138.15499655559992
    },
    {
        "code": 9304012008,
        "district_code": 930401,
        "regency_code": 9304,
        "province_code": 93,
        "name": "Mbait",
        "postal_code": "99777",
        "latitude": -5.499802860741596,
        "longitude": 138.1938198459623
    },
    {
        "code": 9304012009,
        "district_code": 930401,
        "regency_code": 9304,
        "province_code": 93,
        "name": "Bou",
        "postal_code": "99777",
        "latitude": -5.6848693381328825,
        "longitude": 138.09029029824904
    },
    {
        "code": 9304012010,
        "district_code": 930401,
        "regency_code": 9304,
        "province_code": 93,
        "name": "Saw",
        "postal_code": "99777",
        "latitude": -5.435651083474463,
        "longitude": 138.09432716635752
    },
    {
        "code": 9304012011,
        "district_code": 930401,
        "regency_code": 9304,
        "province_code": 93,
        "name": "Kaye",
        "postal_code": "99777",
        "latitude": -5.56373318005374,
        "longitude": 138.10054636803875
    },
    {
        "code": 9304012012,
        "district_code": 930401,
        "regency_code": 9304,
        "province_code": 93,
        "name": "Suwru",
        "postal_code": "99777",
        "latitude": -5.550770282622246,
        "longitude": 138.0927468659293
    },
    {
        "code": 9304022001,
        "district_code": 930402,
        "regency_code": 9304,
        "province_code": 93,
        "name": "Atsj",
        "postal_code": "99775",
        "latitude": -5.699198018295382,
        "longitude": 138.35950421643582
    },
    {
        "code": 9304022002,
        "district_code": 930402,
        "regency_code": 9304,
        "province_code": 93,
        "name": "Sogoni",
        "postal_code": "99775",
        "latitude": -5.723439726533394,
        "longitude": 138.87897782076615
    },
    {
        "code": 9304022003,
        "district_code": 930402,
        "regency_code": 9304,
        "province_code": 93,
        "name": "Amanamkai",
        "postal_code": "99775",
        "latitude": -5.731944552745137,
        "longitude": 138.50579416105543
    },
    {
        "code": 9304022004,
        "district_code": 930402,
        "regency_code": 9304,
        "province_code": 93,
        "name": "Ambisu",
        "postal_code": "99775",
        "latitude": -5.890159672148483,
        "longitude": 138.4865511543059
    },
    {
        "code": 9304022005,
        "district_code": 930402,
        "regency_code": 9304,
        "province_code": 93,
        "name": "Bine",
        "postal_code": "99775",
        "latitude": -5.7597844536460565,
        "longitude": 138.7659245038591
    },
    {
        "code": 9304022006,
        "district_code": 930402,
        "regency_code": 9304,
        "province_code": 93,
        "name": "Bipim",
        "postal_code": "99775",
        "latitude": -5.774906895056517,
        "longitude": 138.62160085001665
    },
    {
        "code": 9304022007,
        "district_code": 930402,
        "regency_code": 9304,
        "province_code": 93,
        "name": "Yasiuw",
        "postal_code": "99775",
        "latitude": -5.726751191826531,
        "longitude": 138.39934118694646
    },
    {
        "code": 9304022008,
        "district_code": 930402,
        "regency_code": 9304,
        "province_code": 93,
        "name": "Bakasai",
        "postal_code": "99775",
        "latitude": -5.753226661436224,
        "longitude": 138.39026169024217
    },
    {
        "code": 9304022009,
        "district_code": 930402,
        "regency_code": 9304,
        "province_code": 93,
        "name": "Cewewyamew",
        "postal_code": "99775",
        "latitude": -5.838512622669441,
        "longitude": 138.5031259587904
    },
    {
        "code": 9304032001,
        "district_code": 930403,
        "regency_code": 9304,
        "province_code": 93,
        "name": "Sawa",
        "postal_code": "99783",
        "latitude": -5.083943642529113,
        "longitude": 138.22319844124988
    },
    {
        "code": 9304032002,
        "district_code": 930403,
        "regency_code": 9304,
        "province_code": 93,
        "name": "Erma",
        "postal_code": "99783",
        "latitude": -5.204199172032149,
        "longitude": 138.24677233833913
    },
    {
        "code": 9304032003,
        "district_code": 930403,
        "regency_code": 9304,
        "province_code": 93,
        "name": "Bu",
        "postal_code": "99783",
        "latitude": -5.093386697286101,
        "longitude": 138.44440083511603
    },
    {
        "code": 9304032004,
        "district_code": 930403,
        "regency_code": 9304,
        "province_code": 93,
        "name": "Er",
        "postal_code": "99783",
        "latitude": -5.086494669808316,
        "longitude": 138.281539790755
    },
    {
        "code": 9304032005,
        "district_code": 930403,
        "regency_code": 9304,
        "province_code": 93,
        "name": "Pupis",
        "postal_code": "99783",
        "latitude": -4.878966015348738,
        "longitude": 138.25877895733936
    },
    {
        "code": 9304032006,
        "district_code": 930403,
        "regency_code": 9304,
        "province_code": 93,
        "name": "Sona",
        "postal_code": "99783",
        "latitude": -5.149827729874343,
        "longitude": 138.30083078801485
    },
    {
        "code": 9304032007,
        "district_code": 930403,
        "regency_code": 9304,
        "province_code": 93,
        "name": "Agani",
        "postal_code": "99783",
        "latitude": -5.030242280060423,
        "longitude": 138.38227015700815
    },
    {
        "code": 9304032008,
        "district_code": 930403,
        "regency_code": 9304,
        "province_code": 93,
        "name": "Mumugu",
        "postal_code": "99783",
        "latitude": -4.928889459111297,
        "longitude": 138.4828792404377
    },
    {
        "code": 9304032009,
        "district_code": 930403,
        "regency_code": 9304,
        "province_code": 93,
        "name": "Sauti",
        "postal_code": "99783",
        "latitude": -5.189570467731004,
        "longitude": 138.15214991048666
    },
    {
        "code": 9304032010,
        "district_code": 930403,
        "regency_code": 9304,
        "province_code": 93,
        "name": "Mumugi II",
        "postal_code": "99783",
        "latitude": -4.796902394589669,
        "longitude": 138.46894212027777
    },
    {
        "code": 9304042001,
        "district_code": 930404,
        "regency_code": 9304,
        "province_code": 93,
        "name": "Ayam",
        "postal_code": "99779",
        "latitude": -5.329484290757887,
        "longitude": 138.31402323783678
    },
    {
        "code": 9304042006,
        "district_code": 930404,
        "regency_code": 9304,
        "province_code": 93,
        "name": "Waw",
        "postal_code": "99779",
        "latitude": -5.33956413360857,
        "longitude": 138.28882499099558
    },
    {
        "code": 9304042007,
        "district_code": 930404,
        "regency_code": 9304,
        "province_code": 93,
        "name": "Bayiw Pinam",
        "postal_code": "99779",
        "latitude": -5.324861068984986,
        "longitude": 138.33370461680104
    },
    {
        "code": 9304042008,
        "district_code": 930404,
        "regency_code": 9304,
        "province_code": 93,
        "name": "Cumnew",
        "postal_code": "99779",
        "latitude": -5.322648551605457,
        "longitude": 138.3474397812447
    },
    {
        "code": 9304042009,
        "district_code": 930404,
        "regency_code": 9304,
        "province_code": 93,
        "name": "Jewes",
        "postal_code": "99779",
        "latitude": -5.337241768422927,
        "longitude": 138.3651917390345
    },
    {
        "code": 9304052001,
        "district_code": 930405,
        "regency_code": 9304,
        "province_code": 93,
        "name": "Basim",
        "postal_code": "99782",
        "latitude": -6.054317764427136,
        "longitude": 138.3543362221287
    },
    {
        "code": 9304052002,
        "district_code": 930405,
        "regency_code": 9304,
        "province_code": 93,
        "name": "Waras",
        "postal_code": "99782",
        "latitude": -6.001653117251041,
        "longitude": 138.4022763399913
    },
    {
        "code": 9304052003,
        "district_code": 930405,
        "regency_code": 9304,
        "province_code": 93,
        "name": "Biopis",
        "postal_code": "99782",
        "latitude": -6.0236649446273685,
        "longitude": 138.52914946861546
    },
    {
        "code": 9304052004,
        "district_code": 930405,
        "regency_code": 9304,
        "province_code": 93,
        "name": "Nanai",
        "postal_code": "99782",
        "latitude": -6.096030779879701,
        "longitude": 138.40364453492717
    },
    {
        "code": 9304052005,
        "district_code": 930405,
        "regency_code": 9304,
        "province_code": 93,
        "name": "Pirien",
        "postal_code": "99782",
        "latitude": -5.9483075006590305,
        "longitude": 138.35231351893418
    },
    {
        "code": 9304052006,
        "district_code": 930405,
        "regency_code": 9304,
        "province_code": 93,
        "name": "Ocenep",
        "postal_code": "99782",
        "latitude": -5.991361427104963,
        "longitude": 138.3565750906496
    },
    {
        "code": 9304052007,
        "district_code": 930405,
        "regency_code": 9304,
        "province_code": 93,
        "name": "Ais",
        "postal_code": "99782",
        "latitude": -6.04448475109276,
        "longitude": 138.3694789032638
    },
    {
        "code": 9304052008,
        "district_code": 930405,
        "regency_code": 9304,
        "province_code": 93,
        "name": "Yawas",
        "postal_code": "99782",
        "latitude": -6.007053528340279,
        "longitude": 138.43333109480582
    },
    {
        "code": 9304052009,
        "district_code": 930405,
        "regency_code": 9304,
        "province_code": 93,
        "name": "Bakyor",
        "postal_code": "99782",
        "latitude": -5.998689919708983,
        "longitude": 138.37201537033081
    },
    {
        "code": 9304052010,
        "district_code": 930405,
        "regency_code": 9304,
        "province_code": 93,
        "name": "Isar",
        "postal_code": "99782",
        "latitude": -5.982647042564431,
        "longitude": 138.32443992626875
    },
    {
        "code": 9304052011,
        "district_code": 930405,
        "regency_code": 9304,
        "province_code": 93,
        "name": "Kayarpis",
        "postal_code": "99782",
        "latitude": -5.966898358021824,
        "longitude": 138.37581439618776
    },
    {
        "code": 9304052012,
        "district_code": 930405,
        "regency_code": 9304,
        "province_code": 93,
        "name": "Sayoa",
        "postal_code": "99782",
        "latitude": -6.078140274504395,
        "longitude": 138.43381844617087
    },
    {
        "code": 9304052013,
        "district_code": 930405,
        "regency_code": 9304,
        "province_code": 93,
        "name": "Bora",
        "postal_code": "99782",
        "latitude": -6.087322579345903,
        "longitude": 138.37239050003157
    },
    {
        "code": 9304062001,
        "district_code": 930406,
        "regency_code": 9304,
        "province_code": 93,
        "name": "Kamur",
        "postal_code": "99773",
        "latitude": -6.157065110105585,
        "longitude": 138.67526193760096
    },
    {
        "code": 9304062002,
        "district_code": 930406,
        "regency_code": 9304,
        "province_code": 93,
        "name": "Sanep",
        "postal_code": "99773",
        "latitude": -6.243872646484683,
        "longitude": 138.58195398386064
    },
    {
        "code": 9304062003,
        "district_code": 930406,
        "regency_code": 9304,
        "province_code": 93,
        "name": "Saramit",
        "postal_code": "99773",
        "latitude": -6.179942862273593,
        "longitude": 138.606020666426
    },
    {
        "code": 9304062004,
        "district_code": 930406,
        "regency_code": 9304,
        "province_code": 93,
        "name": "Yahoi",
        "postal_code": "99773",
        "latitude": -6.229651002527841,
        "longitude": 138.684532059154
    },
    {
        "code": 9304062005,
        "district_code": 930406,
        "regency_code": 9304,
        "province_code": 93,
        "name": "Hainam",
        "postal_code": "99773",
        "latitude": -6.2087375236393045,
        "longitude": 138.64846089093624
    },
    {
        "code": 9304062006,
        "district_code": 930406,
        "regency_code": 9304,
        "province_code": 93,
        "name": "Yagamit",
        "postal_code": "99773",
        "latitude": -6.2416204004398725,
        "longitude": 138.6253823193716
    },
    {
        "code": 9304062007,
        "district_code": 930406,
        "regency_code": 9304,
        "province_code": 93,
        "name": "Bawor",
        "postal_code": "99773",
        "latitude": -6.227995280702882,
        "longitude": 138.5492145666722
    },
    {
        "code": 9304062008,
        "district_code": 930406,
        "regency_code": 9304,
        "province_code": 93,
        "name": "Sanapai",
        "postal_code": "99773",
        "latitude": -6.209599570463269,
        "longitude": 138.5176052273627
    },
    {
        "code": 9304062009,
        "district_code": 930406,
        "regency_code": 9304,
        "province_code": 93,
        "name": "Sarmafo",
        "postal_code": "99773",
        "latitude": -6.179933448327364,
        "longitude": 138.57356841665975
    },
    {
        "code": 9304072001,
        "district_code": 930407,
        "regency_code": 9304,
        "province_code": 93,
        "name": "Binam",
        "postal_code": "99792",
        "latitude": -5.2724510788026695,
        "longitude": 139.34204508128317
    },
    {
        "code": 9304072002,
        "district_code": 930407,
        "regency_code": 9304,
        "province_code": 93,
        "name": "Wagabus",
        "postal_code": "99792",
        "latitude": -5.1821498241748944,
        "longitude": 139.27872862361227
    },
    {
        "code": 9304072003,
        "district_code": 930407,
        "regency_code": 9304,
        "province_code": 93,
        "name": "Burbis",
        "postal_code": "99792",
        "latitude": -5.374416753898951,
        "longitude": 139.36942532178975
    },
    {
        "code": 9304072004,
        "district_code": 930407,
        "regency_code": 9304,
        "province_code": 93,
        "name": "Bubis",
        "postal_code": "99792",
        "latitude": -5.331847358932452,
        "longitude": 139.1526740764577
    },
    {
        "code": 9304072005,
        "district_code": 930407,
        "regency_code": 9304,
        "province_code": 93,
        "name": "Karbis",
        "postal_code": "99792",
        "latitude": -5.44095962451751,
        "longitude": 139.2808316202148
    },
    {
        "code": 9304072006,
        "district_code": 930407,
        "regency_code": 9304,
        "province_code": 93,
        "name": "Jinak",
        "postal_code": "99792",
        "latitude": -5.44988032198487,
        "longitude": 139.0945957959981
    },
    {
        "code": 9304072007,
        "district_code": 930407,
        "regency_code": 9304,
        "province_code": 93,
        "name": "Wowi",
        "postal_code": "99792",
        "latitude": -5.485054994085064,
        "longitude": 139.19131441268925
    },
    {
        "code": 9304072008,
        "district_code": 930407,
        "regency_code": 9304,
        "province_code": 93,
        "name": "Soray",
        "postal_code": "99792",
        "latitude": -5.379919516761562,
        "longitude": 139.22675088089278
    },
    {
        "code": 9304072009,
        "district_code": 930407,
        "regency_code": 9304,
        "province_code": 93,
        "name": "Waganu Dua",
        "postal_code": "99792",
        "latitude": -5.591337870022451,
        "longitude": 139.16912254131785
    },
    {
        "code": 9304072010,
        "district_code": 930407,
        "regency_code": 9304,
        "province_code": 93,
        "name": "Waijens",
        "postal_code": "99792",
        "latitude": -5.117784467275258,
        "longitude": 139.43715707737044
    },
    {
        "code": 9304072011,
        "district_code": 930407,
        "regency_code": 9304,
        "province_code": 93,
        "name": "Bumu",
        "postal_code": "99792",
        "latitude": -5.029991928007859,
        "longitude": 139.40302038117468
    },
    {
        "code": 9304072012,
        "district_code": 930407,
        "regency_code": 9304,
        "province_code": 93,
        "name": "Kapayap Satu",
        "postal_code": "99792",
        "latitude": -5.179798156799511,
        "longitude": 139.7723492875549
    },
    {
        "code": 9304072013,
        "district_code": 930407,
        "regency_code": 9304,
        "province_code": 93,
        "name": "Kapayap Dua",
        "postal_code": "99792",
        "latitude": -5.135797698088666,
        "longitude": 139.72631378638405
    },
    {
        "code": 9304072014,
        "district_code": 930407,
        "regency_code": 9304,
        "province_code": 93,
        "name": "Emnam",
        "postal_code": "99792",
        "latitude": -5.415723679312045,
        "longitude": 139.3367691606874
    },
    {
        "code": 9304082001,
        "district_code": 930408,
        "regency_code": 9304,
        "province_code": 93,
        "name": "Suru-Suru",
        "postal_code": "99781",
        "latitude": -4.778020611221912,
        "longitude": 138.9668501258791
    },
    {
        "code": 9304082002,
        "district_code": 930408,
        "regency_code": 9304,
        "province_code": 93,
        "name": "See",
        "postal_code": "99781",
        "latitude": -4.816920222803917,
        "longitude": 138.88644724393123
    },
    {
        "code": 9304082007,
        "district_code": 930408,
        "regency_code": 9304,
        "province_code": 93,
        "name": "Tomor",
        "postal_code": "99781",
        "latitude": -4.987610801141079,
        "longitude": 138.75534263625104
    },
    {
        "code": 9304082009,
        "district_code": 930408,
        "regency_code": 9304,
        "province_code": 93,
        "name": "Dumaten",
        "postal_code": "99781",
        "latitude": -4.768444772058906,
        "longitude": 138.9132673600169
    },
    {
        "code": 9304082010,
        "district_code": 930408,
        "regency_code": 9304,
        "province_code": 93,
        "name": "Hom-hom",
        "postal_code": "99781",
        "latitude": -4.723383865417202,
        "longitude": 139.2027496217488
    },
    {
        "code": 9304082011,
        "district_code": 930408,
        "regency_code": 9304,
        "province_code": 93,
        "name": "Ajin",
        "postal_code": "99781",
        "latitude": -4.908761401974221,
        "longitude": 139.04255621291787
    },
    {
        "code": 9304082012,
        "district_code": 930408,
        "regency_code": 9304,
        "province_code": 93,
        "name": "Laluk",
        "postal_code": "99781",
        "latitude": -4.759667213885122,
        "longitude": 138.940211474688
    },
    {
        "code": 9304082013,
        "district_code": 930408,
        "regency_code": 9304,
        "province_code": 93,
        "name": "Kebikduk",
        "postal_code": "99781",
        "latitude": -4.761835779676599,
        "longitude": 138.9813306224653
    },
    {
        "code": 9304082014,
        "district_code": 930408,
        "regency_code": 9304,
        "province_code": 93,
        "name": "Hulam",
        "postal_code": "99781",
        "latitude": -4.76169516274845,
        "longitude": 138.9398399468852
    },
    {
        "code": 9304082015,
        "district_code": 930408,
        "regency_code": 9304,
        "province_code": 93,
        "name": "Walase",
        "postal_code": "99781",
        "latitude": -4.75921110465217,
        "longitude": 138.9784499236855
    },
    {
        "code": 9304082016,
        "district_code": 930408,
        "regency_code": 9304,
        "province_code": 93,
        "name": "Berimono",
        "postal_code": "99781",
        "latitude": -4.789495811277564,
        "longitude": 138.93934010622198
    },
    {
        "code": 9304082017,
        "district_code": 930408,
        "regency_code": 9304,
        "province_code": 93,
        "name": "Asgun",
        "postal_code": "99781",
        "latitude": -4.760562041705577,
        "longitude": 138.97461196116134
    },
    {
        "code": 9304082018,
        "district_code": 930408,
        "regency_code": 9304,
        "province_code": 93,
        "name": "Korobuk",
        "postal_code": "99781",
        "latitude": -4.7274792220049875,
        "longitude": 139.20307501428658
    },
    {
        "code": 9304082019,
        "district_code": 930408,
        "regency_code": 9304,
        "province_code": 93,
        "name": "Katalina",
        "postal_code": "99781",
        "latitude": -4.78245107515761,
        "longitude": 139.14227203654454
    },
    {
        "code": 9304082020,
        "district_code": 930408,
        "regency_code": 9304,
        "province_code": 93,
        "name": "Obio",
        "postal_code": "99781",
        "latitude": -4.736729631090454,
        "longitude": 139.19358748883522
    },
    {
        "code": 9304082021,
        "district_code": 930408,
        "regency_code": 9304,
        "province_code": 93,
        "name": "Salbik",
        "postal_code": "99781",
        "latitude": -4.763187953074117,
        "longitude": 138.97762599148945
    },
    {
        "code": 9304082022,
        "district_code": 930408,
        "regency_code": 9304,
        "province_code": 93,
        "name": "Linduk",
        "postal_code": "99781",
        "latitude": -4.762172392685142,
        "longitude": 138.97996071287378
    },
    {
        "code": 9304082023,
        "district_code": 930408,
        "regency_code": 9304,
        "province_code": 93,
        "name": "Besika",
        "postal_code": "99781",
        "latitude": -4.760952396883862,
        "longitude": 138.9664487907775
    },
    {
        "code": 9304092001,
        "district_code": 930409,
        "regency_code": 9304,
        "province_code": 93,
        "name": "Binamsain",
        "postal_code": "99791",
        "latitude": -5.352642403422615,
        "longitude": 139.52743192035774
    },
    {
        "code": 9304092002,
        "district_code": 930409,
        "regency_code": 9304,
        "province_code": 93,
        "name": "Pirabanak",
        "postal_code": "99791",
        "latitude": -5.239026564499836,
        "longitude": 139.4318263927473
    },
    {
        "code": 9304092003,
        "district_code": 930409,
        "regency_code": 9304,
        "province_code": 93,
        "name": "Woutu Braza",
        "postal_code": "99791",
        "latitude": -5.17510039532171,
        "longitude": 139.4299322430266
    },
    {
        "code": 9304092004,
        "district_code": 930409,
        "regency_code": 9304,
        "province_code": 93,
        "name": "Patipi",
        "postal_code": "99791",
        "latitude": -5.083084847648149,
        "longitude": 139.4018434173623
    },
    {
        "code": 9304092005,
        "district_code": 930409,
        "regency_code": 9304,
        "province_code": 93,
        "name": "Ulakin",
        "postal_code": "99791",
        "latitude": -5.261064253727848,
        "longitude": 139.6425543775966
    },
    {
        "code": 9304092006,
        "district_code": 930409,
        "regency_code": 9304,
        "province_code": 93,
        "name": "Woutu Kolof",
        "postal_code": "99791",
        "latitude": -5.20463894134958,
        "longitude": 139.53849029660617
    },
    {
        "code": 9304092007,
        "district_code": 930409,
        "regency_code": 9304,
        "province_code": 93,
        "name": "Butukatnau",
        "postal_code": "99791",
        "latitude": -5.082382820701368,
        "longitude": 139.54819044866136
    },
    {
        "code": 9304092008,
        "district_code": 930409,
        "regency_code": 9304,
        "province_code": 93,
        "name": "Auban",
        "postal_code": "99791",
        "latitude": -5.1024054683821785,
        "longitude": 139.6470798612026
    },
    {
        "code": 9304092009,
        "district_code": 930409,
        "regency_code": 9304,
        "province_code": 93,
        "name": "Pepera",
        "postal_code": "99791",
        "latitude": -5.365442147093471,
        "longitude": 139.4338379145287
    },
    {
        "code": 9304102002,
        "district_code": 930410,
        "regency_code": 9304,
        "province_code": 93,
        "name": "Amor",
        "postal_code": "99780",
        "latitude": -5.233079763730344,
        "longitude": 138.35994905960868
    },
    {
        "code": 9304102003,
        "district_code": 930410,
        "regency_code": 9304,
        "province_code": 93,
        "name": "Yipawer",
        "postal_code": "99780",
        "latitude": -5.201834207285828,
        "longitude": 138.40543965177224
    },
    {
        "code": 9304102004,
        "district_code": 930410,
        "regency_code": 9304,
        "province_code": 93,
        "name": "Berip",
        "postal_code": "99780",
        "latitude": -5.185364193081885,
        "longitude": 138.4837106811876
    },
    {
        "code": 9304102005,
        "district_code": 930410,
        "regency_code": 9304,
        "province_code": 93,
        "name": "Ayir",
        "postal_code": "99780",
        "latitude": -5.209307631088383,
        "longitude": 138.3725853622612
    },
    {
        "code": 9304102006,
        "district_code": 930410,
        "regency_code": 9304,
        "province_code": 93,
        "name": "Werer",
        "postal_code": "99780",
        "latitude": -5.209223012580722,
        "longitude": 138.34680090418126
    },
    {
        "code": 9304102009,
        "district_code": 930410,
        "regency_code": 9304,
        "province_code": 93,
        "name": "Paar",
        "postal_code": "99780",
        "latitude": -5.263606298981419,
        "longitude": 138.33950318080437
    },
    {
        "code": 9304112001,
        "district_code": 930411,
        "regency_code": 9304,
        "province_code": 93,
        "name": "Yamas",
        "postal_code": "99784",
        "latitude": -5.260856849619085,
        "longitude": 138.0992109077649
    },
    {
        "code": 9304112002,
        "district_code": 930411,
        "regency_code": 9304,
        "province_code": 93,
        "name": "Yeni",
        "postal_code": "99784",
        "latitude": -5.3778573968114225,
        "longitude": 137.98902810229683
    },
    {
        "code": 9304112003,
        "district_code": 930411,
        "regency_code": 9304,
        "province_code": 93,
        "name": "Omor",
        "postal_code": "99784",
        "latitude": -5.339317124855629,
        "longitude": 137.82471423434026
    },
    {
        "code": 9304112004,
        "district_code": 930411,
        "regency_code": 9304,
        "province_code": 93,
        "name": "Jufri ",
        "postal_code": "99784",
        "latitude": -5.291675377384242,
        "longitude": 138.19266926966415
    },
    {
        "code": 9304112005,
        "district_code": 930411,
        "regency_code": 9304,
        "province_code": 93,
        "name": "Yaun",
        "postal_code": "99784",
        "latitude": -5.343613526026591,
        "longitude": 138.08120830205107
    },
    {
        "code": 9304112006,
        "district_code": 930411,
        "regency_code": 9304,
        "province_code": 93,
        "name": "Onavai",
        "postal_code": "99784",
        "latitude": -5.2525768280508,
        "longitude": 137.94288408039947
    },
    {
        "code": 9304122001,
        "district_code": 930412,
        "regency_code": 9304,
        "province_code": 93,
        "name": "Kapi",
        "postal_code": "99778",
        "latitude": -5.072284637477933,
        "longitude": 138.00222926096626
    },
    {
        "code": 9304122002,
        "district_code": 930412,
        "regency_code": 9304,
        "province_code": 93,
        "name": "As",
        "postal_code": "99778",
        "latitude": -5.127449883435183,
        "longitude": 138.05582566198603
    },
    {
        "code": 9304122003,
        "district_code": 930412,
        "regency_code": 9304,
        "province_code": 93,
        "name": "Atat",
        "postal_code": "99778",
        "latitude": -5.012607133402729,
        "longitude": 138.07916858900887
    },
    {
        "code": 9304122004,
        "district_code": 930412,
        "regency_code": 9304,
        "province_code": 93,
        "name": "Aou",
        "postal_code": "99778",
        "latitude": -4.991133867820482,
        "longitude": 137.94794125953607
    },
    {
        "code": 9304122005,
        "district_code": 930412,
        "regency_code": 9304,
        "province_code": 93,
        "name": "Nakai",
        "postal_code": "99778",
        "latitude": -4.880257914333762,
        "longitude": 137.87945685240845
    },
    {
        "code": 9304122006,
        "district_code": 930412,
        "regency_code": 9304,
        "province_code": 93,
        "name": "Esmapan",
        "postal_code": "99778",
        "latitude": -4.744487322986227,
        "longitude": 138.03199259918455
    },
    {
        "code": 9304122007,
        "district_code": 930412,
        "regency_code": 9304,
        "province_code": 93,
        "name": "Eroko",
        "postal_code": "99778",
        "latitude": -4.860045804947271,
        "longitude": 138.16024516386742
    },
    {
        "code": 9304122008,
        "district_code": 930412,
        "regency_code": 9304,
        "province_code": 93,
        "name": "Yakapis",
        "postal_code": "99778",
        "latitude": -4.740796842319347,
        "longitude": 138.17191159693888
    },
    {
        "code": 9304122009,
        "district_code": 930412,
        "regency_code": 9304,
        "province_code": 93,
        "name": "Weo",
        "postal_code": "99778",
        "latitude": -5.0268756756674,
        "longitude": 138.1484123252463
    },
    {
        "code": 9304122010,
        "district_code": 930412,
        "regency_code": 9304,
        "province_code": 93,
        "name": "Aoap",
        "postal_code": "99778",
        "latitude": -5.215394975546013,
        "longitude": 137.79249989462755
    },
    {
        "code": 9304122011,
        "district_code": 930412,
        "regency_code": 9304,
        "province_code": 93,
        "name": "Fumereipits",
        "postal_code": "99778",
        "latitude": -4.974654246914237,
        "longitude": 137.83992175458152
    },
    {
        "code": 9304132001,
        "district_code": 930413,
        "regency_code": 9304,
        "province_code": 93,
        "name": "Warse\/Jetsy",
        "postal_code": "99785",
        "latitude": -5.583343720886132,
        "longitude": 138.34370517245506
    },
    {
        "code": 9304132002,
        "district_code": 930413,
        "regency_code": 9304,
        "province_code": 93,
        "name": "Powetsy\/Amborep",
        "postal_code": "99785",
        "latitude": -5.654384412410232,
        "longitude": 138.37166117418442
    },
    {
        "code": 9304132003,
        "district_code": 930413,
        "regency_code": 9304,
        "province_code": 93,
        "name": "Pau",
        "postal_code": "99785",
        "latitude": -5.488710069731474,
        "longitude": 138.34847893489626
    },
    {
        "code": 9304132004,
        "district_code": 930413,
        "regency_code": 9304,
        "province_code": 93,
        "name": "Sesakam",
        "postal_code": "99785",
        "latitude": -5.6619102026251085,
        "longitude": 138.2430557952768
    },
    {
        "code": 9304132005,
        "district_code": 930413,
        "regency_code": 9304,
        "province_code": 93,
        "name": "Akamar",
        "postal_code": "99785",
        "latitude": -5.530598889370553,
        "longitude": 138.37199162485754
    },
    {
        "code": 9304132006,
        "district_code": 930413,
        "regency_code": 9304,
        "province_code": 93,
        "name": "Birak",
        "postal_code": "99785",
        "latitude": -5.576005212188153,
        "longitude": 138.25794999116803
    },
    {
        "code": 9304132007,
        "district_code": 930413,
        "regency_code": 9304,
        "province_code": 93,
        "name": "Katew",
        "postal_code": "99785",
        "latitude": -5.418504207340467,
        "longitude": 138.30045481643145
    },
    {
        "code": 9304132008,
        "district_code": 930413,
        "regency_code": 9304,
        "province_code": 93,
        "name": "Dawer",
        "postal_code": "99785",
        "latitude": -5.607932233784817,
        "longitude": 138.37927868487162
    },
    {
        "code": 9304142001,
        "district_code": 930414,
        "regency_code": 9304,
        "province_code": 93,
        "name": "Yamkap",
        "postal_code": "99771",
        "latitude": -6.208307429162893,
        "longitude": 138.71917917193926
    },
    {
        "code": 9304142002,
        "district_code": 930414,
        "regency_code": 9304,
        "province_code": 93,
        "name": "Amkum",
        "postal_code": "99771",
        "latitude": -6.194223674154821,
        "longitude": 138.74647451870405
    },
    {
        "code": 9304142003,
        "district_code": 930414,
        "regency_code": 9304,
        "province_code": 93,
        "name": "Amaru",
        "postal_code": "99771",
        "latitude": -6.267178967578138,
        "longitude": 138.8037346385859
    },
    {
        "code": 9304142004,
        "district_code": 930414,
        "regency_code": 9304,
        "province_code": 93,
        "name": "Amkai",
        "postal_code": "99771",
        "latitude": -6.268342814111296,
        "longitude": 138.73286699176774
    },
    {
        "code": 9304142005,
        "district_code": 930414,
        "regency_code": 9304,
        "province_code": 93,
        "name": "Amagais",
        "postal_code": "99771",
        "latitude": -6.188460319028378,
        "longitude": 138.78924540026588
    },
    {
        "code": 9304142006,
        "district_code": 930414,
        "regency_code": 9304,
        "province_code": 93,
        "name": "Erosaman",
        "postal_code": "99771",
        "latitude": -6.214635009540871,
        "longitude": 138.81554218417955
    },
    {
        "code": 9304152001,
        "district_code": 930415,
        "regency_code": 9304,
        "province_code": 93,
        "name": "Kawem",
        "postal_code": "99772",
        "latitude": -6.351667299734326,
        "longitude": 138.75389736564748
    },
    {
        "code": 9304152002,
        "district_code": 930415,
        "regency_code": 9304,
        "province_code": 93,
        "name": "Hahare",
        "postal_code": "99772",
        "latitude": -6.359914925810266,
        "longitude": 138.62864342211356
    },
    {
        "code": 9304152003,
        "district_code": 930415,
        "regency_code": 9304,
        "province_code": 93,
        "name": "Aikut",
        "postal_code": "99772",
        "latitude": -6.348782153783723,
        "longitude": 138.5996531869332
    },
    {
        "code": 9304152004,
        "district_code": 930415,
        "regency_code": 9304,
        "province_code": 93,
        "name": "Sanem",
        "postal_code": "99772",
        "latitude": -6.32116498262863,
        "longitude": 138.54250902930164
    },
    {
        "code": 9304152005,
        "district_code": 930415,
        "regency_code": 9304,
        "province_code": 93,
        "name": "Kaipom",
        "postal_code": "99772",
        "latitude": -6.294419831815191,
        "longitude": 138.6152198826534
    },
    {
        "code": 9304152006,
        "district_code": 930415,
        "regency_code": 9304,
        "province_code": 93,
        "name": "Airo Sapem",
        "postal_code": "99772",
        "latitude": -6.364059549880051,
        "longitude": 138.66619172086007
    },
    {
        "code": 9304152007,
        "district_code": 930415,
        "regency_code": 9304,
        "province_code": 93,
        "name": "Simipit",
        "postal_code": "99772",
        "latitude": -6.313236394219111,
        "longitude": 138.57992689519094
    },
    {
        "code": 9304152008,
        "district_code": 930415,
        "regency_code": 9304,
        "province_code": 93,
        "name": "Heiyaram",
        "postal_code": "99772",
        "latitude": -6.301372673400193,
        "longitude": 138.64020745807974
    },
    {
        "code": 9304152009,
        "district_code": 930415,
        "regency_code": 9304,
        "province_code": 93,
        "name": "Wagasu",
        "postal_code": "99772",
        "latitude": -6.324723062026888,
        "longitude": 138.69046478390766
    },
    {
        "code": 9304152010,
        "district_code": 930415,
        "regency_code": 9304,
        "province_code": 93,
        "name": "Sasime",
        "postal_code": "99772",
        "latitude": -6.366028334040783,
        "longitude": 138.72636939971213
    },
    {
        "code": 9304162001,
        "district_code": 930416,
        "regency_code": 9304,
        "province_code": 93,
        "name": "Primapun",
        "postal_code": "99774",
        "latitude": -6.289992718018544,
        "longitude": 138.4360997958024
    },
    {
        "code": 9304162002,
        "district_code": 930416,
        "regency_code": 9304,
        "province_code": 93,
        "name": "Aworket",
        "postal_code": "99774",
        "latitude": -6.341457663704949,
        "longitude": 138.45651982136644
    },
    {
        "code": 9304162003,
        "district_code": 930416,
        "regency_code": 9304,
        "province_code": 93,
        "name": "Saman",
        "postal_code": "99774",
        "latitude": -6.295257205963981,
        "longitude": 138.49444951088606
    },
    {
        "code": 9304162004,
        "district_code": 930416,
        "regency_code": 9304,
        "province_code": 93,
        "name": "Bayun",
        "postal_code": "99774",
        "latitude": -6.196774831245108,
        "longitude": 138.4168611073284
    },
    {
        "code": 9304162005,
        "district_code": 930416,
        "regency_code": 9304,
        "province_code": 93,
        "name": "Semendoro",
        "postal_code": "99774",
        "latitude": -6.46817769235776,
        "longitude": 138.6320117181636
    },
    {
        "code": 9304162006,
        "district_code": 930416,
        "regency_code": 9304,
        "province_code": 93,
        "name": "Tareo",
        "postal_code": "99774",
        "latitude": -6.418560530921952,
        "longitude": 138.56738105829123
    },
    {
        "code": 9304162007,
        "district_code": 930416,
        "regency_code": 9304,
        "province_code": 93,
        "name": "Kayirim",
        "postal_code": "99774",
        "latitude": -6.2438887912431955,
        "longitude": 138.43821804563584
    },
    {
        "code": 9304162008,
        "district_code": 930416,
        "regency_code": 9304,
        "province_code": 93,
        "name": "Santambor",
        "postal_code": "99774",
        "latitude": -6.152128264821504,
        "longitude": 138.41676358902075
    },
    {
        "code": 9304162009,
        "district_code": 930416,
        "regency_code": 9304,
        "province_code": 93,
        "name": "Yaptambor",
        "postal_code": "99774",
        "latitude": -6.118645220946545,
        "longitude": 138.38662701465609
    },
    {
        "code": 9304162010,
        "district_code": 930416,
        "regency_code": 9304,
        "province_code": 93,
        "name": "Simsagar",
        "postal_code": "99774",
        "latitude": -6.16751037620253,
        "longitude": 138.48877780160595
    },
    {
        "code": 9304162011,
        "district_code": 930416,
        "regency_code": 9304,
        "province_code": 93,
        "name": "Itersok",
        "postal_code": "99774",
        "latitude": -6.204520355946366,
        "longitude": 138.4792047678564
    },
    {
        "code": 9304162012,
        "district_code": 930416,
        "regency_code": 9304,
        "province_code": 93,
        "name": "Emene",
        "postal_code": "99774",
        "latitude": -6.378318473547817,
        "longitude": 138.492629031608
    },
    {
        "code": 9304172001,
        "district_code": 930417,
        "regency_code": 9304,
        "province_code": 93,
        "name": "Yausakor",
        "postal_code": "99787",
        "latitude": -5.637116288695122,
        "longitude": 138.46119466352226
    },
    {
        "code": 9304172002,
        "district_code": 930417,
        "regency_code": 9304,
        "province_code": 93,
        "name": "Damen",
        "postal_code": "99787",
        "latitude": -5.528842676331089,
        "longitude": 138.51595662112942
    },
    {
        "code": 9304172003,
        "district_code": 930417,
        "regency_code": 9304,
        "province_code": 93,
        "name": "Biwar Darat",
        "postal_code": "99787",
        "latitude": -5.477641400656978,
        "longitude": 138.57993256278328
    },
    {
        "code": 9304172004,
        "district_code": 930417,
        "regency_code": 9304,
        "province_code": 93,
        "name": "Kaimo",
        "postal_code": "99787",
        "latitude": -5.5771447937053855,
        "longitude": 138.63870896943746
    },
    {
        "code": 9304172005,
        "district_code": 930417,
        "regency_code": 9304,
        "province_code": 93,
        "name": "Awok",
        "postal_code": "99787",
        "latitude": -5.581644940223904,
        "longitude": 138.6820365874566
    },
    {
        "code": 9304172006,
        "district_code": 930417,
        "regency_code": 9304,
        "province_code": 93,
        "name": "Fos",
        "postal_code": "99787",
        "latitude": -5.577978895308266,
        "longitude": 138.80480145844155
    },
    {
        "code": 9304172007,
        "district_code": 930417,
        "regency_code": 9304,
        "province_code": 93,
        "name": "Waganu",
        "postal_code": "99787",
        "latitude": -5.537260235178757,
        "longitude": 138.9827246299504
    },
    {
        "code": 9304172008,
        "district_code": 930417,
        "regency_code": 9304,
        "province_code": 93,
        "name": "Sakor",
        "postal_code": "99787",
        "latitude": -5.620224066780528,
        "longitude": 138.54348611220604
    },
    {
        "code": 9304182001,
        "district_code": 930418,
        "regency_code": 9304,
        "province_code": 93,
        "name": "Comoro",
        "postal_code": "99776",
        "latitude": -5.905166409328489,
        "longitude": 138.6585596523854
    },
    {
        "code": 9304182002,
        "district_code": 930418,
        "regency_code": 9304,
        "province_code": 93,
        "name": "Kawet",
        "postal_code": "99776",
        "latitude": -5.875559196980724,
        "longitude": 138.54240861462293
    },
    {
        "code": 9304182003,
        "district_code": 930418,
        "regency_code": 9304,
        "province_code": 93,
        "name": "Mausi",
        "postal_code": "99776",
        "latitude": -5.922259792849436,
        "longitude": 138.54950925890088
    },
    {
        "code": 9304182004,
        "district_code": 930418,
        "regency_code": 9304,
        "province_code": 93,
        "name": "Sato Yod",
        "postal_code": "99776",
        "latitude": null,
        "longitude": null
    },
    {
        "code": 9304182005,
        "district_code": 930418,
        "regency_code": 9304,
        "province_code": 93,
        "name": "Tamor",
        "postal_code": "99776",
        "latitude": null,
        "longitude": null
    },
    {
        "code": 9304182006,
        "district_code": 930418,
        "regency_code": 9304,
        "province_code": 93,
        "name": "Ero Airo",
        "postal_code": "99776",
        "latitude": null,
        "longitude": null
    },
    {
        "code": 9304192001,
        "district_code": 930419,
        "regency_code": 9304,
        "province_code": 93,
        "name": "Biwar Laut",
        "postal_code": "99786",
        "latitude": -5.787750801840349,
        "longitude": 138.26423293466902
    },
    {
        "code": 9304192002,
        "district_code": 930419,
        "regency_code": 9304,
        "province_code": 93,
        "name": "Atambuts",
        "postal_code": "99786",
        "latitude": -5.801290550916736,
        "longitude": 138.3684400920709
    },
    {
        "code": 9304192003,
        "district_code": 930419,
        "regency_code": 9304,
        "province_code": 93,
        "name": "Omanesep",
        "postal_code": "99786",
        "latitude": -5.914337062252036,
        "longitude": 138.32327427328886
    },
    {
        "code": 9304192004,
        "district_code": 930419,
        "regency_code": 9304,
        "province_code": 93,
        "name": "Warkai",
        "postal_code": "99786",
        "latitude": -5.948461614205077,
        "longitude": 138.4817501780865
    },
    {
        "code": 9304192005,
        "district_code": 930419,
        "regency_code": 9304,
        "province_code": 93,
        "name": "You",
        "postal_code": "99786",
        "latitude": -5.890686817757326,
        "longitude": 138.28816988421966
    },
    {
        "code": 9304192006,
        "district_code": 930419,
        "regency_code": 9304,
        "province_code": 93,
        "name": "Pirpis",
        "postal_code": "99786",
        "latitude": -5.738657035281895,
        "longitude": 138.2409454061316
    },
    {
        "code": 9304192007,
        "district_code": 930419,
        "regency_code": 9304,
        "province_code": 93,
        "name": "Desep",
        "postal_code": "99786",
        "latitude": -5.888637051374393,
        "longitude": 138.39548000079674
    },
    {
        "code": 9304202001,
        "district_code": 930420,
        "regency_code": 9304,
        "province_code": 93,
        "name": "Bor",
        "postal_code": "99792",
        "latitude": -5.6049502600101,
        "longitude": 139.31300883505727
    },
    {
        "code": 9304202002,
        "district_code": 930420,
        "regency_code": 9304,
        "province_code": 93,
        "name": "Daikot",
        "postal_code": "99792",
        "latitude": -5.538328374609917,
        "longitude": 139.2955881795989
    },
    {
        "code": 9304202003,
        "district_code": 930420,
        "regency_code": 9304,
        "province_code": 93,
        "name": "Somnak",
        "postal_code": "99792",
        "latitude": -5.583301017716978,
        "longitude": 139.3912470040362
    },
    {
        "code": 9304202004,
        "district_code": 930420,
        "regency_code": 9304,
        "province_code": 93,
        "name": "Wabak",
        "postal_code": "99792",
        "latitude": -5.582345726228981,
        "longitude": 139.4622122972381
    },
    {
        "code": 9304202005,
        "district_code": 930420,
        "regency_code": 9304,
        "province_code": 93,
        "name": "Vakam",
        "postal_code": "99792",
        "latitude": -5.538799209108084,
        "longitude": 139.41237227227546
    },
    {
        "code": 9304202006,
        "district_code": 930420,
        "regency_code": 9304,
        "province_code": 93,
        "name": "Vakam Dua",
        "postal_code": "99792",
        "latitude": -5.457092445098045,
        "longitude": 139.44883124813524
    },
    {
        "code": 9304202007,
        "district_code": 930420,
        "regency_code": 9304,
        "province_code": 93,
        "name": "Dekamer",
        "postal_code": "99792",
        "latitude": -5.505395952381064,
        "longitude": 139.4739962052834
    },
    {
        "code": 9304212001,
        "district_code": 930421,
        "regency_code": 9304,
        "province_code": 93,
        "name": "Piramat",
        "postal_code": "99782",
        "latitude": -6.118189055086024,
        "longitude": 138.48478426110876
    },
    {
        "code": 9304212002,
        "district_code": 930421,
        "regency_code": 9304,
        "province_code": 93,
        "name": "Bawos",
        "postal_code": "99782",
        "latitude": -6.081221038124249,
        "longitude": 138.49352585729267
    },
    {
        "code": 9304212003,
        "district_code": 930421,
        "regency_code": 9304,
        "province_code": 93,
        "name": "Akan Tapak",
        "postal_code": "99782",
        "latitude": -6.090040922892226,
        "longitude": 138.5345393711724
    },
    {
        "code": 9304212004,
        "district_code": 930421,
        "regency_code": 9304,
        "province_code": 93,
        "name": "Tauro",
        "postal_code": "99782",
        "latitude": -6.13769967666081,
        "longitude": 138.56861902640907
    },
    {
        "code": 9304212005,
        "district_code": 930421,
        "regency_code": 9304,
        "province_code": 93,
        "name": "Bagair",
        "postal_code": "99782",
        "latitude": -6.100138940889131,
        "longitude": 138.55698736437614
    },
    {
        "code": 9304212006,
        "district_code": 930421,
        "regency_code": 9304,
        "province_code": 93,
        "name": "Wiyar",
        "postal_code": "99782",
        "latitude": -6.064984371966574,
        "longitude": 138.6992752983438
    },
    {
        "code": 9304212007,
        "district_code": 930421,
        "regency_code": 9304,
        "province_code": 93,
        "name": "Kagas",
        "postal_code": "99782",
        "latitude": -6.088865298661106,
        "longitude": 138.59298411998975
    },
    {
        "code": 9304212008,
        "district_code": 930421,
        "regency_code": 9304,
        "province_code": 93,
        "name": "Mapane",
        "postal_code": "99782",
        "latitude": -6.109834592165914,
        "longitude": 138.66522809453335
    },
    {
        "code": 9304212009,
        "district_code": 930421,
        "regency_code": 9304,
        "province_code": 93,
        "name": "Ainamsato",
        "postal_code": "99782",
        "latitude": -6.019338820438095,
        "longitude": 138.68719909170008
    },
    {
        "code": 9304212010,
        "district_code": 930421,
        "regency_code": 9304,
        "province_code": 93,
        "name": "Amaita",
        "postal_code": "99782",
        "latitude": -6.119330489617528,
        "longitude": 138.43722662117793
    },
    {
        "code": 9304222001,
        "district_code": 930422,
        "regency_code": 9304,
        "province_code": 93,
        "name": "Yerfum",
        "postal_code": "99771",
        "latitude": -6.1156679927992075,
        "longitude": 138.79218333493293
    },
    {
        "code": 9304222002,
        "district_code": 930422,
        "regency_code": 9304,
        "province_code": 93,
        "name": "Suagai",
        "postal_code": "99771",
        "latitude": -6.123243904705533,
        "longitude": 138.85521556866303
    },
    {
        "code": 9304222003,
        "district_code": 930422,
        "regency_code": 9304,
        "province_code": 93,
        "name": "Sohomane",
        "postal_code": "99771",
        "latitude": -6.1313003623454,
        "longitude": 138.88126741800863
    },
    {
        "code": 9304222004,
        "district_code": 930422,
        "regency_code": 9304,
        "province_code": 93,
        "name": "Sagare",
        "postal_code": "99776",
        "latitude": -5.948939041075285,
        "longitude": 138.78707030807402
    },
    {
        "code": 9304222005,
        "district_code": 930422,
        "regency_code": 9304,
        "province_code": 93,
        "name": "Yefuwagi",
        "postal_code": "99776",
        "latitude": -5.933302775400214,
        "longitude": 138.86121634359893
    },
    {
        "code": 9304222006,
        "district_code": 930422,
        "regency_code": 9304,
        "province_code": 93,
        "name": "Wagi",
        "postal_code": "99776",
        "latitude": -6.040552599690494,
        "longitude": 138.8612348708662
    },
    {
        "code": 9304232001,
        "district_code": 930423,
        "regency_code": 9304,
        "province_code": 93,
        "name": "Mabul",
        "postal_code": "99791",
        "latitude": -5.324117605209579,
        "longitude": 139.6970905424984
    },
    {
        "code": 9304232002,
        "district_code": 930423,
        "regency_code": 9304,
        "province_code": 93,
        "name": "Banum",
        "postal_code": "99792",
        "latitude": -5.243418912127979,
        "longitude": 139.80910383436097
    },
    {
        "code": 9304232003,
        "district_code": 930423,
        "regency_code": 9304,
        "province_code": 93,
        "name": "Ayak",
        "postal_code": "99792",
        "latitude": -5.172827755961447,
        "longitude": 139.91442187476295
    },
    {
        "code": 9304232004,
        "district_code": 930423,
        "regency_code": 9304,
        "province_code": 93,
        "name": "Amakot",
        "postal_code": "99792",
        "latitude": -5.196369303899305,
        "longitude": 139.8537970991125
    },
    {
        "code": 9304232005,
        "district_code": 930423,
        "regency_code": 9304,
        "province_code": 93,
        "name": "Nagatun",
        "postal_code": "99792",
        "latitude": -5.073917535779857,
        "longitude": 139.93560077042264
    },
    {
        "code": 9304232006,
        "district_code": 930423,
        "regency_code": 9304,
        "province_code": 93,
        "name": "Ujung Batu",
        "postal_code": "99792",
        "latitude": -5.124364555472552,
        "longitude": 139.89652966021515
    },
    {
        "code": 9304232007,
        "district_code": 930423,
        "regency_code": 9304,
        "province_code": 93,
        "name": "Kapayap Tiga",
        "postal_code": "99792",
        "latitude": -5.264311663819709,
        "longitude": 139.85744451342242
    },
    {
        "code": 9304232008,
        "district_code": 930423,
        "regency_code": 9304,
        "province_code": 93,
        "name": "Sipanap",
        "postal_code": "99791",
        "latitude": -5.345787772717261,
        "longitude": 139.61205360108892
    },
    {
        "code": 9304242001,
        "district_code": 930424,
        "regency_code": 9304,
        "province_code": 93,
        "name": "Tomor",
        "postal_code": "99780",
        "latitude": -5.320326565329387,
        "longitude": 138.24077364437588
    },
    {
        "code": 9304242002,
        "district_code": 930424,
        "regency_code": 9304,
        "province_code": 93,
        "name": "Munu",
        "postal_code": "99780",
        "latitude": -5.051426837133525,
        "longitude": 138.6041538262234
    },
    {
        "code": 9304242003,
        "district_code": 930424,
        "regency_code": 9304,
        "province_code": 93,
        "name": "Abamu",
        "postal_code": "99780",
        "latitude": -4.845148081712387,
        "longitude": 138.63826626480406
    },
    {
        "code": 9304242004,
        "district_code": 930424,
        "regency_code": 9304,
        "province_code": 93,
        "name": "Tie",
        "postal_code": "99781",
        "latitude": -4.821972196143328,
        "longitude": 138.78725760854095
    },
    {
        "code": 9304242005,
        "district_code": 930424,
        "regency_code": 9304,
        "province_code": 93,
        "name": "Koba",
        "postal_code": "99781",
        "latitude": -4.820410633719853,
        "longitude": 138.83312795152497
    },
    {
        "code": 9304242006,
        "district_code": 930424,
        "regency_code": 9304,
        "province_code": 93,
        "name": "Sagapu",
        "postal_code": "99781",
        "latitude": -4.841292631750118,
        "longitude": 138.70356247659808
    },
    {
        "code": 9304242007,
        "district_code": 930424,
        "regency_code": 9304,
        "province_code": 93,
        "name": "Jifak",
        "postal_code": "99781",
        "latitude": -4.991322519010569,
        "longitude": 138.96762472702522
    },
    {
        "code": 9304242008,
        "district_code": 930424,
        "regency_code": 9304,
        "province_code": 93,
        "name": "Yensuku",
        "postal_code": "99781",
        "latitude": -4.754315339238241,
        "longitude": 138.76578185056317
    },
    {
        "code": 9304252001,
        "district_code": 930425,
        "regency_code": 9304,
        "province_code": 93,
        "name": "Beco",
        "postal_code": "99779",
        "latitude": -5.40462900206247,
        "longitude": 138.53213193584648
    },
    {
        "code": 9304252002,
        "district_code": 930425,
        "regency_code": 9304,
        "province_code": 93,
        "name": "Yuni",
        "postal_code": "99779",
        "latitude": -5.385228784330868,
        "longitude": 138.7172779989251
    },
    {
        "code": 9304252003,
        "district_code": 930425,
        "regency_code": 9304,
        "province_code": 93,
        "name": "Buetkawar",
        "postal_code": "99779",
        "latitude": -5.231389754485275,
        "longitude": 139.0014085336943
    },
    {
        "code": 9304252004,
        "district_code": 930425,
        "regency_code": 9304,
        "province_code": 93,
        "name": "Manep",
        "postal_code": "99779",
        "latitude": -5.426572828141565,
        "longitude": 138.43073452350828
    },
    {
        "code": 9304252005,
        "district_code": 930425,
        "regency_code": 9304,
        "province_code": 93,
        "name": "Simini",
        "postal_code": "99779",
        "latitude": -5.304211925087022,
        "longitude": 138.5120072693693
    },
    {
        "code": 9304252006,
        "district_code": 930425,
        "regency_code": 9304,
        "province_code": 93,
        "name": "Fakan\/Ani",
        "postal_code": "99779",
        "latitude": -5.1658583370695785,
        "longitude": 138.70386207454683
    }
]