code,district_code,regency_code,province_code,name,postal_code,latitude,longitude,coordinates
9201011001,920101,9201,92,Makbon,98452,,,null
9201012002,920101,9201,92,Asbaken,98452,,,null
9201012004,920101,9201,92,Malaumkarta,98452,,,null
9201012005,920101,9201,92,"Batu Lubang",98452,,,null
9201012007,920101,9201,92,"Batu Lubang Pantai",98452,,,null
9201012008,920101,9201,92,Kwadas,98452,,,null
9201012009,920101,9201,92,Bainkete,98452,,,null
9201012010,920101,9201,92,"Teluk Dore",98452,,,null
9201012011,920101,9201,92,Sawatuk,98452,,,null
9201012012,920101,9201,92,Malagasih,98452,,,null
9201012013,920101,9201,92,Klasimigik,98452,,,null
9201012014,920101,9201,92,Klasigi,98452,,,null
9201012015,920101,9201,92,Klagulus,98452,,,null
9201012016,920101,9201,92,Suatolo,98452,,,null
9201012017,920101,9201,92,Mibi,98452,,,null
9201042001,920104,9201,92,Klabra,98432,,,null
9201042002,920104,9201,92,Wanurian,98432,,,null
9201042009,920104,9201,92,Klarion,98432,,,null
9201042011,920104,9201,92,Kaas,98432,,,null
9201042015,920104,9201,92,Wensi,98432,,,null
9201042016,920104,9201,92,Mumpi,98432,,,null
9201042019,920104,9201,92,Klamak,98432,,,null
9201042020,920104,9201,92,Serselion,98432,,,null
9201042022,920104,9201,92,Kmafo,98432,,,null
9201042027,920104,9201,92,Midlal,98432,,,null
9201042028,920104,9201,92,Sorain,98432,,,null
9201042033,920104,9201,92,Armoin,98432,,,null
9201042034,920104,9201,92,"Serselion Baru",98432,,,null
9201051001,920105,9201,92,Katinim,98423,,,null
9201051006,920105,9201,92,Majener,98423,,,null
9201051007,920105,9201,92,Majaran,98423,,,null
9201051009,920105,9201,92,Matawolot,98423,,,null
9201052011,920105,9201,92,Walal,98423,,,null
9201052012,920105,9201,92,Malaus,98423,,,null
9201052018,920105,9201,92,"Rawa Sugi",98423,,,null
9201062001,920106,9201,92,Seget,98426,,,null
9201062004,920106,9201,92,Malaban,98426,,,null
9201062005,920106,9201,92,"Pulau Kasim",98426,,,null
9201062010,920106,9201,92,Kasimle,98426,,,null
9201062011,920106,9201,92,Wewenagu,98426,,,null
9201062012,920106,9201,92,Wasingsan,98426,,,null
9201062013,920106,9201,92,Klayas,98426,,,null
9201062014,920106,9201,92,Wayenkede,98426,,,null
9201062015,920106,9201,92,Mobi,98426,,,null
9201071001,920107,9201,92,Aimas,98444,,,null
9201071002,920107,9201,92,Malawili,98444,,,null
9201071003,920107,9201,92,Malawele,98444,,,null
9201071006,920107,9201,92,"Mariat Pantai",98444,,,null
9201071026,920107,9201,92,"Mariat Gunung",98444,,,null
9201071029,920107,9201,92,Warmon,98444,,,null
9201071030,920107,9201,92,Klabinain,98444,,,null
9201071031,920107,9201,92,Malasom,98444,,,null
9201071032,920107,9201,92,Klaigit,98444,,,null
9201071034,920107,9201,92,Malagusa,98444,,,null
9201071035,920107,9201,92,Klafma,98444,,,null
9201072028,920107,9201,92,Maibo,98444,,,null
9201072033,920107,9201,92,Aimo,98444,,,null
9201072038,920107,9201,92,Malasaum,98444,,,null
9201082001,920108,9201,92,Klawana,98441,,,null
9201082002,920108,9201,92,Klamano,98441,,,null
9201082003,920108,9201,92,Wariayau,98441,,,null
9201082008,920108,9201,92,Klamono,98441,,,null
9201082009,920108,9201,92,Wonosari,98441,,,null
9201082010,920108,9201,92,"Gisim Darat",98441,,,null
9201082013,920108,9201,92,Mlais,98441,,,null
9201082020,920108,9201,92,Mlasmily,98441,,,null
9201082021,920108,9201,92,Klasafet,98441,,,null
9201082022,920108,9201,92,Posa,98441,,,null
9201102001,920110,9201,92,Sayosa,98453,,,null
9201102004,920110,9201,92,Maladofok,98453,,,null
9201102006,920110,9201,92,Yorbes,98453,,,null
9201102011,920110,9201,92,Samusa,98453,,,null
9201102012,920110,9201,92,Klamintu,98453,,,null
9201102014,920110,9201,92,Klain,98453,,,null
9201122001,920112,9201,92,Segun,98427,,,null
9201122002,920112,9201,92,Gisim,98427,,,null
9201122003,920112,9201,92,Waimon,98427,,,null
9201122004,920112,9201,92,Klasegun,98427,,,null
9201122005,920112,9201,92,Waimlabat,98427,,,null
9201122006,920112,9201,92,Majemau,98427,,,null
9201122008,920112,9201,92,Klasin,98427,,,null
9201122009,920112,9201,92,Klajaring,98427,,,null
9201122010,920112,9201,92,Malamas,98427,,,null
9201131001,920113,9201,92,Makbusum,98421,,,null
9201131002,920113,9201,92,Makbalim,98421,,,null
9201131003,920113,9201,92,Makotyamsa,98421,,,null
9201132004,920113,9201,92,Jeflio,98421,,,null
9201132005,920113,9201,92,Arar,98421,,,null
9201132006,920113,9201,92,Klalin,98421,,,null
9201132007,920113,9201,92,Klasmelek,98421,,,null
9201132008,920113,9201,92,Wen,98421,,,null
9201132009,920113,9201,92,"Warmon Kokoda",98421,,,null
9201132010,920113,9201,92,Asjidba,98421,,,null
9201132011,920113,9201,92,Malamay,98421,,,null
9201142001,920114,9201,92,Sailolof,98424,,,null
9201142002,920114,9201,92,Klotlol,98424,,,null
9201142007,920114,9201,92,Dulbatan,98424,,,null
9201142008,920114,9201,92,Manoket,98424,,,null
9201142011,920114,9201,92,Payapop,98424,,,null
9201142012,920114,9201,92,Masmaspop,98424,,,null
9201172003,920117,9201,92,Indiwi,98436,,,null
9201172004,920117,9201,92,Klabot,98436,,,null
9201172005,920117,9201,92,Mlat,98436,,,null
9201172008,920117,9201,92,Mlawes,98436,,,null
9201172009,920117,9201,92,Mlasfa,98436,,,null
9201172010,920117,9201,92,Kanolo,98436,,,null
9201172014,920117,9201,92,Somir,98436,,,null
9201172015,920117,9201,92,Warkti,98436,,,null
9201182001,920118,9201,92,Wilty,98437,,,null
9201182004,920118,9201,92,Mlawen,98437,,,null
9201182008,920118,9201,92,Byaklokfle,98437,,,null
9201182009,920118,9201,92,Tbotjin,98437,,,null
9201182010,920118,9201,92,Sas,98437,,,null
9201182011,920118,9201,92,Samolslo,98437,,,null
9201182012,920118,9201,92,Kmasen,98437,,,null
9201182013,920118,9201,92,Klasawon,98437,,,null
9201182014,920118,9201,92,Yurkaden,98437,,,null
9201182019,920118,9201,92,Betwaft,98437,,,null
9201182025,920118,9201,92,Cokif,98437,,,null
9201202001,920120,9201,92,Luwelala,98457,,,null
9201202003,920120,9201,92,Klatim,98457,,,null
9201202004,920120,9201,92,Klaos,98457,,,null
9201202006,920120,9201,92,Suluh,98457,,,null
9201202009,920120,9201,92,Bosi,98457,,,null
9201202010,920120,9201,92,Kamuyar,98457,,,null
9201202011,920120,9201,92,Klaka,98457,,,null
9201202012,920120,9201,92,Safdesa,98457,,,null
9201202015,920120,9201,92,Klagen,98457,,,null
9201391001,920139,9201,92,Klamalu,98445,,,null
9201391002,920139,9201,92,Mariyai,98445,,,null
9201391003,920139,9201,92,Klasukuk,98445,,,null
9201391004,920139,9201,92,Klamasen,98445,,,null
9201391009,920139,9201,92,Maklalut,98445,,,null
9201391010,920139,9201,92,Klaru,98445,,,null
9201391011,920139,9201,92,Jamaimo,98445,,,null
9201392005,920139,9201,92,Klaben,98445,,,null
9201392007,920139,9201,92,Klasan,98445,,,null
9201392008,920139,9201,92,Fafi,98445,,,null
9201392012,920139,9201,92,Kasih,98445,,,null
9201402001,920140,9201,92,Klayili,98451,,,null
9201402002,920140,9201,92,Klawuluh,98451,,,null
9201402003,920140,9201,92,Malakobutu,98451,,,null
9201402004,920140,9201,92,Kwakeik,98451,,,null
9201402005,920140,9201,92,Klasowoh,98451,,,null
9201402006,920140,9201,92,Malalilis,98451,,,null
9201402007,920140,9201,92,Mlawer,98451,,,null
9201402008,920140,9201,92,Klatomok,98451,,,null
9201412002,920141,9201,92,Siwis,98456,,,null
9201412003,920141,9201,92,Miskum,98456,,,null
9201412004,920141,9201,92,Klamugun,98456,,,null
9201412006,920141,9201,92,Sbaga,98456,,,null
9201412007,920141,9201,92,Klalik,98456,,,null
9201412008,920141,9201,92,Malawhili,98456,,,null
9201412013,920141,9201,92,Klasou,98456,,,null
9201422001,920142,9201,92,Klafdalim,98422,,,null
9201422002,920142,9201,92,Klaforo,98422,,,null
9201422003,920142,9201,92,Klasof,98422,,,null
9201422004,920142,9201,92,Ninjemur,98422,,,null
9201422005,920142,9201,92,Klasarin,98422,,,null
9201422006,920142,9201,92,Klawoton,98422,,,null
9201422007,920142,9201,92,Wonosobo,98422,,,null
9201422008,920142,9201,92,Sakamerin,98422,,,null
9201422009,920142,9201,92,Masmili,98422,,,null
9201432001,920143,9201,92,Maibo,98446,,,null
9201432002,920143,9201,92,Malaflon,98446,,,null
9201432003,920143,9201,92,Kabanmolo,98446,,,null
9201432004,920143,9201,92,Klatok,98446,,,null
9201442001,920144,9201,92,Disfra,98431,,,null
9201442002,920144,9201,92,Bagun,98431,,,null
9201442003,920144,9201,92,Klawom,98431,,,null
9201442004,920144,9201,92,Klamomis,98431,,,null
9201442005,920144,9201,92,Klakwonrit,98431,,,null
9201442006,920144,9201,92,Mode,98431,,,null
9201442007,920144,9201,92,Bratmawe,98431,,,null
9201442008,920144,9201,92,Klawon,98431,,,null
9201442009,920144,9201,92,Mlamli,98431,,,null
9201452001,920145,9201,92,Saluk,98455,,,null
9201452002,920145,9201,92,Klawren,98455,,,null
9201452003,920145,9201,92,Woloin,98455,,,null
9201452004,920145,9201,92,"Klalin Mos",98455,,,null
9201452005,920145,9201,92,Kwari,98455,,,null
9201452006,920145,9201,92,Kamlin,98455,,,null
9201462001,920146,9201,92,Dasri,98459,,,null
9201462002,920146,9201,92,Masos,98459,,,null
9201462003,920146,9201,92,Ketawas,98459,,,null
9201462004,920146,9201,92,Warbo,98459,,,null
9201462005,920146,9201,92,Suus,98459,,,null
9201462006,920146,9201,92,Sulya,98459,,,null
9201462007,920146,9201,92,Bolwi,98459,,,null
9201472001,920147,9201,92,Buk,98434,,,null
9201472002,920147,9201,92,Mlakhan,98434,,,null
9201472003,920147,9201,92,Klais,98434,,,null
9201472004,920147,9201,92,Mimpe,98434,,,null
9201472005,920147,9201,92,Tiklen,98434,,,null
9201472006,920147,9201,92,Klahen,98434,,,null
9201472007,920147,9201,92,Moos,98434,,,null
9201482001,920148,9201,92,Saengkeduk,98458,,,null
9201482002,920148,9201,92,Selekobo,98458,,,null
9201482003,920148,9201,92,Suye,98458,,,null
9201482004,920148,9201,92,Klamede,98458,,,null
9201482005,920148,9201,92,Sambatie,98458,,,null
9201482006,920148,9201,92,Klagele,98458,,,null
9201492001,920149,9201,92,Malasigit,98443,,,null
9201492002,920149,9201,92,Klagulu,98443,,,null
9201492003,920149,9201,92,Klamugun,98443,,,null
9201492004,920149,9201,92,Malajapa,98443,,,null
9201492005,920149,9201,92,Klasman,98443,,,null
9201492006,920149,9201,92,Malamoja,98443,,,null
9201492007,920149,9201,92,Magatarum,98443,,,null
9201492008,920149,9201,92,"Tanah Tinggi",98443,,,null
9201492009,920149,9201,92,"Marik May",98443,,,null
9201502001,920150,9201,92,Tarsa,98438,,,null
9201502002,920150,9201,92,Klamne,98438,,,null
9201502003,920150,9201,92,Wisbiak,98438,,,null
9201502004,920150,9201,92,Klafyo,98438,,,null
9201502005,920150,9201,92,Mlasiwor,98438,,,null
9201502006,920150,9201,92,Klafelem,98438,,,null
9201502007,920150,9201,92,Klaflum,98438,,,null
9201502008,920150,9201,92,Klarin,98438,,,null
9201502009,920150,9201,92,Mlaron,98437,,,null
9201512001,920151,9201,92,Maladuk,98442,,,null
9201512002,920151,9201,92,"Klamono Oil",98442,,,null
9201512003,920151,9201,92,"Bar Ros",98442,,,null
9201512004,920151,9201,92,"Pusu Tiligum",98442,,,null
9201512005,920151,9201,92,"Klawili Be",98442,,,null
9201522001,920152,9201,92,Hobard,98435,,,null
9201522002,920152,9201,92,Brianlo,98435,,,null
9201522003,920152,9201,92,Floyi,98435,,,null
9201522004,920152,9201,92,Klazelth,98435,,,null
9201522005,920152,9201,92,Sfadon,98435,,,null
9201522006,920152,9201,92,Selol,98435,,,null
9201522007,920152,9201,92,Dais,98435,,,null
9201532001,920153,9201,92,Waliam,98425,,,null
9201532002,920153,9201,92,Manfanim,98425,,,null
9201532003,920153,9201,92,Waibin,98425,,,null
9201532004,920153,9201,92,Waiman,98425,,,null
9201532005,920153,9201,92,Sakapul,98425,,,null
9201532006,920153,9201,92,Maralol,98425,,,null
9201532007,920153,9201,92,Batbiro,98425,,,null
9201532008,920153,9201,92,"Durian Kari",98425,,,null
9201532009,920153,9201,92,Meyaup,98425,,,null
9201532010,920153,9201,92,Sailen,98425,,,null
9201542001,920154,9201,92,Klafluk,98433,,,null
9201542002,920154,9201,92,Mamsit,98433,,,null
9201542003,920154,9201,92,Sabake,98433,,,null
9201542004,920154,9201,92,Klayastani,98433,,,null
9201552001,920155,9201,92,Sailala,98454,,,null
9201552002,920155,9201,92,Klawana,98454,,,null
9201552003,920155,9201,92,Kladuk,98454,,,null
9201552004,920155,9201,92,Klawon,98454,,,null
9201552005,920155,9201,92,Klakak,98454,,,null
9201552006,920155,9201,92,Klalwok,98454,,,null
9202032001,920203,9202,92,Dindey,98317,,,null
9202032002,920203,9202,92,Indisey,98317,,,null
9202032003,920203,9202,92,Hingk,98317,,,null
9202032004,920203,9202,92,Warmare,98317,,,null
9202032005,920203,9202,92,Nimbay,98317,,,null
9202032006,920203,9202,92,Meny,98317,,,null
9202032007,920203,9202,92,"Tanah Merah",98317,,,null
9202032008,920203,9202,92,Umcen,98317,,,null
9202032009,920203,9202,92,Subsay,98317,,,null
9202032010,920203,9202,92,Madrat,98317,,,null
9202032011,920203,9202,92,Snaimboy,98317,,,null
9202032012,920203,9202,92,Guentuy,98317,,,null
9202032013,920203,9202,92,Ngungguen,98317,,,null
9202032014,920203,9202,92,Sotea,98317,,,null
9202032015,920203,9202,92,Duwin,98317,,,null
9202032016,920203,9202,92,Ibuwau,98317,,,null
9202032017,920203,9202,92,Iboisrati,98317,,,null
9202032018,920203,9202,92,Sraindabey,98317,,,null
9202032019,920203,9202,92,Mokwam,98317,,,null
9202032020,920203,9202,92,Amber,98317,,,null
9202032021,920203,9202,92,Kwau,98317,,,null
9202032022,920203,9202,92,Syou,98317,,,null
9202032023,920203,9202,92,Indonbey,98317,,,null
9202032024,920203,9202,92,Mingre,98317,,,null
9202032025,920203,9202,92,Aiwow,98317,,,null
9202032026,920203,9202,92,Asarbey,98317,,,null
9202032027,920203,9202,92,Minoqbei,98317,,,null
9202032028,920203,9202,92,Bahamyenti,98317,,,null
9202032029,920203,9202,92,Figoud,98317,,,null
9202032030,920203,9202,92,Kipuwau,98317,,,null
9202032031,920203,9202,92,Duweibey,98317,,,null
9202042001,920204,9202,92,"Prafi Mulya",98316,,,null
9202042002,920204,9202,92,Umbuy,98316,,,null
9202042003,920204,9202,92,Desay,98316,,,null
9202042004,920204,9202,92,Aimasi,98316,,,null
9202042005,920204,9202,92,"Udapi Hilir",98316,,,null
9202042006,920204,9202,92,"Waseki Pop",98316,,,null
9202042007,920204,9202,92,"Wasegi Indah",98316,,,null
9202042008,920204,9202,92,Ingkwoisi,98316,,,null
9202042009,920204,9202,92,Bogor,98316,,,null
9202042010,920204,9202,92,Somi,98316,,,null
9202042011,920204,9202,92,"Bedip Matoa",98316,,,null
9202042012,920204,9202,92,"Kali Amin",98316,,,null
9202042013,920204,9202,92,Lismaungu,98316,,,null
9202042014,920204,9202,92,Uhyehebrig,98316,,,null
9202042015,920204,9202,92,Kerenu,98316,,,null
9202042016,920204,9202,92,Mebji,98316,,,null
9202052001,920205,9202,92,Masni,98318,,,null
9202052002,920205,9202,92,"Sumber Boga",98318,,,null
9202052003,920205,9202,92,"Prafi Barat",98318,,,null
9202052004,920205,9202,92,"Muara Prafi",98318,,,null
9202052006,920205,9202,92,Macuan,98318,,,null
9202052008,920205,9202,92,Wariori,98318,,,null
9202052009,920205,9202,92,"Bowi Subur",98318,,,null
9202052010,920205,9202,92,Makwan,98318,,,null
9202052011,920205,9202,92,"Kali Merah",98318,,,null
9202052012,920205,9202,92,Meiforga,98318,,,null
9202052013,920205,9202,92,Sibuni,98318,,,null
9202052014,920205,9202,92,Yensum,98318,,,null
9202052015,920205,9202,92,Mansaburi,98318,,,null
9202052016,920205,9202,92,Igor,98318,,,null
9202052017,920205,9202,92,Merejemeg,98318,,,null
9202052018,920205,9202,92,Aurmios,98318,,,null
9202052020,920205,9202,92,Sembab,98318,,,null
9202052024,920205,9202,92,Membowi,98318,,,null
9202052027,920205,9202,92,Yonsoribo,98318,,,null
9202052028,920205,9202,92,"Meyof II",98318,,,null
9202052030,920205,9202,92,Moubja,98318,,,null
9202052031,920205,9202,92,Ririnfos,98318,,,null
9202052032,920205,9202,92,"Muara Wariori",98318,,,null
9202052034,920205,9202,92,Koyani,98318,,,null
9202052035,920205,9202,92,Meyeruk,98318,,,null
9202052036,920205,9202,92,Inyei,98318,,,null
9202052037,920205,9202,92,Undi,98318,,,null
9202052038,920205,9202,92,Jowen,98318,,,null
9202052039,920205,9202,92,Aska,98318,,,null
9202052040,920205,9202,92,Mantedi,98318,,,null
9202052042,920205,9202,92,"Wariori Indah",98318,,,null
9202052045,920205,9202,92,Urey,98318,,,null
9202052046,920205,9202,92,Wamfoura,98318,,,null
9202121001,920212,9202,92,"Manokwari Barat",98312,,,null
9202121002,920212,9202,92,Sanggeng,98312,,,null
9202121003,920212,9202,92,Wosi,98312,,,null
9202121004,920212,9202,92,Amban,98312,,,null
9202121005,920212,9202,92,Padarni,98312,,,null
9202121006,920212,9202,92,"Manokwari Timur",98312,,,null
9202122007,920212,9202,92,Udopi,98312,,,null
9202122008,920212,9202,92,Ingramui,98312,,,null
9202122009,920212,9202,92,Soribo,98312,,,null
9202122010,920212,9202,92,"Tanah Merah Indah",98312,,,null
9202131001,920213,9202,92,"Pasir Putih",98311,,,null
9202132002,920213,9202,92,Mansinam,98311,,,null
9202132003,920213,9202,92,Ayambori,98311,,,null
9202132004,920213,9202,92,Bakaro,98311,,,null
9202132005,920213,9202,92,Arowi,98311,,,null
9202132006,920213,9202,92,Aipiri,98311,,,null
9202132007,920213,9202,92,Susweni,98311,,,null
9202142001,920214,9202,92,"Yoom I",98314,,,null
9202142002,920214,9202,92,Mandopi,98314,,,null
9202142003,920214,9202,92,Mubri,98314,,,null
9202142004,920214,9202,92,"Yoom II",98314,,,null
9202142005,920214,9202,92,"Teluk Mubri",98314,,,null
9202142006,920214,9202,92,Meyes,98314,,,null
9202142007,920214,9202,92,Bremi,98314,,,null
9202142008,920214,9202,92,Saubeba,98314,,,null
9202142009,920214,9202,92,Pami,98314,,,null
9202142010,920214,9202,92,Warbefor,98314,,,null
9202142011,920214,9202,92,Asai,98314,,,null
9202142012,920214,9202,92,Inya,98314,,,null
9202142013,920214,9202,92,Meyunfoka,98314,,,null
9202142014,920214,9202,92,"Tanah Rubuh",98314,,,null
9202142015,920214,9202,92,Sairo,98314,,,null
9202142016,920214,9202,92,Singgimeba,98314,,,null
9202142017,920214,9202,92,Inoduas,98314,,,null
9202142018,920214,9202,92,Lebau,98314,,,null
9202142020,920214,9202,92,"Cabang Dua",98314,,,null
9202142021,920214,9202,92,Yonggam,98314,,,null
9202142022,920214,9202,92,"Indou Oufa",98314,,,null
9202142023,920214,9202,92,Mubraidiba,98314,,,null
9202151001,920215,9202,92,Sowi,98313,,,null
9202151002,920215,9202,92,Anday,98313,,,null
9202152003,920215,9202,92,Katebu,98313,,,null
9202152004,920215,9202,92,Masyepi,98313,,,null
9202152005,920215,9202,92,Warmomi,98313,,,null
9202152006,920215,9202,92,Dihara,98313,,,null
9202152007,920215,9202,92,Waluri,98313,,,null
9202152008,920215,9202,92,Maruni,98313,,,null
9202152009,920215,9202,92,Misapmeysi,98313,,,null
9202152010,920215,9202,92,Wasai,98313,,,null
9202152011,920215,9202,92,Anggresi,98313,,,null
9202152012,920215,9202,92,Mupi,98313,,,null
9202152013,920215,9202,92,Warswami,98313,,,null
9202152014,920215,9202,92,Acemo,98313,,,null
9202152015,920215,9202,92,Wamesa,98313,,,null
9202152016,920215,9202,92,Dobut,98313,,,null
9202152017,920215,9202,92,Warkomi,98313,,,null
9202152018,920215,9202,92,Ngunimbouw,98313,,,null
9202172001,920217,9202,92,Warkapi,98315,,,null
9202172002,920217,9202,92,Ayawi,98315,,,null
9202172003,920217,9202,92,Ukopti,98315,,,null
9202172004,920217,9202,92,Misabugoid,98315,,,null
9202172005,920217,9202,92,Mbatma,98315,,,null
9202172006,920217,9202,92,Urwambei,98315,,,null
9202172007,920217,9202,92,"Imbeisika I",98315,,,null
9202172008,920217,9202,92,"Imbeisika II",98315,,,null
9202172009,920217,9202,92,Warmawai,98315,,,null
9202172010,920217,9202,92,Rembuy,98315,,,null
9202172011,920217,9202,92,Imhasuma,98315,,,null
9202172012,920217,9202,92,Cuyehep,98315,,,null
9202172013,920217,9202,92,Hanghouw,98315,,,null
9202172014,920217,9202,92,Ningdip,98315,,,null
9202172015,920217,9202,92,Warami,98315,,,null
9202172016,920217,9202,92,Imboiti,98315,,,null
9202172017,920217,9202,92,Wariari,98315,,,null
9202172018,920217,9202,92,Indibo,98315,,,null
9202172019,920217,9202,92,Umnum,98315,,,null
9202172020,920217,9202,92,Ukemboisi,98315,,,null
9202172021,920217,9202,92,Menyumfoku,98315,,,null
9202172022,920217,9202,92,Wedoni,98315,,,null
9202172023,920217,9202,92,Mirowi,98315,,,null
9202172024,920217,9202,92,Warnyeti,98315,,,null
9202212001,920221,9202,92,Kaironi,98319,,,null
9202212002,920221,9202,92,Sidey,98319,,,null
9202212003,920221,9202,92,Waramui,98319,,,null
9202212004,920221,9202,92,Kassi,98319,,,null
9202212005,920221,9202,92,Saray,98319,,,null
9202212006,920221,9202,92,"Sidey Baru",98319,,,null
9202212007,920221,9202,92,"Sidey Makmur",98319,,,null
9202212008,920221,9202,92,"Meyof I",98319,,,null
9202212009,920221,9202,92,Wariki,98319,,,null
9202212010,920221,9202,92,Womnowi,98319,,,null
9202212011,920221,9202,92,Manggupi,98319,,,null
9202212012,920221,9202,92,"Sidey Jaya",98319,,,null
9203011001,920301,9203,92,"Fak Fak Selatan",98011,,,null
9203011002,920301,9203,92,"Fak Fak Utara",98011,,,null
9203012007,920301,9203,92,Gewerpe,98011,,,null
9203012011,920301,9203,92,"Lusi Peri",98011,,,null
9203012012,920301,9203,92,Wrikapal,98011,,,null
9203022001,920302,9203,92,Werba,98022,,,null
9203022002,920302,9203,92,Kiat,98022,,,null
9203022003,920302,9203,92,Purwasak,98022,,,null
9203022008,920302,9203,92,Wurkendik,98022,,,null
9203022010,920302,9203,92,Kwuhkendak,98022,,,null
9203022011,920302,9203,92,"Purwahab Tonggo",98022,,,null
9203022012,920302,9203,92,"Pahger Nkindik",98022,,,null
9203022013,920302,9203,92,"Werba Utara",98022,,,null
9203022014,920302,9203,92,Porum,98022,,,null
9203032001,920303,9203,92,"Tunas Gain",98027,,,null
9203032003,920303,9203,92,Urat,98027,,,null
9203032004,920303,9203,92,Sanggram,98027,,,null
9203032010,920303,9203,92,Weri,98027,,,null
9203032012,920303,9203,92,"Kiria Bisa",98027,,,null
9203032013,920303,9203,92,Saharei,98027,,,null
9203041001,920304,9203,92,"Kokas Kota",98016,,,null
9203042003,920304,9203,92,Mandoni,98016,,,null
9203042008,920304,9203,92,Sekar,98016,,,null
9203042009,920304,9203,92,Ugar,98016,,,null
9203042010,920304,9203,92,Sisir,98016,,,null
9203042011,920304,9203,92,"Kampung Baru",98016,,,null
9203042012,920304,9203,92,Patimburak,98016,,,null
9203042013,920304,9203,92,Batufiafas,98016,,,null
9203042014,920304,9203,92,Kinam,98016,,,null
9203042021,920304,9203,92,Mambunibuni,98016,,,null
9203042024,920304,9203,92,Kriawaswas,98016,,,null
9203042028,920304,9203,92,Sosar,98016,,,null
9203042029,920304,9203,92,"Pang Wadar",98016,,,null
9203042030,920304,9203,92,Masina,98016,,,null
9203042031,920304,9203,92,"Kimina Kra",98016,,,null
9203051001,920305,9203,92,Danaweria,98012,,,null
9203052002,920305,9203,92,"Kayu Merah",98012,,,null
9203052003,920305,9203,92,Katemba,98012,,,null
9203052004,920305,9203,92,Nemewikarya,98012,,,null
9203052005,920305,9203,92,Raduria,98012,,,null
9203052006,920305,9203,92,Brongkendik,98012,,,null
9203052007,920305,9203,92,"Air Besar",98012,,,null
9203052008,920305,9203,92,Mandopma,98012,,,null
9203052009,920305,9203,92,Kanantare,98012,,,null
9203052010,920305,9203,92,"Pasir Putih",98012,,,null
9203052011,920305,9203,92,Pirma,98012,,,null
9203052012,920305,9203,92,Sakartemin,98012,,,null
9203052013,920305,9203,92,Hambrangkendik,98012,,,null
9203052014,920305,9203,92,Unipokpok,98012,,,null
9203062001,920306,9203,92,Malakuli,98032,,,null
9203062002,920306,9203,92,Faur,98032,,,null
9203062003,920306,9203,92,Kiaba,98032,,,null
9203062004,920306,9203,92,Antalisa,98032,,,null
9203062005,920306,9203,92,Tarak,98032,,,null
9203062006,920306,9203,92,Tuberwasak,98032,,,null
9203062007,920306,9203,92,Mas,98032,,,null
9203072007,920307,9203,92,Onimsari,98026,,,null
9203072008,920307,9203,92,Mekarsari,98026,,,null
9203072009,920307,9203,92,"Pinang Agung",98026,,,null
9203072010,920307,9203,92,"Bumi Moroh Indah",98026,,,null
9203072012,920307,9203,92,Tesha,98026,,,null
9203072014,920307,9203,92,"Onim Jaya",98026,,,null
9203072015,920307,9203,92,"Wono Rejo",98026,,,null
9203082001,920308,9203,92,Kramongmongga,98017,,,null
9203082007,920308,9203,92,Wargep,98017,,,null
9203082008,920308,9203,92,Mamur,98017,,,null
9203082009,920308,9203,92,Nembukteb,98017,,,null
9203082010,920308,9203,92,Pikpik,98017,,,null
9203082011,920308,9203,92,Kwamkwamur,98017,,,null
9203082012,920308,9203,92,Bahbadan,98017,,,null
9203082016,920308,9203,92,Gewab,98017,,,null
9203082017,920308,9203,92,Tentreda,98017,,,null
9203082018,920308,9203,92,"Mbaham Ma Youn",98017,,,null
9203092001,920309,9203,92,Puar,98024,,,null
9203092002,920309,9203,92,Degen,98024,,,null
9203092003,920309,9203,92,Tetar,98024,,,null
9203092005,920309,9203,92,Sum,98024,,,null
9203092011,920309,9203,92,Adora,98024,,,null
9203092012,920309,9203,92,Us,98024,,,null
9203092014,920309,9203,92,"Patipi Pasir",98024,,,null
9203092015,920309,9203,92,"Patipi Pulau",98024,,,null
9203092017,920309,9203,92,Mawar,98024,,,null
9203092018,920309,9203,92,Tibatibananam,98024,,,null
9203092020,920309,9203,92,Offie,98024,,,null
9203092021,920309,9203,92,Muhri,98024,,,null
9203092022,920309,9203,92,Bisa,98024,,,null
9203101001,920310,9203,92,Wagom,98013,,,null
9203101002,920310,9203,92,"Wagom Utara",98013,,,null
9203101003,920310,9203,92,Dulanpokpok,98013,,,null
9203102004,920310,9203,92,Tanama,98013,,,null
9203102005,920310,9203,92,Kapaurtutin,98013,,,null
9203102006,920310,9203,92,Sekban,98013,,,null
9203102007,920310,9203,92,Torea,98013,,,null
9203102008,920310,9203,92,Sekru,98013,,,null
9203102009,920310,9203,92,"Sukuru Tuare",98013,,,null
9203112001,920311,9203,92,Werpigan,98025,,,null
9203112002,920311,9203,92,Werabuan,98025,,,null
9203112003,920311,9203,92,Wartutin,98025,,,null
9203112004,920311,9203,92,Siboru,98025,,,null
9203112005,920311,9203,92,Sipatnanam,98025,,,null
9203112006,920311,9203,92,"Kamandur Tetar",98025,,,null
9203122001,920312,9203,92,Waserat,98031,,,null
9203122002,920312,9203,92,Wambar,98031,,,null
9203122003,920312,9203,92,Kotam,98031,,,null
9203122004,920312,9203,92,Kwama,98031,,,null
9203122005,920312,9203,92,Kalamanuk,98031,,,null
9203122006,920312,9203,92,"Wayati Timur",98031,,,null
9203122007,920312,9203,92,Wayati,98031,,,null
9203122008,920312,9203,92,"Wayati Barat",98031,,,null
9203122009,920312,9203,92,Krabelang,98031,,,null
9203122010,920312,9203,92,"Wambar Timur",98031,,,null
9203132001,920313,9203,92,Andamata,98014,,,null
9203132002,920313,9203,92,Taver,98014,,,null
9203132003,920313,9203,92,Arguni,98014,,,null
9203132004,920313,9203,92,Fior,98014,,,null
9203132005,920313,9203,92,Furir,98014,,,null
9203142001,920314,9203,92,Darembang,98021,,,null
9203142002,920314,9203,92,Goras,98021,,,null
9203142003,920314,9203,92,Mitimber,98021,,,null
9203142004,920314,9203,92,Waremu,98021,,,null
9203142005,920314,9203,92,Wos,98021,,,null
9203142006,920314,9203,92,Mbahamdandra,98021,,,null
9203142007,920314,9203,92,"Goras Selatan",98021,,,null
9203152001,920315,9203,92,Kaburbur,98015,,,null
9203152002,920315,9203,92,Ubadari,98015,,,null
9203152004,920315,9203,92,Homorkokma,98015,,,null
9203152005,920315,9203,92,Pattukar,98015,,,null
9203152006,920315,9203,92,Kayuni,98015,,,null
9203152007,920315,9203,92,Kuagas,98015,,,null
9203152008,920315,9203,92,Rangkendak,98015,,,null
9203152009,920315,9203,92,Mananmur,98015,,,null
9203152010,920315,9203,92,Warpa,98015,,,null
9203162001,920316,9203,92,Salakiti,98023,,,null
9203162002,920316,9203,92,Tawar,98023,,,null
9203162003,920316,9203,92,Gar,98023,,,null
9203162004,920316,9203,92,Rumbati,98023,,,null
9203162005,920316,9203,92,Werfra,98023,,,null
9203162006,920316,9203,92,Tanehamur,98023,,,null
9203162007,920316,9203,92,Sengkiti,98023,,,null
9203162008,920316,9203,92,Twootkindik,98023,,,null
9203172001,920317,9203,92,"Mbima Jaya",98033,,,null
9203172002,920317,9203,92,"Warisa Mulya",98033,,,null
9203172003,920317,9203,92,"Wonodadi Mulya",98033,,,null
9203172004,920317,9203,92,Tomage,98033,,,null
9203172005,920317,9203,92,Otoweri,98033,,,null
9203172006,920317,9203,92,Wamosan,98033,,,null
9203172007,920317,9203,92,Salawier,98033,,,null
9203172008,920317,9203,92,"Wasa Mulya",98033,,,null
9203172009,920317,9203,92,Wammar,98033,,,null
9204011005,920401,9204,92,Kaibus,98216,,,null
9204011006,920401,9204,92,Kohoin,98216,,,null
9204012004,920401,9204,92,Wersar,98216,,,null
9204012009,920401,9204,92,Wehali,98216,,,null
9204012010,920401,9204,92,Aibobor,98216,,,null
9204012017,920401,9204,92,Wermit,98216,,,null
9204012018,920401,9204,92,Keyen,98216,,,null
9204012021,920401,9204,92,Siribau,98216,,,null
9204012025,920401,9204,92,Magis,98216,,,null
9204012026,920401,9204,92,Tegirolo,98216,,,null
9204012034,920401,9204,92,Wernas,98216,,,null
9204012035,920401,9204,92,Tapiri,98216,,,null
9204012040,920401,9204,92,Gorolo,98216,,,null
9204012041,920401,9204,92,Nambro,98216,,,null
9204012044,920401,9204,92,Seyolo,98216,,,null
9204012045,920401,9204,92,"Ani Sesna",98216,,,null
9204042001,920404,9204,92,Mate,98223,,,null
9204042004,920404,9204,92,Serkos,98223,,,null
9204042006,920404,9204,92,"Solta Baru",98223,,,null
9204042008,920404,9204,92,Wadoi,98223,,,null
9204042009,920404,9204,92,Isogo,98223,,,null
9204042013,920404,9204,92,Sibae,98223,,,null
9204042020,920404,9204,92,Mogibi,98223,,,null
9204042026,920404,9204,92,Odeare,98223,,,null
9204042027,920404,9204,92,Siri-siri,98223,,,null
9204062001,920406,9204,92,Sawiat,98232,,,null
9204062008,920406,9204,92,Sasnek,98232,,,null
9204062009,920406,9204,92,Elles,98232,,,null
9204062011,920406,9204,92,Sodrofoyo,98232,,,null
9204062012,920406,9204,92,Sfakyo,98232,,,null
9204062013,920406,9204,92,Wensough,98232,,,null
9204062014,920406,9204,92,Ween,98232,,,null
9204062015,920406,9204,92,Wendi,98232,,,null
9204092001,920409,9204,92,Tarof,98221,,,null
9204092002,920409,9204,92,"Negeri Besar",98221,,,null
9204092003,920409,9204,92,Siwatori,98221,,,null
9204092004,920409,9204,92,Kasuweri,98221,,,null
9204092005,920409,9204,92,Migori,98221,,,null
9204092006,920409,9204,92,Tambani,98221,,,null
9204092010,920409,9204,92,Daubak,98221,,,null
9204092011,920409,9204,92,Totona,98221,,,null
9204092012,920409,9204,92,Nayakore,98221,,,null
9204092014,920409,9204,92,Arbasina,98221,,,null
9204092015,920409,9204,92,Birawaku,98221,,,null
9204092016,920409,9204,92,Korewatara,98221,,,null
9204092017,920409,9204,92,Tapas,98221,,,null
9204092018,920409,9204,92,Topdan,98221,,,null
9204092020,920409,9204,92,Migrito,98221,,,null
9204092021,920409,9204,92,Daimar,98221,,,null
9204102001,920410,9204,92,Moswaren,98212,,,null
9204102002,920410,9204,92,Johsiro,98212,,,null
9204102003,920410,9204,92,Hararo,98212,,,null
9204102004,920410,9204,92,"Bumi Ajo",98212,,,null
9204102005,920410,9204,92,"Hasik Jaya",98212,,,null
9204102006,920410,9204,92,Kamisabe,98212,,,null
9204102007,920410,9204,92,Tokass,98212,,,null
9204112001,920411,9204,92,Haha,98214,,,null
9204112003,920411,9204,92,Klaogin,98214,,,null
9204112004,920411,9204,92,Tofot,98214,,,null
9204112005,920411,9204,92,Sbir,98214,,,null
9204112006,920411,9204,92,Srer,98214,,,null
9204112007,920411,9204,92,Woloin,98214,,,null
9204112008,920411,9204,92,Kamaro,98214,,,null
9204112009,920411,9204,92,Kakas,98214,,,null
9204122001,920412,9204,92,Sungguer,98215,,,null
9204122002,920412,9204,92,Unggi,98215,,,null
9204122003,920412,9204,92,Boldon,98215,,,null
9204122004,920412,9204,92,Sesor,98215,,,null
9204122005,920412,9204,92,Waigo,98215,,,null
9204122006,920412,9204,92,Bagaraga,98215,,,null
9204122007,920412,9204,92,Wardik,98215,,,null
9204122008,920412,9204,92,Wayer,98215,,,null
9204142001,920414,9204,92,Kais,98222,,,null
9204142002,920414,9204,92,Tapuri,98222,,,null
9204142003,920414,9204,92,Yahadian,98222,,,null
9204142004,920414,9204,92,"Benawa I",98222,,,null
9204142006,920414,9204,92,Sumano,98222,,,null
9204152001,920415,9204,92,Konda,98211,,,null
9204152002,920415,9204,92,Wamargege,98211,,,null
9204152003,920415,9204,92,Bariat,98211,,,null
9204152004,920415,9204,92,Manelek,98211,,,null
9204152005,920415,9204,92,Nagna,98211,,,null
9204202001,920420,9204,92,Mugim,98225,,,null
9204202002,920420,9204,92,Nusa,98225,,,null
9204202003,920420,9204,92,Saga,98225,,,null
9204202004,920420,9204,92,Puragi,98225,,,null
9204202005,920420,9204,92,Tawanggire,98225,,,null
9204202006,920420,9204,92,Bedare,98225,,,null
9204212001,920421,9204,92,Udagaga,98224,,,null
9204212002,920421,9204,92,Kayubiro,98224,,,null
9204212003,920421,9204,92,Adona,98224,,,null
9204212004,920421,9204,92,"Benawa II",98224,,,null
9204212005,920421,9204,92,Atori,98224,,,null
9204212006,920421,9204,92,"Kamundan Satu",98224,,,null
9204212007,920421,9204,92,Karirif,98224,,,null
9204212008,920421,9204,92,Bubuko,98224,,,null
9204212009,920421,9204,92,"Kamundan Dua",98224,,,null
9204222001,920422,9204,92,Manggroholo,98213,,,null
9204222002,920422,9204,92,Komanggaret,98213,,,null
9204222003,920422,9204,92,Sayal,98213,,,null
9204222004,920422,9204,92,Kayabo,98213,,,null
9204222005,920422,9204,92,Sisir,98213,,,null
9204222006,920422,9204,92,Mlaswat,98213,,,null
9204222007,920422,9204,92,Kwowok,98213,,,null
9204222008,920422,9204,92,Sira,98213,,,null
9204222009,920422,9204,92,Kenaya,98213,,,null
9204222010,920422,9204,92,Botain,98213,,,null
9204242001,920424,9204,92,"Pasir Putih",98231,,,null
9204242002,920424,9204,92,Wandum,98231,,,null
9204242003,920424,9204,92,Bemus,98231,,,null
9204242004,920424,9204,92,Welek,98231,,,null
9204252001,920425,9204,92,Wenslolo,98233,,,null
9204252002,920425,9204,92,Klamit,98233,,,null
9204252003,920425,9204,92,Mlabolo,98233,,,null
9204252004,920425,9204,92,Kofalit,98233,,,null
9204252005,920425,9204,92,Alma,98233,,,null
9204262001,920426,9204,92,Mukamat,98226,,,null
9204262002,920426,9204,92,Ikana,98226,,,null
9204262003,920426,9204,92,Haemaran,98226,,,null
9204262004,920426,9204,92,Siranggo,98226,,,null
9204262005,920426,9204,92,Mogatemin,98226,,,null
9204262006,920426,9204,92,Onimsefa,98226,,,null
9204262007,920426,9204,92,Makaroro,98226,,,null
9205012001,920501,9205,92,Waigama,98483,,,null
9205012005,920501,9205,92,Salafen,98483,,,null
9205012006,920501,9205,92,Aduwei,98483,,,null
9205012007,920501,9205,92,Atkari,98483,,,null
9205012014,920501,9205,92,Solal,98483,,,null
9205022003,920502,9205,92,Kabare,98466,,,null
9205022010,920502,9205,92,Andey,98466,,,null
9205022011,920502,9205,92,Asukweri,98466,,,null
9205022013,920502,9205,92,Bonsayor,98466,,,null
9205022014,920502,9205,92,Darumbab,98466,,,null
9205022015,920502,9205,92,Kalisade,98466,,,null
9205032004,920503,9205,92,Saonek,98475,,,null
9205032014,920503,9205,92,Saporkren,98475,,,null
9205032015,920503,9205,92,Yenbeser,98475,,,null
9205032016,920503,9205,92,Friwen,98475,,,null
9205032017,920503,9205,92,Wawiyai,98475,,,null
9205042001,920504,9205,92,Samate,98495,,,null
9205042002,920504,9205,92,Kapatlap,98495,,,null
9205042003,920504,9205,92,"Jefman Barat",98495,,,null
9205042015,920504,9205,92,Wamega,98495,,,null
9205042016,920504,9205,92,"Jefman Timur",98495,,,null
9205042017,920504,9205,92,Waidim,98495,,,null
9205052001,920505,9205,92,Dorehkar,98462,,,null
9205052003,920505,9205,92,Yenkawir,98462,,,null
9205052006,920505,9205,92,Boiseran,98462,,,null
9205052007,920505,9205,92,Runi,98462,,,null
9205052008,920505,9205,92,Yenkanfan,98462,,,null
9205062001,920506,9205,92,Folley,98486,,,null
9205062003,920506,9205,92,Tomolol,98486,,,null
9205062011,920506,9205,92,"Usaha Jaya",98486,,,null
9205062012,920506,9205,92,"Limalas Timur",98486,,,null
9205062016,920506,9205,92,Audam,98486,,,null
9205062017,920506,9205,92,"Limalas Barat",98486,,,null
9205072001,920507,9205,92,Selpele,98464,,,null
9205072005,920507,9205,92,Mutus,98464,,,null
9205072007,920507,9205,92,Bianci,98464,,,null
9205072011,920507,9205,92,Saleo,98464,,,null
9205072012,920507,9205,92,Waisilip,98464,,,null
9205082001,920508,9205,92,Puper,98476,,,null
9205082002,920508,9205,92,Yenbekaki,98476,,,null
9205082003,920508,9205,92,Urbinasopen,98476,,,null
9205082004,920508,9205,92,Yensner,98476,,,null
9205092001,920509,9205,92,Lopintol,98473,,,null
9205092007,920509,9205,92,Warsamdin,98473,,,null
9205092009,920509,9205,92,Mumes,98473,,,null
9205092010,920509,9205,92,Kalitoko,98473,,,null
9205102001,920510,9205,92,DibalaI,98482,,,null
9205102002,920510,9205,92,Tolobi,98482,,,null
9205102003,920510,9205,92,Deer,98482,,,null
9205102004,920510,9205,92,Mikiran,98482,,,null
9205102005,920510,9205,92,Awat,98482,,,null
9205112001,920511,9205,92,Yenbekwan,98472,,,null
9205112002,920511,9205,92,Kapisawar,98472,,,null
9205112003,920511,9205,92,Sawinggrai,98472,,,null
9205112004,920511,9205,92,Yenwaupnor,98472,,,null
9205112005,920511,9205,92,Arborek,98472,,,null
9205112006,920511,9205,92,Yenbuba,98472,,,null
9205112007,920511,9205,92,Kabuy,98472,,,null
9205112008,920511,9205,92,Kurkapa,98472,,,null
9205112009,920511,9205,92,Sawandarek,98472,,,null
9205132002,920513,9205,92,Fafanlap,98485,,,null
9205132006,920513,9205,92,Yellu,98485,,,null
9205132007,920513,9205,92,"Harapan Jaya",98485,,,null
9205132009,920513,9205,92,"Usaha Jaya",98485,,,null
9205132010,920513,9205,92,Dabatan,98485,,,null
9205142001,920514,9205,92,Warmanai,98467,,,null
9205142002,920514,9205,92,Mnier,98467,,,null
9205142003,920514,9205,92,Boni,98467,,,null
9205142004,920514,9205,92,Warkori,98467,,,null
9205152001,920515,9205,92,Manyaifun,98465,,,null
9205152002,920515,9205,92,Meosmanggara,98465,,,null
9205152003,920515,9205,92,Pam,98465,,,null
9205152004,920515,9205,92,Saukabu,98465,,,null
9205152005,920515,9205,92,Gag,98465,,,null
9205152006,920515,9205,92,Saupapir,98465,,,null
9205162001,920516,9205,92,Lilinta,98484,,,null
9205162002,920516,9205,92,Gamta,98484,,,null
9205162003,920516,9205,92,Biga,98484,,,null
9205162004,920516,9205,92,Kapatcol,98484,,,null
9205162005,920516,9205,92,Magey,98484,,,null
9205172001,920517,9205,92,"Wejim Barat",98481,,,null
9205172002,920517,9205,92,"Wejim Timur",98481,,,null
9205172003,920517,9205,92,Satukurano,98481,,,null
9205172004,920517,9205,92,"Pulau Tikus",98481,,,null
9205181001,920518,9205,92,Waisai,98471,,,null
9205181002,920518,9205,92,Sapordanco,98471,,,null
9205181003,920518,9205,92,Bonwakir,98471,,,null
9205181004,920518,9205,92,Warmasen,98471,,,null
9205192001,920519,9205,92,Go,98474,,,null
9205192002,920519,9205,92,Kabilol,98474,,,null
9205192003,920519,9205,92,Arway,98474,,,null
9205192004,920519,9205,92,Beo,98474,,,null
9205192005,920519,9205,92,Waifoi,98474,,,null
9205192006,920519,9205,92,Warimak,98474,,,null
9205202001,920520,9205,92,"Yensawai Timur",98492,,,null
9205202002,920520,9205,92,"Yensawai Barat",98492,,,null
9205202003,920520,9205,92,"Arefi Timur",98492,,,null
9205202004,920520,9205,92,"Arefi Selatan",98492,,,null
9205212001,920521,9205,92,Waibon,98493,,,null
9205212002,920521,9205,92,Solol,98493,,,null
9205212003,920521,9205,92,Kaliam,98493,,,null
9205212004,920521,9205,92,Kalwal,98493,,,null
9205222001,920522,9205,92,Kalobo,98494,,,null
9205222002,920522,9205,92,Sakabu,98494,,,null
9205222003,920522,9205,92,Waibu,98494,,,null
9205222004,920522,9205,92,Waijan,98494,,,null
9205222005,920522,9205,92,Waimeci,98494,,,null
9205222006,920522,9205,92,Wailabu,98494,,,null
9205222007,920522,9205,92,Wailen,98494,,,null
9205232001,920523,9205,92,Rauki,98463,,,null
9205232002,920523,9205,92,Urai,98463,,,null
9205232003,920523,9205,92,Duber,98463,,,null
9205232004,920523,9205,92,Kapadiri,98463,,,null
9205242001,920524,9205,92,Abidon,98461,,,null
9205242002,920524,9205,92,Rutum,98461,,,null
9205242003,920524,9205,92,Reni,98461,,,null
9205242004,920524,9205,92,Meosbekwan,98461,,,null
9205252001,920525,9205,92,Yenanas,98491,,,null
9205252002,920525,9205,92,Amdui,98491,,,null
9205252003,920525,9205,92,Wailebet,98491,,,null
9205252004,920525,9205,92,Waiman,98491,,,null
9206011001,920601,9206,92,"Bintuni Timur",98141,,,null
9206011002,920601,9206,92,"Bintuni Barat",98141,,,null
9206012004,920601,9206,92,Tuasai,98141,,,null
9206012005,920601,9206,92,Argosigemerai,98141,,,null
9206012009,920601,9206,92,Beimes,98141,,,null
9206012010,920601,9206,92,Iguriji,98141,,,null
9206012022,920601,9206,92,Masina,98141,,,null
9206012026,920601,9206,92,Wesiri,98141,,,null
9206022001,920602,9206,92,Merdey,98163,,,null
9206022002,920602,9206,92,Meryeb,98163,,,null
9206022004,920602,9206,92,Meyom,98163,,,null
9206022007,920602,9206,92,Menggerba,98163,,,null
9206022008,920602,9206,92,Anajero,98163,,,null
9206022010,920602,9206,92,Mogromus,98163,,,null
9206022011,920602,9206,92,Morombuy,98163,,,null
9206022014,920602,9206,92,Mekiesefeb,98163,,,null
9206022020,920602,9206,92,Meyetga,98163,,,null
9206032020,920603,9206,92,"Irarutu III",98132,,,null
9206032021,920603,9206,92,Amutu,98132,,,null
9206032022,920603,9206,92,Nusei,98132,,,null
9206032023,920603,9206,92,Kasira,98132,,,null
9206042001,920604,9206,92,Aranday,98151,,,null
9206042007,920604,9206,92,"Kampung Baru",98151,,,null
9206042008,920604,9206,92,Kecap,98151,,,null
9206042009,920604,9206,92,"Manunggal Karya",98151,,,null
9206052001,920605,9206,92,Jagiro,98155,,,null
9206052004,920605,9206,92,Meyenda,98155,,,null
9206052005,920605,9206,92,Rawara,98155,,,null
9206052006,920605,9206,92,"Barma Barat",98155,,,null
9206052011,920605,9206,92,Inggof,98155,,,null
9206062001,920606,9206,92,Moyeba,98165,,,null
9206062004,920606,9206,92,Merestim,98165,,,null
9206062005,920606,9206,92,Inofina,98165,,,null
9206062006,920606,9206,92,Mosum,98165,,,null
9206072001,920607,9206,92,"Wamesa I / Idoor",98146,,,null
9206072002,920607,9206,92,"Wamesa II / Yakati",98146,,,null
9206072003,920607,9206,92,Yansei,98146,,,null
9206072004,920607,9206,92,Mamuranu,98146,,,null
9206082001,920608,9206,92,"Fruata/Irowutu II",98133,,,null
9206082002,920608,9206,92,Meryedi,98133,,,null
9206082003,920608,9206,92,Riendo,98133,,,null
9206092001,920609,9206,92,Tembuni,98144,,,null
9206092002,920609,9206,92,"Mogoi Baru",98144,,,null
9206092003,920609,9206,92,Araisum,98144,,,null
9206092004,920609,9206,92,"Bangun Mulya",98144,,,null
9206102001,920610,9206,92,Sarbe,98135,,,null
9206102002,920610,9206,92,Wagura,98135,,,null
9206102003,920610,9206,92,Refideso,98135,,,null
9206102004,920610,9206,92,Naramasa,98135,,,null
9206102005,920610,9206,92,Obo,98135,,,null
9206112001,920611,9206,92,"Bumi Saniari",98143,,,null
9206112002,920611,9206,92,"Banjar Ausoy",98143,,,null
9206112003,920611,9206,92,Waraitama,98143,,,null
9206112004,920611,9206,92,"Atibo Manimeri",98143,,,null
9206112005,920611,9206,92,Pasamai,98143,,,null
9206112006,920611,9206,92,"Korano Jaya",98143,,,null
9206122001,920612,9206,92,Tuhiba,98145,,,null
9206122002,920612,9206,92,Tisaida,98145,,,null
9206122003,920612,9206,92,Kucir,98145,,,null
9206122004,920612,9206,92,"Sibena Raya",98145,,,null
9206122005,920612,9206,92,"Sibena Permai",98145,,,null
9206132001,920613,9206,92,Horna,98142,,,null
9206132002,920613,9206,92,Cumnaji,98142,,,null
9206132003,920613,9206,92,Menci,98142,,,null
9206132004,920613,9206,92,Sir,98142,,,null
9206132005,920613,9206,92,Huss,98142,,,null
9206132006,920613,9206,92,Ugdohop,98142,,,null
9206142001,920614,9206,92,Tofoi,98136,,,null
9206142002,920614,9206,92,"Tanah Merah",98136,,,null
9206142003,920614,9206,92,Saengga,98136,,,null
9206142004,920614,9206,92,Forada,98136,,,null
9206142005,920614,9206,92,"Materabu Jaya",98136,,,null
9206152001,920615,9206,92,Sara,98134,,,null
9206152002,920615,9206,92,"Warga Nusa I",98134,,,null
9206152003,920615,9206,92,"Warga Nusa II",98134,,,null
9206152004,920615,9206,92,Tugarama,98134,,,null
9206152005,920615,9206,92,Suga,98134,,,null
9206162001,920616,9206,92,Aroba,98131,,,null
9206162002,920616,9206,92,Yaru,98131,,,null
9206162003,920616,9206,92,"Sido Makmur",98131,,,null
9206162004,920616,9206,92,Wimbro,98131,,,null
9206162005,920616,9206,92,Sangguar,98131,,,null
9206172001,920617,9206,92,Masyeta,98162,,,null
9206172002,920617,9206,92,Mestofu,98162,,,null
9206172003,920617,9206,92,Kalibiru,98162,,,null
9206172004,920617,9206,92,Mesomda,98162,,,null
9206182001,920618,9206,92,Jahabra,98161,,,null
9206182002,920618,9206,92,Ibori,98161,,,null
9206182003,920618,9206,92,Menyembru,98161,,,null
9206182004,920618,9206,92,Meyorga,98161,,,null
9206182005,920618,9206,92,Laudoho,98161,,,null
9206182006,920618,9206,92,Eniba,98161,,,null
9206182007,920618,9206,92,Mowitka,98161,,,null
9206192001,920619,9206,92,"Sebyar Rejosasi",98156,,,null
9206192002,920619,9206,92,Tomu,98156,,,null
9206192003,920619,9206,92,Taroy,98156,,,null
9206192004,920619,9206,92,Ekam,98156,,,null
9206202001,920620,9206,92,"Kalitami I",98152,,,null
9206202002,920620,9206,92,"Kalitami II",98152,,,null
9206202003,920620,9206,92,Kenara,98152,,,null
9206202004,920620,9206,92,Bibiram,98152,,,null
9206212001,920621,9206,92,Weriagar,98157,,,null
9206212002,920621,9206,92,Mogotira,98157,,,null
9206212003,920621,9206,92,"Weriagar Baru",98157,,,null
9206212004,920621,9206,92,"Weriagar Utara",98157,,,null
9206212005,920621,9206,92,Tuanaikin,98157,,,null
9206222001,920622,9206,92,Meyerga,98154,,,null
9206222002,920622,9206,92,Macok,98154,,,null
9206222003,920622,9206,92,Istiwkem,98154,,,null
9206222004,920622,9206,92,Majnic,98154,,,null
9206232001,920623,9206,92,Meyado,98153,,,null
9206232002,920623,9206,92,Barma,98153,,,null
9206232003,920623,9206,92,"Barma Baru",98153,,,null
9206232004,920623,9206,92,"Vasco Damneen",98153,,,null
9206242001,920624,9206,92,Igomu,98164,,,null
9206242002,920624,9206,92,Mesna,98164,,,null
9206242003,920624,9206,92,Sumuy,98164,,,null
9207011001,920701,9207,92,"Wasior I",98346,,,null
9207012002,920701,9207,92,Rado,98346,,,null
9207012003,920701,9207,92,Dotir,98346,,,null
9207012004,920701,9207,92,Maniwak,98346,,,null
9207012005,920701,9207,92,"Wasior II",98346,,,null
9207012006,920701,9207,92,Maimari,98346,,,null
9207012007,920701,9207,92,Moru,98346,,,null
9207012009,920701,9207,92,Manopi,98346,,,null
9207012010,920701,9207,92,Ramiki,98346,,,null
9207012011,920701,9207,92,Iriati,98346,,,null
9207022001,920702,9207,92,"Wamesa Tengah",98336,,,null
9207022002,920702,9207,92,Yopmeos,98336,,,null
9207022004,920702,9207,92,Sombokoro,98336,,,null
9207022007,920702,9207,92,Windesi,98336,,,null
9207022010,920702,9207,92,Sandey,98336,,,null
9207032001,920703,9207,92,Aisandami,98345,,,null
9207032002,920703,9207,92,Sobey,98345,,,null
9207032006,920703,9207,92,Yopanggar,98345,,,null
9207032011,920703,9207,92,"Sobey Indah",98345,,,null
9207042002,920704,9207,92,Wondiboy,98347,,,null
9207042009,920704,9207,92,Kabouw,98347,,,null
9207042010,920704,9207,92,Issui,98347,,,null
9207042015,920704,9207,92,Kaibi,98347,,,null
9207052001,920705,9207,92,Sabubar,98335,,,null
9207052002,920705,9207,92,Ambuar,98335,,,null
9207052003,920705,9207,92,Karuan,98335,,,null
9207052007,920705,9207,92,Yarpate,98335,,,null
9207052009,920705,9207,92,Nordiwar,98335,,,null
9207062001,920706,9207,92,"Yombekiri I",98333,,,null
9207062002,920706,9207,92,Isenebuay,98333,,,null
9207062003,920706,9207,92,Yomakan,98333,,,null
9207062005,920706,9207,92,Iseren,98333,,,null
9207062008,920706,9207,92,"Yembekiri II",98333,,,null
9207062009,920706,9207,92,Yariari,98333,,,null
9207062011,920706,9207,92,Wetitindau,98333,,,null
9207072001,920707,9207,92,Wosimi,98342,,,null
9207072002,920707,9207,92,Sararti,98342,,,null
9207072003,920707,9207,92,Yabore,98342,,,null
9207072004,920707,9207,92,Oyaa,98342,,,null
9207072005,920707,9207,92,Inyora,98342,,,null
9207072006,920707,9207,92,Undurara,98342,,,null
9207082001,920708,9207,92,Rasiei,98343,,,null
9207082002,920708,9207,92,Torey,98343,,,null
9207082003,920708,9207,92,Isey,98343,,,null
9207082004,920708,9207,92,Uriemi,98343,,,null
9207082005,920708,9207,92,Sasirei,98343,,,null
9207082006,920708,9207,92,Tandia,98343,,,null
9207082007,920708,9207,92,Webi,98343,,,null
9207082008,920708,9207,92,Nggatum,98343,,,null
9207082009,920708,9207,92,Senderawoy,98343,,,null
9207092001,920709,9207,92,Ambumi,98341,,,null
9207092002,920709,9207,92,Nanimori,98341,,,null
9207092003,920709,9207,92,Dusner,98341,,,null
9207092004,920709,9207,92,Yerenusi,98341,,,null
9207092005,920709,9207,92,Sobiar,98341,,,null
9207092006,920709,9207,92,Simei,98341,,,null
9207102001,920710,9207,92,Yende,98344,,,null
9207102002,920710,9207,92,Syabes,98344,,,null
9207102003,920710,9207,92,Menarbu,98344,,,null
9207102004,920710,9207,92,Niab,98344,,,null
9207102005,920710,9207,92,Inday,98344,,,null
9207102006,920710,9207,92,Sariay,98344,,,null
9207102007,920710,9207,92,Mena,98344,,,null
9207112001,920711,9207,92,Waprak,98332,,,null
9207112002,920711,9207,92,Yomber,98332,,,null
9207112003,920711,9207,92,Syeiwar,98332,,,null
9207122001,920712,9207,92,Werabur,98331,,,null
9207122002,920712,9207,92,Mamisi,98331,,,null
9207122003,920712,9207,92,Werianggi,98331,,,null
9207122004,920712,9207,92,Kurei,98331,,,null
9207122005,920712,9207,92,Tamoge,98331,,,null
9207132001,920713,9207,92,Kaprus,98334,,,null
9207132002,920713,9207,92,Yarmatum,98334,,,null
9207132003,920713,9207,92,Reyob,98334,,,null
9207132004,920713,9207,92,Siresi,98334,,,null
9207132005,920713,9207,92,Nuspairo,98334,,,null
9208011001,920801,9208,92,"Kaimana Kota",98113,,,null
9208011014,920801,9208,92,Krooy,98113,,,null
9208012002,920801,9208,92,Marsi,98113,,,null
9208012003,920801,9208,92,Namatota,98113,,,null
9208012004,920801,9208,92,Lobo,98113,,,null
9208012005,920801,9208,92,Trikora,98113,,,null
9208012006,920801,9208,92,Tanggaromi,98113,,,null
9208012007,920801,9208,92,Sisir,98113,,,null
9208012008,920801,9208,92,"Foroma Jaya",98113,,,null
9208012009,920801,9208,92,Murano,98113,,,null
9208012010,920801,9208,92,"Mai Mai",98113,,,null
9208012011,920801,9208,92,Lumira,98113,,,null
9208012012,920801,9208,92,Kamaka,98113,,,null
9208012013,920801,9208,92,Coa,98113,,,null
9208012015,920801,9208,92,Saria,98113,,,null
9208012016,920801,9208,92,Jarati,98113,,,null
9208012017,920801,9208,92,Sara,98113,,,null
9208012018,920801,9208,92,Werua,98113,,,null
9208012019,920801,9208,92,Oray,98113,,,null
9208022001,920802,9208,92,Kambala,98123,,,null
9208022002,920802,9208,92,Yarona,98123,,,null
9208022003,920802,9208,92,Edor,98123,,,null
9208022004,920802,9208,92,Tairi,98123,,,null
9208022005,920802,9208,92,Gaka,98123,,,null
9208022006,920802,9208,92,Guriasa,98123,,,null
9208022007,920802,9208,92,"Adi Jaya",98123,,,null
9208022008,920802,9208,92,Nusaulan,98123,,,null
9208022009,920802,9208,92,Esania,98123,,,null
9208022010,920802,9208,92,Hia,98123,,,null
9208032001,920803,9208,92,Furnusu,98111,,,null
9208032002,920803,9208,92,Fetermu,98111,,,null
9208032003,920803,9208,92,Sawi,98111,,,null
9208032004,920803,9208,92,Turgani,98111,,,null
9208032010,920803,9208,92,Sawatewera,98111,,,null
9208032012,920803,9208,92,Bofuwer,98111,,,null
9208032013,920803,9208,92,Warwasi,98111,,,null
9208032014,920803,9208,92,Wanggita,98111,,,null
9208032016,920803,9208,92,Fudima,98111,,,null
9208032017,920803,9208,92,Weswasa,98111,,,null
9208032018,920803,9208,92,Borogerba,98111,,,null
9208032019,920803,9208,92,"Afu Afu",98111,,,null
9208032020,920803,9208,92,Bayeda,98111,,,null
9208032021,920803,9208,92,Moyana,98111,,,null
9208032022,920803,9208,92,Kokoroba,98111,,,null
9208032023,920803,9208,92,Wainaga,98111,,,null
9208032024,920803,9208,92,Maskur,98111,,,null
9208032025,920803,9208,92,Kensi,98111,,,null
9208032027,920803,9208,92,Erigara,98111,,,null
9208032028,920803,9208,92,Pigo,98111,,,null
9208032029,920803,9208,92,Tugumawa,98111,,,null
9208032030,920803,9208,92,Tiwara,98111,,,null
9208032031,920803,9208,92,Gusi,98111,,,null
9208032032,920803,9208,92,Warua,98111,,,null
9208042001,920804,9208,92,Rurumo,98121,,,null
9208042002,920804,9208,92,Boiya,98121,,,null
9208042003,920804,9208,92,Nariki,98121,,,null
9208042004,920804,9208,92,Bamana,98121,,,null
9208042005,920804,9208,92,Siawatan,98121,,,null
9208052001,920805,9208,92,Rauna,98114,,,null
9208052002,920805,9208,92,Werafuta,98114,,,null
9208052003,920805,9208,92,"Ubia Sermuku",98114,,,null
9208052004,920805,9208,92,Bahumia,98114,,,null
9208052005,920805,9208,92,Waho,98114,,,null
9208052006,920805,9208,92,Wamesa,98114,,,null
9208052007,920805,9208,92,Kooy,98114,,,null
9208062001,920806,9208,92,Jawera,98112,,,null
9208062002,920806,9208,92,Ruwara,98112,,,null
9208062003,920806,9208,92,Wermenu,98112,,,null
9208062004,920806,9208,92,Egerwara,98112,,,null
9208062005,920806,9208,92,Kufuriyai,98112,,,null
9208062006,920806,9208,92,Manggera,98112,,,null
9208062007,920806,9208,92,Tanusan,98112,,,null
9208062008,920806,9208,92,Urisa,98112,,,null
9208062009,920806,9208,92,Waromi,98112,,,null
9208062010,920806,9208,92,Ukiara,98112,,,null
9208062012,920806,9208,92,Nagura,98112,,,null
9208062013,920806,9208,92,Inari,98112,,,null
9208062014,920806,9208,92,Wanoma,98112,,,null
9208062015,920806,9208,92,Sumun,98112,,,null
9208062016,920806,9208,92,Seraran,98112,,,null
9208072001,920807,9208,92,Ure,98122,,,null
9208072002,920807,9208,92,Wosokuno,98122,,,null
9208072003,920807,9208,92,Urubika,98122,,,null
9208072004,920807,9208,92,Wagoha,98122,,,null
9208072005,920807,9208,92,Hairapara,98122,,,null
9208072006,920807,9208,92,"Omba Pamuku",98122,,,null
9209012001,920901,9209,92,Fef,98366,,,null
9209012003,920901,9209,92,Wayo,98366,,,null
9209012004,920901,9209,92,Syubun,98366,,,null
9209012006,920901,9209,92,Sikor,98366,,,null
9209012010,920901,9209,92,Ibe,98366,,,null
9209012011,920901,9209,92,Syunam,98366,,,null
9209012012,920901,9209,92,Banfot,98366,,,null
9209012013,920901,9209,92,Iwin,98366,,,null
9209012014,920901,9209,92,Esyum,98366,,,null
9209012015,920901,9209,92,Imor,98366,,,null
9209022001,920902,9209,92,Siakwa,98371,,,null
9209022002,920902,9209,92,Ruvewes,98371,,,null
9209022005,920902,9209,92,Yabuow,98371,,,null
9209022006,920902,9209,92,Aibogiar,98371,,,null
9209022008,920902,9209,92,Ayae,98371,,,null
9209022011,920902,9209,92,Hobiah,98371,,,null
9209022013,920902,9209,92,Ayawit,98371,,,null
9209022014,920902,9209,92,Aifair,98371,,,null
9209032001,920903,9209,92,Baun,98379,,,null
9209032002,920903,9209,92,Sumbekas,98379,,,null
9209032003,920903,9209,92,Metnayam,98379,,,null
9209032007,920903,9209,92,Metbelum,98379,,,null
9209032011,920903,9209,92,Wormon,98379,,,null
9209032012,920903,9209,92,Salem,98379,,,null
9209042001,920904,9209,92,Kwoor,98369,,,null
9209042002,920904,9209,92,Hopmare,98369,,,null
9209042010,920904,9209,92,Sunggak,98369,,,null
9209042011,920904,9209,92,Orwen,98369,,,null
9209042012,920904,9209,92,Barar,98369,,,null
9209042013,920904,9209,92,Esmambo,98369,,,null
9209052001,920905,9209,92,Sausapor,98373,,,null
9209052007,920905,9209,92,Emaos,98373,,,null
9209052008,920905,9209,92,Jokte,98373,,,null
9209052009,920905,9209,92,Uigwem,98373,,,null
9209052010,920905,9209,92,Sungguwan,98373,,,null
9209052011,920905,9209,92,"Sau Uram",98373,,,null
9209052012,920905,9209,92,Nanggou,98373,,,null
9209052013,920905,9209,92,Bondek,98373,,,null
9209052018,920905,9209,92,Bondonggwan,98373,,,null
9209052019,920905,9209,92,Syurauw,98373,,,null
9209062001,920906,9209,92,Wau,98363,,,null
9209062002,920906,9209,92,Warmandi,98363,,,null
9209062003,920906,9209,92,Waibem,98363,,,null
9209062004,920906,9209,92,Saubeba,98363,,,null
9209062005,920906,9209,92,Weyaf,98363,,,null
9209062006,920906,9209,92,Weprari,98363,,,null
9209062007,920906,9209,92,Wowom,98363,,,null
9209072001,920907,9209,92,Syujak,98374,,,null
9209072002,920907,9209,92,Banso,98374,,,null
9209072004,920907,9209,92,Iof,98374,,,null
9209072005,920907,9209,92,Frafane,98374,,,null
9209082001,920908,9209,92,Mega,98361,,,null
9209082003,920908,9209,92,Selewok,98361,,,null
9209082004,920908,9209,92,Malaworsai,98361,,,null
9209082007,920908,9209,92,Kwade,98361,,,null
9209082008,920908,9209,92,Bonem,98361,,,null
9209082009,920908,9209,92,Warafor,98361,,,null
9209082010,920908,9209,92,Warmasi,98361,,,null
9209082011,920908,9209,92,Warmanen,98361,,,null
9209082012,920908,9209,92,Namuas,98361,,,null
9209092007,920909,9209,92,Injai,98391,,,null
9209092015,920909,9209,92,Apoki,98391,,,null
9209092016,920909,9209,92,Matatun,98391,,,null
9209092017,920909,9209,92,Jafai,98391,,,null
9209092018,920909,9209,92,Jambuani,98391,,,null
9209092019,920909,9209,92,Manaria,98391,,,null
9209092022,920909,9209,92,Anarum,98391,,,null
9209092027,920909,9209,92,Wasanggon,98391,,,null
9209092028,920909,9209,92,Wabanek,98391,,,null
9209092029,920909,9209,92,Pubuan,98391,,,null
9209102002,920910,9209,92,Saukorem,98381,,,null
9209102004,920910,9209,92,Wefani,98381,,,null
9209102005,920910,9209,92,Serayo,98381,,,null
9209102006,920910,9209,92,Wasarak,98381,,,null
9209102010,920910,9209,92,Wekari,98381,,,null
9209102012,920910,9209,92,Binasi,98381,,,null
9209102013,920910,9209,92,Kabibwan,98381,,,null
9209102014,920910,9209,92,Binmaks,98381,,,null
9209102016,920910,9209,92,Manggapnut,98381,,,null
9209102017,920910,9209,92,Waramui,98381,,,null
9209112003,920911,9209,92,Senopi,98396,,,null
9209112004,920911,9209,92,Arapi,98396,,,null
9209112005,920911,9209,92,Srurem,98396,,,null
9209112006,920911,9209,92,Sumo,98396,,,null
9209112007,920911,9209,92,"Ifat Mitu",98396,,,null
9209112008,920911,9209,92,"Povokek Ania",98396,,,null
9209112012,920911,9209,92,Thomas,98396,,,null
9209112015,920911,9209,92,"Tintum Araw",98396,,,null
9209122001,920912,9209,92,Arfu,98385,,,null
9209122002,920912,9209,92,Bawey,98385,,,null
9209122003,920912,9209,92,Wasnembri,98385,,,null
9209122004,920912,9209,92,Waru,98385,,,null
9209122005,920912,9209,92,Atori,98385,,,null
9209122006,920912,9209,92,Meriambeker,98385,,,null
9209122007,920912,9209,92,Bijamfou,98385,,,null
9209122015,920912,9209,92,Warokon,98385,,,null
9209122016,920912,9209,92,Arekon,98385,,,null
9209122017,920912,9209,92,Bonpaya,98385,,,null
9209122018,920912,9209,92,Marbuan,98385,,,null
9209132001,920913,9209,92,Werur,98365,,,null
9209132002,920913,9209,92,Bukit,98365,,,null
9209132003,920913,9209,92,Wertam,98365,,,null
9209132004,920913,9209,92,Werwaf,98365,,,null
9209132005,920913,9209,92,Werbes,98365,,,null
9209132006,920913,9209,92,Nombrak,98365,,,null
9209132007,920913,9209,92,Bikar,98365,,,null
9209132008,920913,9209,92,Syunai,98365,,,null
9209132009,920913,9209,92,Suyam,98365,,,null
9209132010,920913,9209,92,Wertim,98365,,,null
9209142001,920914,9209,92,Bamusbama,98378,,,null
9209142002,920914,9209,92,Bamuswaiman,98378,,,null
9209142003,920914,9209,92,Syarwom,98378,,,null
9209142004,920914,9209,92,Metbesa,98378,,,null
9209142005,920914,9209,92,Babak,98378,,,null
9209142006,920914,9209,92,Bano,98378,,,null
9209152001,920915,9209,92,Ases,98364,,,null
9209152002,920915,9209,92,Asuon,98364,,,null
9209152003,920915,9209,92,Safoetiek,98364,,,null
9209152004,920915,9209,92,Frasayoah,98364,,,null
9209162001,920916,9209,92,Mawor,98372,,,null
9209162002,920916,9209,92,Ruf,98372,,,null
9209162003,920916,9209,92,Ayamane,98372,,,null
9209162004,920916,9209,92,Whismer,98372,,,null
9209162005,920916,9209,92,Sahae,98372,,,null
9209162006,920916,9209,92,Hewi,98372,,,null
9209162007,920916,9209,92,Sisu,98372,,,null
9209172001,920917,9209,92,Miri,98367,,,null
9209172002,920917,9209,92,Meis,98367,,,null
9209172003,920917,9209,92,Aifamas,98367,,,null
9209172004,920917,9209,92,Meinad,98367,,,null
9209172005,920917,9209,92,Atafrumek,98367,,,null
9209172006,920917,9209,92,Ifiam,98367,,,null
9209182001,920918,9209,92,Syumbab,98376,,,null
9209182002,920918,9209,92,Krisnos,98376,,,null
9209182003,920918,9209,92,Syukwes,98376,,,null
9209182004,920918,9209,92,Donan,98376,,,null
9209182005,920918,9209,92,Dombron,98376,,,null
9209192001,920919,9209,92,Tabamsere,98377,,,null
9209192002,920919,9209,92,Sayam,98377,,,null
9209192003,920919,9209,92,"Araf Mafat",98377,,,null
9209192004,920919,9209,92,Esyuom,98377,,,null
9209202001,920920,9209,92,Tinggouw,98375,,,null
9209202002,920920,9209,92,Hohair,98375,,,null
9209202003,920920,9209,92,Ruriai,98375,,,null
9209202004,920920,9209,92,Soon,98375,,,null
9209202005,920920,9209,92,Ifatkan,98375,,,null
9209212001,920921,9209,92,Jokbujoker,98368,,,null
9209212002,920921,9209,92,Kranfotsu,98368,,,null
9209212003,920921,9209,92,Syuau,98368,,,null
9209212004,920921,9209,92,Kwesefo,98368,,,null
9209212005,920921,9209,92,Batdey,98368,,,null
9209212006,920921,9209,92,Syumbi,98368,,,null
9209212007,920921,9209,92,Bao,98368,,,null
9209222001,920922,9209,92,Wausin,98395,,,null
9209222002,920922,9209,92,Asiti,98395,,,null
9209222003,920922,9209,92,Bisaud,98395,,,null
9209222004,920922,9209,92,Wufmana,98395,,,null
9209222005,920922,9209,92,Nisandauw,98395,,,null
9209222006,920922,9209,92,Afrawi,98395,,,null
9209222007,920922,9209,92,Ajokwapi,98395,,,null
9209232001,920923,9209,92,Inam,98393,,,null
9209232002,920923,9209,92,Jandurauw,98393,,,null
9209232003,920923,9209,92,Inambuari,98393,,,null
9209232004,920923,9209,92,Sitori,98393,,,null
9209232005,920923,9209,92,Untorey,98393,,,null
9209232006,920923,9209,92,Nabisai,98393,,,null
9209232007,920923,9209,92,Arumi,98393,,,null
9209232008,920923,9209,92,Karawi,98393,,,null
9209232009,920923,9209,92,Arampak,98393,,,null
9209232010,920923,9209,92,"Kasi Inom",98393,,,null
9209232011,920923,9209,92,Ireji,98393,,,null
9209232012,920923,9209,92,Meycocforga,98393,,,null
9209232013,920923,9209,92,Wasabiti,98393,,,null
9209242001,920924,9209,92,Nekori,98392,,,null
9209242002,920924,9209,92,Ajami,98392,,,null
9209242003,920924,9209,92,Aniti,98392,,,null
9209242004,920924,9209,92,Akari,98392,,,null
9209242005,920924,9209,92,Amnan,98392,,,null
9209242006,920924,9209,92,Atiki,98392,,,null
9209242007,920924,9209,92,Arwani,98392,,,null
9209242008,920924,9209,92,Aritowi,98392,,,null
9209242009,920924,9209,92,Umpay,98392,,,null
9209242010,920924,9209,92,Meiwar,98392,,,null
9209252001,920925,9209,92,Atai,98394,,,null
9209252002,920925,9209,92,Akmuri,98394,,,null
9209252003,920925,9209,92,Awori,98394,,,null
9209252004,920925,9209,92,Itafiti,98394,,,null
9209252005,920925,9209,92,Atunari,98394,,,null
9209252006,920925,9209,92,"Ajami Waripi",98394,,,null
9209252007,920925,9209,92,Narai,98394,,,null
9209252008,920925,9209,92,Aranari,98394,,,null
9209252009,920925,9209,92,Waumi,98394,,,null
9209252010,920925,9209,92,Aneti,98394,,,null
9209262001,920926,9209,92,Arupi,98384,,,null
9209262002,920926,9209,92,Warpaperi,98384,,,null
9209262003,920926,9209,92,Mangganek,98384,,,null
9209262004,920926,9209,92,Wajarek,98384,,,null
9209262005,920926,9209,92,"Kali An",98384,,,null
9209262006,920926,9209,92,Araro,98384,,,null
9209272001,920927,9209,92,Sasui,98382,,,null
9209272002,920927,9209,92,Bondopi,98382,,,null
9209272003,920927,9209,92,Manggaew,98382,,,null
9209272004,920927,9209,92,Saurabon,98382,,,null
9209272005,920927,9209,92,Wasawmontem,98382,,,null
9209282001,920928,9209,92,Meserikweda,98383,,,null
9209282002,920928,9209,92,"Kasi Baru",98383,,,null
9209282003,920928,9209,92,"Kasi Jaya",98383,,,null
9209282004,920928,9209,92,Meimorufof,98383,,,null
9209282005,920928,9209,92,"Kasi Indah",98383,,,null
9209282006,920928,9209,92,Wacam,98383,,,null
9209282007,920928,9209,92,Irumfei,98383,,,null
9209292001,920929,9209,92,Dela,98362,,,null
9209292002,920929,9209,92,Megame,98362,,,null
9209292003,920929,9209,92,Kaladum,98362,,,null
9209292004,920929,9209,92,Klasei,98362,,,null
9209292005,920929,9209,92,Klabili,98362,,,null
9210012001,921001,9210,92,Kumurkek,98271,,,null
9210012002,921001,9210,92,Susumuk,98271,,,null
9210012003,921001,9210,92,Kokas,98271,,,null
9210012004,921001,9210,92,Kocuas,98271,,,null
9210012005,921001,9210,92,Kocuwer,98271,,,null
9210012006,921001,9210,92,Bori,98271,,,null
9210012007,921001,9210,92,Werjaya,98271,,,null
9210012008,921001,9210,92,Tehahite,98271,,,null
9210012009,921001,9210,92,Faitmayaf,98271,,,null
9210012010,921001,9210,92,Aisyo,98271,,,null
9210012011,921001,9210,92,Futon,98271,,,null
9210012012,921001,9210,92,Sampika,98271,,,null
9210012013,921001,9210,92,Martaim,98271,,,null
9210012014,921001,9210,92,Frawebo,98271,,,null
9210012015,921001,9210,92,Faitsawe,98271,,,null
9210012016,921001,9210,92,"Kocuwer Selatan",98271,,,null
9210012017,921001,9210,92,"Faitmayaf Barat",98271,,,null
9210012018,921001,9210,92,Sikof,98271,,,null
9210012019,921001,9210,92,"Bori Timur",98271,,,null
9210012020,921001,9210,92,"Kumurkek Barat",98271,,,null
9210012021,921001,9210,92,Ainod,98271,,,null
9210012022,921001,9210,92,"Kocuas Utara",98271,,,null
9210012023,921001,9210,92,Sunei,98271,,,null
9210022001,921002,9210,92,Ayawasi,98277,,,null
9210022002,921002,9210,92,"Ayawasi Selatan",98277,,,null
9210022003,921002,9210,92,"Ayawasi Timur",98277,,,null
9210022004,921002,9210,92,Susai,98277,,,null
9210022005,921002,9210,92,Fonatu,98277,,,null
9210022006,921002,9210,92,Mosun,98277,,,null
9210022007,921002,9210,92,Wayane,98277,,,null
9210022008,921002,9210,92,Konja,98277,,,null
9210022009,921002,9210,92,Yarat,98277,,,null
9210022010,921002,9210,92,Man,98277,,,null
9210022011,921002,9210,92,Howait,98277,,,null
9210022012,921002,9210,92,Haenkanes,98277,,,null
9210022013,921002,9210,92,"Konja Barat",98277,,,null
9210022014,921002,9210,92,"Yarat Timur",98277,,,null
9210022015,921002,9210,92,Raha,98277,,,null
9210022016,921002,9210,92,Mowes,98277,,,null
9210022017,921002,9210,92,Irata,98277,,,null
9210022018,921002,9210,92,Neset,98277,,,null
9210022019,921002,9210,92,"Mosun Timur",98277,,,null
9210022020,921002,9210,92,"Mosun Utara",98277,,,null
9210032001,921003,9210,92,Aisa,98273,,,null
9210032004,921003,9210,92,Aikrer,98273,,,null
9210032005,921003,9210,92,Aitrem,98273,,,null
9210032006,921003,9210,92,Sawin,98273,,,null
9210032008,921003,9210,92,Sahbuku,98273,,,null
9210032009,921003,9210,92,"Sasior Frabuku",98273,,,null
9210032026,921003,9210,92,Wakom,98273,,,null
9210032027,921003,9210,92,Sanem,98273,,,null
9210032033,921003,9210,92,"Buoh Sa",98273,,,null
9210042001,921004,9210,92,Kisor,98272,,,null
9210042002,921004,9210,92,Sorry,98272,,,null
9210042003,921004,9210,92,Imsun,98272,,,null
9210042004,921004,9210,92,Sabah,98272,,,null
9210042005,921004,9210,92,Tahsimara,98272,,,null
9210042006,921004,9210,92,Fuog,98272,,,null
9210042008,921004,9210,92,"Asiaf Saman",98272,,,null
9210042009,921004,9210,92,"Hora Iek",98272,,,null
9210042010,921004,9210,92,"Fuog Selatan",98272,,,null
9210042011,921004,9210,92,"Same Rakator",98272,,,null
9210042012,921004,9210,92,Roma,98272,,,null
9210042013,921004,9210,92,Krus,98272,,,null
9210042014,921004,9210,92,"Awet Main",98272,,,null
9210042015,921004,9210,92,Yeek,98272,,,null
9210042016,921004,9210,92,Kaitana,98272,,,null
9210042017,921004,9210,92,Tolak,98272,,,null
9210052001,921005,9210,92,Kambufatem,98262,,,null
9210052002,921005,9210,92,"Kambufatem Utara",98262,,,null
9210052003,921005,9210,92,Fatase,98262,,,null
9210052008,921005,9210,92,"Hosyo Ata",98262,,,null
9210052009,921005,9210,92,Waybomatah,98262,,,null
9210052010,921005,9210,92,Siyo,98262,,,null
9210052011,921005,9210,92,Hasweh,98262,,,null
9210052012,921005,9210,92,Fatem,98262,,,null
9210052013,921005,9210,92,"Hosyo Banah",98262,,,null
9210062001,921006,9210,92,Aitinyo,98261,,,null
9210062002,921006,9210,92,Irohe,98261,,,null
9210062003,921006,9210,92,Sris,98261,,,null
9210062005,921006,9210,92,Kamro,98261,,,null
9210062007,921006,9210,92,Karsu,98261,,,null
9210062008,921006,9210,92,"Tehak Kecil",98261,,,null
9210062009,921006,9210,92,"Sira Aya",98261,,,null
9210062010,921006,9210,92,Korom,98261,,,null
9210062011,921006,9210,92,Sumanis,98261,,,null
9210062013,921006,9210,92,Ibasuf,98261,,,null
9210062014,921006,9210,92,"Sowai Sau",98261,,,null
9210062015,921006,9210,92,Subin,98261,,,null
9210062016,921006,9210,92,Irohmrar,98261,,,null
9210062017,921006,9210,92,Bofait,98261,,,null
9210062018,921006,9210,92,Afkrem,98261,,,null
9210062019,921006,9210,92,Wiho,98261,,,null
9210062020,921006,9210,92,"Kamro Selatan",98261,,,null
9210072001,921007,9210,92,Fategomi,98265,,,null
9210072002,921007,9210,92,"Tehak Besar",98265,,,null
9210072003,921007,9210,92,Fan,98265,,,null
9210072004,921007,9210,92,Gohsames,98265,,,null
9210072005,921007,9210,92,"Asmuruf U",98265,,,null
9210072006,921007,9210,92,Mirafaan,98265,,,null
9210072011,921007,9210,92,"Asmuruf Tee",98265,,,null
9210072012,921007,9210,92,"Tehak Tee",98265,,,null
9210072013,921007,9210,92,Framafir,98265,,,null
9210072014,921007,9210,92,Subrit,98265,,,null
9210072015,921007,9210,92,Inta,98265,,,null
9210072016,921007,9210,92,Bahwat,98265,,,null
9210081001,921008,9210,92,Ayamaru,98240,,,null
9210082010,921008,9210,92,Framu,98240,,,null
9210082011,921008,9210,92,"Mefkajim II",98240,,,null
9210082017,921008,9210,92,Fraharo,98240,,,null
9210082018,921008,9210,92,Smusswioh,98240,,,null
9210082019,921008,9210,92,Twer,98240,,,null
9210082020,921008,9210,92,Afes,98240,,,null
9210082021,921008,9210,92,Tuso,98240,,,null
9210092001,921009,9210,92,Yubiah,98248,,,null
9210092003,921009,9210,92,Karetubun,98248,,,null
9210092004,921009,9210,92,Setta,98248,,,null
9210092006,921009,9210,92,Hohoyor,98248,,,null
9210092007,921009,9210,92,Arne,98248,,,null
9210092009,921009,9210,92,"Aus Tiwit",98248,,,null
9210092010,921009,9210,92,Johafah,98248,,,null
9210092011,921009,9210,92,Yukase,98248,,,null
9210092012,921009,9210,92,Serma,98248,,,null
9210092013,921009,9210,92,Kfaa,98248,,,null
9210092014,921009,9210,92,"Arne Timur",98248,,,null
9210092020,921009,9210,92,Nauwita,98248,,,null
9210102001,921010,9210,92,Kambuaya,98246,,,null
9210102002,921010,9210,92,Huberita,98246,,,null
9210102003,921010,9210,92,Faitmajin,98246,,,null
9210102006,921010,9210,92,Ismayo,98246,,,null
9210102007,921010,9210,92,Sefayit,98246,,,null
9210102008,921010,9210,92,Insas,98246,,,null
9210102009,921010,9210,92,Faitsiur,98246,,,null
9210102010,921010,9210,92,Keyum,98246,,,null
9210112001,921011,9210,92,Suswa,98251,,,null
9210112002,921011,9210,92,Seya,98251,,,null
9210112005,921011,9210,92,Waban,98251,,,null
9210112006,921011,9210,92,Kombif,98251,,,null
9210112008,921011,9210,92,Rufases,98251,,,null
9210112009,921011,9210,92,Bakrabi,98251,,,null
9210112010,921011,9210,92,Nafasi,98251,,,null
9210112011,921011,9210,92,Mahos,98251,,,null
9210112012,921011,9210,92,Sawo,98251,,,null
9210122001,921012,9210,92,Mupas,98276,,,null
9210122002,921012,9210,92,Kamat,98276,,,null
9210122003,921012,9210,92,Frambu,98276,,,null
9210122004,921012,9210,92,Ayata,98276,,,null
9210122005,921012,9210,92,Aikus,98276,,,null
9210122006,921012,9210,92,Aiwesa,98276,,,null
9210122007,921012,9210,92,Pitor,98276,,,null
9210122008,921012,9210,92,Aifam,98276,,,null
9210122009,921012,9210,92,Saud,98276,,,null
9210122010,921012,9210,92,Tiam,98276,,,null
9210122011,921012,9210,92,"Faan Kahrio",98276,,,null
9210122012,921012,9210,92,Assem,98276,,,null
9210132001,921013,9210,92,Ainesra,98274,,,null
9210132002,921013,9210,92,Aimau,98274,,,null
9210132003,921013,9210,92,Mesyam,98274,,,null
9210132004,921013,9210,92,Aisasior,98274,,,null
9210132005,921013,9210,92,Franeway,98274,,,null
9210132006,921013,9210,92,Aikingging,98274,,,null
9210132007,921013,9210,92,Tiefromen,98274,,,null
9210142001,921014,9210,92,Wormu,98275,,,null
9210142002,921014,9210,92,Makiri,98275,,,null
9210142003,921014,9210,92,Warba,98275,,,null
9210142004,921014,9210,92,Winuni,98275,,,null
9210142005,921014,9210,92,Srumate,98275,,,null
9210142006,921014,9210,92,Womba,98275,,,null
9210152001,921015,9210,92,Sauf,98243,,,null
9210152002,921015,9210,92,Sembaro,98243,,,null
9210152003,921015,9210,92,"Koma Koma",98243,,,null
9210152004,921015,9210,92,Kanisabar,98243,,,null
9210152005,921015,9210,92,Sfarare,98243,,,null
9210152006,921015,9210,92,Saneh,98243,,,null
9210152007,921015,9210,92,"Lemauk Klit",98243,,,null
9210152008,921015,9210,92,Hawioh,98243,,,null
9210152009,921015,9210,92,Simiyah,98243,,,null
9210152010,921015,9210,92,Sagrim,98243,,,null
9210162001,921016,9210,92,Adoh,98242,,,null
9210162002,921016,9210,92,Temel,98242,,,null
9210162003,921016,9210,92,Sosian,98242,,,null
9210162004,921016,9210,92,Segior,98242,,,null
9210162005,921016,9210,92,Orain,98242,,,null
9210162006,921016,9210,92,Rawas,98242,,,null
9210162007,921016,9210,92,Orsu,98242,,,null
9210162008,921016,9210,92,Soan,98242,,,null
9210162009,921016,9210,92,Warbo,98242,,,null
9210162010,921016,9210,92,Woman,98242,,,null
9210172001,921017,9210,92,Faitsimar,98244,,,null
9210172002,921017,9210,92,Asses,98244,,,null
9210172003,921017,9210,92,"Fait Nigre",98244,,,null
9210172004,921017,9210,92,Sufu,98244,,,null
9210172005,921017,9210,92,Arus,98244,,,null
9210172006,921017,9210,92,Kofait,98244,,,null
9210172007,921017,9210,92,Isnum,98244,,,null
9210182001,921018,9210,92,Kambuskato,98247,,,null
9210182002,921018,9210,92,"Kambuskato Utara",98247,,,null
9210182003,921018,9210,92,Kambuifa,98247,,,null
9210182004,921018,9210,92,Isusu,98247,,,null
9210182005,921018,9210,92,Mano,98247,,,null
9210182006,921018,9210,92,Sipat,98247,,,null
9210182007,921018,9210,92,"Faitwosur/Angkasa Pura",98247,,,null
9210192001,921019,9210,92,Mapura,98249,,,null
9210192002,921019,9210,92,Suwiam,98249,,,null
9210192003,921019,9210,92,Tomase,98249,,,null
9210192004,921019,9210,92,Frabo,98249,,,null
9210192005,921019,9210,92,Karfa,98249,,,null
9210192006,921019,9210,92,Kona,98249,,,null
9210192007,921019,9210,92,Kosah,98249,,,null
9210202001,921020,9210,92,Fiane,98245,,,null
9210202002,921020,9210,92,Kartapura,98245,,,null
9210202003,921020,9210,92,Men,98245,,,null
9210202004,921020,9210,92,Semu,98245,,,null
9210202005,921020,9210,92,Isme,98245,,,null
9210202006,921020,9210,92,Rindu,98245,,,null
9210202007,921020,9210,92,Tut,98245,,,null
9210202008,921020,9210,92,Yohwer,98245,,,null
9210202009,921020,9210,92,Hufioh,98245,,,null
9210202010,921020,9210,92,Bawy,98245,,,null
9210212001,921021,9210,92,Soroan,98241,,,null
9210212002,921021,9210,92,Fanse,98241,,,null
9210212003,921021,9210,92,Chaliat,98241,,,null
9210212004,921021,9210,92,Sfacko,98241,,,null
9210212005,921021,9210,92,Sehu,98241,,,null
9210212006,921021,9210,92,Tbo,98241,,,null
9210212007,921021,9210,92,Sien,98241,,,null
9210212008,921021,9210,92,Sfaraka,98241,,,null
9210222001,921022,9210,92,Yaksoro,98264,,,null
9210222002,921022,9210,92,Awit,98264,,,null
9210222003,921022,9210,92,Sira,98264,,,null
9210222004,921022,9210,92,Eway,98264,,,null
9210222005,921022,9210,92,Erokwero,98264,,,null
9210222006,921022,9210,92,Sabun,98264,,,null
9210222007,921022,9210,92,Itigah,98264,,,null
9210222008,921022,9210,92,"Sira Tee",98264,,,null
9210222009,921022,9210,92,"Wrait 'U'",98264,,,null
9210222010,921022,9210,92,"Way 'U'",98264,,,null
9210222011,921022,9210,92,Asnaif,98264,,,null
9210222012,921022,9210,92,"Iroh Sohser",98264,,,null
9210222013,921022,9210,92,Framboh,98264,,,null
9210222014,921022,9210,92,Tohmri,98264,,,null
9210232001,921023,9210,92,Jitmau,98263,,,null
9210232002,921023,9210,92,Ikuf,98263,,,null
9210232003,921023,9210,92,Isir,98263,,,null
9210232004,921023,9210,92,"Jitmau Timur",98263,,,null
9210232005,921023,9210,92,"Ikuf Utara",98263,,,null
9210232006,921023,9210,92,Sarimo,98263,,,null
9210232007,921023,9210,92,Kambusabo,98263,,,null
9210232008,921023,9210,92,Srirtabam,98263,,,null
9210232009,921023,9210,92,Faithowes,98263,,,null
9210232010,921023,9210,92,Yumame,98263,,,null
9210242001,921024,9210,92,Seni,98252,,,null
9210242002,921024,9210,92,Renis,98252,,,null
9210242003,921024,9210,92,Sire,98252,,,null
9210242004,921024,9210,92,Fase,98252,,,null
9210242005,921024,9210,92,Sabes,98252,,,null
9210242006,921024,9210,92,Kuraso,98252,,,null
9210242007,921024,9210,92,Sidi,98252,,,null
9210242008,921024,9210,92,Osom,98252,,,null
9210242009,921024,9210,92,"Sire Timur",98252,,,null
9211012001,921101,9211,92,Ransiki,98324,,,null
9211012002,921101,9211,92,Nuhuwei,98324,,,null
9211012003,921101,9211,92,Yamboi,98324,,,null
9211012004,921101,9211,92,Tobou,98324,,,null
9211012005,921101,9211,92,Sabri,98324,,,null
9211012006,921101,9211,92,Bamaha,98324,,,null
9211012007,921101,9211,92,Abreso,98324,,,null
9211012008,921101,9211,92,Hamawi,98324,,,null
9211012009,921101,9211,92,Kobrey,98324,,,null
9211012010,921101,9211,92,Wamcei,98324,,,null
9211012011,921101,9211,92,Hamor,98324,,,null
9211012012,921101,9211,92,Susmorof,98324,,,null
9211012013,921101,9211,92,Mambrema,98324,,,null
9211022001,921102,9211,92,Oransbari,98321,,,null
9211022002,921102,9211,92,Sidomulyo,98321,,,null
9211022003,921102,9211,92,Waroser,98321,,,null
9211022004,921102,9211,92,"Margo Rukun",98321,,,null
9211022005,921102,9211,92,Muari,98321,,,null
9211022006,921102,9211,92,Watariri,98321,,,null
9211022007,921102,9211,92,Masabui,98321,,,null
9211022008,921102,9211,92,Warbiadi,98321,,,null
9211022009,921102,9211,92,Margomulyo,98321,,,null
9211022010,921102,9211,92,Warkwandi,98321,,,null
9211022011,921102,9211,92,"Sindang Jaya",98321,,,null
9211022012,921102,9211,92,Wandoki,98321,,,null
9211022013,921102,9211,92,Akeju,98321,,,null
9211022014,921102,9211,92,"Masabui II",98321,,,null
9211032001,921103,9211,92,Wama,98323,,,null
9211032002,921103,9211,92,Disi,98323,,,null
9211032003,921103,9211,92,Hiyou,98323,,,null
9211032004,921103,9211,92,Sesum,98323,,,null
9211032005,921103,9211,92,Benyas,98323,,,null
9211032006,921103,9211,92,Aryawenmoho,98323,,,null
9211032007,921103,9211,92,Neney,98323,,,null
9211042001,921104,9211,92,Isim,98326,,,null
9211042002,921104,9211,92,Duhugesa,98326,,,null
9211042003,921104,9211,92,Tubes,98326,,,null
9211042004,921104,9211,92,Umohousi,98326,,,null
9211042005,921104,9211,92,Tohosta,98326,,,null
9211042006,921104,9211,92,Hugomot,98326,,,null
9211042007,921104,9211,92,Dihisu,98326,,,null
9211042008,921104,9211,92,Inyuara,98326,,,null
9211042009,921104,9211,92,Desra,98326,,,null
9211042010,921104,9211,92,Mindermes,98326,,,null
9211042011,921104,9211,92,Sibjo,98326,,,null
9211042012,921104,9211,92,Dibera,98326,,,null
9211052001,921105,9211,92,Dembek,98322,,,null
9211052002,921105,9211,92,Nij,98322,,,null
9211052003,921105,9211,92,Siwi,98322,,,null
9211052004,921105,9211,92,"Gaya Baru",98322,,,null
9211052005,921105,9211,92,Waren,98322,,,null
9211052006,921105,9211,92,Demini,98322,,,null
9211052007,921105,9211,92,Yekwandi,98322,,,null
9211062001,921106,9211,92,Yarmatum,98325,,,null
9211062002,921106,9211,92,Reyob,98325,,,null
9211062003,921106,9211,92,Kaprus,98325,,,null
9211062004,921106,9211,92,Seimeba,98325,,,null
9212012001,921201,9212,92,Iraiweri,98355,,,null
9212012002,921201,9212,92,Igembai,98355,,,null
9212012003,921201,9212,92,Imbai,98355,,,null
9212012004,921201,9212,92,Suteibey,98355,,,null
9212012005,921201,9212,92,Susi,98355,,,null
9212012006,921201,9212,92,Ullong,98355,,,null
9212012007,921201,9212,92,Mentubey,98355,,,null
9212012008,921201,9212,92,Ayaubey,98355,,,null
9212012009,921201,9212,92,"Testega Pamaha",98355,,,null
9212012010,921201,9212,92,Pamaha,98355,,,null
9212012011,921201,9212,92,Uper,98355,,,null
9212012012,921201,9212,92,Hungku,98355,,,null
9212012013,921201,9212,92,Srubey,98355,,,null
9212022001,921202,9212,92,Sibiogud,98356,,,null
9212022002,921202,9212,92,Krobut,98356,,,null
9212022003,921202,9212,92,Tubyam,98356,,,null
9212022004,921202,9212,92,Sakumi,98356,,,null
9212022005,921202,9212,92,Tombrok,98356,,,null
9212022006,921202,9212,92,Sisrang,98356,,,null
9212022007,921202,9212,92,Ngisrow,98356,,,null
9212022008,921202,9212,92,Itkau,98356,,,null
9212032001,921203,9212,92,Inyebuow,98354,,,null
9212032002,921203,9212,92,Imbeisba,98354,,,null
9212032003,921203,9212,92,Usti,98354,,,null
9212032004,921203,9212,92,Memti,98354,,,null
9212032005,921203,9212,92,Koney,98354,,,null
9212032006,921203,9212,92,Membey,98354,,,null
9212042001,921204,9212,92,Sururey,98358,,,null
9212042002,921204,9212,92,Tuhubea,98358,,,null
9212042003,921204,9212,92,Sungedes,98358,,,null
9212042004,921204,9212,92,Inyaub,98358,,,null
9212042005,921204,9212,92,Saugemeba,98358,,,null
9212042006,921204,9212,92,Kobrey,98358,,,null
9212042007,921204,9212,92,Kopo,98358,,,null
9212042008,921204,9212,92,Dugahani,98358,,,null
9212042009,921204,9212,92,Tomstera,98358,,,null
9212042010,921204,9212,92,Kostera,98358,,,null
9212042011,921204,9212,92,Anuk,98358,,,null
9212042012,921204,9212,92,Menesrij,98358,,,null
9212052001,921205,9212,92,Iranmeba,98359,,,null
9212052002,921205,9212,92,Cirnohu,98359,,,null
9212052003,921205,9212,92,Dibetik,98359,,,null
9212052004,921205,9212,92,Danmou,98359,,,null
9212052005,921205,9212,92,Miseda,98359,,,null
9212052006,921205,9212,92,Sirgemeh,98359,,,null
9212052007,921205,9212,92,Sneremer,98359,,,null
9212052008,921205,9212,92,Kusmenau,98359,,,null
9212052009,921205,9212,92,Cigera,98359,,,null
9212052010,921205,9212,92,Tomstir,98359,,,null
9212052011,921205,9212,92,Gedeira,98359,,,null
9212052012,921205,9212,92,Demdamei,98359,,,null
9212052013,921205,9212,92,Dugrimog,98359,,,null
9212052014,921205,9212,92,Disra,98359,,,null
9212062001,921206,9212,92,Genyu,98357,,,null
9212062002,921206,9212,92,Ansum,98357,,,null
9212062003,921206,9212,92,Deurohu,98357,,,null
9212062004,921206,9212,92,Horeta,98357,,,null
9212062005,921206,9212,92,Ubeisa,98357,,,null
9212062006,921206,9212,92,Taige,98357,,,null
9212062007,921206,9212,92,Tridaga,98357,,,null
9212062008,921206,9212,92,Disura,98357,,,null
9212062009,921206,9212,92,Awigau,98357,,,null
9212062010,921206,9212,92,Siskedowo,98357,,,null
9212062011,921206,9212,92,Irbos,98357,,,null
9212072001,921207,9212,92,Catubouw,98352,,,null
9212072002,921207,9212,92,Bigwaimud,98352,,,null
9212072003,921207,9212,92,Mihou,98352,,,null
9212072004,921207,9212,92,Kaungwam,98352,,,null
9212072005,921207,9212,92,Aiga,98352,,,null
9212072006,921207,9212,92,Imandrigo,98352,,,null
9212072007,921207,9212,92,Unti,98352,,,null
9212072008,921207,9212,92,Ndabouw,98352,,,null
9212072009,921207,9212,92,Sugemeh,98352,,,null
9212072010,921207,9212,92,Manggesuk,98352,,,null
9212072011,921207,9212,92,Ijigreg,98352,,,null
9212072012,921207,9212,92,Jim,98352,,,null
9212072013,921207,9212,92,Slomiou,98352,,,null
9212072014,921207,9212,92,Binggrayud,98352,,,null
9212072015,921207,9212,92,Minmo,98352,,,null
9212072016,921207,9212,92,Mihij,98352,,,null
9212072017,921207,9212,92,Soudin,98352,,,null
9212072018,921207,9212,92,Timtouw,98352,,,null
9212072019,921207,9212,92,Idemai,98352,,,null
9212072020,921207,9212,92,Mieycomti,98352,,,null
9212072021,921207,9212,92,Coijut,98352,,,null
9212082001,921208,9212,92,Testega,98350,,,null
9212082002,921208,9212,92,Meidogda,98350,,,null
9212082003,921208,9212,92,Meifekeni,98350,,,null
9212082004,921208,9212,92,Demuora,98350,,,null
9212082005,921208,9212,92,Jigja,98350,,,null
9212082006,921208,9212,92,Meigehenawu,98350,,,null
9212082007,921208,9212,92,Morumfeyi,98350,,,null
9212082008,921208,9212,92,Iba,98350,,,null
9212082009,921208,9212,92,Meimersa,98350,,,null
9212082010,921208,9212,92,Meifowoska,98350,,,null
9212082011,921208,9212,92,Meijugjijigja,98350,,,null
9212082012,921208,9212,92,Meifokeda,98350,,,null
9212082013,921208,9212,92,Dumbrey,98350,,,null
9212082014,921208,9212,92,Meksi,98350,,,null
9212082015,921208,9212,92,"Asai Dua",98350,,,null
9212092001,921209,9212,92,Minyambouw,98351,,,null
9212092002,921209,9212,92,Demaisi,98351,,,null
9212092003,921209,9212,92,Awaibehel,98351,,,null
9212092004,921209,9212,92,Indabri,98351,,,null
9212092005,921209,9212,92,Coisi,98351,,,null
9212092006,921209,9212,92,Imbenti,98351,,,null
9212092007,921209,9212,92,Sigim,98351,,,null
9212092008,921209,9212,92,Imbonggun,98351,,,null
9212092009,921209,9212,92,Aduer,98351,,,null
9212092010,921209,9212,92,Ugjeheg,98351,,,null
9212092011,921209,9212,92,Micadiwor,98351,,,null
9212092012,921209,9212,92,Ungga,98351,,,null
9212092013,921209,9212,92,Mitiede,98351,,,null
9212092014,921209,9212,92,Simerbei,98351,,,null
9212092015,921209,9212,92,Driye,98351,,,null
9212092016,921209,9212,92,Wamminda,98351,,,null
9212092017,921209,9212,92,Umpug,98351,,,null
9212092018,921209,9212,92,Handuk,98351,,,null
9212092019,921209,9212,92,Ninsimoi,98351,,,null
9212092020,921209,9212,92,Anggra,98351,,,null
9212092021,921209,9212,92,Inggramhim,98351,,,null
9212092022,921209,9212,92,Mbingma,98351,,,null
9212092023,921209,9212,92,Injuar,98351,,,null
9212092024,921209,9212,92,Apul,98351,,,null
9212092025,921209,9212,92,Memangker,98351,,,null
9212092026,921209,9212,92,Mainda,98351,,,null
9212092027,921209,9212,92,Imbrekti,98351,,,null
9212092028,921209,9212,92,Ipingosi,98351,,,null
9212092029,921209,9212,92,Pinyausi,98351,,,null
9212092030,921209,9212,92,Sinaltousi,98351,,,null
9212092031,921209,9212,92,Misangoisi,98351,,,null
9212092032,921209,9212,92,Smanggei,98351,,,null
9212092033,921209,9212,92,Nimbiau,98351,,,null
9212092034,921209,9212,92,Bingwoyut,98351,,,null
9212092035,921209,9212,92,Ayau,98351,,,null
9212092036,921209,9212,92,Andang,98351,,,null
9212092039,921209,9212,92,Miconti,98351,,,null
9212102001,921210,9212,92,Sopnyai,98353,,,null
9212102002,921210,9212,92,Ikimabou,98353,,,null
9212102003,921210,9212,92,Manggot,98353,,,null
9212102004,921210,9212,92,Kisap,98353,,,null
9212102005,921210,9212,92,Nungkimor,98353,,,null
9212102006,921210,9212,92,Cangoisi,98353,,,null
9212102007,921210,9212,92,Minyeimemud,98353,,,null
9212102008,921210,9212,92,Penibut,98353,,,null
9212102009,921210,9212,92,Demunti,98353,,,null
9212102010,921210,9212,92,Gueipimbai,98353,,,null
9212102011,921210,9212,92,Tigaucomti,98353,,,null
9212102012,921210,9212,92,Urwong,98353,,,null
9212102013,921210,9212,92,Aryon,98353,,,null
9212102014,921210,9212,92,Punggung,98353,,,null
9212102015,921210,9212,92,Humeisi,98353,,,null
9212102016,921210,9212,92,Haktiebou,98353,,,null
9212102017,921210,9212,92,"Kwok Satu",98353,,,null
9212102018,921210,9212,92,"Kwok Dua",98353,,,null
9212102019,921210,9212,92,Kwaiyehep,98353,,,null
9212102020,921210,9212,92,Mbegau,98353,,,null
9212102021,921210,9212,92,Ngimoubri,98353,,,null
9212102022,921210,9212,92,Liehak,98353,,,null
9212102023,921210,9212,92,Umcep,98353,,,null
9212102024,921210,9212,92,Tumbeibehei,98353,,,null
9212102025,921210,9212,92,Tingwoikiou,98353,,,null
9212102026,921210,9212,92,"Guwei Uti",98353,,,null
9212102027,921210,9212,92,Ntap,98353,,,null
9212102028,921210,9212,92,Monut,98353,,,null
9212102029,921210,9212,92,Mbrande,98353,,,null
9271011001,927101,9271,92,"Remu Utara",98416,,,null
9271011002,927101,9271,92,Klademak,98416,,,null
9271011007,927101,9271,92,Kofkerbu,98416,,,null
9271011008,927101,9271,92,Remu,98416,,,null
9271021008,927102,9271,92,Klawalu,98418,,,null
9271021010,927102,9271,92,Klamana,98418,,,null
9271021011,927102,9271,92,Klawuyuk,98418,,,null
9271021013,927102,9271,92,Kladufu,98418,,,null
9271031002,927103,9271,92,Rufei,98412,,,null
9271031005,927103,9271,92,Klawasi,98412,,,null
9271031006,927103,9271,92,"Puncak Cendrawasih",98412,,,null
9271031007,927103,9271,92,"Pal Putih",98412,,,null
9271041001,927104,9271,92,"Dum Barat",98413,,,null
9271041002,927104,9271,92,"Dum Timur",98413,,,null
9271041003,927104,9271,92,Soop,98413,,,null
9271041004,927104,9271,92,Raam,98413,,,null
9271051002,927105,9271,92,Malanu,98410,,,null
9271051007,927105,9271,92,Malasilen,98410,,,null
9271051010,927105,9271,92,Matalamagi,98410,,,null
9271051011,927105,9271,92,Sawagumu,98410,,,null
9271061001,927106,9271,92,Klaligi,98415,,,null
9271061002,927106,9271,92,Malawei,98415,,,null
9271061003,927106,9271,92,Malabutor,98415,,,null
9271061004,927106,9271,92,"Remu Selatan",98415,,,null
9271061005,927106,9271,92,Klasabi,98415,,,null
9271071001,927107,9271,92,"Kampung Baru",98414,,,null
9271071002,927107,9271,92,Klabala,98414,,,null
9271071003,927107,9271,92,Klasuur,98414,,,null
9271071004,927107,9271,92,Klakublik,98414,,,null
9271081001,927108,9271,92,Klasuat,98417,,,null
9271081002,927108,9271,92,Klablim,98417,,,null
9271081003,927108,9271,92,Klasaman,98417,,,null
9271081004,927108,9271,92,Giwu,98417,,,null
9271091001,927109,9271,92,Klagete,98419,,,null
9271091004,927109,9271,92,Malaingkedi,98419,,,null
9271091005,927109,9271,92,Malamso,98419,,,null
9271091006,927109,9271,92,Klabulu,98419,,,null
9271101001,927110,9271,92,Suprau,98411,,,null
9271101002,927110,9271,92,"Tampa Garam",98411,,,null
9271101003,927110,9271,92,Saoka,98411,,,null
9271101004,927110,9271,92,"Tanjung Kasuari",98411,,,null
