code,district_code,regency_code,province_code,name,postal_code,latitude,longitude,coordinates
5301042003,530104,5301,53,Bokonusan,85352,,,null
5301042004,530104,5301,53,Otan,85352,,,null
5301042005,530104,5301,53,Uitao,85352,,,null
5301042006,530104,5301,53,Uiasa,85352,,,null
5301042008,530104,5301,53,Hansisi,85352,,,null
5301042009,530104,5301,53,Huilelot,85352,,,null
5301042011,530104,5301,53,Batuinan,85352,,,null
5301042013,530104,5301,53,Letbaun,85352,,,null
5301051001,530105,5301,53,Oenesu,85351,,,null
5301051002,530105,5301,53,Batakte,85351,,,null
5301052003,530105,5301,53,"Manulai I",85351,,,null
5301052004,530105,5301,53,Sumlili,85351,,,null
5301052005,530105,5301,53,Lifuleo,85351,,,null
5301052006,530105,5301,53,Tesabela,85351,,,null
5301052007,530105,5301,53,Oematnunu,85351,,,null
5301052008,530105,5301,53,Kuanheun,85351,,,null
5301052009,530105,5301,53,Nitneo,85351,,,null
5301052010,530105,5301,53,Bolok,85351,,,null
5301052011,530105,5301,53,Tablolong,85351,,,null
5301052012,530105,5301,53,Oenaek,85351,,,null
5301061001,530106,5301,53,Babau,85362,,,null
5301061003,530106,5301,53,Naibonat,85362,,,null
5301061004,530106,5301,53,Oesao,85362,,,null
5301061005,530106,5301,53,Merdeka,85362,,,null
5301061008,530106,5301,53,Tuatuka,85362,,,null
5301062002,530106,5301,53,Nunkurus,85362,,,null
5301062006,530106,5301,53,Tuapukan,85362,,,null
5301062007,530106,5301,53,Oefafi,85362,,,null
5301062011,530106,5301,53,Pukdale,85362,,,null
5301062015,530106,5301,53,Oesao,85362,,,null
5301062016,530106,5301,53,Manusak,85362,,,null
5301062017,530106,5301,53,"Tanah Putih",85362,,,null
5301062018,530106,5301,53,Oelatimo,85362,,,null
5301071001,530107,5301,53,Sulamu,85368,,,null
5301072002,530107,5301,53,Pitai,85368,,,null
5301072003,530107,5301,53,Pariti,85368,,,null
5301072004,530107,5301,53,Oeteta,85368,,,null
5301072005,530107,5301,53,Bipolo,85368,,,null
5301072006,530107,5301,53,"Pantai Beringin",85368,,,null
5301072007,530107,5301,53,Pantulan,85368,,,null
5301081007,530108,5301,53,Tarus,85361,,,null
5301082006,530108,5301,53,Oelnasi,85361,,,null
5301082008,530108,5301,53,Noelbaki,85361,,,null
5301082009,530108,5301,53,Oelpuah,85361,,,null
5301082010,530108,5301,53,Oebelo,85361,,,null
5301082011,530108,5301,53,"Penfui Timur",85361,,,null
5301082012,530108,5301,53,"Tanah Merah",85361,,,null
5301082013,530108,5301,53,"Mata Air",85361,,,null
5301091002,530109,5301,53,Nonbes,85367,,,null
5301092001,530109,5301,53,Oesena,85367,,,null
5301092003,530109,5301,53,Ponain,85367,,,null
5301092004,530109,5301,53,Kotabes,85367,,,null
5301092005,530109,5301,53,Tesbatan,85367,,,null
5301092006,530109,5301,53,Oenoni,85367,,,null
5301092007,530109,5301,53,Apren,85367,,,null
5301092008,530109,5301,53,"Oenoni II",85367,,,null
5301092009,530109,5301,53,"Tesbatan II",85367,,,null
5301101001,530110,5301,53,"Camplong I",85371,,,null
5301102007,530110,5301,53,"Camplong II",85371,,,null
5301102008,530110,5301,53,Naunnu,85371,,,null
5301102009,530110,5301,53,Oebola,85371,,,null
5301102010,530110,5301,53,Sillu,85371,,,null
5301102011,530110,5301,53,Ekateta,85371,,,null
5301102012,530110,5301,53,Kuimasi,85371,,,null
5301102013,530110,5301,53,Tolnaku,85371,,,null
5301102014,530110,5301,53,"Oebola Dalam",85371,,,null
5301102015,530110,5301,53,Kiuoni,85371,,,null
5301111007,530111,5301,53,Takari,85369,,,null
5301112001,530111,5301,53,Noelmina,85369,,,null
5301112002,530111,5301,53,Benu,85369,,,null
5301112003,530111,5301,53,Hueknutu,85369,,,null
5301112004,530111,5301,53,Oelnaineno,85369,,,null
5301112005,530111,5301,53,Tanini,85369,,,null
5301112006,530111,5301,53,Kauniki,85369,,,null
5301112008,530111,5301,53,Tuapanaf,85369,,,null
5301112009,530111,5301,53,Fatukona,85369,,,null
5301112010,530111,5301,53,Oesusu,85369,,,null
5301121003,530112,5301,53,Lelogama,85373,,,null
5301122001,530112,5301,53,Fatusuki,85373,,,null
5301122002,530112,5301,53,Oelbanu,85373,,,null
5301122004,530112,5301,53,Fatumetan,85373,,,null
5301122005,530112,5301,53,Oh'aem,85373,,,null
5301122008,530112,5301,53,Leloboko,85373,,,null
5301122011,530112,5301,53,"Oh'aem II",85373,,,null
5301131002,530113,5301,53,Naikliu,85365,,,null
5301132001,530113,5301,53,Afoan,85365,,,null
5301132003,530113,5301,53,Fatunaus,85365,,,null
5301132004,530113,5301,53,Kolabe,85365,,,null
5301132005,530113,5301,53,Bakuin,85365,,,null
5301132010,530113,5301,53,Lilmus,85365,,,null
5301162001,530116,5301,53,Oelomin,85390,,,null
5301162002,530116,5301,53,Tasikona,85390,,,null
5301162003,530116,5301,53,Oemasi,85390,,,null
5301162004,530116,5301,53,"Usapi Sonbai",85390,,,null
5301162005,530116,5301,53,Oenif,85390,,,null
5301162006,530116,5301,53,Tunfeu,85390,,,null
5301162007,530116,5301,53,Oepaha,85390,,,null
5301162008,530116,5301,53,Bone,85390,,,null
5301162009,530116,5301,53,Taloetan,85390,,,null
5301162010,530116,5301,53,Oben,85390,,,null
5301162011,530116,5301,53,Bismarak,85390,,,null
5301171001,530117,5301,53,Teunbaun,85376,,,null
5301172002,530117,5301,53,Soba,85376,,,null
5301172003,530117,5301,53,Toobaun,85376,,,null
5301172004,530117,5301,53,Niukbaun,85376,,,null
5301172005,530117,5301,53,Tunbaun,85376,,,null
5301172006,530117,5301,53,Nekbaun,85376,,,null
5301172007,530117,5301,53,Merbaun,85376,,,null
5301172008,530117,5301,53,Erbaun,85376,,,null
5301181001,530118,5301,53,Buraen,85377,,,null
5301181002,530118,5301,53,Sonraen,85377,,,null
5301182003,530118,5301,53,Nekmese,85377,,,null
5301182004,530118,5301,53,Retraen,85377,,,null
5301182005,530118,5301,53,Sahraen,85377,,,null
5301192001,530119,5301,53,Oebesi,85378,,,null
5301192002,530119,5301,53,Pakubaun,85378,,,null
5301192003,530119,5301,53,Rabeka,85378,,,null
5301192004,530119,5301,53,Enoraen,85378,,,null
5301202001,530120,5301,53,Seki,85363,,,null
5301202002,530120,5301,53,Oemofa,85363,,,null
5301202003,530120,5301,53,Nunmafo,85363,,,null
5301202004,530120,5301,53,Muke,85363,,,null
5301202005,530120,5301,53,Pathau,85363,,,null
5301202006,530120,5301,53,Oeniko,85363,,,null
5301202007,530120,5301,53,Oenuntono,85363,,,null
5301202008,530120,5301,53,Oemolo,85363,,,null
5301202009,530120,5301,53,Enolanan,85363,,,null
5301202010,530120,5301,53,Oenaunu,85363,,,null
5301212001,530121,5301,53,Manubelon,85364,,,null
5301212002,530121,5301,53,Letkole,85364,,,null
5301212003,530121,5301,53,Nefoneut,85364,,,null
5301212004,530121,5301,53,"Bioba Baru",85364,,,null
5301222001,530122,5301,53,Soliu,85372,,,null
5301222002,530122,5301,53,Saukibe,85372,,,null
5301222003,530122,5301,53,Oelfatu,85372,,,null
5301222004,530122,5301,53,Timau,85372,,,null
5301222005,530122,5301,53,Honuk,85372,,,null
5301222006,530122,5301,53,Faumes,85372,,,null
5301232001,530123,5301,53,Akle,85353,,,null
5301232002,530123,5301,53,"Uitiuh Ana",85353,,,null
5301232003,530123,5301,53,Onansila,85353,,,null
5301232004,530123,5301,53,"Uitiuh Tuan",85353,,,null
5301232005,530123,5301,53,Naikean,85353,,,null
5301232006,530123,5301,53,Uiboa,85353,,,null
5301242001,530124,5301,53,Oeltuah,85360,,,null
5301242002,530124,5301,53,Baumata,85360,,,null
5301242003,530124,5301,53,Kuaklalo,85360,,,null
5301242004,530124,5301,53,Oeletsala,85360,,,null
5301242005,530124,5301,53,Bokong,85360,,,null
5301242006,530124,5301,53,"Baumata Utara",85360,,,null
5301242007,530124,5301,53,"Baumata Timur",85360,,,null
5301242008,530124,5301,53,"Baumata Barat",85360,,,null
5301252001,530125,5301,53,Fatukanutu,85362,,,null
5301252002,530125,5301,53,Kairane,85362,,,null
5301252003,530125,5301,53,Raknamo,85362,,,null
5301252004,530125,5301,53,Kuanheum,85362,,,null
5301252005,530125,5301,53,Fatuteta,85362,,,null
5301252006,530125,5301,53,Oefeto,85363,,,null
5301252007,530125,5301,53,Niunbaun,85363,,,null
5301262001,530126,5301,53,Nunuanah,85375,,,null
5301262002,530126,5301,53,Kifu,85375,,,null
5301262003,530126,5301,53,"Netemnanu Selatan",85375,,,null
5301262004,530126,5301,53,"Netemnanu Utara",85375,,,null
5301262005,530126,5301,53,Netemnanu,85375,,,null
5301272001,530127,5301,53,Poto,85223,,,null
5301272002,530127,5301,53,Nuataus,85223,,,null
5301272003,530127,5301,53,Kalali,85223,,,null
5301272004,530127,5301,53,Tuakau,85223,,,null
5301272005,530127,5301,53,Naitae,85223,,,null
5301282001,530128,5301,53,Oelbiteno,85220,,,null
5301282002,530128,5301,53,Nonbaun,85220,,,null
5301282003,530128,5301,53,Nunsaen,85220,,,null
5301282004,530128,5301,53,Passi,85220,,,null
5301302001,530130,5301,53,Fatumonas,85374,,,null
5301302002,530130,5301,53,Binafun,85374,,,null
5301302003,530130,5301,53,Bitobe,85374,,,null
5301302004,530130,5301,53,Bonmuti,85374,,,null
5302011001,530201,5302,53,SoE,85519,,,null
5302011002,530201,5302,53,Cendana,85519,,,null
5302011003,530201,5302,53,Oebesa,85515,,,null
5302011004,530201,5302,53,Taubneno,85511,,,null
5302011005,530201,5302,53,Nonohonis,85517,,,null
5302011006,530201,5302,53,"Karang Sirih",85519,,,null
5302011007,530201,5302,53,Nunumeu,85516,,,null
5302011008,530201,5302,53,Kobekamusa,85515,,,null
5302011009,530201,5302,53,"Oe Kefan",85519,,,null
5302011010,530201,5302,53,"Kota Baru",85519,,,null
5302011011,530201,5302,53,"Kampung Baru",85519,,,null
5302012012,530201,5302,53,Kuatae,85519,,,null
5302012013,530201,5302,53,Noemeto,85519,,,null
5302022001,530202,5302,53,Biloto,85542,,,null
5302022003,530202,5302,53,Kesetnana,85542,,,null
5302022006,530202,5302,53,Tuasene,85542,,,null
5302022008,530202,5302,53,Oinlasi,85542,,,null
5302022010,530202,5302,53,Bisene,85542,,,null
5302022012,530202,5302,53,Noinbila,85542,,,null
5302022013,530202,5302,53,Bikekneno,85542,,,null
5302032001,530203,5302,53,O'besi,85552,,,null
5302032002,530203,5302,53,Eonbesi,85552,,,null
5302032003,530203,5302,53,Bosen,85552,,,null
5302032004,530203,5302,53,Sebot,85552,,,null
5302032007,530203,5302,53,Ajaobaki,85552,,,null
5302032008,530203,5302,53,Netpala,85552,,,null
5302032009,530203,5302,53,Tunua,85552,,,null
5302032010,530203,5302,53,Bijaepunu,85552,,,null
5302032011,530203,5302,53,Nefokoko,85552,,,null
5302032012,530203,5302,53,Leloboko,85552,,,null
5302032013,530203,5302,53,Lelobatan,85552,,,null
5302032014,530203,5302,53,Halmei,85552,,,null
5302032015,530203,5302,53,Fatukoto,85552,,,null
5302032016,530203,5302,53,Kokfe'u,85552,,,null
5302032017,530203,5302,53,To'fen,85552,,,null
5302032018,530203,5302,53,Taiftob,85552,,,null
5302032019,530203,5302,53,Iusmolo,85552,,,null
5302032020,530203,5302,53,To'manat,85552,,,null
5302042001,530204,5302,53,Billa,85572,,,null
5302042002,530204,5302,53,Oelet,85572,,,null
5302042004,530204,5302,53,Pisan,85572,,,null
5302042005,530204,5302,53,Mauleum,85572,,,null
5302042007,530204,5302,53,Nifukiu,85572,,,null
5302042008,530204,5302,53,Mnelaanen,85572,,,null
5302042009,530204,5302,53,Teluk,85572,,,null
5302042012,530204,5302,53,Oe'Ekam,85572,,,null
5302042016,530204,5302,53,Sini,85572,,,null
5302042017,530204,5302,53,Tliu,85572,,,null
5302051010,530205,5302,53,Niki-Niki,85571,,,null
5302052001,530205,5302,53,Taebesa,85571,,,null
5302052002,530205,5302,53,Nakfunu,85571,,,null
5302052003,530205,5302,53,Oe'ekam,85571,,,null
5302052004,530205,5302,53,Baki,85571,,,null
5302052005,530205,5302,53,Tumu,85571,,,null
5302052006,530205,5302,53,Noebesa,85571,,,null
5302052007,530205,5302,53,Nobi-Nobi,85571,,,null
5302052008,530205,5302,53,Sopo,85571,,,null
5302052009,530205,5302,53,Bone,85571,,,null
5302052011,530205,5302,53,"Maunum Niki-Niki",85571,,,null
5302062001,530206,5302,53,Pollo,85562,,,null
5302062002,530206,5302,53,Oekiu,85562,,,null
5302062003,530206,5302,53,Oebelo,85562,,,null
5302062004,530206,5302,53,Noemuke,85562,,,null
5302062010,530206,5302,53,Kiubaat,85562,,,null
5302062011,530206,5302,53,Linamnutu,85562,,,null
5302062014,530206,5302,53,Mio,85562,,,null
5302062015,530206,5302,53,Batnun,85562,,,null
5302062018,530206,5302,53,Bena,85562,,,null
5302062019,530206,5302,53,"Eno Neten",85562,,,null
5302072007,530207,5302,53,Tublopo,85551,,,null
5302072008,530207,5302,53,Nule,85551,,,null
5302072009,530207,5302,53,Nusa,85551,,,null
5302072010,530207,5302,53,Mnelalete,85514,,,null
5302072011,530207,5302,53,Pusu,85551,,,null
5302072012,530207,5302,53,Tubuhue,85551,,,null
5302072013,530207,5302,53,"Haumeni Baki",85551,,,null
5302072015,530207,5302,53,Nifukani,85551,,,null
5302082001,530208,5302,53,Oinlasi,85573,,,null
5302082002,530208,5302,53,Nunleu,85573,,,null
5302082003,530208,5302,53,Kokoi,85573,,,null
5302082004,530208,5302,53,Fenun,85573,,,null
5302082005,530208,5302,53,Kualeu,85573,,,null
5302082006,530208,5302,53,Lanu,85573,,,null
5302082007,530208,5302,53,Sunu,85573,,,null
5302082008,530208,5302,53,Anin,85573,,,null
5302082009,530208,5302,53,To'i,85573,,,null
5302082010,530208,5302,53,Nifuleo,85573,,,null
5302082011,530208,5302,53,Fatulunu,85573,,,null
5302082012,530208,5302,53,Fae,85573,,,null
5302082013,530208,5302,53,Netutnana,85573,,,null
5302092001,530209,5302,53,Lilo,85574,,,null
5302092002,530209,5302,53,Fotilo,85574,,,null
5302092003,530209,5302,53,Nasi,85574,,,null
5302092004,530209,5302,53,Snok,85574,,,null
5302092005,530209,5302,53,Tumu,85574,,,null
5302092006,530209,5302,53,"Fatu Oni",85574,,,null
5302092007,530209,5302,53,Sono,85574,,,null
5302092009,530209,5302,53,Tauanas,85574,,,null
5302092015,530209,5302,53,Muna,85574,,,null
5302102001,530210,5302,53,Pilli,85575,,,null
5302102002,530210,5302,53,Falas,85575,,,null
5302102003,530210,5302,53,Oenai,85575,,,null
5302102004,530210,5302,53,Belle,85575,,,null
5302102005,530210,5302,53,Napi,85575,,,null
5302102006,530210,5302,53,Boti,85575,,,null
5302102007,530210,5302,53,Fatuulan,85575,,,null
5302102008,530210,5302,53,Tesiayofanu,85575,,,null
5302102009,530210,5302,53,Oinlasi,85575,,,null
5302102010,530210,5302,53,Nekmese,85575,,,null
5302102011,530210,5302,53,"Eno Napi",85575,,,null
5302102012,530210,5302,53,Fatukusi,85575,,,null
5302102013,530210,5302,53,Naile'u,85575,,,null
5302112001,530211,5302,53,Olais,85564,,,null
5302112002,530211,5302,53,Lasi,85564,,,null
5302112003,530211,5302,53,Kakan,85564,,,null
5302112005,530211,5302,53,Basmuti,85564,,,null
5302112006,530211,5302,53,Kusi,85564,,,null
5302112007,530211,5302,53,Kuanfatu,85564,,,null
5302112008,530211,5302,53,Kelle,85564,,,null
5302112009,530211,5302,53,Taupi,85564,,,null
5302112010,530211,5302,53,Oebo,85564,,,null
5302112011,530211,5302,53,"Kusi Utara",85564,,,null
5302112012,530211,5302,53,"Kelle Tunan",85564,,,null
5302112013,530211,5302,53,Noebeba,85564,,,null
5302112014,530211,5302,53,Oehan,85564,,,null
5302122001,530212,5302,53,Nenas,85561,,,null
5302122004,530212,5302,53,Fatumnasi,85561,,,null
5302122005,530212,5302,53,Nuapin,85561,,,null
5302122009,530212,5302,53,Kuanoel,85561,,,null
5302122010,530212,5302,53,Mutis,85561,,,null
5302132001,530213,5302,53,Konbaki,85545,,,null
5302132002,530213,5302,53,Fatumnutu,85545,,,null
5302132003,530213,5302,53,Bijeli,85545,,,null
5302132004,530213,5302,53,Loli,85545,,,null
5302132005,530213,5302,53,Usapimnasi,85545,,,null
5302132006,530213,5302,53,Mnesatbubuk,85545,,,null
5302132007,530213,5302,53,Puna,85545,,,null
5302132008,530213,5302,53,Laob,85545,,,null
5302132009,530213,5302,53,Oelnunuh,85545,,,null
5302132010,530213,5302,53,Balu,85545,,,null
5302132011,530213,5302,53,Sainoni,85545,,,null
5302142001,530214,5302,53,Benlutu,85565,,,null
5302142002,530214,5302,53,Boentuka,85565,,,null
5302142003,530214,5302,53,Hane,85565,,,null
5302142004,530214,5302,53,Oebobo,85565,,,null
5302142005,530214,5302,53,Tupan,85565,,,null
5302142006,530214,5302,53,Tuakole,85565,,,null
5302142007,530214,5302,53,Oehela,85565,,,null
5302152006,530215,5302,53,Sabun,85584,,,null
5302152007,530215,5302,53,Nano,85584,,,null
5302152009,530215,5302,53,Boking,85584,,,null
5302152010,530215,5302,53,Baus,85584,,,null
5302152011,530215,5302,53,Meusin,85584,,,null
5302152013,530215,5302,53,Leonmeni,85584,,,null
5302152014,530215,5302,53,"Fatu Manufui",85584,,,null
5302162001,530216,5302,53,Toianas,85578,,,null
5302162002,530216,5302,53,Skinu,85578,,,null
5302162003,530216,5302,53,Oeleu,85578,,,null
5302162004,530216,5302,53,Sanbet,85578,,,null
5302162005,530216,5302,53,Bokong,85578,,,null
5302162006,530216,5302,53,Tuataum,85578,,,null
5302162007,530216,5302,53,Lobus,85578,,,null
5302162008,530216,5302,53,Noeolin,85578,,,null
5302162009,530216,5302,53,Milli,85578,,,null
5302172001,530217,5302,53,OP,85586,,,null
5302172002,530217,5302,53,Sahan,85586,,,null
5302172003,530217,5302,53,Nenoat,85586,,,null
5302172004,530217,5302,53,Haineno,85586,,,null
5302172005,530217,5302,53,Nunkolo,85586,,,null
5302172006,530217,5302,53,Saenam,85586,,,null
5302172007,530217,5302,53,Fat,85586,,,null
5302172008,530217,5302,53,Haumeni,85586,,,null
5302172009,530217,5302,53,Putun,85586,,,null
5302182001,530218,5302,53,Neke,85583,,,null
5302182002,530218,5302,53,"Pene Utara",85583,,,null
5302182003,530218,5302,53,Noenoni,85583,,,null
5302182004,530218,5302,53,Hoi,85583,,,null
5302182005,530218,5302,53,"Niki Niki Un",85583,,,null
5302182006,530218,5302,53,Oenino,85583,,,null
5302182007,530218,5302,53,Abi,85583,,,null
5302192001,530219,5302,53,Kolbano,85563,,,null
5302192002,530219,5302,53,Noesiu,85563,,,null
5302192003,530219,5302,53,"Pene Selatan",85563,,,null
5302192004,530219,5302,53,Oetuke,85563,,,null
5302192005,530219,5302,53,Babuin,85563,,,null
5302192006,530219,5302,53,Oeleu,85563,,,null
5302192007,530219,5302,53,Se'i,85563,,,null
5302192008,530219,5302,53,Nununamat,85563,,,null
5302192009,530219,5302,53,Pana,85563,,,null
5302192010,530219,5302,53,Haunobenak,85563,,,null
5302192011,530219,5302,53,Ofu,85563,,,null
5302192012,530219,5302,53,Spaha,85563,,,null
5302202001,530220,5302,53,Kot'olin,85576,,,null
5302202002,530220,5302,53,Nunbena,85576,,,null
5302202003,530220,5302,53,Fatuat,85576,,,null
5302202004,530220,5302,53,Hoibeti,85576,,,null
5302202005,530220,5302,53,Nualunat,85576,,,null
5302202006,530220,5302,53,Binenok,85576,,,null
5302202007,530220,5302,53,Ponite,85576,,,null
5302202008,530220,5302,53,O'obibi,85576,,,null
5302212001,530221,5302,53,Kualin,85566,,,null
5302212002,530221,5302,53,Oni,85566,,,null
5302212003,530221,5302,53,Nunusunu,85566,,,null
5302212004,530221,5302,53,Tuapakas,85566,,,null
5302212005,530221,5302,53,Toineke,85566,,,null
5302212006,530221,5302,53,Tuafanu,85566,,,null
5302212007,530221,5302,53,Kiufatu,85566,,,null
5302212008,530221,5302,53,Oemaman,85566,,,null
5302222001,530222,5302,53,Besana,85541,,,null
5302222002,530222,5302,53,Fatukoko,85541,,,null
5302222003,530222,5302,53,Koa,85541,,,null
5302222004,530222,5302,53,"Oel Uban",85541,,,null
5302222005,530222,5302,53,Salbait,85541,,,null
5302232001,530223,5302,53,Lotas,85577,,,null
5302232002,530223,5302,53,Sabnala,85577,,,null
5302232003,530223,5302,53,Koloto,85577,,,null
5302232004,530223,5302,53,Niti,85577,,,null
5302232005,530223,5302,53,Obaki,85577,,,null
5302232006,530223,5302,53,Benehe,85577,,,null
5302242001,530224,5302,53,Noebana,85585,,,null
5302242002,530224,5302,53,Fatumnasi,85585,,,null
5302242003,530224,5302,53,Suni,85585,,,null
5302242004,530224,5302,53,Mella,85585,,,null
5302242005,530224,5302,53,Mnelapetu,85585,,,null
5302252001,530225,5302,53,Santian,85587,,,null
5302252002,530225,5302,53,Poli,85587,,,null
5302252003,530225,5302,53,Manufui,85587,,,null
5302252004,530225,5302,53,Nenotes,85587,,,null
5302252005,530225,5302,53,Naifatu,85587,,,null
5302262001,530226,5302,53,Naip,85567,,,null
5302262002,530226,5302,53,Fatutnana,85567,,,null
5302262003,530226,5302,53,Oepliki,85567,,,null
5302262004,530226,5302,53,Oe'ekam,85567,,,null
5302262005,530226,5302,53,Teas,85567,,,null
5302262006,530226,5302,53,Oebaki,85567,,,null
5302262007,530226,5302,53,"Eno Nabuasa",85567,,,null
5302272001,530227,5302,53,Tetaf,85551,,,null
5302272002,530227,5302,53,Naukae,85551,,,null
5302272003,530227,5302,53,Supul,85551,,,null
5302272004,530227,5302,53,Lakat,85551,,,null
5302272005,530227,5302,53,Enoneontes,85551,,,null
5302272006,530227,5302,53,O'of,85551,,,null
5302272007,530227,5302,53,Tubmonas,85551,,,null
5302272008,530227,5302,53,"Oe Oe",85551,,,null
5302282001,530228,5302,53,Sillu,85582,,,null
5302282002,530228,5302,53,Nunukhniti,85582,,,null
5302282003,530228,5302,53,Kaeneno,85582,,,null
5302282004,530228,5302,53,Oeleon,85582,,,null
5302282005,530228,5302,53,Tunis,85582,,,null
5302282006,530228,5302,53,Bileon,85582,,,null
5302282007,530228,5302,53,Besle'u,85582,,,null
5302292001,530229,5302,53,Fatukopa,85581,,,null
5302292002,530229,5302,53,Besnam,85581,,,null
5302292003,530229,5302,53,Taebone,85581,,,null
5302292004,530229,5302,53,Nunfutu,85581,,,null
5302292005,530229,5302,53,Kiki,85581,,,null
5302292006,530229,5302,53,Ello,85581,,,null
5302292007,530229,5302,53,Nifulinah,85581,,,null
5302302001,530230,5302,53,Oelbubuk,85543,,,null
5302302002,530230,5302,53,Nekemunifeto,85543,,,null
5302302003,530230,5302,53,Binaus,85543,,,null
5302302004,530230,5302,53,Oel'Ekam,85543,,,null
5302302005,530230,5302,53,Kualeu,85543,,,null
5302302006,530230,5302,53,Pika,85543,,,null
5302312001,530231,5302,53,Tobu,85552,,,null
5302312002,530231,5302,53,Tutem,85552,,,null
5302312003,530231,5302,53,Tune,85561,,,null
5302312004,530231,5302,53,Bonleu,85561,,,null
5302312005,530231,5302,53,Pubasu,85552,,,null
5302312006,530231,5302,53,Huetalan,85552,,,null
5302312007,530231,5302,53,Saubalan,85552,,,null
5302312008,530231,5302,53,Bestobe,85552,,,null
5302322001,530232,5302,53,"Lill ana",85544,,,null
5302322002,530232,5302,53,Nunbena,85544,,,null
5302322003,530232,5302,53,Noebesi,85544,,,null
5302322004,530232,5302,53,Taneotob,85544,,,null
5302322005,530232,5302,53,"Feto Mone",85544,,,null
5302322006,530232,5302,53,Tunbes,85544,,,null
5303011006,530301,5303,53,Bitefa,85654,,,null
5303011020,530301,5303,53,Oesena,85654,,,null
5303012005,530301,5303,53,Bokon,85654,,,null
5303012007,530301,5303,53,Keanbaun,85654,,,null
5303012018,530301,5303,53,Amol,85654,,,null
5303012019,530301,5303,53,Fatusene,85654,,,null
5303012021,530301,5303,53,Jak,85654,,,null
5303012022,530301,5303,53,Tuntun,85654,,,null
5303012023,530301,5303,53,Tunoe,85654,,,null
5303012024,530301,5303,53,Femnasi,85654,,,null
5303012025,530301,5303,53,Taekas,85654,,,null
5303021026,530302,5303,53,Eban,85661,,,null
5303021027,530302,5303,53,Sallu,85661,,,null
5303022001,530302,5303,53,Noepesu,85661,,,null
5303022002,530302,5303,53,Fatuneno,85661,,,null
5303022003,530302,5303,53,Suanae,85661,,,null
5303022004,530302,5303,53,Lemon,85661,,,null
5303022005,530302,5303,53,Fatunisuan,85661,,,null
5303022006,530302,5303,53,Haulasi,85661,,,null
5303022018,530302,5303,53,Neotoko,85661,,,null
5303022019,530302,5303,53,Fatutasu,85661,,,null
5303022020,530302,5303,53,Manusasi,85661,,,null
5303022025,530302,5303,53,Saenam,85661,,,null
5303022028,530302,5303,53,Sa'tab,85661,,,null
5303031003,530303,5303,53,"Up Faon",85680,,,null
5303031011,530303,5303,53,Supun,85680,,,null
5303032001,530303,5303,53,Pantae,85680,,,null
5303032002,530303,5303,53,Oenaem,85680,,,null
5303032007,530303,5303,53,Tautpah,85680,,,null
5303032009,530303,5303,53,Tokbesi,85680,,,null
5303032010,530303,5303,53,Sainiup,85680,,,null
5303032012,530303,5303,53,Tunbaen,85680,,,null
5303041011,530304,5303,53,Oenak,85664,,,null
5303041012,530304,5303,53,Nifuboke,85664,,,null
5303041013,530304,5303,53,Noemuti,85664,,,null
5303041014,530304,5303,53,Fatumuti,85664,,,null
5303041015,530304,5303,53,Kiuola,85664,,,null
5303042001,530304,5303,53,Bijeli,85664,,,null
5303042002,530304,5303,53,Noebaun,85664,,,null
5303042003,530304,5303,53,Seo,85664,,,null
5303042004,530304,5303,53,Popnam,85664,,,null
5303042009,530304,5303,53,Nibaaf,85664,,,null
5303042010,530304,5303,53,Banfanu,85664,,,null
5303042016,530304,5303,53,Oeperigi,85664,,,null
5303051001,530305,5303,53,"Kefamenanu Utara",85611,,,null
5303051002,530305,5303,53,Aplasi,85614,,,null
5303051003,530305,5303,53,"Kefamenanu Tengah",85612,,,null
5303051004,530305,5303,53,Bansone,85615,,,null
5303051005,530305,5303,53,Benpasi,85613,,,null
5303051006,530305,5303,53,"Kefamenanu Selatan",85613,,,null
5303051007,530305,5303,53,Tubuhue,85617,,,null
5303051008,530305,5303,53,Maubeli,85617,,,null
5303051009,530305,5303,53,Sasi,85616,,,null
5303061001,530306,5303,53,Boronubaen,85683,,,null
5303061015,530306,5303,53,"Boronubaen Timur",85683,,,null
5303062002,530306,5303,53,Hautaes,85683,,,null
5303062003,530306,5303,53,Tualena,85683,,,null
5303062004,530306,5303,53,Biloe,85683,,,null
5303062005,530306,5303,53,Taunbaen,85683,,,null
5303062006,530306,5303,53,Sapaen,85683,,,null
5303062012,530306,5303,53,Lokomea,85683,,,null
5303062013,530306,5303,53,"Taunbaen Timur",85683,,,null
5303062014,530306,5303,53,"Hauteas Barat",85683,,,null
5303071007,530307,5303,53,Ponu,85613,,,null
5303072001,530307,5303,53,Motadik,85613,,,null
5303072002,530307,5303,53,Nonotbatan,85613,,,null
5303072003,530307,5303,53,Sifaniha,85613,,,null
5303072004,530307,5303,53,Maukabatan,85613,,,null
5303072005,530307,5303,53,Kotafoun,85613,,,null
5303072006,530307,5303,53,Tuamese,85613,,,null
5303072008,530307,5303,53,Oemanu,85613,,,null
5303072009,530307,5303,53,Nifutasi,85613,,,null
5303081015,530308,5303,53,Ainiut,85671,,,null
5303081016,530308,5303,53,Nunmafo,85671,,,null
5303081018,530308,5303,53,"Manunain A",85671,,,null
5303081024,530308,5303,53,Fatoin,85671,,,null
5303081029,530308,5303,53,Bitauni,85671,,,null
5303082005,530308,5303,53,Nansean,85671,,,null
5303082006,530308,5303,53,Susulaku,85671,,,null
5303082007,530308,5303,53,Loeram,85671,,,null
5303082008,530308,5303,53,"Manunain B",85671,,,null
5303082010,530308,5303,53,Tapenpah,85671,,,null
5303082011,530308,5303,53,Sekon,85671,,,null
5303082017,530308,5303,53,Oenbit,85671,,,null
5303082022,530308,5303,53,"Susulaku B",85671,,,null
5303082025,530308,5303,53,Keun,85671,,,null
5303082026,530308,5303,53,Fatu'Ana,85671,,,null
5303082027,530308,5303,53,Botof,85671,,,null
5303082028,530308,5303,53,"Nansean Timur",85671,,,null
5303091010,530309,5303,53,"Humusu C",85674,,,null
5303092006,530309,5303,53,Fatumtasa,85674,,,null
5303092007,530309,5303,53,Oesoko,85674,,,null
5303092008,530309,5303,53,"Humusu Sainiup",85674,,,null
5303092009,530309,5303,53,"Humusu Oekolo",85674,,,null
5303102001,530310,5303,53,Naob,85665,,,null
5303102002,530310,5303,53,Haekto,85665,,,null
5303102003,530310,5303,53,Manikin,85665,,,null
5303102004,530310,5303,53,Kuaken,85665,,,null
5303112001,530311,5303,53,Tuabatan,85660,,,null
5303112002,530311,5303,53,Akomi,85660,,,null
5303112003,530311,5303,53,Bijaepasu,85660,,,null
5303112004,530311,5303,53,Neonasi,85660,,,null
5303112005,530311,5303,53,"N i a n",85660,,,null
5303112006,530311,5303,53,"Tuabatan Barat",85660,,,null
5303122001,530312,5303,53,Oelneke,85662,,,null
5303122002,530312,5303,53,Oetulu,85662,,,null
5303122003,530312,5303,53,Oeolo,85662,,,null
5303122004,530312,5303,53,Ainan,85662,,,null
5303122005,530312,5303,53,Bisafe,85662,,,null
5303122006,530312,5303,53,Batnes,85662,,,null
5303132001,530313,5303,53,Tasinifu,85663,,,null
5303132002,530313,5303,53,"Naekake A",85663,,,null
5303132003,530313,5303,53,"Naekake B",85663,,,null
5303132004,530313,5303,53,Noelelo,85663,,,null
5303141001,530314,5303,53,Oelami,85650,,,null
5303141006,530314,5303,53,Tublopo,85650,,,null
5303142002,530314,5303,53,Kiusili,85650,,,null
5303142003,530314,5303,53,Naiola,85650,,,null
5303142004,530314,5303,53,Maurisu,85650,,,null
5303142005,530314,5303,53,Oetalus,85650,,,null
5303142007,530314,5303,53,"Maurisu Utara",85650,,,null
5303142008,530314,5303,53,"Maurisu Selatan",85650,,,null
5303142009,530314,5303,53,"Maurisu Tengah",85650,,,null
5303142010,530314,5303,53,"Naiola Timur",85650,,,null
5303152001,530315,5303,53,Buk,85652,,,null
5303152002,530315,5303,53,Oenenu,85652,,,null
5303152003,530315,5303,53,Nimasi,85652,,,null
5303152004,530315,5303,53,Oelbonak,85652,,,null
5303152005,530315,5303,53,Kuenak,85652,,,null
5303152006,530315,5303,53,Oenino,85652,,,null
5303152007,530315,5303,53,"Oenenu Utara",85652,,,null
5303152008,530315,5303,53,"Oenenu Selatan",85652,,,null
5303152009,530315,5303,53,Sono,85652,,,null
5303162001,530316,5303,53,Inbate,85651,,,null
5303162002,530316,5303,53,Sunkaen,85651,,,null
5303162003,530316,5303,53,Nainaban,85651,,,null
5303162004,530316,5303,53,"Haumeni Ana",85651,,,null
5303162005,530316,5303,53,Nilulat,85651,,,null
5303162006,530316,5303,53,Tubu,85651,,,null
5303172001,530317,5303,53,Faenake,85653,,,null
5303172002,530317,5303,53,"Banain A",85653,,,null
5303172003,530317,5303,53,"Banain B",85653,,,null
5303172004,530317,5303,53,"Banain C",85653,,,null
5303172005,530317,5303,53,Sainoni,85653,,,null
5303172006,530317,5303,53,Tes,85653,,,null
5303172007,530317,5303,53,Napan,85653,,,null
5303172008,530317,5303,53,Haumeni,85653,,,null
5303172009,530317,5303,53,Baas,85653,,,null
5303182001,530318,5303,53,Manamas,85655,,,null
5303182002,530318,5303,53,Benus,85655,,,null
5303182003,530318,5303,53,Bakitolas,85655,,,null
5303182004,530318,5303,53,Sunsea,85655,,,null
5303192001,530319,5303,53,"Fafinesu A",85672,,,null
5303192002,530319,5303,53,"Fafinesu B",85672,,,null
5303192003,530319,5303,53,"Fafinesu C",85672,,,null
5303192004,530319,5303,53,Oenain,85672,,,null
5303192005,530319,5303,53,Baunuan,85672,,,null
5303192006,530319,5303,53,Fafinesu,85672,,,null
5303201006,530320,5303,53,Atmen,85670,,,null
5303202001,530320,5303,53,Subun,85670,,,null
5303202002,530320,5303,53,Usapinonot,85670,,,null
5303202003,530320,5303,53,Lapeom,85670,,,null
5303202004,530320,5303,53,Letneo,85670,,,null
5303202005,530320,5303,53,Bannae,85670,,,null
5303202007,530320,5303,53,Atmen,85670,,,null
5303202008,530320,5303,53,"Letneo Selatan",85670,,,null
5303202009,530320,5303,53,Oabikase,85670,,,null
5303202010,530320,5303,53,Nifunenas,85670,,,null
5303202011,530320,5303,53,"Subun Bestobe",85670,,,null
5303202012,530320,5303,53,"Subun Tualele",85670,,,null
5303211004,530321,5303,53,Maubesi,85673,,,null
5303212001,530321,5303,53,Lanaus,85673,,,null
5303212002,530321,5303,53,Letmafo,85673,,,null
5303212003,530321,5303,53,Tainsala,85673,,,null
5303212005,530321,5303,53,Sone,85673,,,null
5303212006,530321,5303,53,"Letmafo Timur",85673,,,null
5303212007,530321,5303,53,Oehalo,85673,,,null
5303222001,530322,5303,53,Teba,85684,,,null
5303222002,530322,5303,53,Oerinbesi,85684,,,null
5303222003,530322,5303,53,Oekopa,85684,,,null
5303222004,530322,5303,53,"T'Eba Timur",85684,,,null
5303232001,530323,5303,53,Tunbes,85681,,,null
5303232002,530323,5303,53,Luniup,85681,,,null
5303232003,530323,5303,53,Matabesi,85681,,,null
5303232004,530323,5303,53,Oepuah,85681,,,null
5303232005,530323,5303,53,Kaubele,85681,,,null
5303232006,530323,5303,53,"Oepuah Utara",85681,,,null
5303232007,530323,5303,53,"Oepuah Selatan",85681,,,null
5303242001,530324,5303,53,Naku,85682,,,null
5303242002,530324,5303,53,Birunatun,85682,,,null
5303242003,530324,5303,53,Makun,85682,,,null
5303242004,530324,5303,53,Manumean,85682,,,null
5303242005,530324,5303,53,Kuluan,85682,,,null
5304012001,530401,5304,53,Kewar,85772,,,null
5304012002,530401,5304,53,Fulur,85772,,,null
5304012004,530401,5304,53,Duarato,85772,,,null
5304012005,530401,5304,53,Makir,85772,,,null
5304012006,530401,5304,53,Lamaksenulu,85772,,,null
5304012008,530401,5304,53,Dirun,85772,,,null
5304012009,530401,5304,53,Leowalu,85772,,,null
5304012014,530401,5304,53,Maudemu,85772,,,null
5304012015,530401,5304,53,Mahuitas,85772,,,null
5304022001,530402,5304,53,Silawan,85771,,,null
5304022002,530402,5304,53,Tulakadi,85771,,,null
5304022003,530402,5304,53,Sadi,85711,,,null
5304022004,530402,5304,53,Umaklaran,85771,,,null
5304022005,530402,5304,53,Manleten,85771,,,null
5304022006,530402,5304,53,Fatuba'a,85771,,,null
5304022007,530402,5304,53,Dafala,85771,,,null
5304022008,530402,5304,53,Takirin,85771,,,null
5304022009,530402,5304,53,Bauho,85771,,,null
5304022010,530402,5304,53,Sarabau,85771,,,null
5304022018,530402,5304,53,Tialai,85771,,,null
5304022019,530402,5304,53,Halimodok,85771,,,null
5304032001,530403,5304,53,Asumanu,85773,,,null
5304032002,530403,5304,53,Tohe,85773,,,null
5304032003,530403,5304,53,Maumutin,85773,,,null
5304032004,530403,5304,53,Raifatus,85773,,,null
5304032005,530403,5304,53,Aitoun,85773,,,null
5304032006,530403,5304,53,"Tohe Leten",85773,,,null
5304042001,530404,5304,53,Tukuneno,85753,,,null
5304042002,530404,5304,53,Naekasa,85753,,,null
5304042003,530404,5304,53,Lookeu,85753,,,null
5304042004,530404,5304,53,Derokfaturene,85753,,,null
5304042005,530404,5304,53,Bakustulama,85753,,,null
5304042006,530404,5304,53,Rinbesihat,85753,,,null
5304042007,530404,5304,53,Naitimu,85753,,,null
5304042009,530404,5304,53,Lawalutolus,85753,,,null
5304052001,530405,5304,53,Fatuketi,85752,,,null
5304052002,530405,5304,53,Dualaus,85752,,,null
5304052003,530405,5304,53,Jenilu,85752,,,null
5304052004,530405,5304,53,Kenebibi,85752,,,null
5304052005,530405,5304,53,Leosama,85752,,,null
5304052006,530405,5304,53,Kabuna,85752,,,null
5304121001,530412,5304,53,"Kota Atambua",85711,,,null
5304121002,530412,5304,53,Tenukiik,85711,,,null
5304121003,530412,5304,53,Manumutin,85712,,,null
5304121010,530412,5304,53,Fatubenao,85718,,,null
5304132001,530413,5304,53,"Mandeu Raimanus",85760,,,null
5304132002,530413,5304,53,Renrua,85760,,,null
5304132003,530413,5304,53,"Dua Koran",85760,,,null
5304132004,530413,5304,53,Mandeu,85760,,,null
5304132005,530413,5304,53,Rafae,85760,,,null
5304132006,530413,5304,53,Faturika,85760,,,null
5304132007,530413,5304,53,Leuntolu,85760,,,null
5304132008,530413,5304,53,Teun,85760,,,null
5304132009,530413,5304,53,Tasain,85760,,,null
5304172001,530417,5304,53,Lasiolat,85771,,,null
5304172002,530417,5304,53,Maneikun,85771,,,null
5304172003,530417,5304,53,"Lakan Mau",85771,,,null
5304172004,530417,5304,53,"Dualasi Rai Ulun",85771,,,null
5304172005,530417,5304,53,Dualasi,85771,,,null
5304172006,530417,5304,53,Fatulotu,85771,,,null
5304172007,530417,5304,53,Baudaok,85771,,,null
5304182001,530418,5304,53,Ekin,85770,,,null
5304182002,530418,5304,53,Loonuna,85770,,,null
5304182003,530418,5304,53,Nualain,85770,,,null
5304182004,530418,5304,53,Lakmaras,85770,,,null
5304182005,530418,5304,53,Henes,85770,,,null
5304182006,530418,5304,53,Debululik,85770,,,null
5304182007,530418,5304,53,"Sisi Fatuberal",85770,,,null
5304182008,530418,5304,53,"Lutha Rato",85770,,,null
5304211001,530421,5304,53,Bardao,85715,,,null
5304211002,530421,5304,53,Tulamalae,85714,,,null
5304211003,530421,5304,53,Umanen,85713,,,null
5304211004,530421,5304,53,Beirafu,85718,,,null
5304221001,530422,5304,53,Manuaman,85718,,,null
5304221002,530422,5304,53,Rinbesi,85718,,,null
5304221003,530422,5304,53,Lidak,85716,,,null
5304221004,530422,5304,53,Fatukbot,85717,,,null
5304232001,530423,5304,53,Dubesi,85751,,,null
5304232002,530423,5304,53,Nanaet,85751,,,null
5304232003,530423,5304,53,Fohoeka,85751,,,null
5304232004,530423,5304,53,Nanaenoe,85751,,,null
5305011001,530501,5305,53,"Kalabahi Barat",85814,,,null
5305011002,530501,5305,53,"Kalabahi Kota",85813,,,null
5305011003,530501,5305,53,"Kalabahi Tengah",85812,,,null
5305011004,530501,5305,53,"Kalabahi Timur",85811,,,null
5305011005,530501,5305,53,Binongko,85815,,,null
5305011006,530501,5305,53,"Nusa Kenari",85819,,,null
5305011008,530501,5305,53,"Welai Barat",85816,,,null
5305011009,530501,5305,53,"Welai Timur",85817,,,null
5305011010,530501,5305,53,Mutiara,85819,,,null
5305011011,530501,5305,53,Wetabua,85819,,,null
5305012012,530501,5305,53,Lendola,85819,,,null
5305012013,530501,5305,53,Fanating,85819,,,null
5305012014,530501,5305,53,Motongbang,85819,,,null
5305012015,530501,5305,53,"Air Kenari",85819,,,null
5305012018,530501,5305,53,"Teluk Kenari",85819,,,null
5305012019,530501,5305,53,"Adang Buom",85819,,,null
5305021002,530502,5305,53,Adang,85851,,,null
5305022003,530502,5305,53,"Alor Kecil",85851,,,null
5305022004,530502,5305,53,"Alor Besar",85851,,,null
5305022005,530502,5305,53,Ampera,85851,,,null
5305022006,530502,5305,53,Dulolong,85851,,,null
5305022007,530502,5305,53,Aimoli,85851,,,null
5305022008,530502,5305,53,Alila,85851,,,null
5305022009,530502,5305,53,Otvai,85851,,,null
5305022012,530502,5305,53,Ternate,85851,,,null
5305022013,530502,5305,53,"Ternate Selatan",85851,,,null
5305022014,530502,5305,53,"Alila Selatan",85851,,,null
5305022019,530502,5305,53,"Pulau Buaya",85851,,,null
5305022020,530502,5305,53,Hulnani,85851,,,null
5305022022,530502,5305,53,"O'a Mate",85851,,,null
5305022023,530502,5305,53,Alaang,85851,,,null
5305022024,530502,5305,53,Lefokisu,85851,,,null
5305022025,530502,5305,53,Bampalola,85851,,,null
5305022026,530502,5305,53,Lewalu,85851,,,null
5305022027,530502,5305,53,"Dulolong Barat",85851,,,null
5305031001,530503,5305,53,Moru,85861,,,null
5305032002,530503,5305,53,Probur,85861,,,null
5305032007,530503,5305,53,Morba,85861,,,null
5305032008,530503,5305,53,Pintumas,85861,,,null
5305032009,530503,5305,53,Wolwal,85861,,,null
5305032010,530503,5305,53,Halerman,85861,,,null
5305032013,530503,5305,53,Kafelulang,85861,,,null
5305032014,530503,5305,53,Moramam,85861,,,null
5305032015,530503,5305,53,Pailelang,85861,,,null
5305032016,530503,5305,53,"Wolwal Barat",85861,,,null
5305032017,530503,5305,53,"Wolwal Tengah",85861,,,null
5305032018,530503,5305,53,"Wolwal Selatan",85861,,,null
5305032019,530503,5305,53,"Probur Utara",85861,,,null
5305041001,530504,5305,53,"Kelaisi Timur",85871,,,null
5305042002,530504,5305,53,"Kelaisi Barat",85871,,,null
5305042003,530504,5305,53,Sidabui,85871,,,null
5305042004,530504,5305,53,"Padang Alang",85871,,,null
5305042005,530504,5305,53,Kuneman,85871,,,null
5305042006,530504,5305,53,Silaipui,85871,,,null
5305042007,530504,5305,53,"Kelaisi Tengah",85871,,,null
5305042008,530504,5305,53,Kiraman,85871,,,null
5305042009,530504,5305,53,Maikang,85871,,,null
5305042010,530504,5305,53,Malaipea,85871,,,null
5305042011,530504,5305,53,Tamanapui,85871,,,null
5305042012,530504,5305,53,Lella,85871,,,null
5305042013,530504,5305,53,Manmas,85871,,,null
5305042014,530504,5305,53,Subo,85871,,,null
5305051001,530505,5305,53,"Kolana Utara",85872,,,null
5305052004,530505,5305,53,Tanglapui,85872,,,null
5305052005,530505,5305,53,"Kolana Selatan",85872,,,null
5305052007,530505,5305,53,"Padang Panjang",85872,,,null
5305052008,530505,5305,53,Maritaing,85872,,,null
5305052010,530505,5305,53,Elok,85872,,,null
5305052011,530505,5305,53,"Tanglapui Timur",85872,,,null
5305052012,530505,5305,53,Mausamang,85872,,,null
5305052013,530505,5305,53,Belemana,85872,,,null
5305052014,530505,5305,53,Maukuru,85872,,,null
5305061001,530506,5305,53,Kabir,85881,,,null
5305062005,530506,5305,53,Pandai,85881,,,null
5305062009,530506,5305,53,Bandar,85881,,,null
5305062010,530506,5305,53,Baolang,85881,,,null
5305062011,530506,5305,53,Munaseli,85881,,,null
5305062012,530506,5305,53,Helangdohi,85881,,,null
5305062013,530506,5305,53,Wailawar,85881,,,null
5305062014,530506,5305,53,Bana,85881,,,null
5305062016,530506,5305,53,Bouweli,85881,,,null
5305062017,530506,5305,53,"Bukit Mas",85881,,,null
5305062019,530506,5305,53,Madar,85881,,,null
5305072001,530507,5305,53,"Lembur Barat",85870,,,null
5305072002,530507,5305,53,"Lembur Tengah",85870,,,null
5305072004,530507,5305,53,Likwatang,85870,,,null
5305072007,530507,5305,53,Fungafeng,85870,,,null
5305072008,530507,5305,53,Fuisama,85870,,,null
5305072009,530507,5305,53,"Nur Benlelang",85870,,,null
5305072010,530507,5305,53,Kafakbeka,85870,,,null
5305072011,530507,5305,53,Manetwati,85870,,,null
5305072012,530507,5305,53,Lakwati,85870,,,null
5305072014,530507,5305,53,Dapitau,85870,,,null
5305072017,530507,5305,53,"Alim Mebung",85870,,,null
5305072018,530507,5305,53,Petleng,85870,,,null
5305072019,530507,5305,53,"Welai Selatan",85870,,,null
5305072020,530507,5305,53,Tominuku,85870,,,null
5305082001,530508,5305,53,Pido,85873,,,null
5305082002,530508,5305,53,Waisika,85873,,,null
5305082003,530508,5305,53,Kamot,85873,,,null
5305082004,530508,5305,53,Taramana,85873,,,null
5305082005,530508,5305,53,Nailang,85873,,,null
5305082006,530508,5305,53,Lippang,85873,,,null
5305082007,530508,5305,53,Kenarimbala,85873,,,null
5305082008,530508,5305,53,"Air Mancur",85873,,,null
5305092002,530509,5305,53,Baraler,85880,,,null
5305092003,530509,5305,53,Kalondama,85880,,,null
5305092007,530509,5305,53,Leer,85880,,,null
5305092018,530509,5305,53,Baranusa,85880,,,null
5305092019,530509,5305,53,"Blang Merang",85880,,,null
5305092020,530509,5305,53,Illu,85880,,,null
5305092024,530509,5305,53,Piringsina,85880,,,null
5305101001,530510,5305,53,Kabola,85819,,,null
5305102002,530510,5305,53,Kopidil,85819,,,null
5305102003,530510,5305,53,"Pante Deere",85819,,,null
5305102004,530510,5305,53,Lawahing,85851,,,null
5305102005,530510,5305,53,"Alila Timur",85851,,,null
5305111001,530511,5305,53,Pura,85850,,,null
5305112002,530511,5305,53,Maru,85850,,,null
5305112003,530511,5305,53,"Pura Utara",85850,,,null
5305112004,530511,5305,53,"Pura Selatan",85850,,,null
5305112005,530511,5305,53,"Pura Timur",85850,,,null
5305112006,530511,5305,53,"Pura Barat",85850,,,null
5305122001,530512,5305,53,"Mataru Selatan",85860,,,null
5305122002,530512,5305,53,"Mataru Utara",85860,,,null
5305122003,530512,5305,53,Lakatuli,85860,,,null
5305122004,530512,5305,53,"Mataru Timur",85860,,,null
5305122005,530512,5305,53,Kamaifui,85860,,,null
5305122006,530512,5305,53,"Mataru Barat",85860,,,null
5305122007,530512,5305,53,"Taman Mataru",85860,,,null
5305132001,530513,5305,53,Langkuru,85874,,,null
5305132002,530513,5305,53,Purnama,85874,,,null
5305132003,530513,5305,53,Kailesa,85874,,,null
5305132004,530513,5305,53,"Langkuru Utara",85874,,,null
5305142001,530514,5305,53,Nule,85884,,,null
5305142002,530514,5305,53,Kaleb,85884,,,null
5305142003,530514,5305,53,Batu,85884,,,null
5305142004,530514,5305,53,Kaera,85884,,,null
5305142005,530514,5305,53,Mawar,85884,,,null
5305142006,530514,5305,53,Merdeka,85884,,,null
5305142007,530514,5305,53,Ombay,85884,,,null
5305142008,530514,5305,53,Lekom,85884,,,null
5305142009,530514,5305,53,Bungabali,85884,,,null
5305142010,530514,5305,53,Tereweng,85884,,,null
5305142011,530514,5305,53,Lalafang,85884,,,null
5305152001,530515,5305,53,"Lembur Timur",85875,,,null
5305152002,530515,5305,53,Luba,85875,,,null
5305152003,530515,5305,53,Talwai,85875,,,null
5305152004,530515,5305,53,Tulleng,85875,,,null
5305152005,530515,5305,53,Waimi,85875,,,null
5305152006,530515,5305,53,Tasi,85875,,,null
5305162001,530516,5305,53,Tude,85883,,,null
5305162002,530516,5305,53,Mauta,85883,,,null
5305162003,530516,5305,53,Muriabang,85883,,,null
5305162004,530516,5305,53,Tubbe,85883,,,null
5305162005,530516,5305,53,Tamakh,85883,,,null
5305162006,530516,5305,53,Bagang,85883,,,null
5305162007,530516,5305,53,Toang,85883,,,null
5305162008,530516,5305,53,"Eka Jaya",85883,,,null
5305162009,530516,5305,53,Aramaba,85883,,,null
5305162010,530516,5305,53,Delaki,85883,,,null
5305172001,530517,5305,53,Kayang,85882,,,null
5305172002,530517,5305,53,Marisa,85882,,,null
5305172003,530517,5305,53,Lamma,85882,,,null
5305172004,530517,5305,53,Allumang,85882,,,null
5305172005,530517,5305,53,Beangonong,85882,,,null
5305172006,530517,5305,53,"Kalondama Barat",85882,,,null
5305172007,530517,5305,53,"Kalondama Tengah",85882,,,null
5305182001,530518,5305,53,Tribur,85861,,,null
5305182002,530518,5305,53,Wakapsir,85861,,,null
5305182003,530518,5305,53,Manatang,85861,,,null
5305182004,530518,5305,53,Orgen,85861,,,null
5305182005,530518,5305,53,"Wakapsir Timur",85861,,,null
5305182006,530518,5305,53,Kuifana,85861,,,null
5305182007,530518,5305,53,Margeta,85861,,,null
5306012001,530601,5306,53,Ojandetun,86256,,,null
5306012002,530601,5306,53,Hewa,86256,,,null
5306012003,530601,5306,53,Waiula,86256,,,null
5306012007,530601,5306,53,Nawokote,86256,,,null
5306012008,530601,5306,53,Boru,86256,,,null
5306012009,530601,5306,53,Pululera,86256,,,null
5306012011,530601,5306,53,Nileknoheng,86256,,,null
5306012012,530601,5306,53,"Hokeng Jaya",86256,,,null
5306012013,530601,5306,53,"Pantai Oa",86256,,,null
5306012014,530601,5306,53,"Boru Kedang",86256,,,null
5306012021,530601,5306,53,Klatanlo,86256,,,null
5306022001,530602,5306,53,Kobasoma,86255,,,null
5306022002,530602,5306,53,Lewolaga,86255,,,null
5306022003,530602,5306,53,Lewoingu,86255,,,null
5306022004,530602,5306,53,Tuakepa,86255,,,null
5306022005,530602,5306,53,Tenawahang,86255,,,null
5306022006,530602,5306,53,Leraboleng,86255,,,null
5306022007,530602,5306,53,Serinuho,86255,,,null
5306022008,530602,5306,53,Watowara,86255,,,null
5306022009,530602,5306,53,Konga,86255,,,null
5306022010,530602,5306,53,"Ile Gerong",86255,,,null
5306022011,530602,5306,53,Adabang,86255,,,null
5306022012,530602,5306,53,"Dun Tana Lewoingu",86255,,,null
5306022013,530602,5306,53,"Duli Jaya",86255,,,null
5306022014,530602,5306,53,"Bokang Wolomatang",86255,,,null
5306031001,530603,5306,53,Waibalun,86212,,,null
5306031002,530603,5306,53,Lewolere,86212,,,null
5306031003,530603,5306,53,"Pantai Besar",86213,,,null
5306031004,530603,5306,53,Larantuka,86213,,,null
5306031005,530603,5306,53,Balela,86214,,,null
5306031006,530603,5306,53,"Pohon Sirih",86214,,,null
5306031007,530603,5306,53,Lohayong,86215,,,null
5306031008,530603,5306,53,Lokea,86215,,,null
5306031009,530603,5306,53,Postoh,86216,,,null
5306031010,530603,5306,53,Amagarapati,86219,,,null
5306031011,530603,5306,53,Ekasapta,86217,,,null
5306031012,530603,5306,53,Sarotari,86219,,,null
5306031013,530603,5306,53,Weri,86219,,,null
5306031014,530603,5306,53,"Pukentobi Wangin Bao",86219,,,null
5306031021,530603,5306,53,Waihali,86219,,,null
5306031022,530603,5306,53,"Pohon Bao",86219,,,null
5306031023,530603,5306,53,"Sarotari Tengah",86219,,,null
5306031024,530603,5306,53,"Sarotari Timur",86219,,,null
5306032019,530603,5306,53,Mokantarak,86219,,,null
5306032020,530603,5306,53,Lamawalang,86219,,,null
5306042001,530604,5306,53,Wailolong,86211,,,null
5306042002,530604,5306,53,Lewoloba,86211,,,null
5306042003,530604,5306,53,Tiwatobi,86211,,,null
5306042004,530604,5306,53,Watotutu,86211,,,null
5306042005,530604,5306,53,Riangkemie,86211,,,null
5306042006,530604,5306,53,Lewohala,86211,,,null
5306042007,530604,5306,53,Halakodanuan,86211,,,null
5306042008,530604,5306,53,Mudakaputu,86211,,,null
5306052006,530605,5306,53,Lewobunga,86251,,,null
5306052007,530605,5306,53,Sinamalaka,86251,,,null
5306052008,530605,5306,53,Ratulodong,86251,,,null
5306052009,530605,5306,53,Sinarhadigala,86251,,,null
5306052010,530605,5306,53,Bahinga,86251,,,null
5306052011,530605,5306,53,Waibao,86251,,,null
5306052012,530605,5306,53,Lamatutu,86251,,,null
5306052013,530605,5306,53,Latonliwo,86251,,,null
5306052015,530605,5306,53,Kolaka,86251,,,null
5306052016,530605,5306,53,Bandona,86251,,,null
5306052017,530605,5306,53,"Nusa Nipa",86251,,,null
5306052018,530605,5306,53,"Patisira Walang",86251,,,null
5306052020,530605,5306,53,Gekengderan,86251,,,null
5306052021,530605,5306,53,Aransina,86251,,,null
5306052022,530605,5306,53,"Latonliwo Dua",86251,,,null
5306052023,530605,5306,53,Lamanabi,86251,,,null
5306061001,530606,5306,53,Ritaebang,86272,,,null
5306062002,530606,5306,53,"Tanah Lein",86272,,,null
5306062003,530606,5306,53,Lamaole,86272,,,null
5306062004,530606,5306,53,Kalelu,86272,,,null
5306062005,530606,5306,53,Nusadani,86272,,,null
5306062007,530606,5306,53,"Balaweling II",86272,,,null
5306062008,530606,5306,53,"Balaweling I",86272,,,null
5306062009,530606,5306,53,Pamakayo,86272,,,null
5306062012,530606,5306,53,Ongalereng,86272,,,null
5306062013,530606,5306,53,Karawatung,86272,,,null
5306062014,530606,5306,53,Lamawalang,86272,,,null
5306062015,530606,5306,53,Daniwato,86272,,,null
5306062017,530606,5306,53,"Lewotanah Ole",86272,,,null
5306062019,530606,5306,53,Titehena,86272,,,null
5306062020,530606,5306,53,Lewonama,86272,,,null
5306072002,530607,5306,53,Watanhura,86271,,,null
5306072003,530607,5306,53,Lebao,86271,,,null
5306072004,530607,5306,53,Watohari,86271,,,null
5306072005,530607,5306,53,Motonwutun,86271,,,null
5306072006,530607,5306,53,Watobuku,86271,,,null
5306072007,530607,5306,53,Labelen,86271,,,null
5306072008,530607,5306,53,Menanga,86271,,,null
5306072009,530607,5306,53,"Lohayong I",86271,,,null
5306072010,530607,5306,53,Wulublolong,86271,,,null
5306072011,530607,5306,53,Liwo,86271,,,null
5306072012,530607,5306,53,"Tanah Werang",86271,,,null
5306072013,530607,5306,53,Lewohedo,86271,,,null
5306072014,530607,5306,53,"Lohayong II",86271,,,null
5306072016,530607,5306,53,"Watanhura II",86271,,,null
5306072017,530607,5306,53,Lewogeka,86271,,,null
5306072018,530607,5306,53,Lamawai,86271,,,null
5306072019,530607,5306,53,Kawuta,86271,,,null
5306082008,530608,5306,53,Duanur,86263,,,null
5306082010,530608,5306,53,"Bukit Seburi I",86263,,,null
5306082011,530608,5306,53,Waiwadan,86263,,,null
5306082012,530608,5306,53,Danibao,86263,,,null
5306082013,530608,5306,53,Pajinian,86263,,,null
5306082014,530608,5306,53,"Ile Pati",86263,,,null
5306082015,530608,5306,53,Wureh,86263,,,null
5306082016,530608,5306,53,Tonuwotan,86263,,,null
5306082017,530608,5306,53,Hurung,86263,,,null
5306082019,530608,5306,53,Bungalima,86263,,,null
5306082021,530608,5306,53,Homa,86263,,,null
5306082024,530608,5306,53,"Bukit Seburi II",86263,,,null
5306082026,530608,5306,53,Kimakamak,86263,,,null
5306082030,530608,5306,53,Watobaya,86263,,,null
5306082032,530608,5306,53,"Nimun Danibao",86263,,,null
5306082033,530608,5306,53,Waitukan,86263,,,null
5306082035,530608,5306,53,Wolokibang,86263,,,null
5306082036,530608,5306,53,Riangpadu,86263,,,null
5306092001,530609,5306,53,Wailebe,86260,,,null
5306092002,530609,5306,53,Wotanulumado,86260,,,null
5306092003,530609,5306,53,Nayubaya,86260,,,null
5306092004,530609,5306,53,Oyangbarang,86260,,,null
5306092005,530609,5306,53,Kawela,86260,,,null
5306092006,530609,5306,53,Klukengnuking,86260,,,null
5306092007,530609,5306,53,Pandai,86260,,,null
5306092008,530609,5306,53,Bliko,86260,,,null
5306092009,530609,5306,53,Samsoge,86260,,,null
5306092011,530609,5306,53,Tobilota,86260,,,null
5306092012,530609,5306,53,"Tana Tukan",86260,,,null
5306092013,530609,5306,53,Demondei,86260,,,null
5306101001,530610,5306,53,"Waiwerang Kota",86261,,,null
5306101002,530610,5306,53,Lamatwelu,86261,,,null
5306102003,530610,5306,53,Dawataa,86261,,,null
5306102004,530610,5306,53,Teromh,86261,,,null
5306102005,530610,5306,53,Bilal,86261,,,null
5306102006,530610,5306,53,"Lamahala Jaya",86261,,,null
5306102007,530610,5306,53,Waiburak,86261,,,null
5306102008,530610,5306,53,Narasaosina,86261,,,null
5306102009,530610,5306,53,Karinglamalouk,86261,,,null
5306102010,530610,5306,53,Tuawolo,86261,,,null
5306102011,530610,5306,53,Kiwangona,86261,,,null
5306102012,530610,5306,53,Tapobali,86261,,,null
5306102013,530610,5306,53,Lewobunga,86261,,,null
5306102014,530610,5306,53,Belota,86261,,,null
5306102015,530610,5306,53,"Ipi Ebang",86261,,,null
5306102016,530610,5306,53,Lamalata,86261,,,null
5306102017,530610,5306,53,Puhu,86261,,,null
5306102018,530610,5306,53,"Kwaelaga Lamawato",86261,,,null
5306102019,530610,5306,53,Gelong,86261,,,null
5306102020,530610,5306,53,"Lelen Bala",86261,,,null
5306102021,530610,5306,53,Saosina,86261,,,null
5306112001,530611,5306,53,Rodentena,86265,,,null
5306112002,530611,5306,53,Adolaba,86265,,,null
5306112003,530611,5306,53,Hinga,86265,,,null
5306112004,530611,5306,53,Lamapaha,86265,,,null
5306112005,530611,5306,53,Sukutokan,86265,,,null
5306112006,530611,5306,53,Nisakarang,86265,,,null
5306112007,530611,5306,53,Muda,86265,,,null
5306112008,530611,5306,53,Horinara,86265,,,null
5306112009,530611,5306,53,Pepakelu,86265,,,null
5306112010,530611,5306,53,Lambunga,86265,,,null
5306112012,530611,5306,53,Mangaaleng,86265,,,null
5306112019,530611,5306,53,Keluwain,86265,,,null
5306122001,530612,5306,53,Watololong,86266,,,null
5306122002,530612,5306,53,Tuagoetobi,86266,,,null
5306122003,530612,5306,53,Weranggere,86266,,,null
5306122004,530612,5306,53,Oringbele,86266,,,null
5306122005,530612,5306,53,Watoone,86266,,,null
5306122006,530612,5306,53,Lamabelawa,86266,,,null
5306122007,530612,5306,53,Pledo,86266,,,null
5306122008,530612,5306,53,Lewopulo,86266,,,null
5306122009,530612,5306,53,Sandosi,86266,,,null
5306122010,530612,5306,53,Balaweling,86266,,,null
5306122011,530612,5306,53,Tobitika,86266,,,null
5306122012,530612,5306,53,Riangduli,86266,,,null
5306122013,530612,5306,53,Waiwuring,86266,,,null
5306122014,530612,5306,53,Baobage,86266,,,null
5306122015,530612,5306,53,Lamaleka,86266,,,null
5306122016,530612,5306,53,"Balaweling Noten",86266,,,null
5306132001,530613,5306,53,Bedalewun,86253,,,null
5306132002,530613,5306,53,Lebanuba,86253,,,null
5306132003,530613,5306,53,Rianwale,86253,,,null
5306132004,530613,5306,53,Bungalawan,86253,,,null
5306132005,530613,5306,53,Lamawolo,86253,,,null
5306132006,530613,5306,53,Helanlangowuyo,86253,,,null
5306132007,530613,5306,53,Lewopao,86253,,,null
5306132008,530613,5306,53,Nelereren,86253,,,null
5306132009,530613,5306,53,Boleng,86253,,,null
5306132010,530613,5306,53,Neleblolong,86253,,,null
5306132011,530613,5306,53,Duablolong,86253,,,null
5306132012,530613,5306,53,Lewokeleng,86253,,,null
5306132013,530613,5306,53,Nelelamawangi,86253,,,null
5306132014,530613,5306,53,Harubala,86253,,,null
5306132015,530613,5306,53,Nelelamadike,86253,,,null
5306132016,530613,5306,53,Lamabayung,86253,,,null
5306132017,530613,5306,53,Lewat,86253,,,null
5306132018,530613,5306,53,Dokeng,86253,,,null
5306132019,530613,5306,53,Bayuntaa,86253,,,null
5306132020,530613,5306,53,Nobo,86253,,,null
5306132021,530613,5306,53,"Nelelamawangi Dua",86253,,,null
5306142001,530614,5306,53,Lamika,86219,,,null
5306142002,530614,5306,53,"Watotika Ile",86219,,,null
5306142003,530614,5306,53,Lewokluok,86219,,,null
5306142004,530614,5306,53,Blepanawa,86219,,,null
5306142005,530614,5306,53,Kawalelo,86219,,,null
5306142006,530614,5306,53,Bama,86219,,,null
5306142007,530614,5306,53,Lewomuda,86219,,,null
5306152001,530615,5306,53,"Ile Padung",86252,,,null
5306152002,530615,5306,53,Bantala,86252,,,null
5306152003,530615,5306,53,"Sinar Hading",86252,,,null
5306152004,530615,5306,53,Paingnapang,86252,,,null
5306152005,530615,5306,53,"Baluk Herin",86252,,,null
5306152006,530615,5306,53,Riangkotek,86252,,,null
5306152007,530615,5306,53,Lewobelen,86252,,,null
5306162001,530616,5306,53,Riangbura,86254,,,null
5306162002,530616,5306,53,Birawan,86254,,,null
5306162003,530616,5306,53,Nurri,86254,,,null
5306162004,530616,5306,53,Nobokonga,86254,,,null
5306162005,530616,5306,53,Lewoawang,86254,,,null
5306162006,530616,5306,53,Dulipali,86254,,,null
5306162007,530616,5306,53,"Riang Rita",86254,,,null
5306172001,530617,5306,53,Sagu,86262,,,null
5306172002,530617,5306,53,Kolimasang,86262,,,null
5306172003,530617,5306,53,Kolilanang,86262,,,null
5306172004,530617,5306,53,Tikatukan,86262,,,null
5306172005,530617,5306,53,"Nisa Nulan",86262,,,null
5306172006,530617,5306,53,Lamahoda,86262,,,null
5306172007,530617,5306,53,Adonara,86262,,,null
5306172008,530617,5306,53,Kolipetung,86262,,,null
5306182001,530618,5306,53,Horowura,86264,,,null
5306182002,530618,5306,53,Kokotobo,86264,,,null
5306182003,530618,5306,53,Lite,86264,,,null
5306182004,530618,5306,53,Kenotan,86264,,,null
5306182005,530618,5306,53,Nubalema,86264,,,null
5306182006,530618,5306,53,Wewit,86264,,,null
5306182007,530618,5306,53,Lewobele,86264,,,null
5306182008,530618,5306,53,Baya,86264,,,null
5306182009,530618,5306,53,Bidara,86264,,,null
5306182010,530618,5306,53,Oesayang,86264,,,null
5306182011,530618,5306,53,"Hoko Horowura",86264,,,null
5306182012,530618,5306,53,Lewopao,86264,,,null
5306182013,530618,5306,53,"Nubalema Dua",86264,,,null
5306192001,530619,5306,53,Kelike,86273,,,null
5306192002,530619,5306,53,"Kelike Aimatan",86273,,,null
5306192003,530619,5306,53,Sulengwaseng,86273,,,null
5306192004,530619,5306,53,Kenere,86273,,,null
5306192005,530619,5306,53,Lemanu,86273,,,null
5306192006,530619,5306,53,Lewograran,86273,,,null
5306192007,530619,5306,53,Bubuatagamu,86273,,,null
5307012001,530701,5307,53,Masabewa,86153,,,null
5307012003,530701,5307,53,Wolowiro,86153,,,null
5307012004,530701,5307,53,Mbengu,86153,,,null
5307012005,530701,5307,53,Paga,86153,,,null
5307012008,530701,5307,53,Lenandareta,86153,,,null
5307012012,530701,5307,53,Mauloo,86153,,,null
5307012013,530701,5307,53,Wolorega,86153,,,null
5307012015,530701,5307,53,Wolowona,86153,,,null
5307022001,530702,5307,53,Bhera,86113,,,null
5307022002,530702,5307,53,Dobo,86113,,,null
5307022003,530702,5307,53,Gera,86113,,,null
5307022004,530702,5307,53,Liakutu,86113,,,null
5307022005,530702,5307,53,Parabubu,86113,,,null
5307022006,530702,5307,53,Wolodhesa,86113,,,null
5307022007,530702,5307,53,Korobhera,86113,,,null
5307022008,530702,5307,53,Napugera,86113,,,null
5307022009,530702,5307,53,Kowi,86113,,,null
5307022010,530702,5307,53,"Dobo Nuapuu",86113,,,null
5307032001,530703,5307,53,Lela,86161,,,null
5307032002,530703,5307,53,Watutedang,86161,,,null
5307032003,530703,5307,53,Korowuwu,86161,,,null
5307032004,530703,5307,53,Kolidetung,86161,,,null
5307032005,530703,5307,53,Sikka,86161,,,null
5307032006,530703,5307,53,Iligai,86161,,,null
5307032007,530703,5307,53,Hepang,86161,,,null
5307032008,530703,5307,53,Baopaat,86161,,,null
5307032009,530703,5307,53,Du,86161,,,null
5307042001,530704,5307,53,Nita,86151,,,null
5307042002,530704,5307,53,Takaplager,86151,,,null
5307042003,530704,5307,53,Tebuk,86151,,,null
5307042004,530704,5307,53,Ladogahar,86151,,,null
5307042005,530704,5307,53,Nitakloang,86151,,,null
5307042006,530704,5307,53,Wuliwutik,86151,,,null
5307042007,530704,5307,53,Lusitada,86151,,,null
5307042008,530704,5307,53,Bloro,86151,,,null
5307042009,530704,5307,53,Riit,86151,,,null
5307042010,530704,5307,53,Tilang,86151,,,null
5307042011,530704,5307,53,Nirangkliung,86151,,,null
5307042017,530704,5307,53,Mahebora,86151,,,null
5307051006,530705,5307,53,Madawat,86112,,,null
5307051007,530705,5307,53,Nangalimang,86118,,,null
5307051008,530705,5307,53,Kabor,86112,,,null
5307051009,530705,5307,53,"Kota Uneng",86113,,,null
5307052014,530705,5307,53,Pemana,86116,,,null
5307052015,530705,5307,53,Samparong,86116,,,null
5307052016,530705,5307,53,"Gunung Sari",86116,,,null
5307062001,530706,5307,53,Maluriwu,86110,,,null
5307062002,530706,5307,53,Reruwairere,86110,,,null
5307062003,530706,5307,53,Tuanggeo,86110,,,null
5307062004,530706,5307,53,Ladolaka,86110,,,null
5307062005,530706,5307,53,Nitunglea,86110,,,null
5307062006,530706,5307,53,Rokirole,86110,,,null
5307062007,530706,5307,53,Kesokoja,86110,,,null
5307062008,530706,5307,53,Lidi,86110,,,null
5307072002,530707,5307,53,"Nelle Urung",86119,,,null
5307072003,530707,5307,53,"Nelle Wutung",86119,,,null
5307072004,530707,5307,53,"Nelle Barat",86119,,,null
5307072005,530707,5307,53,"Nella Lorang",86119,,,null
5307072006,530707,5307,53,Manubura,86119,,,null
5307082001,530708,5307,53,"Darat Gunung",86183,,,null
5307082002,530708,5307,53,Ojang,86183,,,null
5307082003,530708,5307,53,Hikong,86183,,,null
5307082006,530708,5307,53,Nebe,86183,,,null
5307082007,530708,5307,53,Wailamung,86183,,,null
5307082008,530708,5307,53,Lewomada,86183,,,null
5307082010,530708,5307,53,Nangahale,86183,,,null
5307082011,530708,5307,53,"Darat Pantai",86183,,,null
5307082013,530708,5307,53,Talibura,86183,,,null
5307082014,530708,5307,53,Kringa,86183,,,null
5307082015,530708,5307,53,Bangkoor,86183,,,null
5307082017,530708,5307,53,Timutawa,86183,,,null
5307092001,530709,5307,53,Runut,86185,,,null
5307092002,530709,5307,53,Egon,86185,,,null
5307092003,530709,5307,53,Pogon,86185,,,null
5307092004,530709,5307,53,Aibura,86185,,,null
5307092005,530709,5307,53,Wairbleler,86185,,,null
5307092006,530709,5307,53,Hoder,86185,,,null
5307092007,530709,5307,53,Wairterang,86185,,,null
5307092008,530709,5307,53,Nangatobong,86185,,,null
5307092009,530709,5307,53,Watudiran,86185,,,null
5307102005,530710,5307,53,Seusina,86182,,,null
5307102007,530710,5307,53,Kopong,86182,,,null
5307102008,530710,5307,53,Namangkewa,86182,,,null
5307102009,530710,5307,53,Iantena,86182,,,null
5307102016,530710,5307,53,Umagera,86182,,,null
5307102020,530710,5307,53,Geliting,86182,,,null
5307102021,530710,5307,53,Waiara,86182,,,null
5307102024,530710,5307,53,Wairkoja,86182,,,null
5307112001,530711,5307,53,Hokor,86171,,,null
5307112002,530711,5307,53,Wolonwalu,86171,,,null
5307112003,530711,5307,53,Wolokoli,86171,,,null
5307112004,530711,5307,53,Bola,86171,,,null
5307112005,530711,5307,53,Umauta,86171,,,null
5307112006,530711,5307,53,Ipir,86171,,,null
5307122001,530712,5307,53,Magepanda,86152,,,null
5307122002,530712,5307,53,Reroroja,86152,,,null
5307122003,530712,5307,53,Done,86152,,,null
5307122004,530712,5307,53,Kolisia,86152,,,null
5307122005,530712,5307,53,"Kolisia B",86152,,,null
5307132001,530713,5307,53,Natarmage,86184,,,null
5307132002,530713,5307,53,Tanarawa,86184,,,null
5307132003,530713,5307,53,Pruda,86184,,,null
5307132004,530713,5307,53,Werang,86184,,,null
5307132005,530713,5307,53,"Tua Bao",86184,,,null
5307132006,530713,5307,53,Ilinmedo,86184,,,null
5307141001,530714,5307,53,Hewuli,86115,,,null
5307141002,530714,5307,53,Wailiti,86114,,,null
5307141003,530714,5307,53,Wolomarang,86114,,,null
5307141004,530714,5307,53,Wuring,86115,,,null
5307151001,530715,5307,53,Beru,86111,,,null
5307151002,530715,5307,53,"Kota Baru",86215,,,null
5307151003,530715,5307,53,Nangameting,86118,,,null
5307151004,530715,5307,53,Waioti,86118,,,null
5307151005,530715,5307,53,Wairotang,86111,,,null
5307152006,530715,5307,53,"Koja Doi",86116,,,null
5307152007,530715,5307,53,Kojagete,86116,,,null
5307152008,530715,5307,53,"Lepo Lima",86116,,,null
5307152009,530715,5307,53,Perumaan,86116,,,null
5307152010,530715,5307,53,Watugong,86116,,,null
5307162001,530716,5307,53,"Koting A",86116,,,null
5307162002,530716,5307,53,"Koting B",86116,,,null
5307162003,530716,5307,53,"Koting C",86116,,,null
5307162004,530716,5307,53,"Koting D",86116,,,null
5307162005,530716,5307,53,Paubekor,86116,,,null
5307162006,530716,5307,53,Ribang,86116,,,null
5307172001,530717,5307,53,"Bu Selatan",86154,,,null
5307172002,530717,5307,53,"Bu Utara",86154,,,null
5307172003,530717,5307,53,"Bu Watuweti",86154,,,null
5307172004,530717,5307,53,Loke,86154,,,null
5307172005,530717,5307,53,Renggarasi,86154,,,null
5307172006,530717,5307,53,Detubinga,86154,,,null
5307172007,530717,5307,53,Tuwa,86154,,,null
5307172008,530717,5307,53,Poma,86154,,,null
5307182001,530718,5307,53,Rubit,86181,,,null
5307182002,530718,5307,53,Wolomapa,86181,,,null
5307182003,530718,5307,53,Baomekot,86181,,,null
5307182004,530718,5307,53,Kajowair,86181,,,null
5307182005,530718,5307,53,Hewokloang,86181,,,null
5307182006,530718,5307,53,Heopuat,86181,,,null
5307182007,530718,5307,53,Munerana,86181,,,null
5307192001,530719,5307,53,"Teka Iku",86180,,,null
5307192002,530719,5307,53,Mekendetung,86180,,,null
5307192003,530719,5307,53,Kokowahor,86180,,,null
5307192004,530719,5307,53,Balatatatin,86180,,,null
5307192005,530719,5307,53,Watuliwung,86180,,,null
5307192006,530719,5307,53,"Tana Duen",86180,,,null
5307192007,530719,5307,53,Watumilok,86180,,,null
5307192008,530719,5307,53,Habi,86180,,,null
5307192009,530719,5307,53,Langir,86180,,,null
5307202001,530720,5307,53,Waihawa,86170,,,null
5307202002,530720,5307,53,Nenbura,86170,,,null
5307202003,530720,5307,53,Wogalirit,86170,,,null
5307202004,530720,5307,53,Watumerak,86170,,,null
5307202005,530720,5307,53,Wolonterang,86170,,,null
5307202006,530720,5307,53,Kloangpopot,86170,,,null
5307202007,530720,5307,53,Wolomotong,86170,,,null
5307212001,530721,5307,53,Hale,86172,,,null
5307212002,530721,5307,53,Hebing,86172,,,null
5307212003,530721,5307,53,Natakoli,86172,,,null
5307212004,530721,5307,53,"Egon Gahar",86172,,,null
5308011001,530801,5308,53,Ndorurea,86351,,,null
5308012002,530801,5308,53,Ondorea,86351,,,null
5308012003,530801,5308,53,Watumite,86351,,,null
5308012004,530801,5308,53,Tendarea,86351,,,null
5308012005,530801,5308,53,Kerirea,86351,,,null
5308012006,530801,5308,53,Tendambepa,86351,,,null
5308012007,530801,5308,53,Zozozea,86351,,,null
5308012008,530801,5308,53,Rapowawo,86351,,,null
5308012009,530801,5308,53,Nggorea,86351,,,null
5308012010,530801,5308,53,Raporendu,86351,,,null
5308012011,530801,5308,53,Bheramari,86351,,,null
5308012012,530801,5308,53,Titwerea,86351,,,null
5308012013,530801,5308,53,Sanggarhorho,86351,,,null
5308012014,530801,5308,53,Ndeturea,86351,,,null
5308012015,530801,5308,53,"Ndorurea I",86351,,,null
5308012016,530801,5308,53,Penggajawa,86351,,,null
5308012017,530801,5308,53,Jegharangga,86351,,,null
5308012018,530801,5308,53,"Ondorea Barat",86351,,,null
5308012019,530801,5308,53,Romarea,86351,,,null
5308012020,530801,5308,53,Timbaria,86351,,,null
5308012021,530801,5308,53,Mbobhenga,86351,,,null
5308012022,530801,5308,53,Malawaru,86351,,,null
5308012023,530801,5308,53,Anaraja,86351,,,null
5308012024,530801,5308,53,Kekandere,86351,,,null
5308012025,530801,5308,53,Tanazozo,86351,,,null
5308012026,530801,5308,53,"Tenda Ondo",86351,,,null
5308012027,530801,5308,53,Jemburea,86351,,,null
5308012028,530801,5308,53,Embuzozo,86351,,,null
5308012029,530801,5308,53,Uzuzozo,86351,,,null
5308022001,530802,5308,53,Aejeti,86362,,,null
5308022002,530802,5308,53,Puutara,86362,,,null
5308022003,530802,5308,53,Paderape,86362,,,null
5308022004,530802,5308,53,Ndoriwoi,86362,,,null
5308022005,530802,5308,53,Rorurangga,86362,,,null
5308022006,530802,5308,53,Rendoraterua,86362,,,null
5308022007,530802,5308,53,Redorory,86362,,,null
5308022008,530802,5308,53,"Kazo Kapo",86362,,,null
5308022009,530802,5308,53,"Renga Menge",86362,,,null
5308032001,530803,5308,53,Raburia,86319,,,null
5308032002,530803,5308,53,Riaraja,86319,,,null
5308032003,530803,5308,53,Mbotutenda,86319,,,null
5308032004,530803,5308,53,Wologai,86319,,,null
5308032007,530803,5308,53,"Ndetundora I",86319,,,null
5308032008,530803,5308,53,"Ndetundora II",86319,,,null
5308032009,530803,5308,53,"Tomberabu I",86319,,,null
5308032010,530803,5308,53,"Tomberabu II",86319,,,null
5308032011,530803,5308,53,Nakuramba,86319,,,null
5308032012,530803,5308,53,Wolokaro,86319,,,null
5308032013,530803,5308,53,"Ja Moke Asa",86319,,,null
5308032014,530803,5308,53,Emburia,86319,,,null
5308032016,530803,5308,53,Randotonda,86319,,,null
5308032017,530803,5308,53,Rukuramba,86319,,,null
5308032018,530803,5308,53,Tinabani,86319,,,null
5308032019,530803,5308,53,"Ndetundora III",86319,,,null
5308032020,530803,5308,53,Uzuramba,86319,,,null
5308032021,530803,5308,53,Tonggopapa,86319,,,null
5308032022,530803,5308,53,"Wologai Dua",86319,,,null
5308032023,530803,5308,53,Worhopapa,86319,,,null
5308032024,530803,5308,53,Wawonato,86319,,,null
5308032025,530803,5308,53,Jejaraja,86319,,,null
5308032026,530803,5308,53,Tendambonggi,86319,,,null
5308032027,530803,5308,53,Randorama,86319,,,null
5308032028,530803,5308,53,Ranoramba,86319,,,null
5308032029,530803,5308,53,Peozakaramba,86319,,,null
5308032030,530803,5308,53,Embutheru,86319,,,null
5308032031,530803,5308,53,Nuaja,86319,,,null
5308032032,530803,5308,53,"Wajakea Jaya",86319,,,null
5308032033,530803,5308,53,Nemboramba,86319,,,null
5308032034,530803,5308,53,"Embu Ngena",86319,,,null
5308032035,530803,5308,53,"Uzuramba Barat",86319,,,null
5308041003,530804,5308,53,Mbongawani,86313,,,null
5308041004,530804,5308,53,"Rukun Lima",86314,,,null
5308041006,530804,5308,53,Paupanda,86315,,,null
5308041008,530804,5308,53,Tetandara,86316,,,null
5308041014,530804,5308,53,Tanjung,86316,,,null
5308051001,530805,5308,53,Onelako,86360,,,null
5308051002,530805,5308,53,Lokoboko,86360,,,null
5308052003,530805,5308,53,Wolotopo,86360,,,null
5308052004,530805,5308,53,"Wolotolo Timur",86360,,,null
5308052006,530805,5308,53,Puutuga,86360,,,null
5308052007,530805,5308,53,Ngalupolo,86360,,,null
5308052012,530805,5308,53,Ngaluroga,86360,,,null
5308052013,530805,5308,53,Nila,86360,,,null
5308052014,530805,5308,53,Kekasewa,86360,,,null
5308052015,530805,5308,53,Manulando,86360,,,null
5308052016,530805,5308,53,Nanganesa,86360,,,null
5308052017,530805,5308,53,Wolokota,86360,,,null
5308052018,530805,5308,53,Kelikiku,86360,,,null
5308052020,530805,5308,53,Reka,86360,,,null
5308061001,530806,5308,53,Detusoko,86370,,,null
5308062002,530806,5308,53,"Detusoko Barat",86370,,,null
5308062003,530806,5308,53,Wolotolo,86370,,,null
5308062004,530806,5308,53,"Wolotolo Tengah",86370,,,null
5308062005,530806,5308,53,Roa,86370,,,null
5308062006,530806,5308,53,Saga,86370,,,null
5308062007,530806,5308,53,Niowula,86370,,,null
5308062008,530806,5308,53,Wolofeo,86370,,,null
5308062009,530806,5308,53,Nuaone,86370,,,null
5308062010,530806,5308,53,Wologai,86370,,,null
5308062011,530806,5308,53,"Wologai Tengah",86370,,,null
5308062013,530806,5308,53,Wolomage,86370,,,null
5308062015,530806,5308,53,Randoria,86370,,,null
5308062016,530806,5308,53,Wolomasi,86370,,,null
5308062017,530806,5308,53,Rateroru,86370,,,null
5308062018,530806,5308,53,Dile,86370,,,null
5308062019,530806,5308,53,Ndito,86370,,,null
5308062020,530806,5308,53,Sipijena,86370,,,null
5308062021,530806,5308,53,Golulada,86370,,,null
5308062022,530806,5308,53,Ranga,86370,,,null
5308062024,530806,5308,53,Turunalu,86370,,,null
5308072001,530807,5308,53,Welamosa,86353,,,null
5308072002,530807,5308,53,Nuangenda,86353,,,null
5308072003,530807,5308,53,Mautenda,86353,,,null
5308072004,530807,5308,53,"Mautenda Barat",86353,,,null
5308072005,530807,5308,53,Wewaria,86353,,,null
5308072006,530807,5308,53,Tanali,86353,,,null
5308072007,530807,5308,53,Detubela,86353,,,null
5308072008,530807,5308,53,Fataatu,86353,,,null
5308072009,530807,5308,53,"Fataatu Timur",86353,,,null
5308072010,530807,5308,53,Mukusaki,86353,,,null
5308072011,530807,5308,53,Ekoae,86353,,,null
5308072012,530807,5308,53,Aemuri,86353,,,null
5308072013,530807,5308,53,Ratewati,86353,,,null
5308072014,530807,5308,53,Mbotulaka,86353,,,null
5308072015,530807,5308,53,Numba,86353,,,null
5308072017,530807,5308,53,Kalitembu,86353,,,null
5308072018,530807,5308,53,Aelipo,86353,,,null
5308072019,530807,5308,53,"Ratewati Selatan",86353,,,null
5308072020,530807,5308,53,Waka,86353,,,null
5308072021,530807,5308,53,Wolooja,86353,,,null
5308072022,530807,5308,53,Ekolea,86353,,,null
5308072023,530807,5308,53,"Ae Ndoko",86353,,,null
5308081001,530808,5308,53,Bokasape,86373,,,null
5308082002,530808,5308,53,"Bokasape Timur",86373,,,null
5308082010,530808,5308,53,Mbuliloo,86373,,,null
5308082011,530808,5308,53,Rindiwawo,86373,,,null
5308082012,530808,5308,53,Jopu,86373,,,null
5308082013,530808,5308,53,Wolokoli,86373,,,null
5308082014,530808,5308,53,Mbuliwaralau,86373,,,null
5308082015,530808,5308,53,"Mbuliwaralau Utara",86373,,,null
5308082016,530808,5308,53,Lisedetu,86373,,,null
5308082017,530808,5308,53,Nualise,86373,,,null
5308082018,530808,5308,53,Wolosoko,86373,,,null
5308082019,530808,5308,53,Liselowobora,86373,,,null
5308082020,530808,5308,53,Likanaka,86373,,,null
5308082021,530808,5308,53,Nakambara,86373,,,null
5308082022,530808,5308,53,Niramesi,86373,,,null
5308082023,530808,5308,53,"Tana Lo'o",86373,,,null
5308082024,530808,5308,53,"Lise Pu'u",86373,,,null
5308091001,530809,5308,53,Wolojita,86382,,,null
5308092002,530809,5308,53,Tenda,86382,,,null
5308092003,530809,5308,53,Wiwipemo,86382,,,null
5308092004,530809,5308,53,Pora,86382,,,null
5308092005,530809,5308,53,Nuamulu,86382,,,null
5308092006,530809,5308,53,Nggela,86382,,,null
5308102001,530810,5308,53,Maurole,86381,,,null
5308102003,530810,5308,53,Aewora,86381,,,null
5308102005,530810,5308,53,Mausambi,86381,,,null
5308102006,530810,5308,53,Ranakolo,86381,,,null
5308102007,530810,5308,53,Watukamba,86381,,,null
5308102008,530810,5308,53,"Ranakolo Selatan",86381,,,null
5308102009,530810,5308,53,Keliwumbu,86381,,,null
5308102018,530810,5308,53,Detuwulu,86381,,,null
5308102019,530810,5308,53,Otogedu,86381,,,null
5308102020,530810,5308,53,Woloau,86381,,,null
5308102021,530810,5308,53,Ngalukoja,86381,,,null
5308102022,530810,5308,53,Niranusa,86381,,,null
5308102023,530810,5308,53,Uludala,86381,,,null
5308112001,530811,5308,53,Kebirangga,86352,,,null
5308112002,530811,5308,53,"Kebirangga Selatan",86352,,,null
5308112003,530811,5308,53,Kamubheka,86352,,,null
5308112004,530811,5308,53,Magekapa,86352,,,null
5308112005,530811,5308,53,Boafeo,86352,,,null
5308112006,530811,5308,53,Nabe,86352,,,null
5308112007,530811,5308,53,Kobaleba,86352,,,null
5308112008,530811,5308,53,Mundinggasa,86352,,,null
5308112009,530811,5308,53,Kolikapa,86352,,,null
5308112010,530811,5308,53,"Kebirangga Tengah",86352,,,null
5308112011,530811,5308,53,Natanangge,86352,,,null
5308121001,530812,5308,53,Watuneso,86361,,,null
5308122002,530812,5308,53,Hobatua,86361,,,null
5308122003,530812,5308,53,Wolosambi,86361,,,null
5308122004,530812,5308,53,Woloara,86361,,,null
5308122005,530812,5308,53,Detupera,86361,,,null
5308122006,530812,5308,53,"Wololela A",86361,,,null
5308122007,530812,5308,53,Liabeke,86361,,,null
5308122013,530812,5308,53,Fatamari,86361,,,null
5308122014,530812,5308,53,Ranggatalo,86361,,,null
5308122015,530812,5308,53,"Nua Lima",86361,,,null
5308122016,530812,5308,53,Tanaroga,86361,,,null
5308122017,530812,5308,53,"Bu Tanalagu",86361,,,null
5308122018,530812,5308,53,Mbewawora,86361,,,null
5308132001,530813,5308,53,Kotabaru,86111,,,null
5308132002,530813,5308,53,Tou,86111,,,null
5308132003,530813,5308,53,"Tou Timur",86111,,,null
5308132004,530813,5308,53,Loboniki,86111,,,null
5308132005,530813,5308,53,Ndondo,86111,,,null
5308132006,530813,5308,53,Niopanda,86111,,,null
5308132007,530813,5308,53,Hangalande,86111,,,null
5308132012,530813,5308,53,"Tou Barat",86111,,,null
5308132013,530813,5308,53,Liselande,86111,,,null
5308132014,530813,5308,53,Rangalaka,86111,,,null
5308132015,530813,5308,53,Pise,86111,,,null
5308132016,530813,5308,53,Neotonda,86111,,,null
5308132017,530813,5308,53,Nuanaga,86111,,,null
5308142002,530814,5308,53,Nduaria,86318,,,null
5308142003,530814,5308,53,Nuamuri,86318,,,null
5308142004,530814,5308,53,"Nuamuri Barat",86318,,,null
5308142005,530814,5308,53,Koanara,86318,,,null
5308142006,530814,5308,53,Woloara,86318,,,null
5308142007,530814,5308,53,Pemo,86318,,,null
5308142009,530814,5308,53,Detuena,86318,,,null
5308142010,530814,5308,53,Wolokelo,86318,,,null
5308142011,530814,5308,53,Waturaka,86318,,,null
5308152001,530815,5308,53,Nggesa,86371,,,null
5308152002,530815,5308,53,Detukeli,86371,,,null
5308152003,530815,5308,53,Kebesani,86371,,,null
5308152004,530815,5308,53,Wolomuku,86371,,,null
5308152005,530815,5308,53,Watunggere,86371,,,null
5308152006,530815,5308,53,Nida,86371,,,null
5308152007,530815,5308,53,"Maurole Selatan",86371,,,null
5308152008,530815,5308,53,Detumbewa,86371,,,null
5308152009,530815,5308,53,Kanganara,86371,,,null
5308152011,530815,5308,53,Unggu,86371,,,null
5308152012,530815,5308,53,Nggesabiri,86371,,,null
5308152013,530815,5308,53,"Watunggere Marilonga",86371,,,null
5308152014,530815,5308,53,"Jeo Du'a",86371,,,null
5308162001,530816,5308,53,Kurulimbu,86363,,,null
5308162002,530816,5308,53,Sokoria,86363,,,null
5308162003,530816,5308,53,Demulaka,86363,,,null
5308162004,530816,5308,53,Roga,86363,,,null
5308162005,530816,5308,53,"Kurulimbu Selatan",86363,,,null
5308162006,530816,5308,53,Ngguwa,86363,,,null
5308162007,530816,5308,53,"Sokoria Selatan",86363,,,null
5308172001,530817,5308,53,Maubasa,86372,,,null
5308172002,530817,5308,53,"Maubasa Timur",86372,,,null
5308172003,530817,5308,53,Wonda,86372,,,null
5308172004,530817,5308,53,Serandori,86372,,,null
5308172005,530817,5308,53,Kelisamba,86372,,,null
5308172006,530817,5308,53,Mole,86372,,,null
5308172007,530817,5308,53,Lungaria,86372,,,null
5308172008,530817,5308,53,Aebara,86372,,,null
5308172009,530817,5308,53,Ratemangga,86372,,,null
5308172010,530817,5308,53,"Maubasa Barat",86372,,,null
5308181001,530818,5308,53,"Kota Raja",86310,,,null
5308181002,530818,5308,53,"Kota Ratu",86310,,,null
5308181003,530818,5308,53,Roworena,86310,,,null
5308181007,530818,5308,53,"Roworena Barat",86310,,,null
5308182004,530818,5308,53,Gheoghoma,86310,,,null
5308182005,530818,5308,53,Borokanda,86310,,,null
5308182006,530818,5308,53,Watusipi,86310,,,null
5308182008,530818,5308,53,Mbomba,86310,,,null
5308182009,530818,5308,53,Embundoa,86310,,,null
5308182010,530818,5308,53,Raterua,86310,,,null
5308191001,530819,5308,53,Potulando,86312,,,null
5308191002,530819,5308,53,Onekore,86318,,,null
5308191003,530819,5308,53,Kelimutu,86319,,,null
5308191004,530819,5308,53,Paupire,86318,,,null
5308201001,530820,5308,53,Mautapaga,86317,,,null
5308201002,530820,5308,53,Rewarangga,86319,,,null
5308201006,530820,5308,53,"Rewarangga Selatan",86361,,,null
5308202003,530820,5308,53,Kedebodu,86361,,,null
5308202004,530820,5308,53,Ndungga,86361,,,null
5308202005,530820,5308,53,Tiwutewa,86361,,,null
5308212001,530821,5308,53,Nggumbelaka,86376,,,null
5308212002,530821,5308,53,Mukureku,86376,,,null
5308212003,530821,5308,53,"Wologai Timur",86376,,,null
5308212004,530821,5308,53,Kuru,86375,,,null
5308212005,530821,5308,53,Ndenggarongge,86375,,,null
5308212006,530821,5308,53,Ndikosapu,86378,,,null
5308212007,530821,5308,53,Taniwoda,86374,,,null
5308212008,530821,5308,53,Tanalangi,86374,,,null
5308212009,530821,5308,53,Detuara,86374,,,null
5308212010,530821,5308,53,Tiwusora,86374,,,null
5308212011,530821,5308,53,Lisekuru,86379,,,null
5308212012,530821,5308,53,Rutujeja,86377,,,null
5308212013,530821,5308,53,"Mukureku Sa'ate",86376,,,null
5308212014,530821,5308,53,Kurusare,86375,,,null
5309011002,530901,5309,53,Aimere,86452,,,null
5309011003,530901,5309,53,Foa,86452,,,null
5309012001,530901,5309,53,Keligejo,86452,,,null
5309012014,530901,5309,53,"Aimere Timur",86452,,,null
5309012018,530901,5309,53,Heawea,86452,,,null
5309012019,530901,5309,53,Legelapu,86452,,,null
5309012020,530901,5309,53,Lekogoko,86452,,,null
5309012021,530901,5309,53,Binawali,86452,,,null
5309012022,530901,5309,53,Kila,86452,,,null
5309012023,530901,5309,53,Waesae,86452,,,null
5309021008,530902,5309,53,Todabelu,86461,,,null
5309021017,530902,5309,53,Mataloko,86461,,,null
5309022002,530902,5309,53,"Were I",86461,,,null
5309022009,530902,5309,53,Sangadeto,86461,,,null
5309022010,530902,5309,53,Ratogesa,86461,,,null
5309022011,530902,5309,53,Radabata,86461,,,null
5309022018,530902,5309,53,Dadawea,86461,,,null
5309022019,530902,5309,53,Sarasedu,86461,,,null
5309022020,530902,5309,53,Malanuza,86461,,,null
5309022025,530902,5309,53,Were,86461,,,null
5309022026,530902,5309,53,"Were IV",86461,,,null
5309022031,530902,5309,53,"Malanuza Satu",86461,,,null
5309022032,530902,5309,53,"Sarasedu Satu",86461,,,null
5309022036,530902,5309,53,"Ulu Belu",86461,,,null
5309022037,530902,5309,53,Ekoroka,86461,,,null
5309022038,530902,5309,53,"Wae La",86461,,,null
5309061013,530906,5309,53,Bajawa,86413,,,null
5309061014,530906,5309,53,Tanalodu,86412,,,null
5309061015,530906,5309,53,Kisanata,86411,,,null
5309061016,530906,5309,53,Jawameze,86416,,,null
5309061017,530906,5309,53,Trikora,86414,,,null
5309061018,530906,5309,53,Ngedukelu,86415,,,null
5309061019,530906,5309,53,Lebijaga,86418,,,null
5309061020,530906,5309,53,Faobata,86419,,,null
5309061021,530906,5309,53,Susu,86417,,,null
5309062001,530906,5309,53,Beja,86413,,,null
5309062002,530906,5309,53,Bomari,86413,,,null
5309062003,530906,5309,53,Wawowae,86413,,,null
5309062004,530906,5309,53,Ubedolumolo,86413,,,null
5309062005,530906,5309,53,Naru,86413,,,null
5309062009,530906,5309,53,Beiwali,86413,,,null
5309062022,530906,5309,53,Borani,86413,,,null
5309062023,530906,5309,53,Langagedha,86418,,,null
5309062024,530906,5309,53,Pape,86413,,,null
5309062025,530906,5309,53,Bowali,86413,,,null
5309062026,530906,5309,53,Ngoranale,86413,,,null
5309062027,530906,5309,53,"Ubedolumolo Satu",86413,,,null
5309062028,530906,5309,53,Bela,86413,,,null
5309072001,530907,5309,53,Waepana,86422,,,null
5309072004,530907,5309,53,Masumeli,86422,,,null
5309072005,530907,5309,53,Piga,86422,,,null
5309072006,530907,5309,53,Loa,86422,,,null
5309072007,530907,5309,53,Tarawaja,86422,,,null
5309072008,530907,5309,53,Seso,86422,,,null
5309072010,530907,5309,53,Mangeruda,86422,,,null
5309072011,530907,5309,53,"Masu Kedhi",86422,,,null
5309072012,530907,5309,53,Libunio,86422,,,null
5309072013,530907,5309,53,"Meli Waru",86422,,,null
5309072014,530907,5309,53,Ngabheo,86422,,,null
5309072016,530907,5309,53,Bogoboa,86422,,,null
5309072017,530907,5309,53,"Piga Satu",86422,,,null
5309072018,530907,5309,53,Tarawali,86422,,,null
5309091010,530909,5309,53,"Benteng Tengah",86419,,,null
5309091011,530909,5309,53,Nangamese,86419,,,null
5309092005,530909,5309,53,Taenterong,86419,,,null
5309092006,530909,5309,53,Wangka,86419,,,null
5309092008,530909,5309,53,Lengkosambi,86419,,,null
5309092009,530909,5309,53,Tadho,86419,,,null
5309092012,530909,5309,53,Sambinasi,86419,,,null
5309092013,530909,5309,53,Latung,86419,,,null
5309092014,530909,5309,53,Rawangkalo,86419,,,null
5309092016,530909,5309,53,"Wangka Selatan",86419,,,null
5309092017,530909,5309,53,"Lengkosambi Timur",86419,,,null
5309092018,530909,5309,53,"Lengkosambi Barat",86419,,,null
5309092019,530909,5309,53,"Sambinasi Barat",86419,,,null
5309092020,530909,5309,53,"Lengkosambi Utara",86419,,,null
5309092021,530909,5309,53,"Taen Terong Satu",86419,,,null
5309092022,530909,5309,53,"Taen Terong Dua",86419,,,null
5309122001,530912,5309,53,Watumanu,86451,,,null
5309122002,530912,5309,53,Tiworiwu,86451,,,null
5309122003,530912,5309,53,Dariwali,86451,,,null
5309122004,530912,5309,53,Naruwolo,86451,,,null
5309122005,530912,5309,53,Nenowea,86451,,,null
5309122007,530912,5309,53,"Naruwolo I",86451,,,null
5309122008,530912,5309,53,"Naruwolo II",86451,,,null
5309122009,530912,5309,53,"Dariwali I",86451,,,null
5309122010,530912,5309,53,"Nio Lewa",86451,,,null
5309122011,530912,5309,53,"Tiworiwu I",86451,,,null
5309122012,530912,5309,53,"Tiworiwu II",86451,,,null
5309122015,530912,5309,53,Batajawa,86451,,,null
5309142001,530914,5309,53,"Benteng Tawa",86421,,,null
5309142002,530914,5309,53,Lanamai,86421,,,null
5309142003,530914,5309,53,Wolomeze,86421,,,null
5309142004,530914,5309,53,Ria,86421,,,null
5309142005,530914,5309,53,Ngara,86421,,,null
5309142006,530914,5309,53,"Ria I",86421,,,null
5309142007,530914,5309,53,"Wolomeze I",86421,,,null
5309142008,530914,5309,53,"Benteng Tawa I",86421,,,null
5309142009,530914,5309,53,"Lanamai I",86421,,,null
5309142010,530914,5309,53,"Wolomese Dua",86421,,,null
5309152001,530915,5309,53,Uluwae,86413,,,null
5309152002,530915,5309,53,Inelika,86413,,,null
5309152003,530915,5309,53,Inegena,86413,,,null
5309152004,530915,5309,53,Wololika,86413,,,null
5309152005,530915,5309,53,Watukapu,86413,,,null
5309152006,530915,5309,53,Waewea,86413,,,null
5309152007,530915,5309,53,Nabelena,86413,,,null
5309152008,530915,5309,53,Genamere,86413,,,null
5309152009,530915,5309,53,"Uluwae I",86413,,,null
5309152010,530915,5309,53,"Uluwae II",86413,,,null
5309152011,530915,5309,53,"Tura Muri",86413,,,null
5309162001,530916,5309,53,Nginamanu,86423,,,null
5309162002,530916,5309,53,Denatana,86423,,,null
5309162003,530916,5309,53,Mainai,86423,,,null
5309162004,530916,5309,53,Turaloa,86423,,,null
5309162005,530916,5309,53,"Nginamanu Selatan",86423,,,null
5309162006,530916,5309,53,"Nginamanu Barat",86423,,,null
5309162007,530916,5309,53,Wue,86423,,,null
5309162008,530916,5309,53,"Denatana Timur",86423,,,null
5309182001,530918,5309,53,Bawarani,86466,,,null
5309182002,530918,5309,53,Wogowela,86466,,,null
5309182003,530918,5309,53,"Watu Sipi",86466,,,null
5309182004,530918,5309,53,Boba,86466,,,null
5309182005,530918,5309,53,"Boba Satu",86466,,,null
5309182006,530918,5309,53,"Were Tiga",86466,,,null
5309182007,530918,5309,53,Kezewea,86466,,,null
5309182008,530918,5309,53,Nirmala,86466,,,null
5309182009,530918,5309,53,Sadha,86466,,,null
5309182010,530918,5309,53,Takatunga,86466,,,null
5309182011,530918,5309,53,Radamasa,86466,,,null
5309182012,530918,5309,53,"Were Dua",86466,,,null
5309191001,530919,5309,53,Mangulewa,86460,,,null
5309192002,530919,5309,53,Turekisa,86460,,,null
5309192003,530919,5309,53,Rakalaba,86460,,,null
5309192004,530919,5309,53,Sobo,86460,,,null
5309192005,530919,5309,53,"Sobo Satu",86460,,,null
5309192006,530919,5309,53,"Rakateda Satu",86460,,,null
5309192007,530919,5309,53,"Rakateda Dua",86460,,,null
5309192008,530919,5309,53,Watunay,86460,,,null
5309192009,530919,5309,53,"Dizi Gedha",86460,,,null
5309192010,530919,5309,53,Bewapawe,86460,,,null
5309202001,530920,5309,53,Paupaga,86450,,,null
5309202002,530920,5309,53,Sebowuli,86450,,,null
5309202003,530920,5309,53,Inerie,86450,,,null
5309202004,530920,5309,53,"Warupele Satu",86450,,,null
5309202005,530920,5309,53,"Warupele Dua",86450,,,null
5309202006,530920,5309,53,Kelitei,86450,,,null
5309202007,530920,5309,53,Waebela,86450,,,null
5309202008,530920,5309,53,Tiwurana,86450,,,null
5309202009,530920,5309,53,Legeriwu,86450,,,null
5309202010,530920,5309,53,Manubhara,86450,,,null
5310012001,531001,5310,53,"Satar Ngkeling",86594,,,null
5310012002,531001,5310,53,Lalong,86594,,,null
5310012003,531001,5310,53,Poco,86594,,,null
5310012004,531001,5310,53,"Wae Mulu",86594,,,null
5310012005,531001,5310,53,Ndehes,86594,,,null
5310012006,531001,5310,53,"Golo Cador",86594,,,null
5310012007,531001,5310,53,Longko,86594,,,null
5310012008,531001,5310,53,Ranggi,86594,,,null
5310012009,531001,5310,53,"Compang Ndehes",86594,,,null
5310012010,531001,5310,53,"Bangka Jong",86594,,,null
5310012012,531001,5310,53,"Bangka Kenda",86594,,,null
5310012013,531001,5310,53,"Golo Mendo",86594,,,null
5310012014,531001,5310,53,"Golo Wuas",86594,,,null
5310012015,531001,5310,53,"Wae Rii",86594,,,null
5310012016,531001,5310,53,Ranaka,86594,,,null
5310012017,531001,5310,53,"Golo Watu",86594,,,null
5310012018,531001,5310,53,"Benteng Poco",86594,,,null
5310031005,531003,5310,53,"Wae Belang",86523,,,null
5310032002,531003,5310,53,Cumbi,86523,,,null
5310032003,531003,5310,53,Kakor,86523,,,null
5310032004,531003,5310,53,"Pong Murung",86523,,,null
5310032006,531003,5310,53,Bulan,86523,,,null
5310032010,531003,5310,53,"Pong Lao",86523,,,null
5310032011,531003,5310,53,"Beo Rahong",86523,,,null
5310032019,531003,5310,53,"Golo Worok",86523,,,null
5310032020,531003,5310,53,Meler,86523,,,null
5310032021,531003,5310,53,"Benteng Kuwu",86523,,,null
5310032022,531003,5310,53,"Belang Turi",86523,,,null
5310032023,531003,5310,53,"Pong Leko",86523,,,null
5310032024,531003,5310,53,Rai,86523,,,null
5310032025,531003,5310,53,"Poco Likang",86523,,,null
5310032029,531003,5310,53,"Bangka Lao",86523,,,null
5310032030,531003,5310,53,"Compang Dalo",86523,,,null
5310032031,531003,5310,53,"Bea Kakor",86523,,,null
5310032032,531003,5310,53,"Compang Namut",86523,,,null
5310032033,531003,5310,53,"Pong Lale",86523,,,null
5310052003,531005,5310,53,Jaong,86561,,,null
5310052004,531005,5310,53,Pongkor,86561,,,null
5310052005,531005,5310,53,"Wae Ajang",86561,,,null
5310052018,531005,5310,53,Papang,86561,,,null
5310052019,531005,5310,53,Wewo,86561,,,null
5310052020,531005,5310,53,Lungar,86561,,,null
5310052021,531005,5310,53,Mocok,86561,,,null
5310052022,531005,5310,53,Koak,86561,,,null
5310052023,531005,5310,53,Langgo,86561,,,null
5310052024,531005,5310,53,Legu,86561,,,null
5310052025,531005,5310,53,Paka,86561,,,null
5310052028,531005,5310,53,Tal,86561,,,null
5310052031,531005,5310,53,"Golo Lambo",86561,,,null
5310052032,531005,5310,53,Ngkaer,86561,,,null
5310052033,531005,5310,53,Umung,86561,,,null
5310052034,531005,5310,53,Tado,86561,,,null
5310052035,531005,5310,53,Gara,86561,,,null
5310052036,531005,5310,53,"Golo Muntas",86561,,,null
5310052038,531005,5310,53,Ponggeok,86561,,,null
5310052039,531005,5310,53,Iteng,86561,,,null
5310052040,531005,5310,53,"Satar Loung",86561,,,null
5310052041,531005,5310,53,Lolang,86561,,,null
5310052042,531005,5310,53,"Ulu Belang",86561,,,null
5310061026,531006,5310,53,Pagal,86591,,,null
5310062001,531006,5310,53,Nenu,86591,,,null
5310062002,531006,5310,53,Rado,86591,,,null
5310062006,531006,5310,53,Wudi,86591,,,null
5310062007,531006,5310,53,Welu,86591,,,null
5310062008,531006,5310,53,Golo,86591,,,null
5310062009,531006,5310,53,Barang,86591,,,null
5310062010,531006,5310,53,Perak,86591,,,null
5310062011,531006,5310,53,"Bea Mese",86591,,,null
5310062012,531006,5310,53,Langkas,86591,,,null
5310062013,531006,5310,53,Ladur,86591,,,null
5310062014,531006,5310,53,Kentol,86591,,,null
5310062015,531006,5310,53,Riung,86591,,,null
5310062022,531006,5310,53,Pinggang,86591,,,null
5310062024,531006,5310,53,Lando,86591,,,null
5310062025,531006,5310,53,Gapong,86591,,,null
5310062027,531006,5310,53,"Golo Ncuang",86591,,,null
5310111017,531011,5310,53,Reo,86592,,,null
5310111018,531011,5310,53,"Mata Air",86592,,,null
5310111019,531011,5310,53,Baru,86592,,,null
5310111020,531011,5310,53,Wangkung,86592,,,null
5310112001,531011,5310,53,Robek,86592,,,null
5310112009,531011,5310,53,Ruis,86592,,,null
5310112010,531011,5310,53,Bajak,86592,,,null
5310112011,531011,5310,53,"Watu Baur",86592,,,null
5310112012,531011,5310,53,Salama,86592,,,null
5310112016,531011,5310,53,"Watu Tango",86592,,,null
5310121001,531012,5310,53,"Golo Dukal",86515,,,null
5310121002,531012,5310,53,Wali,86514,,,null
5310121003,531012,5310,53,Karot,86512,,,null
5310121004,531012,5310,53,Pitak,86513,,,null
5310121005,531012,5310,53,Lawir,86516,,,null
5310121006,531012,5310,53,Pau,86516,,,null
5310121007,531012,5310,53,Waso,86517,,,null
5310121008,531012,5310,53,Watu,86511,,,null
5310121009,531012,5310,53,Mbaumuku,86511,,,null
5310121010,531012,5310,53,Tenda,86518,,,null
5310121011,531012,5310,53,Carep,86519,,,null
5310121012,531012,5310,53,"Bangka Nekang",86511,,,null
5310121013,531012,5310,53,"Satar Tacik",86518,,,null
5310121014,531012,5310,53,"Poco Mal",86518,,,null
5310121015,531012,5310,53,"Compang Carep",86519,,,null
5310121016,531012,5310,53,"Laci Carep",86519,,,null
5310121017,531012,5310,53,Tadong,86512,,,null
5310121018,531012,5310,53,Rowang,86517,,,null
5310121019,531012,5310,53,"Bangka Leda",86515,,,null
5310121020,531012,5310,53,"Compang Tuke",86514,,,null
5310132002,531013,5310,53,Hilihintir,86560,,,null
5310132005,531013,5310,53,"Bea Kondo",86560,,,null
5310132012,531013,5310,53,"Golo Ropong",86560,,,null
5310132013,531013,5310,53,Terong,86560,,,null
5310132014,531013,5310,53,"Ceka Luju",86560,,,null
5310132015,531013,5310,53,"Satar Luju",86560,,,null
5310132016,531013,5310,53,"Satar Lenda",86560,,,null
5310132017,531013,5310,53,"Satar Ruwuk",86560,,,null
5310132018,531013,5310,53,"Nuca Molas",86560,,,null
5310132019,531013,5310,53,Borik,86560,,,null
5310132021,531013,5310,53,"Cambir Leca",86560,,,null
5310132022,531013,5310,53,Wongka,86560,,,null
5310142001,531014,5310,53,Buar,86522,,,null
5310142002,531014,5310,53,"Benteng Tubi",86522,,,null
5310142003,531014,5310,53,"Compang Dari",86522,,,null
5310142004,531014,5310,53,Dimpong,86522,,,null
5310142005,531014,5310,53,"Bangka Ajang",86522,,,null
5310142006,531014,5310,53,"Liang Bua",86522,,,null
5310142007,531014,5310,53,"Tengku Lese",86522,,,null
5310142008,531014,5310,53,"Golo Langkok",86522,,,null
5310142009,531014,5310,53,"Pong Lengor",86522,,,null
5310142010,531014,5310,53,Manong,86522,,,null
5310142011,531014,5310,53,"Bangka Ruang",86522,,,null
5310142012,531014,5310,53,"Wae Mantang",86522,,,null
5310152001,531015,5310,53,"Bangka Lelak",86521,,,null
5310152002,531015,5310,53,Gelong,86521,,,null
5310152003,531015,5310,53,Urang,86521,,,null
5310152004,531015,5310,53,Ketang,86521,,,null
5310152005,531015,5310,53,"Pong Umpu",86521,,,null
5310152006,531015,5310,53,"Bangka Dese",86521,,,null
5310152007,531015,5310,53,Nati,86521,,,null
5310152008,531015,5310,53,Ndiwar,86521,,,null
5310152009,531015,5310,53,"Bangka Tonggur",86521,,,null
5310152010,531015,5310,53,Lentang,86521,,,null
5310162001,531016,5310,53,Kajong,86593,,,null
5310162002,531016,5310,53,Lante,86593,,,null
5310162003,531016,5310,53,Toe,86593,,,null
5310162004,531016,5310,53,Sambi,86593,,,null
5310162005,531016,5310,53,Nggalak,86593,,,null
5310162006,531016,5310,53,Loce,86593,,,null
5310162007,531016,5310,53,Lemarang,86593,,,null
5310162008,531016,5310,53,"Torong Koe",86593,,,null
5310162009,531016,5310,53,"Para Lando",86593,,,null
5310162010,531016,5310,53,Rura,86593,,,null
5310172001,531017,5310,53,Bere,86590,,,null
5310172002,531017,5310,53,"Wae Codi",86590,,,null
5310172003,531017,5310,53,"Golo Woi",86590,,,null
5310172004,531017,5310,53,"Golo Lanak",86590,,,null
5310172005,531017,5310,53,Latung,86590,,,null
5310172006,531017,5310,53,"Wae Renca",86590,,,null
5310172007,531017,5310,53,Timbu,86590,,,null
5310172008,531017,5310,53,"Bangka Ara",86590,,,null
5310172009,531017,5310,53,"Compang Cibal",86590,,,null
5310172010,531017,5310,53,Lenda,86590,,,null
5310182001,531018,5310,53,Renda,86562,,,null
5310182002,531018,5310,53,Todo,86562,,,null
5310182003,531018,5310,53,Gulung,86562,,,null
5310182004,531018,5310,53,Popo,86562,,,null
5310182005,531018,5310,53,Lia,86562,,,null
5310182006,531018,5310,53,Kole,86562,,,null
5310182007,531018,5310,53,Ling,86562,,,null
5310182008,531018,5310,53,Nao,86562,,,null
5310182009,531018,5310,53,Cireng,86562,,,null
5310182010,531018,5310,53,Ruang,86562,,,null
5310182011,531018,5310,53,"Mata Wae",86562,,,null
5311011001,531101,5311,53,Kambajawa,87116,,,null
5311011002,531101,5311,53,Hambala,87112,,,null
5311011003,531101,5311,53,Matawai,87116,,,null
5311011004,531101,5311,53,Kamalaputi,87111,,,null
5311012012,531101,5311,53,Lukukamaru,87116,,,null
5311012013,531101,5311,53,Mbatakapidu,87116,,,null
5311012014,531101,5311,53,Pambotandjara,87116,,,null
5311022003,531102,5311,53,Rambangaru,87153,,,null
5311022006,531102,5311,53,Praibakul,87153,,,null
5311022007,531102,5311,53,Wunga,87153,,,null
5311022008,531102,5311,53,Kadahang,87153,,,null
5311022009,531102,5311,53,Napu,87153,,,null
5311022010,531102,5311,53,Mbatapuhu,87153,,,null
5311022012,531102,5311,53,Kalamba,87153,,,null
5311031001,531103,5311,53,"Lewa Paku",87150,,,null
5311032002,531103,5311,53,Kambuhapang,87150,,,null
5311032003,531103,5311,53,"Kambata Wundut",87150,,,null
5311032004,531103,5311,53,Kondamara,87150,,,null
5311032005,531103,5311,53,"Matawai Pawali",87150,,,null
5311032006,531103,5311,53,Rakawatu,87150,,,null
5311032007,531103,5311,53,"Tana Rara",87150,,,null
5311032013,531103,5311,53,"Bidi Hunga",87150,,,null
5311042001,531104,5311,53,Makamenggit,87155,,,null
5311042002,531104,5311,53,"Tandula Jangga",87155,,,null
5311042003,531104,5311,53,Praipaha,87155,,,null
5311042004,531104,5311,53,Kahiri,87155,,,null
5311042005,531104,5311,53,"Pulu Panjang",87155,,,null
5311042010,531104,5311,53,Praikarang,87155,,,null
5311042011,531104,5311,53,Tanatuku,87155,,,null
5311042012,531104,5311,53,Ngadulanggi,87155,,,null
5311052001,531105,5311,53,Billa,87160,,,null
5311052002,531105,5311,53,Karita,87160,,,null
5311052003,531105,5311,53,"Kuki Talu",87160,,,null
5311052004,531105,5311,53,Tapil,87160,,,null
5311052005,531105,5311,53,Tarimbang,87160,,,null
5311052006,531105,5311,53,Waikanabu,87160,,,null
5311052007,531105,5311,53,"Pindu Hurani",87160,,,null
5311052008,531105,5311,53,"Praing Kareha",87160,,,null
5311052009,531105,5311,53,"Wudi Pandak",87160,,,null
5311052011,531105,5311,53,"Bangga Watu",87160,,,null
5311062001,531106,5311,53,Ramuk,87161,,,null
5311062002,531106,5311,53,"Wangga Mbewa",87161,,,null
5311062003,531106,5311,53,Lailunggi,87161,,,null
5311062004,531106,5311,53,Tawui,87161,,,null
5311062005,531106,5311,53,Wahang,87161,,,null
5311062006,531106,5311,53,Mahaniwa,87161,,,null
5311071001,531107,5311,53,Kawangu,87176,,,null
5311071002,531107,5311,53,Watumbaka,87176,,,null
5311072003,531107,5311,53,Kambatatana,87176,,,null
5311072007,531107,5311,53,"Palaka Hembi",87176,,,null
5311072008,531107,5311,53,Kadumbul,87176,,,null
5311072009,531107,5311,53,Maubokul,87176,,,null
5311072012,531107,5311,53,Laindeha,87176,,,null
5311081001,531108,5311,53,Lumbukore,87180,,,null
5311082002,531108,5311,53,Umalulu,87180,,,null
5311082003,531108,5311,53,Patawang,87180,,,null
5311082004,531108,5311,53,Wanga,87180,,,null
5311082005,531108,5311,53,"Matawai Atu",87180,,,null
5311082006,531108,5311,53,Mutunggeding,87180,,,null
5311082007,531108,5311,53,Lairuru,87180,,,null
5311082008,531108,5311,53,Watuhadang,87180,,,null
5311082009,531108,5311,53,Watupuda,87180,,,null
5311082010,531108,5311,53,"Ngaru Kanoru",87180,,,null
5311092001,531109,5311,53,Rindi,87181,,,null
5311092002,531109,5311,53,Tanaraing,87181,,,null
5311092003,531109,5311,53,Haikatapu,87181,,,null
5311092004,531109,5311,53,Kabaru,87181,,,null
5311092005,531109,5311,53,Hanggaroru,87181,,,null
5311092006,531109,5311,53,Lailanjang,87181,,,null
5311092007,531109,5311,53,Tamburi,87181,,,null
5311092008,531109,5311,53,Kayuri,87181,,,null
5311102001,531110,5311,53,Kaliuda,87182,,,null
5311102002,531110,5311,53,Kuruwaki,87182,,,null
5311102003,531110,5311,53,"Tana Manang",87182,,,null
5311102004,531110,5311,53,Mburukulu,87182,,,null
5311102005,531110,5311,53,Pamburu,87182,,,null
5311102006,531110,5311,53,Lambakara,87182,,,null
5311102007,531110,5311,53,Tamma,87182,,,null
5311102009,531110,5311,53,Palanggai,87182,,,null
5311112001,531111,5311,53,Wulla,87183,,,null
5311112002,531111,5311,53,Hadakamali,87183,,,null
5311112003,531111,5311,53,"Lumbu Manggit",87183,,,null
5311112004,531111,5311,53,Latena,87183,,,null
5311112005,531111,5311,53,Lainjanji,87183,,,null
5311112006,531111,5311,53,Laipandak,87183,,,null
5311112008,531111,5311,53,Paranda,87183,,,null
5311122001,531112,5311,53,Kananggar,87175,,,null
5311122002,531112,5311,53,"Mehang Mata",87175,,,null
5311122003,531112,5311,53,"Karera Jangga",87175,,,null
5311122004,531112,5311,53,Praimbana,87175,,,null
5311122005,531112,5311,53,"Pabera Manera",87175,,,null
5311122010,531112,5311,53,Winumuru,87175,,,null
5311122011,531112,5311,53,Laitaku,87175,,,null
5311132001,531113,5311,53,Nggongi,87172,,,null
5311132002,531113,5311,53,Praimadita,87172,,,null
5311132003,531113,5311,53,Praisalura,87172,,,null
5311132004,531113,5311,53,"Tandula Jangga",87172,,,null
5311132005,531113,5311,53,Nangga,87172,,,null
5311132006,531113,5311,53,Janggamangu,87172,,,null
5311132011,531113,5311,53,Ananjaki,87172,,,null
5311142001,531114,5311,53,Kamanggih,87171,,,null
5311142002,531114,5311,53,Kambatabundung,87171,,,null
5311142003,531114,5311,53,Meurumba,87171,,,null
5311142004,531114,5311,53,Laimbonga,87171,,,null
5311142005,531114,5311,53,"Kota Kawau",87171,,,null
5311142006,531114,5311,53,"Matawai Katingga",87171,,,null
5311142007,531114,5311,53,Kataka,87171,,,null
5311142008,531114,5311,53,"Matawai Maringgu",87171,,,null
5311142009,531114,5311,53,Mauramba,87171,,,null
5311152001,531115,5311,53,"Prai Bakul",87174,,,null
5311152002,531115,5311,53,Katikutana,87174,,,null
5311152003,531115,5311,53,Karipi,87174,,,null
5311152004,531115,5311,53,"Wangga Meti",87174,,,null
5311152005,531115,5311,53,"Katiku Wai",87174,,,null
5311152006,531115,5311,53,"Katiku Luku",87174,,,null
5311161001,531116,5311,53,Wangga,87116,,,null
5311161002,531116,5311,53,Prailiu,87113,,,null
5311161003,531116,5311,53,Kambaniru,87114,,,null
5311161004,531116,5311,53,Mauliru,87116,,,null
5311161005,531116,5311,53,"Mau Hau",87116,,,null
5311161006,531116,5311,53,Malumbi,87116,,,null
5311161007,531116,5311,53,Lambanapu,87115,,,null
5311162008,531116,5311,53,Kiritana,87114,,,null
5311172001,531117,5311,53,Lukuwingir,87116,,,null
5311172002,531117,5311,53,Waimbidi,87171,,,null
5311172003,531117,5311,53,Laimeta,87171,,,null
5311172004,531117,5311,53,Mahubokul,87171,,,null
5311172005,531117,5311,53,"Marada Mundi",87171,,,null
5311172006,531117,5311,53,Maidang,87171,,,null
5311182001,531118,5311,53,Watumbelar,87151,,,null
5311182002,531118,5311,53,Bidipraing,87151,,,null
5311182003,531118,5311,53,Umamanu,87151,,,null
5311182004,531118,5311,53,Mondulambi,87151,,,null
5311182005,531118,5311,53,Kangeli,87151,,,null
5311182006,531118,5311,53,Laihau,87151,,,null
5311192001,531119,5311,53,"Kompa Pari",87152,,,null
5311192002,531119,5311,53,"Matawai Amahu",87152,,,null
5311192003,531119,5311,53,Mandahu,87152,,,null
5311192004,531119,5311,53,Lailara,87152,,,null
5311192005,531119,5311,53,Praibakul,87152,,,null
5311201001,531120,5311,53,Temu,87154,,,null
5311202002,531120,5311,53,Kuta,87154,,,null
5311202003,531120,5311,53,Hambapraing,87154,,,null
5311202004,531120,5311,53,Mondu,87154,,,null
5311202005,531120,5311,53,Ndapayami,87154,,,null
5311212001,531121,5311,53,Praiwitu,87172,,,null
5311212002,531121,5311,53,Kakaha,87172,,,null
5311212003,531121,5311,53,Hambawutang,87172,,,null
5311212004,531121,5311,53,Kabanda,87172,,,null
5311212005,531121,5311,53,Prauraming,87172,,,null
5311222001,531122,5311,53,Lahiru,87170,,,null
5311222002,531122,5311,53,Patamawai,87170,,,null
5311222003,531122,5311,53,Wairara,87170,,,null
5311222004,531122,5311,53,Praikalala,87170,,,null
5311222005,531122,5311,53,Lulundilu,87170,,,null
5311222006,531122,5311,53,Haray,87170,,,null
5312042001,531204,5312,53,"Loko Ry",87257,,,null
5312042002,531204,5312,53,"Lolo Wano",87257,,,null
5312042003,531204,5312,53,Malata,87257,,,null
5312042004,531204,5312,53,"Ngadu Pada",87257,,,null
5312042005,531204,5312,53,"Lingu Lango",87257,,,null
5312042006,531204,5312,53,"Karaka Nduku",87257,,,null
5312042007,531204,5312,53,"Wano Kasa",87257,,,null
5312042008,531204,5312,53,"Wee Patola",87257,,,null
5312042009,531204,5312,53,"Zala Kadu",87257,,,null
5312042010,531204,5312,53,"Bondo Tera",87257,,,null
5312042011,531204,5312,53,"Manu Kuku",87257,,,null
5312042012,531204,5312,53,"Lolo Tana",87257,,,null
5312042013,531204,5312,53,"Kareka Nduku Utara",87257,,,null
5312042014,531204,5312,53,"Kareka Nduku Selatan",87257,,,null
5312042015,531204,5312,53,"Manu Mada",87257,,,null
5312042016,531204,5312,53,"Elu Loda",87257,,,null
5312042017,531204,5312,53,"Kalebu Ana Kaka",87257,,,null
5312042018,531204,5312,53,Tarona,87257,,,null
5312101007,531210,5312,53,"Wee Karou",87284,,,null
5312101008,531210,5312,53,Sobawawi,87284,,,null
5312101011,531210,5312,53,"Loda Pare",87284,,,null
5312101012,531210,5312,53,"Wee Dabo",87284,,,null
5312101013,531210,5312,53,"Dira Tana",87284,,,null
5312102001,531210,5312,53,"Bera Dolu",87284,,,null
5312102002,531210,5312,53,"Doka Kaka",87284,,,null
5312102003,531210,5312,53,"Tana Rara",87284,,,null
5312102004,531210,5312,53,"Bali Ledo",87284,,,null
5312102005,531210,5312,53,Dedekadu,87284,,,null
5312102006,531210,5312,53,"Ubu Pede",87284,,,null
5312102009,531210,5312,53,"Tema Tana",87284,,,null
5312102010,531210,5312,53,"Ubu Raya",87284,,,null
5312102014,531210,5312,53,Manola,87284,,,null
5312112001,531211,5312,53,"Katiku Loku",87272,,,null
5312112002,531211,5312,53,"Hupu Mada",87272,,,null
5312112003,531211,5312,53,Praibakul,87272,,,null
5312112004,531211,5312,53,"Hoba Wawi",87272,,,null
5312112005,531211,5312,53,Waihura,87272,,,null
5312112006,531211,5312,53,Pahola,87272,,,null
5312112007,531211,5312,53,"Bali Loku",87272,,,null
5312112008,531211,5312,53,"Tara Manu",87272,,,null
5312112009,531211,5312,53,Mamodu,87272,,,null
5312112010,531211,5312,53,Rua,87272,,,null
5312112011,531211,5312,53,"Rewa Rara",87272,,,null
5312112012,531211,5312,53,"Wei Mangoma",87272,,,null
5312112013,531211,5312,53,"Ana Wolu",87272,,,null
5312112014,531211,5312,53,"Pari Rara",87272,,,null
5312122004,531212,5312,53,"Patiala Bawa",87271,,,null
5312122005,531212,5312,53,Wailibo,87271,,,null
5312122006,531212,5312,53,"Lamboya Bawah",87271,,,null
5312122007,531212,5312,53,"Watu Karere",87271,,,null
5312122008,531212,5312,53,"Kabu Karudi",87271,,,null
5312122009,531212,5312,53,Rajaka,87271,,,null
5312122010,531212,5312,53,Sodana,87271,,,null
5312122011,531212,5312,53,"Laboya Dete",87271,,,null
5312122012,531212,5312,53,"Ringu Rara",87271,,,null
5312122014,531212,5312,53,"Bodo Hula",87271,,,null
5312122015,531212,5312,53,"Pala Moko",87271,,,null
5312151001,531215,5312,53,Wailiang,87212,,,null
5312151002,531215,5312,53,Komerda,87211,,,null
5312151003,531215,5312,53,"Kampung Baru",87214,,,null
5312151004,531215,5312,53,"Kampung Sawah",87213,,,null
5312151008,531215,5312,53,"Pada Eweta",87217,,,null
5312151009,531215,5312,53,Maliti,87217,,,null
5312152005,531215,5312,53,Kodaka,87215,,,null
5312152006,531215,5312,53,Tebara,87216,,,null
5312152007,531215,5312,53,"Kalembu Kuni",87217,,,null
5312152010,531215,5312,53,"Soba Rade",87217,,,null
5312152011,531215,5312,53,Lapale,87217,,,null
5312152012,531215,5312,53,"Modu Waimaringu",87212,,,null
5312152013,531215,5312,53,"Puu Mawo",87212,,,null
5312182001,531218,5312,53,"Wee Tana",87270,,,null
5312182002,531218,5312,53,Gaura,87270,,,null
5312182003,531218,5312,53,"Patiala Dete",87270,,,null
5312182004,531218,5312,53,"Harona Kalla",87270,,,null
5313012001,531301,5313,53,"Pasir Putih",86684,,,null
5313012002,531301,5313,53,Duawutun,86684,,,null
5313012003,531301,5313,53,Atawai,86684,,,null
5313012004,531301,5313,53,Lusiduawutun,86684,,,null
5313012005,531301,5313,53,Labalimut,86684,,,null
5313012006,531301,5313,53,Ileboli,86684,,,null
5313012007,531301,5313,53,Babokerong,86684,,,null
5313012008,531301,5313,53,Penikenek,86684,,,null
5313012009,531301,5313,53,Belobaja,86684,,,null
5313012010,531301,5313,53,Lolong,86684,,,null
5313012011,531301,5313,53,Wuakoreng,86684,,,null
5313012012,531301,5313,53,Baobolak,86684,,,null
5313012013,531301,5313,53,Tewaowutung,86684,,,null
5313012014,531301,5313,53,"Boli Bean",86684,,,null
5313012015,531301,5313,53,Warawatung,86684,,,null
5313012016,531301,5313,53,Idalolong,86684,,,null
5313012017,531301,5313,53,"Ria Bao",86684,,,null
5313012018,531301,5313,53,Liwulagang,86684,,,null
5313022001,531302,5313,53,Atakera,86685,,,null
5313022002,531302,5313,53,Lusilame,86685,,,null
5313022004,531302,5313,53,Lerek,86685,,,null
5313022005,531302,5313,53,Nubahaeraka,86685,,,null
5313022006,531302,5313,53,Tubukrajan,86685,,,null
5313022007,531302,5313,53,Lebaata,86685,,,null
5313022008,531302,5313,53,"Ile Kimok",86685,,,null
5313022009,531302,5313,53,Katakeja,86685,,,null
5313022010,531302,5313,53,"Ile Kerbau",86685,,,null
5313022011,531302,5313,53,Dulir,86685,,,null
5313022012,531302,5313,53,"Dori Pewut",86685,,,null
5313022013,531302,5313,53,"Nuba Atalojo",86685,,,null
5313022014,531302,5313,53,"Nogo Doni",86685,,,null
5313022015,531302,5313,53,Nubaboli,86685,,,null
5313022016,531302,5313,53,Lewogroma,86685,,,null
5313032001,531303,5313,53,Kolipadan,86683,,,null
5313032002,531303,5313,53,Dulitukan,86683,,,null
5313032003,531303,5313,53,Tagawiti,86683,,,null
5313032004,531303,5313,53,Waowala,86683,,,null
5313032005,531303,5313,53,Amakaka,86683,,,null
5313032006,531303,5313,53,Bungamuda,86683,,,null
5313032007,531303,5313,53,Napasabok,86683,,,null
5313032012,531303,5313,53,Petuntawa,86683,,,null
5313032013,531303,5313,53,Kolontobo,86683,,,null
5313032014,531303,5313,53,Laranwutun,86683,,,null
5313032015,531303,5313,53,Watodiri,86683,,,null
5313032016,531303,5313,53,"Tanjung Batu",86683,,,null
5313032018,531303,5313,53,Muruona,86683,,,null
5313032022,531303,5313,53,Palilolon,86683,,,null
5313032024,531303,5313,53,Lamawara,86683,,,null
5313032025,531303,5313,53,Beutaran,86683,,,null
5313032026,531303,5313,53,Riangbao,86683,,,null
5313042001,531304,5313,53,Hadakewa,86681,,,null
5313042002,531304,5313,53,Lamatuka,86681,,,null
5313042003,531304,5313,53,Seranggorang,86681,,,null
5313042004,531304,5313,53,Lodotodokowa,86681,,,null
5313042005,531304,5313,53,Baopana,86681,,,null
5313042006,531304,5313,53,Waienga,86681,,,null
5313042007,531304,5313,53,Lewoeleng,86681,,,null
5313042008,531304,5313,53,Dikesare,86681,,,null
5313042009,531304,5313,53,Merdeka,86681,,,null
5313042010,531304,5313,53,Lerahinga,86681,,,null
5313042011,531304,5313,53,Tapobarang,86681,,,null
5313042012,531304,5313,53,Balurebong,86681,,,null
5313042013,531304,5313,53,Lamadale,86681,,,null
5313042014,531304,5313,53,Tapolangu,86681,,,null
5313042015,531304,5313,53,Lamalela,86681,,,null
5313042016,531304,5313,53,Atakowa,86681,,,null
5313042017,531304,5313,53,Banitobo,86681,,,null
5313051001,531305,5313,53,Lewoleba,86611,,,null
5313051002,531305,5313,53,"Lewoleba Timur",86616,,,null
5313051003,531305,5313,53,"Lewoleba Tengah",86615,,,null
5313051004,531305,5313,53,"Lewoleba Utara",86612,,,null
5313051015,531305,5313,53,Selandoro,86682,,,null
5313051016,531305,5313,53,"Lewoleba Selatan",86682,,,null
5313051017,531305,5313,53,"Lewoleba Barat",86613,,,null
5313052006,531305,5313,53,Baolangu,86682,,,null
5313052007,531305,5313,53,Nubamado,86682,,,null
5313052008,531305,5313,53,Watokobu,86682,,,null
5313052009,531305,5313,53,Belobatang,86682,,,null
5313052010,531305,5313,53,Waijarang,86682,,,null
5313052011,531305,5313,53,"Udak Melomata",86682,,,null
5313052012,531305,5313,53,Paubokol,86682,,,null
5313052013,531305,5313,53,Pada,86682,,,null
5313052014,531305,5313,53,"Lite Ulu Mado",86616,,,null
5313052018,531305,5313,53,Bakalerek,86682,,,null
5313052019,531305,5313,53,Bour,86682,,,null
5313062001,531306,5313,53,Balauring,86691,,,null
5313062002,531306,5313,53,Nilanapo,86691,,,null
5313062003,531306,5313,53,Leubatang,86691,,,null
5313062004,531306,5313,53,"Walang Sawah",86691,,,null
5313062005,531306,5313,53,"Mahal I",86691,,,null
5313062006,531306,5313,53,Aramengi,86691,,,null
5313062007,531306,5313,53,Meluwiting,86691,,,null
5313062008,531306,5313,53,Hingalamamengi,86691,,,null
5313062009,531306,5313,53,Dolulolong,86691,,,null
5313062010,531306,5313,53,"Hoelea I",86691,,,null
5313062011,531306,5313,53,Roma,86691,,,null
5313062012,531306,5313,53,Leuwayang,86691,,,null
5313062013,531306,5313,53,Leudanung,86691,,,null
5313062014,531306,5313,53,Normal,86691,,,null
5313062015,531306,5313,53,Wailolong,86691,,,null
5313062016,531306,5313,53,"Hoelea II",86691,,,null
5313062017,531306,5313,53,Lebewala,86691,,,null
5313062018,531306,5313,53,"Mahal II",86691,,,null
5313062019,531306,5313,53,Peusawa,86691,,,null
5313062020,531306,5313,53,Wowong,86691,,,null
5313062021,531306,5313,53,"Normal I",86691,,,null
5313062022,531306,5313,53,"Meluwiting I",86691,,,null
5313072001,531307,5313,53,Panama,86692,,,null
5313072002,531307,5313,53,"Benihading I",86692,,,null
5313072003,531307,5313,53,Atulaleng,86692,,,null
5313072004,531307,5313,53,Roho,86692,,,null
5313072005,531307,5313,53,Loyobohor,86692,,,null
5313072006,531307,5313,53,Leuburi,86692,,,null
5313072007,531307,5313,53,Kaohua,86692,,,null
5313072008,531307,5313,53,"Kalikur WL.",86692,,,null
5313072009,531307,5313,53,Umaleu,86692,,,null
5313072010,531307,5313,53,Buriwutung,86692,,,null
5313072011,531307,5313,53,Mampir,86692,,,null
5313072012,531307,5313,53,Leuwohung,86692,,,null
5313072013,531307,5313,53,Bareng,86692,,,null
5313072014,531307,5313,53,Kalikur,86692,,,null
5313072015,531307,5313,53,Bean,86692,,,null
5313072016,531307,5313,53,"Benihading II",86692,,,null
5313072017,531307,5313,53,Tobotani,86692,,,null
5313072018,531307,5313,53,"Tubung Walang",86692,,,null
5313072019,531307,5313,53,Rumang,86692,,,null
5313072020,531307,5313,53,"Atu Wa'lupang",86692,,,null
5313082001,531308,5313,53,"Alap Atadei",86686,,,null
5313082002,531308,5313,53,Atakera,86686,,,null
5313082003,531308,5313,53,Leworaja,86686,,,null
5313082004,531308,5313,53,"Pantai Harapan",86686,,,null
5313082005,531308,5313,53,Puor,86686,,,null
5313082006,531308,5313,53,"Imu Lolong",86686,,,null
5313082007,531308,5313,53,"Lamalera B",86686,,,null
5313082008,531308,5313,53,"Lamalera A",86686,,,null
5313082009,531308,5313,53,Lelata,86686,,,null
5313082010,531308,5313,53,Wulandoni,86686,,,null
5313082011,531308,5313,53,Belobao,86686,,,null
5313082012,531308,5313,53,Posiwatu,86686,,,null
5313082013,531308,5313,53,"Puor B",86686,,,null
5313082014,531308,5313,53,Ataili,86686,,,null
5313082015,531308,5313,53,Tapobali,86686,,,null
5313092001,531309,5313,53,Todanara,86687,,,null
5313092002,531309,5313,53,Jontona,86687,,,null
5313092003,531309,5313,53,Lamawolo,86687,,,null
5313092004,531309,5313,53,Lamatokan,86687,,,null
5313092005,531309,5313,53,"Bao Lali Duli",86687,,,null
5313092006,531309,5313,53,Lamaau,86687,,,null
5313092007,531309,5313,53,Aulesa,86687,,,null
5313092008,531309,5313,53,Waimatan,86687,,,null
5313092009,531309,5313,53,Lamagute,86687,,,null
5314012005,531401,5314,53,Oeseli,85982,,,null
5314012006,531401,5314,53,Oebou,85982,,,null
5314012007,531401,5314,53,Lalukoen,85982,,,null
5314012008,531401,5314,53,Oehandi,85982,,,null
5314012009,531401,5314,53,Oetefu,85982,,,null
5314012010,531401,5314,53,Batutua,85982,,,null
5314012011,531401,5314,53,Meoain,85982,,,null
5314012012,531401,5314,53,Oebafok,85982,,,null
5314012013,531401,5314,53,Oebatu,85982,,,null
5314012014,531401,5314,53,Mbokak,85982,,,null
5314012015,531401,5314,53,Lekik,85982,,,null
5314012016,531401,5314,53,Dolasi,85982,,,null
5314012017,531401,5314,53,Oelasin,85982,,,null
5314012018,531401,5314,53,Landu,85982,,,null
5314012019,531401,5314,53,Lentera,85982,,,null
5314012020,531401,5314,53,Sanggandolu,85982,,,null
5314012021,531401,5314,53,Sakubatun,85982,,,null
5314012022,531401,5314,53,Fuafuni,85982,,,null
5314012023,531401,5314,53,"Dalek Esa",85982,,,null
5314021008,531402,5314,53,Busalangga,85981,,,null
5314022004,531402,5314,53,Temas,85981,,,null
5314022007,531402,5314,53,Modosinal,85981,,,null
5314022009,531402,5314,53,Netenaen,85981,,,null
5314022012,531402,5314,53,Ingguinak,85981,,,null
5314022013,531402,5314,53,Oetutulu,85981,,,null
5314022014,531402,5314,53,Daudolu,85981,,,null
5314022017,531402,5314,53,Tualima,85981,,,null
5314022019,531402,5314,53,Hundihuk,85981,,,null
5314022021,531402,5314,53,Saindule,85981,,,null
5314022025,531402,5314,53,"Busalangga Timur",85981,,,null
5314022026,531402,5314,53,"Busalangga Barat",85981,,,null
5314031001,531403,5314,53,Namodale,85918,,,null
5314031009,531403,5314,53,Mokdale,85914,,,null
5314031011,531403,5314,53,Metina,85918,,,null
5314032002,531403,5314,53,Kuli,85918,,,null
5314032003,531403,5314,53,Bebalain,85918,,,null
5314032004,531403,5314,53,Kolobolon,85918,,,null
5314032005,531403,5314,53,Helebeik,85918,,,null
5314032006,531403,5314,53,Sanggaoen,85916,,,null
5314032007,531403,5314,53,Holoama,85918,,,null
5314032008,531403,5314,53,Tuanatuk,85913,,,null
5314032010,531403,5314,53,Oelunggu,85917,,,null
5314032012,531403,5314,53,Oematamboli,85918,,,null
5314032013,531403,5314,53,Suelain,85918,,,null
5314032014,531403,5314,53,Baadale,85912,,,null
5314032015,531403,5314,53,Lekunik,85916,,,null
5314032016,531403,5314,53,Loleoen,85918,,,null
5314032017,531403,5314,53,"Kuli Aisele",85918,,,null
5314032018,531403,5314,53,Oeleka,85917,,,null
5314041002,531404,5314,53,Onatali,85971,,,null
5314042001,531404,5314,53,Maubesi,85971,,,null
5314042003,531404,5314,53,Nggodimeda,85971,,,null
5314042004,531404,5314,53,Limakoli,85971,,,null
5314042005,531404,5314,53,Lidamanu,85971,,,null
5314042010,531404,5314,53,Suebela,85971,,,null
5314042011,531404,5314,53,Lidabesi,85971,,,null
5314042013,531404,5314,53,Siomeda,85971,,,null
5314051009,531405,5314,53,Olafulihaa,85973,,,null
5314052001,531405,5314,53,Nusakdale,85973,,,null
5314052002,531405,5314,53,Batulilok,85973,,,null
5314052003,531405,5314,53,Lenupetu,85973,,,null
5314052004,531405,5314,53,Sonimanu,85973,,,null
5314052005,531405,5314,53,Oebau,85973,,,null
5314052006,531405,5314,53,Oeledo,85973,,,null
5314052007,531405,5314,53,Keoen,85973,,,null
5314052008,531405,5314,53,Edalode,85973,,,null
5314052010,531405,5314,53,Tungganamo,85973,,,null
5314052011,531405,5314,53,"Tesa Bela",85973,,,null
5314052012,531405,5314,53,Lekona,85973,,,null
5314052013,531405,5314,53,Oenggae,85973,,,null
5314052014,531405,5314,53,Fatelilo,85973,,,null
5314052015,531405,5314,53,Ofalangga,85973,,,null
5314061004,531406,5314,53,Londalusi,85975,,,null
5314062001,531406,5314,53,Mukekuku,85975,,,null
5314062002,531406,5314,53,Faifua,85975,,,null
5314062003,531406,5314,53,Hundihopo,85975,,,null
5314062005,531406,5314,53,Serubeba,85975,,,null
5314062006,531406,5314,53,Lakamola,85975,,,null
5314062007,531406,5314,53,Matasio,85975,,,null
5314062014,531406,5314,53,Pengodua,85975,,,null
5314062015,531406,5314,53,Batefalu,85975,,,null
5314062016,531406,5314,53,Papela,85975,,,null
5314062017,531406,5314,53,Matanae,85975,,,null
5314072001,531407,5314,53,Sedeoen,85982,,,null
5314072002,531407,5314,53,Nemberala,85982,,,null
5314072003,531407,5314,53,Oenggaut,85982,,,null
5314072004,531407,5314,53,Boa,85982,,,null
5314072005,531407,5314,53,Oenitas,85981,,,null
5314072006,531407,5314,53,Oelolok,85981,,,null
5314072007,531407,5314,53,Mbueain,85981,,,null
5314082001,531408,5314,53,Lenguselu,85972,,,null
5314082002,531408,5314,53,Daleholu,85972,,,null
5314082003,531408,5314,53,Dodaek,85972,,,null
5314082004,531408,5314,53,Tebole,85972,,,null
5314082005,531408,5314,53,Inaoe,85972,,,null
5314082006,531408,5314,53,Nggelodae,85972,,,null
5314082007,531408,5314,53,Pilasue,85972,,,null
5314092001,531409,5314,53,"Mbali Lendeiki",85983,,,null
5314092002,531409,5314,53,Anarae,85983,,,null
5314092003,531409,5314,53,"Mbiu Lombo",85983,,,null
5314092004,531409,5314,53,Nuse,85983,,,null
5314092005,531409,5314,53,Ndaonuse,85983,,,null
5314102001,531410,5314,53,Bolatena,85974,,,null
5314102002,531410,5314,53,Lifuleo,85974,,,null
5314102003,531410,5314,53,Sotimori,85974,,,null
5314102004,531410,5314,53,Daeurendale,85974,,,null
5314102005,531410,5314,53,Daiama,85974,,,null
5314102006,531410,5314,53,Pukuafu,85974,,,null
5314102007,531410,5314,53,"Tena Lai",85974,,,null
5314112001,531411,5314,53,Oelua,85981,,,null
5314112002,531411,5314,53,Holulai,85981,,,null
5314112003,531411,5314,53,Tolama,85981,,,null
5314112004,531411,5314,53,Oebole,85981,,,null
5314112005,531411,5314,53,Tasilo,85981,,,null
5314112006,531411,5314,53,Boni,85981,,,null
5314112007,531411,5314,53,Balaoli,85981,,,null
5314112008,531411,5314,53,Oebela,85981,,,null
5314112009,531411,5314,53,Lidor,85981,,,null
5314112010,531411,5314,53,Mundek,85981,,,null
5315012001,531501,5315,53,Bari,86756,,,null
5315012002,531501,5315,53,Rokap,86756,,,null
5315012003,531501,5315,53,Mbakung,86756,,,null
5315012004,531501,5315,53,Nggilat,86756,,,null
5315012005,531501,5315,53,Rego,86756,,,null
5315012006,531501,5315,53,Wontong,86756,,,null
5315012007,531501,5315,53,Raba,86756,,,null
5315012008,531501,5315,53,"Nanga Kantor",86756,,,null
5315012014,531501,5315,53,Watubaru,86756,,,null
5315012015,531501,5315,53,Lewat,86756,,,null
5315012016,531501,5315,53,"Watu Manggar",86756,,,null
5315012025,531501,5315,53,"Sarae Naru",86756,,,null
5315012026,531501,5315,53,"Nanga Kantor Barat",86756,,,null
5315021022,531502,5315,53,"Golo Ru'u",86752,,,null
5315021023,531502,5315,53,Nantal,86752,,,null
5315022002,531502,5315,53,Coal,86752,,,null
5315022004,531502,5315,53,Pangga,86752,,,null
5315022010,531502,5315,53,Lewur,86752,,,null
5315022011,531502,5315,53,Lawi,86752,,,null
5315022017,531502,5315,53,"Compang Suka",86752,,,null
5315022018,531502,5315,53,"Benteng Suru",86752,,,null
5315022021,531502,5315,53,Sama,86752,,,null
5315022030,531502,5315,53,"Bangka Lewat",86752,,,null
5315022031,531502,5315,53,"Suka Kiong",86752,,,null
5315022032,531502,5315,53,"Golo Pua",86752,,,null
5315031032,531503,5315,53,Tangge,86753,,,null
5315032003,531503,5315,53,"Wae Wako",86753,,,null
5315032010,531503,5315,53,"Wae Kanta",86753,,,null
5315032011,531503,5315,53,"Ponto Ara",86753,,,null
5315032012,531503,5315,53,"Wae Bangka",86753,,,null
5315032013,531503,5315,53,"Pong Majok",86753,,,null
5315032014,531503,5315,53,Daleng,86753,,,null
5315032021,531503,5315,53,Siru,86753,,,null
5315032022,531503,5315,53,Pondo,86753,,,null
5315032023,531503,5315,53,"Poco Rutang",86753,,,null
5315032025,531503,5315,53,Ngancar,86753,,,null
5315032033,531503,5315,53,"LIang Sola",86753,,,null
5315032034,531503,5315,53,"Wae Mowol",86753,,,null
5315032035,531503,5315,53,"Golo Ndeweng",86753,,,null
5315032036,531503,5315,53,"Poco Dedeng",86753,,,null
5315042001,531504,5315,53,"Golo Ndaring",86758,,,null
5315042005,531504,5315,53,"Golo Kempo",86758,,,null
5315042008,531504,5315,53,"Golo Manting",86758,,,null
5315042009,531504,5315,53,Matawae,86758,,,null
5315042011,531504,5315,53,"Nampar Macing",86758,,,null
5315042014,531504,5315,53,"Wae Sano",86758,,,null
5315042016,531504,5315,53,"Golo Mbu",86758,,,null
5315042017,531504,5315,53,"Golo Leleng",86758,,,null
5315042018,531504,5315,53,"Sano Nggoang",86758,,,null
5315042020,531504,5315,53,"Wae Lolos",86758,,,null
5315042024,531504,5315,53,"Golo Sengang",86758,,,null
5315042025,531504,5315,53,"Watu Panggal",86758,,,null
5315042026,531504,5315,53,"Golo Kondeng",86758,,,null
5315042027,531504,5315,53,"Poco Golo Kempo",86758,,,null
5315042028,531504,5315,53,"Pulau Nuncung",86758,,,null
5315051024,531505,5315,53,"Wae Kelambu",86763,,,null
5315051025,531505,5315,53,"Labuan Bajo",86763,,,null
5315052001,531505,5315,53,Komodo,86763,,,null
5315052002,531505,5315,53,"Pasir Putih",86763,,,null
5315052003,531505,5315,53,"Pasir Panjang",86763,,,null
5315052004,531505,5315,53,"Golo Mori",86763,,,null
5315052005,531505,5315,53,Warloka,86763,,,null
5315052007,531505,5315,53,"Golo Bilas",86763,,,null
5315052008,531505,5315,53,"Macang Tanggar",86763,,,null
5315052009,531505,5315,53,"Watu Nggelek",86763,,,null
5315052015,531505,5315,53,"Golo Pongkor",86763,,,null
5315052016,531505,5315,53,Nggorang,86763,,,null
5315052018,531505,5315,53,"Papa Garang",86763,,,null
5315052019,531505,5315,53,"Batu Cermin",86763,,,null
5315052020,531505,5315,53,Gorontalo,86763,,,null
5315052022,531505,5315,53,"Tiwu Nampar",86763,,,null
5315052026,531505,5315,53,"Seraya Marannu",86763,,,null
5315052027,531505,5315,53,"Compang Longgo",86763,,,null
5315052028,531505,5315,53,Pantar,86763,,,null
5315062001,531506,5315,53,Mbuit,86754,,,null
5315062002,531506,5315,53,"Golo Ketak",86754,,,null
5315062003,531506,5315,53,"Pota Wangka",86754,,,null
5315062004,531506,5315,53,"Tanjung Boleng",86754,,,null
5315062005,531506,5315,53,"Golo Sepang",86754,,,null
5315062006,531506,5315,53,Pontianak,86754,,,null
5315062007,531506,5315,53,Sepang,86754,,,null
5315062008,531506,5315,53,"Golo Lujang",86754,,,null
5315062009,531506,5315,53,"Batu Tiga",86754,,,null
5315062020,531506,5315,53,"Golo Nobo",86754,,,null
5315062021,531506,5315,53,"Beo Sepang",86754,,,null
5315072001,531507,5315,53,"Golo Ronggot",86762,,,null
5315072002,531507,5315,53,Semang,86762,,,null
5315072003,531507,5315,53,Dunta,86762,,,null
5315072004,531507,5315,53,Gurung,86762,,,null
5315072005,531507,5315,53,Orong,86762,,,null
5315072006,531507,5315,53,"Pong Welak",86762,,,null
5315072007,531507,5315,53,Galang,86762,,,null
5315072008,531507,5315,53,Rehak,86762,,,null
5315072009,531507,5315,53,"Watu Umpu",86762,,,null
5315072010,531507,5315,53,Pengka,86762,,,null
5315072011,531507,5315,53,Lale,86762,,,null
5315072015,531507,5315,53,"Racang Welak",86762,,,null
5315072016,531507,5315,53,Sewar,86762,,,null
5315072017,531507,5315,53,Robo,86762,,,null
5315072018,531507,5315,53,Wewa,86762,,,null
5315072019,531507,5315,53,"Golo Ndari",86762,,,null
5315082001,531508,5315,53,"Golo Poleng",86750,,,null
5315082002,531508,5315,53,Tentang,86750,,,null
5315082003,531508,5315,53,Raka,86750,,,null
5315082004,531508,5315,53,Kasong,86750,,,null
5315082005,531508,5315,53,Ndoso,86750,,,null
5315082006,531508,5315,53,Waning,86750,,,null
5315082007,531508,5315,53,"Wae Buka",86750,,,null
5315082008,531508,5315,53,Momol,86750,,,null
5315082009,531508,5315,53,Lumut,86750,,,null
5315082010,531508,5315,53,"Pong Narang",86750,,,null
5315082011,531508,5315,53,"Golo Bore",86750,,,null
5315082012,531508,5315,53,"Pateng Lesuh",86750,,,null
5315082013,531508,5315,53,Tehong,86750,,,null
5315082014,531508,5315,53,"Golo Ru'a",86750,,,null
5315082015,531508,5315,53,"Golo Keli",86750,,,null
5315092001,531509,5315,53,Repi,86761,,,null
5315092002,531509,5315,53,"Watu Waja",86761,,,null
5315092003,531509,5315,53,Surunumbeng,86761,,,null
5315092004,531509,5315,53,Munting,86761,,,null
5315092005,531509,5315,53,Kakor,86761,,,null
5315092006,531509,5315,53,Lalong,86761,,,null
5315092007,531509,5315,53,"Wae Mose",86761,,,null
5315092008,531509,5315,53,"Nanga Lili",86761,,,null
5315092009,531509,5315,53,"Nanga Bere",86761,,,null
5315092010,531509,5315,53,"Benteng Dewa",86761,,,null
5315092011,531509,5315,53,"Watu Rambung",86761,,,null
5315092012,531509,5315,53,Lendong,86761,,,null
5315092013,531509,5315,53,"Watu Tiri",86761,,,null
5315092014,531509,5315,53,"Benteng Tado",86761,,,null
5315092015,531509,5315,53,Modo,86761,,,null
5315102001,531510,5315,53,"Liang Ndara",86757,,,null
5315102002,531510,5315,53,"Tandong Belang",86757,,,null
5315102003,531510,5315,53,"Cunca Lolos",86757,,,null
5315102004,531510,5315,53,"Cunca Wulang",86757,,,null
5315102005,531510,5315,53,"Golo Damu",86757,,,null
5315102006,531510,5315,53,"Golo Ndoal",86757,,,null
5315102007,531510,5315,53,"Golo Sembea",86757,,,null
5315102008,531510,5315,53,"Golo Desat",86757,,,null
5315102009,531510,5315,53,Kempo,86757,,,null
5315102010,531510,5315,53,"Wae Jare",86757,,,null
5315102011,531510,5315,53,"Golo Tantong",86757,,,null
5315102012,531510,5315,53,"Tiwi Riwung",86757,,,null
5315102013,531510,5315,53,"Watu Wangka",86757,,,null
5315102014,531510,5315,53,"Compang Liang Ndara",86757,,,null
5315102015,531510,5315,53,"Watu Galang",86757,,,null
5315112001,531511,5315,53,Pacar,86755,,,null
5315112002,531511,5315,53,Manong,86755,,,null
5315112003,531511,5315,53,Romang,86755,,,null
5315112004,531511,5315,53,Compang,86755,,,null
5315112005,531511,5315,53,Waka,86755,,,null
5315112006,531511,5315,53,"Pong Kolong",86755,,,null
5315112007,531511,5315,53,Loha,86755,,,null
5315112008,531511,5315,53,"Benteng Ndope",86755,,,null
5315112009,531511,5315,53,"Golo Lajang",86755,,,null
5315112010,531511,5315,53,"Golo Lajang Barat",86755,,,null
5315112011,531511,5315,53,Kombo,86755,,,null
5315112012,531511,5315,53,"Kombo Selatan",86755,,,null
5315112013,531511,5315,53,"Kombo Tengah",86755,,,null
5315122001,531512,5315,53,"Golo Lewe",86751,,,null
5315122002,531512,5315,53,Tueng,86751,,,null
5315122003,531512,5315,53,"Sompang Kolang",86751,,,null
5315122004,531512,5315,53,Wajur,86751,,,null
5315122005,531512,5315,53,Kolang,86751,,,null
5315122006,531512,5315,53,"Golo Riwu",86751,,,null
5315122007,531512,5315,53,"Compang Kules",86751,,,null
5315122008,531512,5315,53,Tengku,86751,,,null
5315122009,531512,5315,53,"Golo Wedong",86751,,,null
5315122010,531512,5315,53,Ranggu,86751,,,null
5316011001,531601,5316,53,Dhawe,86472,,,null
5316011003,531601,5316,53,"Mbay I",86472,,,null
5316011005,531601,5316,53,Towak,86472,,,null
5316011007,531601,5316,53,"Mbay II",86472,,,null
5316011009,531601,5316,53,Danga,86472,,,null
5316011011,531601,5316,53,Lape,86472,,,null
5316012002,531601,5316,53,Labolewa,86472,,,null
5316012004,531601,5316,53,Tedamude,86472,,,null
5316012006,531601,5316,53,Nggolonio,86472,,,null
5316012008,531601,5316,53,Olaia,86472,,,null
5316012010,531601,5316,53,Aerama,86472,,,null
5316012012,531601,5316,53,Marapokot,86472,,,null
5316012013,531601,5316,53,Tonggurambang,86472,,,null
5316012014,531601,5316,53,Waekokak,86472,,,null
5316012015,531601,5316,53,Ngegedhawe,86472,,,null
5316012016,531601,5316,53,Tadakisa,86472,,,null
5316012017,531601,5316,53,Nggolombay,86472,,,null
5316012018,531601,5316,53,Nangadhero,86472,,,null
5316021001,531602,5316,53,Nangaroro,86465,,,null
5316022002,531602,5316,53,Podenura,86465,,,null
5316022003,531602,5316,53,Tonggo,86465,,,null
5316022004,531602,5316,53,Wokodekororo,86465,,,null
5316022005,531602,5316,53,Riti,86465,,,null
5316022006,531602,5316,53,Kotakeo,86465,,,null
5316022007,531602,5316,53,Pagomogo,86465,,,null
5316022008,531602,5316,53,Degalea,86465,,,null
5316022009,531602,5316,53,Ulupulu,86465,,,null
5316022010,531602,5316,53,Bidoa,86465,,,null
5316022011,531602,5316,53,Utetoto,86465,,,null
5316022012,531602,5316,53,Nataute,86465,,,null
5316022013,531602,5316,53,Woedoa,86465,,,null
5316022014,531602,5316,53,Woewutu,86465,,,null
5316022015,531602,5316,53,"Ulupulu I",86465,,,null
5316022016,531602,5316,53,Wokowoe,86465,,,null
5316022017,531602,5316,53,"Kotakeo Satu",86465,,,null
5316022018,531602,5316,53,"Kotakeo Dua",86465,,,null
5316022019,531602,5316,53,Kodaute,86465,,,null
5316031001,531603,5316,53,Natanage,86462,,,null
5316031003,531603,5316,53,Nagesapadhi,86462,,,null
5316031005,531603,5316,53,Nageoga,86462,,,null
5316031007,531603,5316,53,Wolopogo,86462,,,null
5316031009,531603,5316,53,Rega,86462,,,null
5316031011,531603,5316,53,Ratongamobo,86462,,,null
5316031013,531603,5316,53,Olakile,86462,,,null
5316031021,531603,5316,53,"Natanage Timur",86462,,,null
5316032002,531603,5316,53,Rowa,86462,,,null
5316032004,531603,5316,53,Solo,86462,,,null
5316032006,531603,5316,53,Legederu,86462,,,null
5316032008,531603,5316,53,Nagerawe,86462,,,null
5316032010,531603,5316,53,Kelewae,86462,,,null
5316032012,531603,5316,53,Kelimado,86462,,,null
5316032014,531603,5316,53,Mulakoli,86462,,,null
5316032015,531603,5316,53,"Wea Au",86462,,,null
5316032016,531603,5316,53,Raja,86462,,,null
5316032017,531603,5316,53,Wolowea,86462,,,null
5316032018,531603,5316,53,Gerodhere,86462,,,null
5316032019,531603,5316,53,Dhereisa,86462,,,null
5316032020,531603,5316,53,Rigi,86462,,,null
5316032022,531603,5316,53,Alorawe,86462,,,null
5316032023,531603,5316,53,Focolodorawe,86462,,,null
5316032024,531603,5316,53,"Wolowea Timur",86462,,,null
5316032025,531603,5316,53,"Wolowea Barat",86462,,,null
5316032026,531603,5316,53,"Raja Timur",86462,,,null
5316032027,531603,5316,53,"Raja Selatan",86462,,,null
5316041001,531604,5316,53,Mauponggo,86463,,,null
5316042002,531604,5316,53,Bela,86463,,,null
5316042003,531604,5316,53,Wolokisa,86463,,,null
5316042004,531604,5316,53,Wuliwalo,86463,,,null
5316042005,531604,5316,53,Maukeli,86463,,,null
5316042006,531604,5316,53,Aewoe,86463,,,null
5316042007,531604,5316,53,Wolotelu,86463,,,null
5316042008,531604,5316,53,Sawu,86463,,,null
5316042009,531604,5316,53,Jawapogo,86463,,,null
5316042010,531604,5316,53,Ululoga,86463,,,null
5316042011,531604,5316,53,Lodaolo,86463,,,null
5316042012,531604,5316,53,Woloede,86463,,,null
5316042013,531604,5316,53,Woewolo,86463,,,null
5316042014,531604,5316,53,Salalejo,86463,,,null
5316042015,531604,5316,53,Ua,86463,,,null
5316042016,531604,5316,53,Kotagana,86463,,,null
5316042017,531604,5316,53,Lokalaba,86463,,,null
5316042018,531604,5316,53,Lajawajo,86463,,,null
5316042019,531604,5316,53,Keliwatulewa,86463,,,null
5316042020,531604,5316,53,Wololelu,86463,,,null
5316042021,531604,5316,53,"Selalejo Timur",86463,,,null
5316052001,531605,5316,53,Tendatoto,86471,,,null
5316052002,531605,5316,53,Totomala,86471,,,null
5316052003,531605,5316,53,Tendakinde,86471,,,null
5316052004,531605,5316,53,Anakoli,86471,,,null
5316052005,531605,5316,53,Natatoto,86471,,,null
5316062001,531606,5316,53,Witurombaua,86464,,,null
5316062002,531606,5316,53,Lewangera,86464,,,null
5316062003,531606,5316,53,Wajo,86464,,,null
5316062004,531606,5316,53,"Kotowuji Timur",86464,,,null
5316062005,531606,5316,53,"Kotowuji Barat",86464,,,null
5316062006,531606,5316,53,Mbaenuamuri,86464,,,null
5316062007,531606,5316,53,Udiworowatu,86464,,,null
5316062008,531606,5316,53,Kotodirumali,86464,,,null
5316062009,531606,5316,53,Pautola,86464,,,null
5316062010,531606,5316,53,Ladolima,86464,,,null
5316062011,531606,5316,53,Keli,86464,,,null
5316062012,531606,5316,53,Ngera,86464,,,null
5316062013,531606,5316,53,"Ladolima Timur",86464,,,null
5316062014,531606,5316,53,"Ladolima Utara",86464,,,null
5316062015,531606,5316,53,"Wajo Timur",86464,,,null
5316062016,531606,5316,53,Paumali,86464,,,null
5316072001,531607,5316,53,Rendubutowe,86470,,,null
5316072002,531607,5316,53,Tengatiba,86470,,,null
5316072003,531607,5316,53,Langedhawe,86470,,,null
5316072004,531607,5316,53,Renduteno,86470,,,null
5316072005,531607,5316,53,Renduwawo,86470,,,null
5316072006,531607,5316,53,Wajomara,86470,,,null
5316072007,531607,5316,53,"Rendut Tutubhada",86470,,,null
5317012001,531701,5317,53,"Makata Keri",87282,,,null
5317012003,531701,5317,53,"Kabela Wuntu",87282,,,null
5317012004,531701,5317,53,"Mata Woga",87282,,,null
5317012019,531701,5317,53,"Umbu Riri",87282,,,null
5317012023,531701,5317,53,Anakalang,87282,,,null
5317012024,531701,5317,53,"Dewa Jara",87282,,,null
5317012025,531701,5317,53,"Mata Redi",87282,,,null
5317022002,531702,5317,53,Praimadeta,87281,,,null
5317022003,531702,5317,53,Pondok,87281,,,null
5317022004,531702,5317,53,Maderi,87281,,,null
5317022005,531702,5317,53,Anajiaka,87281,,,null
5317022006,531702,5317,53,Wairasa,87281,,,null
5317022007,531702,5317,53,"Umbu Kawolu",87281,,,null
5317022008,531702,5317,53,"Umbu Mamijuk",87281,,,null
5317022009,531702,5317,53,"Umbu Pabal",87281,,,null
5317022010,531702,5317,53,"Umbu Langang",87281,,,null
5317022021,531702,5317,53,"Umbu Pabal Selatan",87281,,,null
5317022022,531702,5317,53,"Umbu Jodu",87281,,,null
5317022023,531702,5317,53,Anapalu,87281,,,null
5317022024,531702,5317,53,"Daha Elu",87281,,,null
5317022025,531702,5317,53,"Dewa Tana",87281,,,null
5317022027,531702,5317,53,"Mata Waikajawi",87281,,,null
5317032001,531703,5317,53,"Wendewa Timur",87258,,,null
5317032002,531703,5317,53,"Wendewa Selatan",87258,,,null
5317032003,531703,5317,53,"Wendewa Utara",87258,,,null
5317032004,531703,5317,53,"Wendewa Barat",87258,,,null
5317032005,531703,5317,53,Cendana,87258,,,null
5317032006,531703,5317,53,"Wee Luri",87258,,,null
5317032007,531703,5317,53,"Ole Ate",87258,,,null
5317032008,531703,5317,53,"Manu Wolu",87258,,,null
5317032009,531703,5317,53,"Watu Asa",87258,,,null
5317032010,531703,5317,53,"Bondo Sulla",87258,,,null
5317032011,531703,5317,53,"Susu Wendewa",87258,,,null
5317032012,531703,5317,53,"Ole Dewa",87258,,,null
5317032013,531703,5317,53,"Cendana Barat",87258,,,null
5317042001,531704,5317,53,"Mbilur Pangadu",87283,,,null
5317042002,531704,5317,53,Soru,87283,,,null
5317042003,531704,5317,53,"Praikoruku Jangga",87283,,,null
5317042007,531704,5317,53,Lenang,87283,,,null
5317042008,531704,5317,53,"Tana Mbanas",87283,,,null
5317042009,531704,5317,53,"Padira Tana",87283,,,null
5317042010,531704,5317,53,"Ngadu Bolu",87283,,,null
5317042014,531704,5317,53,"Tana Mbanas Selatan",87283,,,null
5317042015,531704,5317,53,"Tana Mbanas Barat",87283,,,null
5317042016,531704,5317,53,"Ngadu Olu",87283,,,null
5317042017,531704,5317,53,"Lenang Selatan",87283,,,null
5317052001,531705,5317,53,"Konda Maloba",87280,,,null
5317052002,531705,5317,53,"Tana Modu",87280,,,null
5317052003,531705,5317,53,Malinjak,87280,,,null
5317052004,531705,5317,53,Wailawa,87280,,,null
5317052005,531705,5317,53,Dameka,87280,,,null
5317052006,531705,5317,53,Waimanu,87280,,,null
5317052007,531705,5317,53,Manurara,87280,,,null
5317052008,531705,5317,53,Elu,87280,,,null
5317052009,531705,5317,53,"Oka Wacu",87280,,,null
5317062001,531706,5317,53,"Bolu Bokat",87283,,,null
5317062002,531706,5317,53,"Mara Desa",87283,,,null
5317062003,531706,5317,53,"Weluk Praimemang",87283,,,null
5317062004,531706,5317,53,"Bolu Bokat Utara",87283,,,null
5317062005,531706,5317,53,"Maradesa Timur",87283,,,null
5317062006,531706,5317,53,"Maradesa Selatan",87283,,,null
5317062007,531706,5317,53,"Bolu Bokat Barat",87283,,,null
5317062008,531706,5317,53,"Wangga Waiyengu",87281,,,null
5317062009,531706,5317,53,"Sambali Loku",87281,,,null
5317062010,531706,5317,53,"Holur Kambata",87281,,,null
5318012001,531801,5318,53,"Bondo Boghila",87254,,,null
5318012002,531801,5318,53,"Lete Konda",87254,,,null
5318012003,531801,5318,53,Karuni,87254,,,null
5318012004,531801,5318,53,Totok,87254,,,null
5318012009,531801,5318,53,"Rama Dana",87254,,,null
5318012010,531801,5318,53,"Wee Mananda",87254,,,null
5318012013,531801,5318,53,"Pogo Tena",87254,,,null
5318012014,531801,5318,53,"Payola Umbu",87254,,,null
5318012015,531801,5318,53,"Wee Kambala",87254,,,null
5318012016,531801,5318,53,"Loko Kalada",87254,,,null
5318012017,531801,5318,53,"Lete Konda Selatan",87254,,,null
5318022001,531802,5318,53,"Mali Mada",87251,,,null
5318022002,531802,5318,53,"Wano Talla",87251,,,null
5318022003,531802,5318,53,"Wee Paboba",87251,,,null
5318022004,531802,5318,53,"Mata Loko",87251,,,null
5318022005,531802,5318,53,"Wee Namba",87251,,,null
5318022006,531802,5318,53,"Puu Potto",87251,,,null
5318022007,531802,5318,53,"Bodo Ponda",87251,,,null
5318022008,531802,5318,53,"Reda Wano",87251,,,null
5318022009,531802,5318,53,"Odi Paurata",87251,,,null
5318022010,531802,5318,53,"Pandua Tana",87251,,,null
5318022011,531802,5318,53,"Djela Manu",87251,,,null
5318022012,531802,5318,53,"Mawo Maliti",87251,,,null
5318032001,531803,5318,53,"Kalembu Ndara Mane",87250,,,null
5318032002,531803,5318,53,"Tema Tana",87250,,,null
5318032005,531803,5318,53,"Mareda Kalada",87250,,,null
5318032006,531803,5318,53,"Pada Eweta",87250,,,null
5318032012,531803,5318,53,"Wee Limbu",87250,,,null
5318032013,531803,5318,53,"Lete Kamouna",87250,,,null
5318032014,531803,5318,53,"Mata Pyawu",87250,,,null
5318032015,531803,5318,53,"Wee Lima",87250,,,null
5318032018,531803,5318,53,Dikira,87250,,,null
5318032020,531803,5318,53,"Dangga Mangu",87250,,,null
5318032021,531803,5318,53,"Mainda Ole",87250,,,null
5318032022,531803,5318,53,"Kadi Wano",87250,,,null
5318032023,531803,5318,53,"Nyura Lele",87250,,,null
5318032024,531803,5318,53,"Lele Maya",87250,,,null
5318032025,531803,5318,53,"Maliti Dari",87250,,,null
5318032026,531803,5318,53,"Mawo Dana",87250,,,null
5318032027,531803,5318,53,"Dede Pada",87250,,,null
5318032028,531803,5318,53,"Mata Wee Lima",87250,,,null
5318032029,531803,5318,53,"Kadi Wone",87250,,,null
5318042001,531804,5318,53,Waimangura,87253,,,null
5318042002,531804,5318,53,"Kalembu Weri",87253,,,null
5318042003,531804,5318,53,"Wali Ate",87253,,,null
5318042004,531804,5318,53,"Kabali Dana",87253,,,null
5318042005,531804,5318,53,"Wee Kombaka",87253,,,null
5318042006,531804,5318,53,Marokota,87253,,,null
5318042007,531804,5318,53,"Watu Labara",87253,,,null
5318042008,531804,5318,53,"Kalimbu Tillu",87253,,,null
5318042011,531804,5318,53,"Menne Ate",87253,,,null
5318042012,531804,5318,53,"Reda Pada",87253,,,null
5318042013,531804,5318,53,"Raba Ege",87253,,,null
5318042015,531804,5318,53,"Kalaki Kambe",87253,,,null
5318042016,531804,5318,53,"Kalembu Kanaika",87253,,,null
5318042017,531804,5318,53,"Laga Lete",87253,,,null
5318042018,531804,5318,53,"Wee Kura",87253,,,null
5318042019,531804,5318,53,"Lua Koba",87253,,,null
5318042020,531804,5318,53,"Tawo Rara",87253,,,null
5318042021,531804,5318,53,"Sangu Ate",87253,,,null
5318042022,531804,5318,53,"Lolo Ole",87253,,,null
5318042023,531804,5318,53,Pero,87253,,,null
5318052001,531805,5318,53,"Buru Deilo",87263,,,null
5318052002,531805,5318,53,"Weri Lolo",87263,,,null
5318052003,531805,5318,53,"Buru Kaghu",87263,,,null
5318052004,531805,5318,53,Denduka,87263,,,null
5318052005,531805,5318,53,"Bondo Bela",87263,,,null
5318052006,531805,5318,53,Delo,87263,,,null
5318052007,531805,5318,53,"Tena Teke",87263,,,null
5318052008,531805,5318,53,"Bondo Ukka",87263,,,null
5318052009,531805,5318,53,"Umbu Wangu",87263,,,null
5318052010,531805,5318,53,"Milla Ate",87263,,,null
5318052011,531805,5318,53,"Rita Baru",87263,,,null
5318052012,531805,5318,53,Mandungo,87263,,,null
5318052013,531805,5318,53,"Wee Wulla",87263,,,null
5318052014,531805,5318,53,"Wee Baghe",87263,,,null
5318062001,531806,5318,53,Dinjo,87264,,,null
5318062002,531806,5318,53,"Lete Loko",87264,,,null
5318062003,531806,5318,53,"Walla Ndimu",87264,,,null
5318062006,531806,5318,53,Waikadada,87264,,,null
5318062010,531806,5318,53,"Rada Loko",87264,,,null
5318062011,531806,5318,53,"Mata Kapore",87264,,,null
5318062012,531806,5318,53,"Umbu Ngedo",87264,,,null
5318062014,531806,5318,53,Waimakaha,87264,,,null
5318062015,531806,5318,53,Waimaringi,87264,,,null
5318062016,531806,5318,53,"Tana Mete",87264,,,null
5318062017,531806,5318,53,Waipaddi,87264,,,null
5318062018,531806,5318,53,"Manu Toghi",87264,,,null
5318062019,531806,5318,53,"Karang Indah",87264,,,null
5318062020,531806,5318,53,"Rada Malando",87264,,,null
5318062021,531806,5318,53,Waikaninyo,87264,,,null
5318062022,531806,5318,53,"Ana Goka",87264,,,null
5318062023,531806,5318,53,"Delu Depa",87264,,,null
5318062024,531806,5318,53,"Mere Kehe",87264,,,null
5318062025,531806,5318,53,"Bondo Balla",87264,,,null
5318062026,531806,5318,53,"Maliti Bondo Ate",87264,,,null
5318062027,531806,5318,53,"Ana Lewe",87264,,,null
5318072001,531807,5318,53,"Bondo Kodi",87261,,,null
5318072002,531807,5318,53,"Ate Dalo",87261,,,null
5318072003,531807,5318,53,"Hamonggo Lele",87261,,,null
5318072004,531807,5318,53,"Homba Rande",87261,,,null
5318072005,531807,5318,53,"Pero Batang",87261,,,null
5318072006,531807,5318,53,"Wura Homba",87261,,,null
5318072007,531807,5318,53,Koki,87261,,,null
5318072008,531807,5318,53,"Kapaka Madeta",87261,,,null
5318072009,531807,5318,53,"Kawango Hari",87261,,,null
5318072010,531807,5318,53,Onggol,87261,,,null
5318072011,531807,5318,53,"Mali lha",87261,,,null
5318072012,531807,5318,53,"Watu Wona",87261,,,null
5318072013,531807,5318,53,"Tanjung Karoso",87261,,,null
5318072014,531807,5318,53,"Pero Konda",87261,,,null
5318072015,531807,5318,53,"Homba Rica",87261,,,null
5318072016,531807,5318,53,"Ana Kaka",87261,,,null
5318072017,531807,5318,53,"Ole Ate",87261,,,null
5318072018,531807,5318,53,"Kadoki Horo",87261,,,null
5318072019,531807,5318,53,"Ana Engge",87261,,,null
5318082001,531808,5318,53,"Hoha Wungo",87260,,,null
5318082002,531808,5318,53,"Homba Karipit",87260,,,null
5318082003,531808,5318,53,Wailabubur,87260,,,null
5318082004,531808,5318,53,Kori,87260,,,null
5318082005,531808,5318,53,"Kalena Rongo",87260,,,null
5318082006,531808,5318,53,Waiholo,87260,,,null
5318082007,531808,5318,53,Noha,87260,,,null
5318082008,531808,5318,53,Mangganipi,87260,,,null
5318082009,531808,5318,53,"Kendu Wela",87260,,,null
5318082010,531808,5318,53,"Bila Cenge",87260,,,null
5318082011,531808,5318,53,Bukambero,87260,,,null
5318082013,531808,5318,53,"Homba Pare",87260,,,null
5318082014,531808,5318,53,"Magho Linyo",87260,,,null
5318082015,531808,5318,53,"Wee Wella",87260,,,null
5318082016,531808,5318,53,"Kadu Eta",87260,,,null
5318082017,531808,5318,53,"Kadaghu Tana",87260,,,null
5318082018,531808,5318,53,"Hameli Ate",87260,,,null
5318082019,531808,5318,53,Waitaru,87260,,,null
5318082020,531808,5318,53,"Nangga Mutu",87260,,,null
5318082021,531808,5318,53,"Limbu Kembe",87260,,,null
5318082022,531808,5318,53,"Moro Manduyo",87260,,,null
5318091003,531809,5318,53,"Langga Lero",87255,,,null
5318091004,531809,5318,53,Waitabula,87255,,,null
5318092001,531809,5318,53,"Rada Mata",87255,,,null
5318092002,531809,5318,53,"Kalena Wano",87255,,,null
5318092005,531809,5318,53,"Wee Londa",87255,,,null
5318092006,531809,5318,53,"Wee Pangali",87255,,,null
5318092007,531809,5318,53,"Kadi Pada",87255,,,null
5318092008,531809,5318,53,"Watu Kawula",87255,,,null
5318092009,531809,5318,53,"Wee Rena",87255,,,null
5318092010,531809,5318,53,"Kalembu Kaha",87255,,,null
5318102001,531810,5318,53,Kanelu,87252,,,null
5318102002,531810,5318,53,Tanggaba,87252,,,null
5318102003,531810,5318,53,"Wee Kokora",87252,,,null
5318102004,531810,5318,53,"Wee Rame",87252,,,null
5318102005,531810,5318,53,Lombu,87252,,,null
5318102006,531810,5318,53,"Eka Pata",87252,,,null
5318102007,531810,5318,53,Bolora,87252,,,null
5318102008,531810,5318,53,"Omba Rade",87252,,,null
5318102009,531810,5318,53,Kalingara,87252,,,null
5318102010,531810,5318,53,"Wee Patando",87252,,,null
5318102011,531810,5318,53,"Mereda Wuni",87252,,,null
5318102012,531810,5318,53,"Mata Wee Karoro",87252,,,null
5318102013,531810,5318,53,"Gollu Sapi",87252,,,null
5318102014,531810,5318,53,"Mata Lombu",87252,,,null
5318102015,531810,5318,53,"Kadi Roma",87252,,,null
5318102016,531810,5318,53,"Bondo Delo",87252,,,null
5318102017,531810,5318,53,"Lete Wungana",87252,,,null
5318102018,531810,5318,53,"Limbu Watu",87252,,,null
5318102019,531810,5318,53,"Kiku Booko",87252,,,null
5318102020,531810,5318,53,"Tarra Mata",87252,,,null
5318112001,531811,5318,53,Wailangira,87262,,,null
5318112002,531811,5318,53,Kahale,87262,,,null
5318112003,531811,5318,53,Waikarara,87262,,,null
5318112004,531811,5318,53,"Panenggo Ede",87262,,,null
5318112005,531811,5318,53,Waiha,87262,,,null
5318112006,531811,5318,53,Wainyapu,87262,,,null
5318112007,531811,5318,53,"Loko Tali",87262,,,null
5318112008,531811,5318,53,Waipakolo,87262,,,null
5319011020,531901,5319,53,"Kota Ndora",86571,,,null
5319011021,531901,5319,53,"Rana Loba",86571,,,null
5319011039,531901,5319,53,"Satar Peot",86571,,,null
5319012001,531901,5319,53,"Nanga Labang",86571,,,null
5319012004,531901,5319,53,"Gurung Liwut",86571,,,null
5319012005,531901,5319,53,"Benteng Riwu",86571,,,null
5319012006,531901,5319,53,"Ngampang Mas",86571,,,null
5319012009,531901,5319,53,"Rana Masak",86571,,,null
5319012010,531901,5319,53,"Benteng Raja",86571,,,null
5319012014,531901,5319,53,"Golo Lalong",86571,,,null
5319012017,531901,5319,53,"Golo Kantar",86571,,,null
5319012018,531901,5319,53,"Poco Rii",86571,,,null
5319012025,531901,5319,53,"Balus Permai",86571,,,null
5319012031,531901,5319,53,Waling,86571,,,null
5319012032,531901,5319,53,"Golo Leda",86571,,,null
5319012034,531901,5319,53,"Compang Tenda",86571,,,null
5319012035,531901,5319,53,"Bangka Kantar",86571,,,null
5319012038,531901,5319,53,"Compang Ndejing",86571,,,null
5319021027,531902,5319,53,Mandosawu,86583,,,null
5319021028,531902,5319,53,"Nggalak Leleng",86583,,,null
5319021042,531902,5319,53,"Bangka Leleng",86583,,,null
5319022001,531902,5319,53,"Poco Lia",86583,,,null
5319022002,531902,5319,53,Pocong,86583,,,null
5319022003,531902,5319,53,Lenang,86583,,,null
5319022004,531902,5319,53,Melo,86583,,,null
5319022005,531902,5319,53,Leong,86583,,,null
5319022011,531902,5319,53,"Bea Waek",86583,,,null
5319022013,531902,5319,53,"Golo Lobos",86583,,,null
5319022014,531902,5319,53,"Bangka Kuleng",86583,,,null
5319022015,531902,5319,53,"Bangka Pau",86583,,,null
5319022016,531902,5319,53,"Golo Nderu",86583,,,null
5319022017,531902,5319,53,"Satar Tesem",86583,,,null
5319022018,531902,5319,53,"Gurung Turi",86583,,,null
5319022019,531902,5319,53,"Compang Laho",86583,,,null
5319022020,531902,5319,53,"Watu Lanur",86583,,,null
5319022026,531902,5319,53,"Golo Ndari",86583,,,null
5319022029,531902,5319,53,"Compang Wesang",86583,,,null
5319022030,531902,5319,53,"Golo Wune",86583,,,null
5319022031,531902,5319,53,Lento,86583,,,null
5319022032,531902,5319,53,"Compang Weluk",86583,,,null
5319022033,531902,5319,53,"Golo Rengket",86583,,,null
5319022037,531902,5319,53,Deno,86583,,,null
5319032001,531903,5319,53,"Tengku Leda",86582,,,null
5319032002,531903,5319,53,"Tengku Lawar",86582,,,null
5319032003,531903,5319,53,"Goreng Meni",86582,,,null
5319032004,531903,5319,53,"Golo Munga",86582,,,null
5319032009,531903,5319,53,"Golo Rentung",86582,,,null
5319032010,531903,5319,53,"Golo Lembur",86582,,,null
5319032011,531903,5319,53,"Compang Necak",86582,,,null
5319032013,531903,5319,53,"Compang Mekar",86582,,,null
5319032014,531903,5319,53,"Compang Deru",86582,,,null
5319032016,531903,5319,53,"Golo Nimbung",86582,,,null
5319032017,531903,5319,53,Keli,86582,,,null
5319032021,531903,5319,53,"Goreng Meni Utara",86582,,,null
5319032023,531903,5319,53,"Golo Paleng",86582,,,null
5319041009,531904,5319,53,Pota,86584,,,null
5319041011,531904,5319,53,"Nanga Baras",86584,,,null
5319041018,531904,5319,53,"Ulung Baras",86584,,,null
5319041020,531904,5319,53,"Golo Wangkung Utara",86584,,,null
5319042001,531904,5319,53,"Nanga Baur",86584,,,null
5319042002,531904,5319,53,"Nanga Mbaling",86584,,,null
5319042007,531904,5319,53,"Lada Mese",86584,,,null
5319042012,531904,5319,53,"Nampar Sepang",86584,,,null
5319042013,531904,5319,53,"Kembang Mekar",86584,,,null
5319042014,531904,5319,53,"Wela Lada",86584,,,null
5319051020,531905,5319,53,"Tiwu Kondo",86581,,,null
5319052001,531905,5319,53,"Lengko Namut",86581,,,null
5319052002,531905,5319,53,"Rana Kulan",86581,,,null
5319052003,531905,5319,53,"Golo Munde",86581,,,null
5319052004,531905,5319,53,"Golo Lebo",86581,,,null
5319052005,531905,5319,53,"Golo Lijun",86581,,,null
5319052009,531905,5319,53,Sisir,86581,,,null
5319052015,531905,5319,53,"Haju Ngendong",86581,,,null
5319052016,531905,5319,53,"Legur Lai",86581,,,null
5319052017,531905,5319,53,"Rana Gapang",86581,,,null
5319052018,531905,5319,53,Biting,86581,,,null
5319052025,531905,5319,53,"Compang Soba",86581,,,null
5319052026,531905,5319,53,"Compang Teo",86581,,,null
5319052028,531905,5319,53,"Kaju Wangi",86581,,,null
5319052029,531905,5319,53,"Wae Lokom",86581,,,null
5319061001,531906,5319,53,"Watu Nggene",86572,,,null
5319061002,531906,5319,53,"Rongga Koe",86572,,,null
5319061017,531906,5319,53,"Tanah Rata",86572,,,null
5319062003,531906,5319,53,Lembur,86572,,,null
5319062004,531906,5319,53,Ruan,86572,,,null
5319062006,531906,5319,53,Mbengan,86572,,,null
5319062007,531906,5319,53,"Rana Kolong",86572,,,null
5319062008,531906,5319,53,Gunung,86572,,,null
5319062013,531906,5319,53,Komba,86572,,,null
5319062014,531906,5319,53,Bamo,86572,,,null
5319062015,531906,5319,53,"Pong Ruan",86572,,,null
5319072001,531907,5319,53,"Bea Ngencung",86570,,,null
5319072002,531907,5319,53,"Satar Lahing",86570,,,null
5319072003,531907,5319,53,"Torok Golo",86570,,,null
5319072004,531907,5319,53,"Golo Ros",86570,,,null
5319072005,531907,5319,53,"Rondo Woing",86570,,,null
5319072006,531907,5319,53,"Sano Lokom",86570,,,null
5319072007,531907,5319,53,"Golo Loni",86570,,,null
5319072008,531907,5319,53,Sita,86570,,,null
5319072009,531907,5319,53,"Golo Rutuk",86570,,,null
5319072010,531907,5319,53,"Golo Meleng",86570,,,null
5319072011,531907,5319,53,"Wae Nggori",86570,,,null
5319072012,531907,5319,53,"Compang Kantar",86570,,,null
5319072013,531907,5319,53,"Watu Mori",86570,,,null
5319072014,531907,5319,53,"Bangka Kempo",86570,,,null
5319072015,531907,5319,53,"Compang Teber",86570,,,null
5319072016,531907,5319,53,"Satar Lenda",86570,,,null
5319072017,531907,5319,53,Lidi,86570,,,null
5319072018,531907,5319,53,"Bangka Masa",86570,,,null
5319072019,531907,5319,53,Lalang,86570,,,null
5319072020,531907,5319,53,"Compang Loni",86570,,,null
5319072021,531907,5319,53,"Compang Kempo",86570,,,null
5319082001,531908,5319,53,"Watu Arus",86585,,,null
5319082002,531908,5319,53,Arus,86585,,,null
5319082003,531908,5319,53,"Golo Lero",86585,,,null
5319082004,531908,5319,53,Rengkam,86585,,,null
5319082005,531908,5319,53,"Compang Wunis",86585,,,null
5319082006,531908,5319,53,"Benteng Rampas",86585,,,null
5319082007,531908,5319,53,"Ngkiong Dora",86585,,,null
5319082008,531908,5319,53,"Ulu Wae",86585,,,null
5319082009,531908,5319,53,"Rende Nao",86585,,,null
5319082010,531908,5319,53,"Wangkar Weli",86585,,,null
5319082011,531908,5319,53,"Tango Molas",86585,,,null
5319082012,531908,5319,53,"Urung Dora",86585,,,null
5319082013,531908,5319,53,"Compang Raci",86585,,,null
5319082014,531908,5319,53,"Wejang Mawe",86585,,,null
5319082015,531908,5319,53,"Bangka Arus",86585,,,null
5319082016,531908,5319,53,Colol,86585,,,null
5319082017,531908,5319,53,"Benteng Wunis",86585,,,null
5319082018,531908,5319,53,"Wejang Mali",86585,,,null
5319091001,531909,5319,53,"Lempang Paji",86580,,,null
5319092002,531909,5319,53,"Sangan Kalo",86580,,,null
5319092003,531909,5319,53,Sipi,86580,,,null
5319092004,531909,5319,53,Gising,86580,,,null
5319092005,531909,5319,53,"Langga Sai",86580,,,null
5319092006,531909,5319,53,"Teno Mese",86580,,,null
5319092007,531909,5319,53,"Golo Wuas",86580,,,null
5319092008,531909,5319,53,"Nanga Meje",86580,,,null
5319092009,531909,5319,53,"Paan Waru",86580,,,null
5319092010,531909,5319,53,"Golo Linus",86580,,,null
5319092011,531909,5319,53,"Benteng Pau",86580,,,null
5319092012,531909,5319,53,"Wae Rasan",86580,,,null
5319092013,531909,5319,53,"Mosi Ngaran",86580,,,null
5319092014,531909,5319,53,"Nanga Puun",86580,,,null
5319102001,531910,5319,53,"Golo Tolang",86572,,,null
5319102002,531910,5319,53,Mokel,86572,,,null
5319102003,531910,5319,53,"Paan Leleng",86572,,,null
5319102004,531910,5319,53,"Rana Mbeling",86572,,,null
5319102005,531910,5319,53,"Golo Meni",86572,,,null
5319102006,531910,5319,53,"Golo Nderu",86572,,,null
5319102007,531910,5319,53,"Golo Ndele",86572,,,null
5319102008,531910,5319,53,"Rana Mbata",86572,,,null
5319102009,531910,5319,53,"Mokel Morid",86572,,,null
5319102010,531910,5319,53,"Watu Pari",86572,,,null
5319102011,531910,5319,53,"Gunung Baru",86572,,,null
5319112001,531911,5319,53,"Satar Padut",86582,,,null
5319112002,531911,5319,53,"Satar Punda",86582,,,null
5319112003,531911,5319,53,"Nampar Tabang",86582,,,null
5319112004,531911,5319,53,Lencur,86582,,,null
5319112005,531911,5319,53,"Liang Deruk",86582,,,null
5319112006,531911,5319,53,"Haju Wangi",86582,,,null
5319112007,531911,5319,53,"Satar Kampas",86582,,,null
5319112008,531911,5319,53,"Golo Mangung",86582,,,null
5319112009,531911,5319,53,"Golo Wontong",86582,,,null
5319112010,531911,5319,53,"Golo Munga Barat",86582,,,null
5319112011,531911,5319,53,"Satar Punda Barat",86582,,,null
5319121001,531912,5319,53,"Golo Wangkung",86584,,,null
5319121007,531912,5319,53,"Golo Wangkung Barat",86584,,,null
5319122002,531912,5319,53,Buti,86584,,,null
5319122003,531912,5319,53,"Golo Ngawan",86584,,,null
5319122004,531912,5319,53,"Satar Nawang",86584,,,null
5319122005,531912,5319,53,"Rana Mese",86584,,,null
5319122006,531912,5319,53,"Compang Congkar",86584,,,null
5319122008,531912,5319,53,"Compang Lawi",86584,,,null
5319122009,531912,5319,53,"Golo Pari",86584,,,null
5319122010,531912,5319,53,Wea,86584,,,null
5320011001,532001,5320,53,Mebba,85395,,,null
5320012002,532001,5320,53,Menia,85395,,,null
5320012003,532001,5320,53,Raeloro,85395,,,null
5320012004,532001,5320,53,Naawawi,85395,,,null
5320012005,532001,5320,53,Teriwu,85395,,,null
5320012006,532001,5320,53,Raenalulu,85395,,,null
5320012007,532001,5320,53,Raedewa,85395,,,null
5320012008,532001,5320,53,Ledeana,85395,,,null
5320012009,532001,5320,53,Depe,85395,,,null
5320012010,532001,5320,53,Raemude,85395,,,null
5320012011,532001,5320,53,Raekore,85395,,,null
5320012012,532001,5320,53,Raenyale,85395,,,null
5320012013,532001,5320,53,Raemadia,85395,,,null
5320012014,532001,5320,53,Delo,85395,,,null
5320012015,532001,5320,53,Roboaba,85395,,,null
5320012016,532001,5320,53,Djadu,85395,,,null
5320012017,532001,5320,53,Ledekepaka,85395,,,null
5320012018,532001,5320,53,Titinalede,85395,,,null
5320022001,532002,5320,53,Bebae,85392,,,null
5320022002,532002,5320,53,Tada,85392,,,null
5320022003,532002,5320,53,Matei,85392,,,null
5320022004,532002,5320,53,Loboaju,85392,,,null
5320022005,532002,5320,53,Eimadake,85392,,,null
5320022006,532002,5320,53,Jiwuwu,85392,,,null
5320022007,532002,5320,53,Eilode,85392,,,null
5320022008,532002,5320,53,Eimau,85392,,,null
5320031001,532003,5320,53,Bolou,85394,,,null
5320031002,532003,5320,53,Limaggu,85394,,,null
5320032003,532003,5320,53,Lobodei,85394,,,null
5320032004,532003,5320,53,Bodae,85394,,,null
5320032005,532003,5320,53,Keduru,85394,,,null
5320032006,532003,5320,53,"Kuji Ratu",85394,,,null
5320032007,532003,5320,53,Loborai,85394,,,null
5320032008,532003,5320,53,Huwaga,85394,,,null
5320032009,532003,5320,53,Eiada,85394,,,null
5320032010,532003,5320,53,Keliha,85394,,,null
5320042001,532004,5320,53,Raerobo,85396,,,null
5320042002,532004,5320,53,Mehona,85396,,,null
5320042003,532004,5320,53,Waduwalla,85396,,,null
5320042004,532004,5320,53,Ledeke,85396,,,null
5320042005,532004,5320,53,Eilogo,85396,,,null
5320042006,532004,5320,53,Deme,85396,,,null
5320042007,532004,5320,53,Kotahawu,85396,,,null
5320042008,532004,5320,53,Dainao,85396,,,null
5320042009,532004,5320,53,Eikare,85396,,,null
5320042010,532004,5320,53,Loborui,85396,,,null
5320042011,532004,5320,53,"Halla Paji",85396,,,null
5320042012,532004,5320,53,Ledetalo,85396,,,null
5320052001,532005,5320,53,Lobohede,85391,,,null
5320052002,532005,5320,53,Molie,85391,,,null
5320052003,532005,5320,53,Daieko,85391,,,null
5320052004,532005,5320,53,Pedarro,85391,,,null
5320052005,532005,5320,53,Tanajawa,85391,,,null
5320052006,532005,5320,53,Ledeae,85391,,,null
5320052007,532005,5320,53,Wadumaddi,85391,,,null
5320052008,532005,5320,53,Lederaga,85391,,,null
5320052009,532005,5320,53,Gurimonearu,85391,,,null
5320052010,532005,5320,53,Ramedue,85391,,,null
5320061001,532006,5320,53,Ledeke,85393,,,null
5320061002,532006,5320,53,Ledeunu,85393,,,null
5320062003,532006,5320,53,Bolua,85393,,,null
5320062004,532006,5320,53,Kolorae,85393,,,null
5320062005,532006,5320,53,Ballu,85393,,,null
5321012001,532101,5321,53,Barene,85762,,,null
5321012002,532101,5321,53,Kakaniuk,85762,,,null
5321012003,532101,5321,53,Kateri,85762,,,null
5321012004,532101,5321,53,Bakiruk,85762,,,null
5321012005,532101,5321,53,Kamanasa,85762,,,null
5321012006,532101,5321,53,Wehali,85762,,,null
5321012007,532101,5321,53,Umakatahan,85762,,,null
5321012008,532101,5321,53,"Umanen Lawalu",85762,,,null
5321012009,532101,5321,53,Kletek,85762,,,null
5321012010,532101,5321,53,Naimana,85762,,,null
5321012011,532101,5321,53,Fahiluka,85762,,,null
5321012012,532101,5321,53,Lawalu,85762,,,null
5321012013,532101,5321,53,Harekakae,85762,,,null
5321012014,532101,5321,53,Barada,85762,,,null
5321012015,532101,5321,53,Bereliku,85762,,,null
5321012016,532101,5321,53,"Railor Tahak",85762,,,null
5321012017,532101,5321,53,Suai,85762,,,null
5321022001,532102,5321,53,Motaulun,85763,,,null
5321022002,532102,5321,53,Sikun,85763,,,null
5321022003,532102,5321,53,Fafoe,85763,,,null
5321022004,532102,5321,53,Lasaen,85763,,,null
5321022005,532102,5321,53,Umatoos,85763,,,null
5321022006,532102,5321,53,Rabasahain,85763,,,null
5321022007,532102,5321,53,Umalor,85763,,,null
5321022008,532102,5321,53,Besikama,85763,,,null
5321022009,532102,5321,53,Maktihan,85763,,,null
5321022010,532102,5321,53,Loofoun,85763,,,null
5321022011,532102,5321,53,Rabasa,85763,,,null
5321022012,532102,5321,53,"Rabasa Haerain",85763,,,null
5321022013,532102,5321,53,Motaain,85763,,,null
5321022014,532102,5321,53,"Oan Mane",85763,,,null
5321022015,532102,5321,53,Raimataus,85763,,,null
5321022016,532102,5321,53,Naas,85763,,,null
5321032001,532103,5321,53,Halibasar,85775,,,null
5321032002,532103,5321,53,Weulun,85775,,,null
5321032003,532103,5321,53,Webriamata,85775,,,null
5321032004,532103,5321,53,Badarai,85775,,,null
5321032005,532103,5321,53,Weoe,85775,,,null
5321032006,532103,5321,53,Lorotolus,85775,,,null
5321032007,532103,5321,53,Seserai,85775,,,null
5321032008,532103,5321,53,Alkani,85775,,,null
5321032009,532103,5321,53,Lamea,85775,,,null
5321032010,532103,5321,53,"Rabasa Biris",85775,,,null
5321032011,532103,5321,53,Biris,85775,,,null
5321032012,532103,5321,53,Weseben,85775,,,null
5321042001,532104,5321,53,Wesey,85774,,,null
5321042002,532104,5321,53,Haitimuk,85774,,,null
5321042003,532104,5321,53,Laleten,85774,,,null
5321042004,532104,5321,53,Kleseleon,85774,,,null
5321042005,532104,5321,53,Angkaes,85774,,,null
5321042006,532104,5321,53,Wederok,85774,,,null
5321042007,532104,5321,53,Lamudur,85774,,,null
5321042008,532104,5321,53,Forekmodok,85774,,,null
5321042009,532104,5321,53,Umalawain,85774,,,null
5321042010,532104,5321,53,Lakulo,85774,,,null
5321042011,532104,5321,53,Leunklot,85774,,,null
5321042012,532104,5321,53,Haliklaran,85774,,,null
5321042013,532104,5321,53,Bonetasea,85774,,,null
5321042014,532104,5321,53,Taaba,85774,,,null
5321052001,532105,5321,53,Saenama,85764,,,null
5321052002,532105,5321,53,Wekmidar,85764,,,null
5321052003,532105,5321,53,Lotas,85764,,,null
5321052004,532105,5321,53,Nanin,85764,,,null
5321052005,532105,5321,53,Alala,85764,,,null
5321052006,532105,5321,53,Oekmurak,85764,,,null
5321052007,532105,5321,53,Webetun,85764,,,null
5321052008,532105,5321,53,Naet,85764,,,null
5321052009,532105,5321,53,Biudukfoho,85764,,,null
5321052010,532105,5321,53,Niti,85764,,,null
5321052011,532105,5321,53,Tafuli,85764,,,null
5321052012,532105,5321,53,Boen,85764,,,null
5321052013,532105,5321,53,Wekeke,85764,,,null
5321052014,532105,5321,53,Raisamane,85764,,,null
5321052015,532105,5321,53,Weain,85764,,,null
5321052016,532105,5321,53,Nabutaek,85764,,,null
5321052017,532105,5321,53,"Tafuli I",85764,,,null
5321052018,532105,5321,53,Nanebot,85764,,,null
5321052019,532105,5321,53,Muke,85764,,,null
5321052020,532105,5321,53,Naiusu,85764,,,null
5321062001,532106,5321,53,Biau,85768,,,null
5321062002,532106,5321,53,Kufeu,85768,,,null
5321062003,532106,5321,53,Tunmat,85768,,,null
5321062004,532106,5321,53,Tunabesi,85768,,,null
5321062005,532106,5321,53,Bani-Bani,85768,,,null
5321062006,532106,5321,53,Fatoin,85768,,,null
5321062007,532106,5321,53,"Ikan Tuanbeis",85768,,,null
5321072001,532107,5321,53,"As Manulea",85769,,,null
5321072002,532107,5321,53,Manulea,85769,,,null
5321072003,532107,5321,53,Naibone,85769,,,null
5321072004,532107,5321,53,Fatuaruin,85769,,,null
5321072005,532107,5321,53,Builaran,85769,,,null
5321072006,532107,5321,53,"Manumutin Silole",85769,,,null
5321072007,532107,5321,53,Umutnana,85769,,,null
5321072008,532107,5321,53,Beaneno,85769,,,null
5321072009,532107,5321,53,Naisau,85769,,,null
5321082001,532108,5321,53,Meotroi,85718,,,null
5321082002,532108,5321,53,Tesa,85718,,,null
5321082003,532108,5321,53,"Kapitan Meo",85718,,,null
5321082004,532108,5321,53,Tniumanu,85718,,,null
5321082005,532108,5321,53,Uabau,85718,,,null
5321082006,532108,5321,53,"Boni Bais",85718,,,null
5321082007,532108,5321,53,"Nauke Kusa",85718,,,null
5321082008,532108,5321,53,Bisesmus,85718,,,null
5321082009,532108,5321,53,Oenaek,85718,,,null
5321092001,532109,5321,53,Raiulun,85761,,,null
5321092002,532109,5321,53,Wemeda,85761,,,null
5321092003,532109,5321,53,Kusa,85761,,,null
5321092004,532109,5321,53,Numponi,85761,,,null
5321092005,532109,5321,53,Dirma,85761,,,null
5321092006,532109,5321,53,Sanleo,85761,,,null
5321102001,532110,5321,53,"Alas Utara",85767,,,null
5321102002,532110,5321,53,Kotabiru,85767,,,null
5321102003,532110,5321,53,Alas,85767,,,null
5321102004,532110,5321,53,"Alas Selatan",85767,,,null
5321112001,532111,5321,53,Babulu,85766,,,null
5321112002,532111,5321,53,"Babulu Selatan",85766,,,null
5321112003,532111,5321,53,Sisi,85766,,,null
5321112004,532111,5321,53,Rainawe,85766,,,null
5321112005,532111,5321,53,Litamali,85766,,,null
5321112006,532111,5321,53,"Lakekun Utara",85766,,,null
5321112007,532111,5321,53,Lakekun,85766,,,null
5321112008,532111,5321,53,"Lakekun Barat",85766,,,null
5321122001,532112,5321,53,Babotin,85765,,,null
5321122002,532112,5321,53,Kereana,85765,,,null
5321122003,532112,5321,53,"Babotin Maemina",85765,,,null
5321122004,532112,5321,53,"Babotin Selatan",85765,,,null
5321122005,532112,5321,53,Takarai,85765,,,null
5371011001,537101,5371,53,Namosain,85232,,,null
5371011002,537101,5371,53,"Nunbaun Sabu",85233,,,null
5371011003,537101,5371,53,"Nunbaun Delha",85233,,,null
5371011004,537101,5371,53,Nunhila,85234,,,null
5371011005,537101,5371,53,Fatufeto,85234,,,null
5371011006,537101,5371,53,Manutapen,85236,,,null
5371011007,537101,5371,53,Mantasi,85235,,,null
5371011008,537101,5371,53,Alak,85231,,,null
5371011009,537101,5371,53,"Batu Plat",85237,,,null
5371011010,537101,5371,53,"Manulai II",85238,,,null
5371011011,537101,5371,53,Naioni,85239,,,null
5371011012,537101,5371,53,"Penkase Oeleta",85231,,,null
5371021001,537102,5371,53,Oepura,85142,,,null
5371021002,537102,5371,53,Maulafa,85141,,,null
5371021003,537102,5371,53,Penfui,85148,,,null
5371021004,537102,5371,53,Naimata,85147,,,null
5371021005,537102,5371,53,Bello,85148,,,null
5371021006,537102,5371,53,Fatukoa,85144,,,null
5371021007,537102,5371,53,Kolhua,85146,,,null
5371021008,537102,5371,53,Sikumana,85143,,,null
5371021009,537102,5371,53,Naikolan,85142,,,null
5371031001,537103,5371,53,"Kelapa Lima",85228,,,null
5371031010,537103,5371,53,Oesapa,85228,,,null
5371031011,537103,5371,53,Lasiana,85228,,,null
5371031014,537103,5371,53,"Oesapa Barat",85228,,,null
5371031015,537103,5371,53,"Oesapa Selatan",85228,,,null
5371041001,537104,5371,53,Oebobo,85111,,,null
5371041008,537104,5371,53,Oetete,85112,,,null
5371041009,537104,5371,53,Oebufu,85111,,,null
5371041010,537104,5371,53,Liliba,85111,,,null
5371041011,537104,5371,53,Fatululi,85111,,,null
5371041013,537104,5371,53,"Kayu Putih",85111,,,null
5371041014,537104,5371,53,"Tuak Daun Merah",85111,,,null
5371051001,537105,5371,53,Bakunase,85116,,,null
5371051002,537105,5371,53,"Bakunase Dua",85116,,,null
5371051003,537105,5371,53,Airnona,85119,,,null
5371051004,537105,5371,53,"Naikoten Satu",85118,,,null
5371051005,537105,5371,53,"Naikoten Dua",85118,,,null
5371051006,537105,5371,53,Kuanino,85119,,,null
5371051007,537105,5371,53,Nunleu,85119,,,null
5371051008,537105,5371,53,Fontein,85112,,,null
5371061001,537106,5371,53,Airmata,85229,,,null
5371061002,537106,5371,53,"Lai Lai Bisi Kopan",85221,,,null
5371061003,537106,5371,53,Bonipoi,85221,,,null
5371061004,537106,5371,53,Solor,85229,,,null
5371061005,537106,5371,53,"Tode Kisar",85229,,,null
5371061006,537106,5371,53,Merdeka,85225,,,null
5371061007,537106,5371,53,Oeba,85226,,,null
5371061008,537106,5371,53,Fatubesi,85226,,,null
5371061009,537106,5371,53,"Pasir Panjang",85227,,,null
5371061010,537106,5371,53,Nefonaek,85229,,,null
