code,district_code,regency_code,province_code,name,postal_code,latitude,longitude,coordinates
1601072001,160107,1601,16,"Negeri Sindang",32151,,,null
1601072002,160107,1601,16,"Rantau Kumpai",32151,,,null
1601072003,160107,1601,16,"Lubuk Baru",32151,,,null
1601072004,160107,1601,16,Kungkilan,32151,,,null
1601072005,160107,1601,16,Penyandingan,32151,,,null
1601072006,160107,1601,16,Bandar,32151,,,null
1601072007,160107,1601,16,"Lubuk Leban",32151,,,null
1601072008,160107,1601,16,"Tungku Jaya",32151,,,null
1601072009,160107,1601,16,"Mekar Sari",32151,,,null
1601072010,160107,1601,16,"Mekar Jaya",32151,,,null
1601072011,160107,1601,16,Penantian,32151,,,null
1601082001,160108,1601,16,"Gunung Meraksa",32154,,,null
1601082003,160108,1601,16,"Tanjung Pura",32154,,,null
1601082004,160108,1601,16,"Tanjung Sari",32154,,,null
1601082005,160108,1601,16,"Tangsi Lontar",32154,,,null
1601082006,160108,1601,16,Belambangan,32154,,,null
1601082007,160108,1601,16,Kesambirata,32154,,,null
1601082008,160108,1601,16,"Gunung Liwat",32154,,,null
1601082015,160108,1601,16,Pengandonan,32154,,,null
1601082016,160108,1601,16,Semanding,32154,,,null
1601082017,160108,1601,16,Tanjungan,32154,,,null
1601082018,160108,1601,16,Ujanmas,32154,,,null
1601082019,160108,1601,16,"Gunung Kuripan",32154,,,null
1601092001,160109,1601,16,Kepayang,32191,,,null
1601092002,160109,1601,16,Kedondong,32191,,,null
1601092003,160109,1601,16,Belimbing,32191,,,null
1601092004,160109,1601,16,Durian,32191,,,null
1601092006,160109,1601,16,"Lubuk Rukam",32191,,,null
1601092007,160109,1601,16,Bindu,32191,,,null
1601092009,160109,1601,16,Mendala,32191,,,null
1601092010,160109,1601,16,Peninjauan,32191,,,null
1601092011,160109,1601,16,"Saung Naga",32191,,,null
1601092022,160109,1601,16,Makartitama,32191,,,null
1601092023,160109,1601,16,Espetiga,32191,,,null
1601092024,160109,1601,16,"Makarti Jaya",32191,,,null
1601092025,160109,1601,16,"Mitra Kencana",32191,,,null
1601092026,160109,1601,16,Penilikan,32191,,,null
1601092027,160109,1601,16,"Panji Jaya",32191,,,null
1601092028,160109,1601,16,"Karang Dapo",32191,,,null
1601131003,160113,1601,16,Tanjungagung,32123,,,null
1601131004,160113,1601,16,"Saung Naga",32124,,,null
1601131005,160113,1601,16,"Talang Jawa",32122,,,null
1601131007,160113,1601,16,"Batu Kuning",32121,,,null
1601131011,160113,1601,16,"Air Gading",32121,,,null
1601132001,160113,1601,16,"Batu Putih",32121,,,null
1601132002,160113,1601,16,Laya,32125,,,null
1601132006,160113,1601,16,Pusar,32126,,,null
1601132008,160113,1601,16,"Karang Agung",32121,,,null
1601132009,160113,1601,16,"Karang Endah",32121,,,null
1601132010,160113,1601,16,"Tanjung Karang",32121,,,null
1601132012,160113,1601,16,Sukamaju,32124,,,null
1601141001,160114,1601,16,"Baturaja Lama",32114,,,null
1601141003,160114,1601,16,"Pasar Baru",32116,,,null
1601141004,160114,1601,16,Kemalaraja,32111,,,null
1601141005,160114,1601,16,Sukaraya,32112,,,null
1601141006,160114,1601,16,Sukajadi,32117,,,null
1601141011,160114,1601,16,"Kemelak Bindung Langit",32111,,,null
1601141012,160114,1601,16,"Sepancar Lawang Kulon",32111,,,null
1601141013,160114,1601,16,"Baturaja Permai",32111,,,null
1601141014,160114,1601,16,"Sekar Jaya",32115,,,null
1601142007,160114,1601,16,"Tanjung Kemala",32111,,,null
1601142008,160114,1601,16,"Tanjung Baru",32113,,,null
1601142015,160114,1601,16,"Air Paoh",32111,,,null
1601142016,160114,1601,16,Terusan,32111,,,null
1601202001,160120,1601,16,Kelumpang,32157,,,null
1601202002,160120,1601,16,"Gunung Tiga",32157,,,null
1601202003,160120,1601,16,Mendingin,32157,,,null
1601202004,160120,1601,16,"Ulak Lebar",32157,,,null
1601202005,160120,1601,16,Pedataran,32157,,,null
1601202006,160120,1601,16,Sukajadi,32157,,,null
1601202007,160120,1601,16,Belandang,32157,,,null
1601212001,160121,1601,16,"Tanjung Kurung",32156,,,null
1601212002,160121,1601,16,Sukarami,32156,,,null
1601212003,160121,1601,16,Batanghari,32156,,,null
1601212004,160121,1601,16,"Nyiur Sayak",32156,,,null
1601212005,160121,1601,16,"Suka Merindu",32156,,,null
1601212006,160121,1601,16,"Padang Bindu",32156,,,null
1601212007,160121,1601,16,"Panggal Panggang",32156,,,null
1601212008,160121,1601,16,Bedegung,32156,,,null
1601212009,160121,1601,16,"Ulak Pandan",32156,,,null
1601212010,160121,1601,16,"Keban Agung",32156,,,null
1601212011,160121,1601,16,Tubohan,32156,,,null
1601212012,160121,1601,16,"Raksa Jiwa",32156,,,null
1601212013,160121,1601,16,Seleman,32156,,,null
1601212014,160121,1601,16,"Kebun Jati",32156,,,null
1601212015,160121,1601,16,Singapura,32156,,,null
1601212016,160121,1601,16,Pengaringan,32156,,,null
1601212017,160121,1601,16,Banjarsari,32156,,,null
1601212018,160121,1601,16,"Pandan Dulang",32156,,,null
1601212020,160121,1601,16,"Panai Makmur",32156,,,null
1601212021,160121,1601,16,"Guna Makmur",32156,,,null
1601212022,160121,1601,16,"Tebing Kampung",32156,,,null
1601222001,160122,1601,16,Merbau,32192,,,null
1601222002,160122,1601,16,"Gunung Meraksa",32192,,,null
1601222003,160122,1601,16,Kurup,32192,,,null
1601222004,160122,1601,16,"Banu Ayu",32192,,,null
1601222005,160122,1601,16,"Tanjung Dalam",32192,,,null
1601222006,160122,1601,16,"Lubuk Batang Baru",32192,,,null
1601222007,160122,1601,16,"Lubuk Batang Lama",32192,,,null
1601222008,160122,1601,16,Belatung,32192,,,null
1601222009,160122,1601,16,"Karta Mulya",32192,,,null
1601222010,160122,1601,16,Lunggaian,32192,,,null
1601222011,160122,1601,16,"Bandar Agung",32192,,,null
1601222012,160122,1601,16,"Tanjung Manggus",32192,,,null
1601222015,160122,1601,16,Markisa,32192,,,null
1601222016,160122,1601,16,"Air Wall",32192,,,null
1601222017,160122,1601,16,"Sumber Bahagia",32192,,,null
1601282001,160128,1601,16,"Bandar Jaya",32158,,,null
1601282002,160128,1601,16,"Karang Endah",32158,,,null
1601282003,160128,1601,16,"Pajar Bulan",32158,,,null
1601282004,160128,1601,16,"Pagar Dewa",32158,,,null
1601282005,160128,1601,16,"Bumi Kawa",32158,,,null
1601282006,160128,1601,16,Tanjunglengkayap,32158,,,null
1601282007,160128,1601,16,"Lubuk Dalam",32158,,,null
1601282008,160128,1601,16,"Negeri Ratu",32158,,,null
1601282009,160128,1601,16,"Segara Kembang",32158,,,null
1601282010,160128,1601,16,Tihang,32158,,,null
1601282011,160128,1601,16,"Lubuk Hara",32158,,,null
1601282012,160128,1601,16,Sukaraja,32158,,,null
1601282013,160128,1601,16,"Negeri Agung",32158,,,null
1601282014,160128,1601,16,"Gedung Pekuon",32158,,,null
1601282015,160128,1601,16,Tualang,32158,,,null
1601282016,160128,1601,16,Sundan,32158,,,null
1601282017,160128,1601,16,"Bunga Tanjung",32158,,,null
1601282018,160128,1601,16,"Way Heling",32158,,,null
1601282019,160128,1601,16,Umpam,32158,,,null
1601282020,160128,1601,16,"Fajar Jaya",32158,,,null
1601282021,160128,1601,16,"Simpang Empat",32158,,,null
1601282022,160128,1601,16,Tanjungagung,32158,,,null
1601292001,160129,1601,16,"Karya Jaya",32159,,,null
1601292002,160129,1601,16,"Karya Mukti",32159,,,null
1601292003,160129,1601,16,"Marga Bakti",32159,,,null
1601292004,160129,1601,16,"Sri Mulya",32159,,,null
1601292005,160129,1601,16,"Marga Mulya",32159,,,null
1601292006,160129,1601,16,"Tanjung Makmur",32159,,,null
1601302001,160130,1601,16,"Batu Marta I",32152,,,null
1601302002,160130,1601,16,"Batu Marta II",32152,,,null
1601302003,160130,1601,16,"Lekis Rejo",32152,,,null
1601302004,160130,1601,16,"Lubuk Banjar",32152,,,null
1601302005,160130,1601,16,"Marta Jaya",32152,,,null
1601302006,160130,1601,16,"Batu Raden",32152,,,null
1601302007,160130,1601,16,"Battu Winangun",32152,,,null
1601312001,160131,1601,16,"Kemala Jaya",32155,,,null
1601312002,160131,1601,16,Lontar,32155,,,null
1601312003,160131,1601,16,"Muara Saeh",32155,,,null
1601312004,160131,1601,16,"Lubuk Tupak",32155,,,null
1601312005,160131,1601,16,Beringin,32155,,,null
1601312006,160131,1601,16,Surau,32155,,,null
1601312007,160131,1601,16,"Karang Lantang",32155,,,null
1601322001,160132,1601,16,Bunglai,32193,,,null
1601322002,160132,1601,16,Kedaton,32193,,,null
1601322003,160132,1601,16,Kampai,32193,,,null
1601322004,160132,1601,16,"Rantau Panjang",32193,,,null
1601322005,160132,1601,16,"Kedaton Timur",32193,,,null
1601322006,160132,1601,16,"Suka Pindah",32193,,,null
1601322007,160132,1601,16,"Sinar Kedaton",32193,,,null
1601322008,160132,1601,16,"Lubuk Kemiling",32193,,,null
1602021011,160202,1602,16,"Tanjung Lubuk",30671,,,null
1602022001,160202,1602,16,"Ulak Kapal",30671,,,null
1602022002,160202,1602,16,"Tanjung Merindu",30671,,,null
1602022003,160202,1602,16,"Tanjung Baru",30671,,,null
1602022004,160202,1602,16,Seritanjung,30671,,,null
1602022005,160202,1602,16,Pengaraian,30671,,,null
1602022006,160202,1602,16,Sukarami,30671,,,null
1602022008,160202,1602,16,Sukamulya,30671,,,null
1602022010,160202,1602,16,"Pulau Gemantung",30671,,,null
1602022012,160202,1602,16,Bumiagung,30671,,,null
1602022013,160202,1602,16,Kotabumi,30671,,,null
1602022014,160202,1602,16,"Tanjung Beringin",30671,,,null
1602022015,160202,1602,16,"Tanjung Laga",30671,,,null
1602022016,160202,1602,16,"Tanjung Laut",30671,,,null
1602022017,160202,1602,16,"Ulak Balam",30671,,,null
1602022018,160202,1602,16,"Jambu Ilir",30671,,,null
1602022031,160202,1602,16,Jukdadak,30671,,,null
1602022032,160202,1602,16,"Atar Balam",30671,,,null
1602022033,160202,1602,16,"Tanjung Harapan",30671,,,null
1602022034,160202,1602,16,"Pulau Gemantung Ilir",30671,,,null
1602022035,160202,1602,16,"Pulau Gemantung Ulu",30671,,,null
1602022036,160202,1602,16,"Pulau Gemantung Darat",30671,,,null
1602032002,160203,1602,16,"Pedamaran VI",30672,,,null
1602032003,160203,1602,16,"Pedamaran V",30672,,,null
1602032004,160203,1602,16,"Pedamaran IV",30672,,,null
1602032005,160203,1602,16,"Pedamaran III",30672,,,null
1602032006,160203,1602,16,"Pedamaran II",30672,,,null
1602032007,160203,1602,16,"Pedamaran I",30672,,,null
1602032008,160203,1602,16,"Cinta Jaya",30672,,,null
1602032009,160203,1602,16,Sukadamai,30672,,,null
1602032010,160203,1602,16,Serinanti,30672,,,null
1602032011,160203,1602,16,Sukaraja,30672,,,null
1602032017,160203,1602,16,"Burnai Timur",30672,,,null
1602032018,160203,1602,16,"Suka Pulih",30672,,,null
1602032019,160203,1602,16,"Menang Raya",30672,,,null
1602032021,160203,1602,16,"Lebuh Rarak",30672,,,null
1602042001,160204,1602,16,"Pematang Panggang",30681,,,null
1602042002,160204,1602,16,"Sungai Sodong",30681,,,null
1602042005,160204,1602,16,"Pagar Dewa",30681,,,null
1602042006,160204,1602,16,"Surya Adi",30681,,,null
1602042007,160204,1602,16,"Makarti Mulya",30681,,,null
1602042008,160204,1602,16,"Marga Bakti",30681,,,null
1602042009,160204,1602,16,"Jaya Bakti",30681,,,null
1602042025,160204,1602,16,Sukamukti,30681,,,null
1602042026,160204,1602,16,"Mekar Wangi",30681,,,null
1602042035,160204,1602,16,"Karya Mukti",30681,,,null
1602042037,160204,1602,16,Kalideras,30681,,,null
1602042038,160204,1602,16,"Sumber Deras",30681,,,null
1602042047,160204,1602,16,"Kembang Jajar",30681,,,null
1602042050,160204,1602,16,"Kota Baru",30681,,,null
1602042051,160204,1602,16,"Sido Basuki",30681,,,null
1602042052,160204,1602,16,"Pematang Kasih",30681,,,null
1602042053,160204,1602,16,"Labuhan Jaya",30681,,,null
1602051001,160205,1602,16,Jua-jua,30616,,,null
1602051002,160205,1602,16,Kayuagung,30618,,,null
1602051003,160205,1602,16,Sidakersa,30615,,,null
1602051004,160205,1602,16,Cintaraja,30614,,,null
1602051005,160205,1602,16,"Mangun Jaya",30613,,,null
1602051006,160205,1602,16,Paku,30612,,,null
1602051007,160205,1602,16,Kedaton,30617,,,null
1602051008,160205,1602,16,Sukadana,30611,,,null
1602051009,160205,1602,16,Perigi,30618,,,null
1602051010,160205,1602,16,Kutaraja,30617,,,null
1602051025,160205,1602,16,"Tanjung Rancing",30618,,,null
1602052011,160205,1602,16,"Kijang Ulu",30618,,,null
1602052012,160205,1602,16,Muarabaru,30618,,,null
1602052013,160205,1602,16,"Tanjung Lubuk",30617,,,null
1602052014,160205,1602,16,"Arisan Buntal",30618,,,null
1602052015,160205,1602,16,Celikah,30611,,,null
1602052016,160205,1602,16,"Banding Anyar",30618,,,null
1602052017,160205,1602,16,"Buluh Cawang",30618,,,null
1602052018,160205,1602,16,"Lubuk Dalam",30618,,,null
1602052019,160205,1602,16,Anyar,30618,,,null
1602052020,160205,1602,16,"Tanjung Menang",30618,,,null
1602052021,160205,1602,16,Teloko,30618,,,null
1602052022,160205,1602,16,"Tanjung Serang",30618,,,null
1602052023,160205,1602,16,"Serigeni Baru",30618,,,null
1602052024,160205,1602,16,Serigeni,30618,,,null
1602082001,160208,1602,16,"Tanjung Alai",30651,,,null
1602082002,160208,1602,16,"Batu Ampar",30651,,,null
1602082003,160208,1602,16,"Awal Terusan",30651,,,null
1602082004,160208,1602,16,"Ulak Jermun",30651,,,null
1602082005,160208,1602,16,"Mangun Jaya",30651,,,null
1602082006,160208,1602,16,"Terusan Menang",30651,,,null
1602082007,160208,1602,16,Belanti,30651,,,null
1602082008,160208,1602,16,Terate,30651,,,null
1602082009,160208,1602,16,"Rengas Pitu",30651,,,null
1602082010,160208,1602,16,Pantai,30651,,,null
1602082011,160208,1602,16,"Sirah Pulau Padang",30651,,,null
1602082012,160208,1602,16,"Serdang Menang",30651,,,null
1602082013,160208,1602,16,"Bungin Tinggi",30651,,,null
1602082014,160208,1602,16,Penyandingan,30651,,,null
1602082015,160208,1602,16,Berkat,30651,,,null
1602082016,160208,1602,16,Sukaraja,30651,,,null
1602082017,160208,1602,16,"Pematang Buluran",30651,,,null
1602082018,160208,1602,16,"Rawang Besar",30651,,,null
1602082019,160208,1602,16,"Batu Ampar Baru",30651,,,null
1602082020,160208,1602,16,"Terusan Laut",30651,,,null
1602111016,160211,1602,16,"Tulung Selapan Ulu",30655,,,null
1602112001,160211,1602,16,"Simpang Tiga",30655,,,null
1602112002,160211,1602,16,"Pulau Beruang",30655,,,null
1602112003,160211,1602,16,Penyandingan,30655,,,null
1602112004,160211,1602,16,"Tanjung Batu",30655,,,null
1602112005,160211,1602,16,Toman,30655,,,null
1602112006,160211,1602,16,Cambai,30655,,,null
1602112007,160211,1602,16,Kayuara,30655,,,null
1602112008,160211,1602,16,Petaling,30655,,,null
1602112009,160211,1602,16,"Tulung Selapan Ilir",30655,,,null
1602112010,160211,1602,16,"Ujung Tanjung",30655,,,null
1602112011,160211,1602,16,"Lebung Gajah",30655,,,null
1602112012,160211,1602,16,"Lebung Itam",30655,,,null
1602112013,160211,1602,16,"Penanggoan Duren",30655,,,null
1602112014,160211,1602,16,"Jerambah Rengas",30655,,,null
1602112015,160211,1602,16,"Simpang Tiga Makmur",30655,,,null
1602112017,160211,1602,16,"Simpang Tiga Jaya",30655,,,null
1602112018,160211,1602,16,"Simpang Tiga Sakti",30655,,,null
1602112019,160211,1602,16,"Tulung Seluang",30655,,,null
1602112020,160211,1602,16,"Rantau Lurus",30655,,,null
1602112021,160211,1602,16,"Kuala Dua Belas",30655,,,null
1602112022,160211,1602,16,"Simpang Tiga Abadi",30655,,,null
1602112023,160211,1602,16,"Tulung Selapan Timur",30655,,,null
1602122001,160212,1602,16,"Ulak Kemang",30654,,,null
1602122002,160212,1602,16,Sepang,30654,,,null
1602122003,160212,1602,16,Keman,30654,,,null
1602122004,160212,1602,16,Kandis,30654,,,null
1602122005,160212,1602,16,"Ulak Depati",30654,,,null
1602122006,160212,1602,16,"Pulau Layang",30654,,,null
1602122007,160212,1602,16,Tapus,30654,,,null
1602122008,160212,1602,16,"Pulau Betung",30654,,,null
1602122009,160212,1602,16,Bangsal,30654,,,null
1602122010,160212,1602,16,Kuro,30654,,,null
1602122011,160212,1602,16,Menggeris,30654,,,null
1602122012,160212,1602,16,Pampangan,30654,,,null
1602122013,160212,1602,16,Serimenang,30654,,,null
1602122014,160212,1602,16,Secondong,30654,,,null
1602122015,160212,1602,16,Jermun,30654,,,null
1602122016,160212,1602,16,Serdang,30654,,,null
1602122017,160212,1602,16,Jungkal,30654,,,null
1602122035,160212,1602,16,"Tanjung Kemang",30654,,,null
1602122036,160212,1602,16,"Ulak Pianggu",30654,,,null
1602122037,160212,1602,16,"Ulak Kemang Baru",30654,,,null
1602122038,160212,1602,16,"Keman Baru",30654,,,null
1602122039,160212,1602,16,"Sri Mulya",30654,,,null
1602132005,160213,1602,16,"Tebing Suluh",30657,,,null
1602132006,160213,1602,16,"Cahya Bumi",30657,,,null
1602132007,160213,1602,16,Kutapandan,30657,,,null
1602132008,160213,1602,16,"Cahaya Maju",30657,,,null
1602132009,160213,1602,16,Bumiagung,30657,,,null
1602132010,160213,1602,16,Sumberagung,30657,,,null
1602132011,160213,1602,16,Tugumulyo,30657,,,null
1602132013,160213,1602,16,"Dabuk Rejo",30657,,,null
1602132014,160213,1602,16,"Suka Mulya",30657,,,null
1602132015,160213,1602,16,"Bumi Arjo",30657,,,null
1602132016,160213,1602,16,"Tulung Harapan",30657,,,null
1602132017,160213,1602,16,Kepayang,30657,,,null
1602132025,160213,1602,16,"Tugu Jaya",30657,,,null
1602132026,160213,1602,16,"Tugu Agung",30657,,,null
1602132027,160213,1602,16,"Sindang Sari",30657,,,null
1602132028,160213,1602,16,"Mekar Jaya",30657,,,null
1602132034,160213,1602,16,"Bumiarjo Makmur",30657,,,null
1602132035,160213,1602,16,"Cahaya Makmur",30657,,,null
1602132036,160213,1602,16,"Sumber Makmur",30657,,,null
1602142001,160214,1602,16,"Tirta Mulya",30656,,,null
1602142002,160214,1602,16,"Suka Mulya",30656,,,null
1602142003,160214,1602,16,"Jadi Mulya",30656,,,null
1602142004,160214,1602,16,"Marga Tani",30656,,,null
1602142005,160214,1602,16,"Bandar Jaya",30656,,,null
1602142006,160214,1602,16,"Mukti Jaya",30656,,,null
1602142007,160214,1602,16,"Srijaya Baru",30656,,,null
1602142008,160214,1602,16,Nusantara,30656,,,null
1602142009,160214,1602,16,"Kerta Mukti",30656,,,null
1602142010,160214,1602,16,Nusakerta,30656,,,null
1602142011,160214,1602,16,"Banyu Biru",30656,,,null
1602142012,160214,1602,16,"Pangkalan Damai",30656,,,null
1602142013,160214,1602,16,"Negeri Sakti",30656,,,null
1602142014,160214,1602,16,"Rantau Karya",30656,,,null
1602142015,160214,1602,16,"Pangkalan Sakti",30656,,,null
1602142016,160214,1602,16,"Simpang Heran",30656,,,null
1602142017,160214,1602,16,"Rengas Abang",30656,,,null
1602142018,160214,1602,16,"Bukit Batu",30656,,,null
1602142019,160214,1602,16,"Sungai Batang",30656,,,null
1602152001,160215,1602,16,"Sungai Menang",30684,,,null
1602152002,160215,1602,16,Karangsia,30684,,,null
1602152003,160215,1602,16,"Sungai Ceper",30684,,,null
1602152004,160215,1602,16,"Gajah Mati",30684,,,null
1602152005,160215,1602,16,"Sungai Tepuk",30684,,,null
1602152006,160215,1602,16,"Sungai Sibur",30684,,,null
1602152007,160215,1602,16,"Talang Makmur",30684,,,null
1602152008,160215,1602,16,"Harapan Jaya",30684,,,null
1602152009,160215,1602,16,"Talang Jaya",30684,,,null
1602152010,160215,1602,16,Sidomulyo,30684,,,null
1602152011,160215,1602,16,"Bumi Pratama Mandira",30684,,,null
1602152012,160215,1602,16,"Pinang Indah",30684,,,null
1602152013,160215,1602,16,"Gajah Makmur",30684,,,null
1602152014,160215,1602,16,"Gading Jaya",30684,,,null
1602152015,160215,1602,16,"Gajah Mukti",30684,,,null
1602152016,160215,1602,16,"Gajah Mulya",30684,,,null
1602152017,160215,1602,16,"Sri Gading",30684,,,null
1602152018,160215,1602,16,"Gading Mas",30684,,,null
1602172001,160217,1602,16,"Tanjung Aur",30652,,,null
1602172002,160217,1602,16,"Lubuk Ketepeng",30652,,,null
1602172003,160217,1602,16,"Talang Cempedak",30652,,,null
1602172004,160217,1602,16,Bubusan,30652,,,null
1602172005,160217,1602,16,"Air Itam",30652,,,null
1602172006,160217,1602,16,Jejawi,30652,,,null
1602172007,160217,1602,16,"Karang Agung",30652,,,null
1602172008,160217,1602,16,"Muara Batun",30652,,,null
1602172009,160217,1602,16,Lingkis,30652,,,null
1602172010,160217,1602,16,"Terusan Jawa",30652,,,null
1602172011,160217,1602,16,"Tanjung Ali",30652,,,null
1602172012,160217,1602,16,Sukadarma,30652,,,null
1602172013,160217,1602,16,"Ulak Tembaga",30652,,,null
1602172014,160217,1602,16,Pedu,30652,,,null
1602172015,160217,1602,16,"Pematang Kijang",30652,,,null
1602172016,160217,1602,16,"Simpang Empat",30652,,,null
1602172017,160217,1602,16,"Padang Bulan",30652,,,null
1602172018,160217,1602,16,"Batun Baru",30652,,,null
1602172019,160217,1602,16,"Danau Ceper",30652,,,null
1602182001,160218,1602,16,"Sungai Somor",30658,,,null
1602182002,160218,1602,16,"Sungai Lumpur",30658,,,null
1602182003,160218,1602,16,"Sungai Jeruju",30658,,,null
1602182004,160218,1602,16,"Sungai Ketupak",30658,,,null
1602182005,160218,1602,16,"Ulak Kedondong",30658,,,null
1602182006,160218,1602,16,Pelimbangan,30658,,,null
1602182007,160218,1602,16,Cengal,30658,,,null
1602182008,160218,1602,16,"Talang Rimba",30658,,,null
1602182009,160218,1602,16,"Sungai Pasir",30658,,,null
1602182010,160218,1602,16,"Kuala Sungai Jeruju",30658,,,null
1602182011,160218,1602,16,"Kuala Sungai Pasir",30658,,,null
1602182012,160218,1602,16,"Pantai Harapan",30658,,,null
1602182013,160218,1602,16,"Adil Makmur",30658,,,null
1602182014,160218,1602,16,"Balam Jeruju",30658,,,null
1602182015,160218,1602,16,"Kebun Cabe",30658,,,null
1602182016,160218,1602,16,"Lebak Beriang",30658,,,null
1602182017,160218,1602,16,"Parit Raya",30658,,,null
1602192001,160219,1602,16,Deling,30659,,,null
1602192002,160219,1602,16,"Pangkalan Lampan",30659,,,null
1602192003,160219,1602,16,Lirik,30659,,,null
1602192004,160219,1602,16,"Lebung Batang",30659,,,null
1602192005,160219,1602,16,"Sungai Bungin",30659,,,null
1602192006,160219,1602,16,Sukaraja,30659,,,null
1602192007,160219,1602,16,Darat,30659,,,null
1602192008,160219,1602,16,Pulauan,30659,,,null
1602192009,160219,1602,16,Riding,30659,,,null
1602192010,160219,1602,16,Sunggutan,30659,,,null
1602192011,160219,1602,16,"Suka Damai",30659,,,null
1602192012,160219,1602,16,"Air Pedara",30659,,,null
1602192013,160219,1602,16,"Rimba Samak",30659,,,null
1602192014,160219,1602,16,"Talang Daya",30659,,,null
1602192015,160219,1602,16,"Air Rumbai",30659,,,null
1602192016,160219,1602,16,Rambai,30659,,,null
1602192017,160219,1602,16,Perigi,30659,,,null
1602192018,160219,1602,16,"Bukit Batu",30659,,,null
1602192019,160219,1602,16,"Rawa Tenam",30659,,,null
1602202001,160220,1602,16,"Catur Tunggal",30682,,,null
1602202002,160220,1602,16,"Surya Karta",30682,,,null
1602202003,160220,1602,16,"Tegal Sari",30682,,,null
1602202004,160220,1602,16,"Mukti Karya",30682,,,null
1602202005,160220,1602,16,"Pematang Jaya",30682,,,null
1602202006,160220,1602,16,"Pematang Sukatani",30682,,,null
1602202007,160220,1602,16,"Kampung Baru",30682,,,null
1602202008,160220,1602,16,"Cahaya Mas",30682,,,null
1602202009,160220,1602,16,"Karya Usaha",30682,,,null
1602202010,160220,1602,16,"Pematang Binatani",30682,,,null
1602202011,160220,1602,16,"Bina Karsa",30682,,,null
1602202012,160220,1602,16,"Pematang Sari",30682,,,null
1602202013,160220,1602,16,"Pematang Sukaramah",30682,,,null
1602202014,160220,1602,16,"Cahaya Mulya",30682,,,null
1602202015,160220,1602,16,"Gading Sari",30682,,,null
1602202017,160220,1602,16,"Karya Jaya",30682,,,null
1602202018,160220,1602,16,"Mesuji Jaya",30682,,,null
1602202019,160220,1602,16,"Sumber Mulya",30682,,,null
1602202020,160220,1602,16,"Beringin Jaya",30682,,,null
1602212001,160221,1602,16,Embacang,30683,,,null
1602212002,160221,1602,16,Balian,30683,,,null
1602212003,160221,1602,16,"Sumbu Sari",30683,,,null
1602212004,160221,1602,16,"Suka Sari",30683,,,null
1602212005,160221,1602,16,Ciptasari,30683,,,null
1602212006,160221,1602,16,"Mataram Jaya",30683,,,null
1602212007,160221,1602,16,"Bumi Makmur",30683,,,null
1602212008,160221,1602,16,"Sumber Baru",30683,,,null
1602212009,160221,1602,16,"Mulya Jaya",30683,,,null
1602212010,160221,1602,16,"Rotan Mulya",30683,,,null
1602212011,160221,1602,16,"Embacang Permai",30683,,,null
1602212012,160221,1602,16,"Gedung Rejo",30683,,,null
1602212013,160221,1602,16,Kertamukti,30683,,,null
1602212014,160221,1602,16,"Kemang Indah",30683,,,null
1602212015,160221,1602,16,"Balian Makmur",30683,,,null
1602212016,160221,1602,16,Sedyomulyo,30683,,,null
1602212017,160221,1602,16,"Dabuk Makmur",30683,,,null
1602222001,160222,1602,16,"Tanjung Sari I",30657,,,null
1602222002,160222,1602,16,"Lubuk Seberuk",30657,,,null
1602222003,160222,1602,16,"Rantau Durian I",30657,,,null
1602222004,160222,1602,16,"Sungai Belida",30657,,,null
1602222005,160222,1602,16,"Lempuing Indah",30657,,,null
1602222006,160222,1602,16,Muktisari,30657,,,null
1602222007,160222,1602,16,"Tania Makmur",30657,,,null
1602222008,160222,1602,16,Sukamaju,30657,,,null
1602222009,160222,1602,16,"Muara Burnai II",30657,,,null
1602222010,160222,1602,16,"Suka Jaya",30657,,,null
1602222011,160222,1602,16,"Rantau Durian II",30657,,,null
1602222012,160222,1602,16,"Tanjung Sari II",30657,,,null
1602222013,160222,1602,16,"Purwo Asri",30657,,,null
1602222014,160222,1602,16,"Muara Burnai I",30657,,,null
1602222015,160222,1602,16,"Lubuk Makmur",30657,,,null
1602222016,160222,1602,16,"Rantau Durian Asli",30657,,,null
1602232001,160223,1602,16,Benawa,30673,,,null
1602232002,160223,1602,16,Serapek,30673,,,null
1602232003,160223,1602,16,"Sugih Waras",30673,,,null
1602232004,160223,1602,16,"Muara Telang",30673,,,null
1602232005,160223,1602,16,Kuripan,30673,,,null
1602232006,160223,1602,16,"Cinta Marga",30673,,,null
1602232007,160223,1602,16,Penyandingan,30673,,,null
1602232008,160223,1602,16,"Talang Pengeran",30673,,,null
1602232009,160223,1602,16,"Ulak Ketapang",30673,,,null
1602232010,160223,1602,16,Mulyaguna,30673,,,null
1602232011,160223,1602,16,"Panca Tunggal Benawa",30673,,,null
1602232012,160223,1602,16,"Bumi Harapan",30673,,,null
1602232013,160223,1602,16,"Sinar Harapan Mulya",30673,,,null
1602232014,160223,1602,16,Seriguna,30673,,,null
1602242001,160224,1602,16,"Pulau Geronggang",30670,,,null
1602242002,160224,1602,16,"Sumber Hidup",30670,,,null
1602242003,160224,1602,16,"Gading Raja",30670,,,null
1602242004,160224,1602,16,Maribaya,30670,,,null
1602242005,160224,1602,16,Pancawarna,30670,,,null
1602242006,160224,1602,16,"Tanjung Makmur",30670,,,null
1602242007,160224,1602,16,"Kayu Labu",30670,,,null
1603012011,160301,1603,16,Embawang,31354,,,null
1603012012,160301,1603,16,"Pagar Dewa",31354,,,null
1603012013,160301,1603,16,"Tanjung Bulan",31354,,,null
1603012014,160301,1603,16,"Lesung Batu",31354,,,null
1603012015,160301,1603,16,"Pandan Enim",31354,,,null
1603012016,160301,1603,16,Paduraksa,31354,,,null
1603012017,160301,1603,16,Matas,31354,,,null
1603012018,160301,1603,16,"Tanjung Agung",31354,,,null
1603012019,160301,1603,16,"Muara Emil",31354,,,null
1603012020,160301,1603,16,"Tanjung Karangan",31354,,,null
1603012021,160301,1603,16,Seleman,31354,,,null
1603012022,160301,1603,16,Penyandingan,31354,,,null
1603012023,160301,1603,16,"Tanjung Lalang",31354,,,null
1603012024,160301,1603,16,"Pulau Panggung",31354,,,null
1603021006,160302,1603,16,Tungkal,31313,,,null
1603021007,160302,1603,16,"Pasar II Muara Enim",31315,,,null
1603021008,160302,1603,16,"Pasar III Muara Enim",31314,,,null
1603021009,160302,1603,16,"Pasar I Muara Enim",31311,,,null
1603021010,160302,1603,16,"Muara Enim",31312,,,null
1603021016,160302,1603,16,"Air Lintang",31311,,,null
1603022001,160302,1603,16,"Tanjung Raja",31311,,,null
1603022002,160302,1603,16,"Karang Raja",31311,,,null
1603022003,160302,1603,16,"Muara Lawai",31311,,,null
1603022004,160302,1603,16,"Tanjung Jati",31311,,,null
1603022005,160302,1603,16,"Lubuk Emplas",31311,,,null
1603022011,160302,1603,16,Kepur,31311,,,null
1603022012,160302,1603,16,"Tanjung Serian",31311,,,null
1603022013,160302,1603,16,"Muara Harapan",31311,,,null
1603022014,160302,1603,16,"Saka Jaya",31311,,,null
1603022015,160302,1603,16,"Harapan Jaya",31311,,,null
1603032001,160303,1603,16,Gemawang,31172,,,null
1603032002,160303,1603,16,"Lubuk Raman",31172,,,null
1603032003,160303,1603,16,Jemenang,31172,,,null
1603032004,160303,1603,16,"Tanjung Menang",31172,,,null
1603032005,160303,1603,16,"Tebat Agung",31172,,,null
1603032006,160303,1603,16,Gerinam,31172,,,null
1603032014,160303,1603,16,"Suban Jeriji",31172,,,null
1603032015,160303,1603,16,"Air Limau",31172,,,null
1603032016,160303,1603,16,"Muara Emburung",31172,,,null
1603032017,160303,1603,16,"Manunggal Jaya",31172,,,null
1603032018,160303,1603,16,"Air Talas",31172,,,null
1603032019,160303,1603,16,"Air Enau",31172,,,null
1603032020,160303,1603,16,"Manunggal Makmur",31172,,,null
1603032021,160303,1603,16,"Aur Duri",31172,,,null
1603032023,160303,1603,16,"Kasih Dewa",31172,,,null
1603032024,160303,1603,16,"Air Cekdam",31172,,,null
1603042001,160304,1603,16,Penanggiran,31353,,,null
1603042002,160304,1603,16,"Gunung Megang Luar",31353,,,null
1603042003,160304,1603,16,"Gunung Megang Dalam",31353,,,null
1603042004,160304,1603,16,"Lubuk Mumpo",31353,,,null
1603042005,160304,1603,16,Perjito,31353,,,null
1603042006,160304,1603,16,"Tanjung Muning",31353,,,null
1603042007,160304,1603,16,"Tanjung Terang",31353,,,null
1603042016,160304,1603,16,"Bangun Sari",31353,,,null
1603042017,160304,1603,16,"Sumaja Makmur",31353,,,null
1603042018,160304,1603,16,Sidomulyo,31353,,,null
1603042019,160304,1603,16,"Pajar Indah",31353,,,null
1603042020,160304,1603,16,"Kayu Ara Sakti",31353,,,null
1603042021,160304,1603,16,"Panang Jaya",31353,,,null
1603061010,160306,1603,16,Gelumbang,31170,,,null
1603062004,160306,1603,16,"Gaung Telang",31170,,,null
1603062006,160306,1603,16,"Pinang Banjar",31170,,,null
1603062008,160306,1603,16,Segayam,31170,,,null
1603062009,160306,1603,16,"Tambangan Kelekar",31170,,,null
1603062011,160306,1603,16,"Suka Menang",31170,,,null
1603062013,160306,1603,16,"Karang Endah",31170,,,null
1603062014,160306,1603,16,Jambu,31170,,,null
1603062015,160306,1603,16,Midar,31170,,,null
1603062016,160306,1603,16,Mililian,31170,,,null
1603062017,160306,1603,16,Pedataran,31170,,,null
1603062018,160306,1603,16,"Teluk Limau",31170,,,null
1603062019,160306,1603,16,"Kerta Mulya",31170,,,null
1603062020,160306,1603,16,Sebau,31170,,,null
1603062021,160306,1603,16,Sigam,31170,,,null
1603062022,160306,1603,16,Payabakal,31170,,,null
1603062023,160306,1603,16,Bitis,31170,,,null
1603062024,160306,1603,16,Gumai,31170,,,null
1603062025,160306,1603,16,Putak,31170,,,null
1603062026,160306,1603,16,"Talang Taling",31170,,,null
1603062030,160306,1603,16,"Suka Jaya",31170,,,null
1603062031,160306,1603,16,"Karang Endah Selatan",31170,,,null
1603062032,160306,1603,16,Betung,31170,,,null
1603071001,160307,1603,16,"Tanjung Enim",31711,,,null
1603071002,160307,1603,16,"Pasar Tanjung Enim",31712,,,null
1603071003,160307,1603,16,"Tanjung Enim Selatan",31711,,,null
1603072004,160307,1603,16,"Tegal Rejo",31713,,,null
1603072005,160307,1603,16,Lingga,31711,,,null
1603072006,160307,1603,16,"Keban Agung",31711,,,null
1603072007,160307,1603,16,Darmo,31711,,,null
1603082001,160308,1603,16,Penindaian,31358,,,null
1603082002,160308,1603,16,Babatan,31358,,,null
1603082003,160308,1603,16,"Muara Dua",31358,,,null
1603082004,160308,1603,16,"Muara Danau",31358,,,null
1603082005,160308,1603,16,Penyandingan,31358,,,null
1603082006,160308,1603,16,"Tanah Abang",31358,,,null
1603082007,160308,1603,16,"Pagar Agung",31358,,,null
1603082008,160308,1603,16,"Pulau Panggung",31358,,,null
1603082009,160308,1603,16,"Karya Nyata",31358,,,null
1603082010,160308,1603,16,Perapau,31358,,,null
1603092001,160309,1603,16,"Tenam Bungkuk",31359,,,null
1603092002,160309,1603,16,"Kota Padang",31359,,,null
1603092003,160309,1603,16,"Gunung Agung",31359,,,null
1603092004,160309,1603,16,"Sri Tanjung",31359,,,null
1603092005,160309,1603,16,"Tebing Abang",31359,,,null
1603092006,160309,1603,16,"Batu Surau",31359,,,null
1603092007,160309,1603,16,"Tanjung Raya",31359,,,null
1603092008,160309,1603,16,"Muara Tenang",31359,,,null
1603092009,160309,1603,16,"Rekimai Jaya",31359,,,null
1603092010,160309,1603,16,"Palak Tanah",31359,,,null
1603092011,160309,1603,16,"Kota Agung",31359,,,null
1603092012,160309,1603,16,"Swarna Dwipa",31359,,,null
1603102001,160310,1603,16,"Tanjung Tiga",31355,,,null
1603102002,160310,1603,16,"Cahaya Alam",31355,,,null
1603102003,160310,1603,16,"Datar Lebar",31355,,,null
1603102004,160310,1603,16,Segamit,31355,,,null
1603102005,160310,1603,16,"Siring Agung",31355,,,null
1603102006,160310,1603,16,Aremantai,31355,,,null
1603102007,160310,1603,16,"Tanjung Agung",31355,,,null
1603102008,160310,1603,16,"Pajar Bulan",31355,,,null
1603102009,160310,1603,16,Pelakat,31355,,,null
1603102010,160310,1603,16,"Danau Gerak",31355,,,null
1603112001,160311,1603,16,"Pinang Belarik",31351,,,null
1603112002,160311,1603,16,"Ujan Mas Lama",31351,,,null
1603112003,160311,1603,16,"Ujan Mas Baru",31351,,,null
1603112004,160311,1603,16,"Tanjung Raman",31351,,,null
1603112005,160311,1603,16,"Muara Gula Baru",31351,,,null
1603112006,160311,1603,16,"Muara Gula Lama",31351,,,null
1603112007,160311,1603,16,Guci,31351,,,null
1603112008,160311,1603,16,"Ulak Bandung",31351,,,null
1603142005,160314,1603,16,Aur,31173,,,null
1603142006,160314,1603,16,Beringin,31173,,,null
1603142007,160314,1603,16,"Kota Baru",31173,,,null
1603142008,160314,1603,16,"Pagar Gunung",31173,,,null
1603142009,160314,1603,16,"Gunung Raja",31173,,,null
1603142010,160314,1603,16,"Tanjung Kemala",31173,,,null
1603142011,160314,1603,16,"Suka Merindu",31173,,,null
1603142014,160314,1603,16,"Jiwa Baru",31173,,,null
1603142020,160314,1603,16,"Air Asam",31173,,,null
1603142021,160314,1603,16,Menanti,31173,,,null
1603152001,160315,1603,16,"Baru Rambang",31175,,,null
1603152002,160315,1603,16,Sugihan,31175,,,null
1603152003,160315,1603,16,"Tanjung Raya",31175,,,null
1603152004,160315,1603,16,"Tanjung Dalam",31175,,,null
1603152005,160315,1603,16,Sukarami,31175,,,null
1603152006,160315,1603,16,"Pagar Agung",31175,,,null
1603152007,160315,1603,16,"Sugih Waras",31175,,,null
1603152008,160315,1603,16,"Sumber Rahayu",31175,,,null
1603152009,160315,1603,16,"Marga Mulya",31175,,,null
1603152010,160315,1603,16,"Kencana Mulia",31175,,,null
1603152011,160315,1603,16,"Negeri Agung",31175,,,null
1603152012,160315,1603,16,"Sugihwaras Barat",31175,,,null
1603152013,160315,1603,16,"Air Keruh",31175,,,null
1603162001,160316,1603,16,"Tanjung Miring",31357,,,null
1603162002,160316,1603,16,"Danau Tampang",31357,,,null
1603162003,160316,1603,16,Kasai,31357,,,null
1603162004,160316,1603,16,"Sungai Rotan",31357,,,null
1603162005,160316,1603,16,Sukamerindu,31357,,,null
1603162006,160316,1603,16,"Tanding Marga",31357,,,null
1603162007,160316,1603,16,"Muara Lematang",31357,,,null
1603162008,160316,1603,16,Sukadana,31357,,,null
1603162009,160316,1603,16,Modong,31357,,,null
1603162010,160316,1603,16,Sukacinta,31357,,,null
1603162011,160316,1603,16,Penandingan,31357,,,null
1603162012,160316,1603,16,"Danau Rata",31357,,,null
1603162013,160316,1603,16,"Paya Angus",31357,,,null
1603162014,160316,1603,16,Sukarami,31357,,,null
1603162015,160316,1603,16,"Petar Dalam",31357,,,null
1603162016,160316,1603,16,Sukajadi,31357,,,null
1603162017,160316,1603,16,Sukamaju,31357,,,null
1603162018,160316,1603,16,"Danau Baru",31357,,,null
1603162019,160316,1603,16,"Petar Luar",31357,,,null
1603172007,160317,1603,16,Petanang,31177,,,null
1603172008,160317,1603,16,"Talang Nangka",31177,,,null
1603172009,160317,1603,16,Alai,31177,,,null
1603172010,160317,1603,16,"Sungai Duren",31177,,,null
1603172011,160317,1603,16,Tapus,31177,,,null
1603172012,160317,1603,16,Lembak,31177,,,null
1603172013,160317,1603,16,Kemang,31177,,,null
1603172014,160317,1603,16,"Lubuk Enau",31177,,,null
1603172015,160317,1603,16,"Alai Selatan",31177,,,null
1603172019,160317,1603,16,"Tanjung Baru",31177,,,null
1603192001,160319,1603,16,"Padang Bindu",31626,,,null
1603192002,160319,1603,16,Betung,31626,,,null
1603192003,160319,1603,16,"Pagar Dewa",31626,,,null
1603192004,160319,1603,16,Pagarjati,31626,,,null
1603192005,160319,1603,16,"Hidup Baru",31626,,,null
1603192006,160319,1603,16,"Rami Pasai",31626,,,null
1603212001,160321,1603,16,"Embacang Kelekar",31176,,,null
1603212002,160321,1603,16,Menanti,31176,,,null
1603212003,160321,1603,16,"Menanti Selatan",31176,,,null
1603212004,160321,1603,16,"Suban Baru",31176,,,null
1603212005,160321,1603,16,Pelempang,31176,,,null
1603212006,160321,1603,16,"Teluk Jaya",31176,,,null
1603212007,160321,1603,16,"Tanjung Medang",31176,,,null
1603222001,160322,1603,16,"Gedung Buruk",31178,,,null
1603222002,160322,1603,16,"Arisan Musi",31178,,,null
1603222003,160322,1603,16,"Harapan Mulia",31178,,,null
1603222004,160322,1603,16,"Mulia Abadi",31178,,,null
1603222005,160322,1603,16,"Arisan Musi Timur",31178,,,null
1603222006,160322,1603,16,"Patra Tani",31178,,,null
1603222007,160322,1603,16,"Tanjung Baru",31178,,,null
1603222008,160322,1603,16,"Kayu Ara Batu",31178,,,null
1603232001,160323,1603,16,Tanjung,31352,,,null
1603232002,160323,1603,16,"Simpang Tanjung",31352,,,null
1603232003,160323,1603,16,"Cinta Kasih",31352,,,null
1603232004,160323,1603,16,"Teluk Lubuk",31352,,,null
1603232005,160323,1603,16,Berugo,31352,,,null
1603232006,160323,1603,16,Belimbing,31352,,,null
1603232007,160323,1603,16,Bulang,31352,,,null
1603232008,160323,1603,16,"Belimbing Jaya",31352,,,null
1603232009,160323,1603,16,"Darmo Kasih",31352,,,null
1603232010,160323,1603,16,Dalam,31352,,,null
1603242001,160324,1603,16,"Tanjung Bunut",31171,,,null
1603242002,160324,1603,16,Babat,31171,,,null
1603242003,160324,1603,16,"Lubuk Semantung",31171,,,null
1603242004,160324,1603,16,"Lubuk Getam",31171,,,null
1603242005,160324,1603,16,"Talang Balai",31171,,,null
1603242006,160324,1603,16,"Talang Beliung",31171,,,null
1603242007,160324,1603,16,Sialingan,31171,,,null
1603242008,160324,1603,16,"Tanjung Tiga",31171,,,null
1603242009,160324,1603,16,Ibul,31171,,,null
1603242010,160324,1603,16,"Gaung Asam",31171,,,null
1603252001,160325,1603,16,"Karang Agung",31174,,,null
1603252002,160325,1603,16,"Karang Sari",31174,,,null
1603252003,160325,1603,16,"Karang Mulya",31174,,,null
1603252004,160325,1603,16,"Sumber Mulya",31174,,,null
1603252005,160325,1603,16,"Sumber Asri",31174,,,null
1603252006,160325,1603,16,"Pagar Dewa",31174,,,null
1603252007,160325,1603,16,Prabumenang,31174,,,null
1603252008,160325,1603,16,Lecah,31174,,,null
1603252009,160325,1603,16,"Mekar Jaya",31174,,,null
1603252010,160325,1603,16,"Lubai Persada",31174,,,null
1603252011,160325,1603,16,"Lubai Makmur",31174,,,null
1603262001,160326,1603,16,"Muara Niru",31172,,,null
1603262002,160326,1603,16,"Kahuripan Baru",31172,,,null
1603262003,160326,1603,16,"Pangkalan Babat",31172,,,null
1603262004,160326,1603,16,"Gunung Raja",31172,,,null
1603262005,160326,1603,16,Banuayu,31172,,,null
1603262006,160326,1603,16,Kuripan,31172,,,null
1603262007,160326,1603,16,"Kuripan Selatan",31172,,,null
1603262008,160326,1603,16,"Batu Raja",31172,,,null
1603262009,160326,1603,16,Dangku,31172,,,null
1603262010,160326,1603,16,Siku,31172,,,null
1603272001,160327,1603,16,"Lebak Budi",31354,,,null
1603272002,160327,1603,16,Lambur,31354,,,null
1603272003,160327,1603,16,"Pagar Jati",31354,,,null
1603272004,160327,1603,16,"Tanjung Baru",31354,,,null
1603272005,160327,1603,16,Sukaraja,31354,,,null
1603272006,160327,1603,16,"Pandan Dulang",31354,,,null
1603272007,160327,1603,16,"Muara Meo",31354,,,null
1603272008,160327,1603,16,"Sugih Waras",31354,,,null
1603272009,160327,1603,16,Inderamayu,31354,,,null
1603272010,160327,1603,16,Bedegung,31354,,,null
1603272011,160327,1603,16,"Padang Bindu",31354,,,null
1603272012,160327,1603,16,"Lubuk Nipis",31354,,,null
1604012001,160401,1604,16,"Kembang Ayun",31582,,,null
1604012002,160401,1604,16,"Gunung Meraksa",31582,,,null
1604012003,160401,1604,16,"Tanjung Alam",31582,,,null
1604012004,160401,1604,16,"Batu Rancing",31582,,,null
1604012005,160401,1604,16,Suban,31582,,,null
1604012006,160401,1604,16,Genting,31582,,,null
1604012007,160401,1604,16,"Gunung Ayu",31582,,,null
1604012008,160401,1604,16,"Ujung Pulau",31582,,,null
1604012009,160401,1604,16,"Muara Cawang",31582,,,null
1604012010,160401,1604,16,"Kepala Siring",31582,,,null
1604012011,160401,1604,16,"Simpang III Pumu",31582,,,null
1604012012,160401,1604,16,"Gunung Raya",31582,,,null
1604012013,160401,1604,16,"Talang Tinggi",31582,,,null
1604012014,160401,1604,16,"Karang Agung",31582,,,null
1604062008,160406,1604,16,Sadan,31591,,,null
1604062009,160406,1604,16,Penantian,31591,,,null
1604062010,160406,1604,16,"Bandar Aji",31591,,,null
1604062011,160406,1604,16,Tertap,31591,,,null
1604062012,160406,1604,16,Serambi,31591,,,null
1604062013,160406,1604,16,"Muara Tawi",31591,,,null
1604062014,160406,1604,16,Kedaton,31591,,,null
1604062015,160406,1604,16,Pelajaran,31591,,,null
1604062016,160406,1604,16,"Nanti Giri",31591,,,null
1604062017,160406,1604,16,"Pama Salak",31591,,,null
1604062018,160406,1604,16,Jemaring,31591,,,null
1604062019,160406,1604,16,Aromantai,31591,,,null
1604062020,160406,1604,16,Jarai,31591,,,null
1604062021,160406,1604,16,"Tanjung Menang",31591,,,null
1604062022,160406,1604,16,"Mangun Sari",31591,,,null
1604062023,160406,1604,16,"Pagar Dewa",31591,,,null
1604062024,160406,1604,16,Sukananti,31591,,,null
1604062025,160406,1604,16,"Lubuk Saung",31591,,,null
1604062026,160406,1604,16,"Karang Tanding",31591,,,null
1604062027,160406,1604,16,"Gunung Raya",31591,,,null
1604062028,160406,1604,16,"Gunung Megang",31591,,,null
1604072001,160407,1604,16,Bangke,31462,,,null
1604072002,160407,1604,16,"Tebat Langsat",31462,,,null
1604072003,160407,1604,16,Singapure,31462,,,null
1604072004,160407,1604,16,"Gunung Liwat",31462,,,null
1604072005,160407,1604,16,"Kebun Jati",31462,,,null
1604072006,160407,1604,16,Bintuhan,31462,,,null
1604072007,160407,1604,16,"Mutar Alam Baru",31462,,,null
1604072008,160407,1604,16,"Pandan Arang Ulu",31462,,,null
1604072009,160407,1604,16,"Mutar Alam Lama",31462,,,null
1604072010,160407,1604,16,"Tanjung Raman",31462,,,null
1604072011,160407,1604,16,"Tunggul Bute",31462,,,null
1604072012,160407,1604,16,"Karang Endah",31462,,,null
1604072013,160407,1604,16,"Karang Agung",31462,,,null
1604072014,160407,1604,16,"Suka Raja",31462,,,null
1604072015,160407,1604,16,"Gedung Agung",31462,,,null
1604072016,160407,1604,16,"Kota Agung",31462,,,null
1604072017,160407,1604,16,"Lawang Agung",31462,,,null
1604072018,160407,1604,16,Sukarami,31462,,,null
1604072019,160407,1604,16,"Tanjung Beringin",31462,,,null
1604072020,160407,1604,16,Pagaruyung,31462,,,null
1604072031,160407,1604,16,"Muara Gula",31462,,,null
1604072032,160407,1604,16,"Tanjung Bulan",31462,,,null
1604082008,160408,1604,16,"Tanjung Mulak",31463,,,null
1604082009,160408,1604,16,"Pulau Pinang",31463,,,null
1604082010,160408,1604,16,"Tanjung Sirih",31463,,,null
1604082011,160408,1604,16,"Lubuk Sepang",31463,,,null
1604082012,160408,1604,16,"Karang Dalam",31463,,,null
1604082013,160408,1604,16,Kuba,31463,,,null
1604082014,160408,1604,16,Jati,31463,,,null
1604082016,160408,1604,16,"Pagar Batu",31463,,,null
1604082017,160408,1604,16,"Muara Siban",31463,,,null
1604082018,160408,1604,16,Perigi,31463,,,null
1604092010,160409,1604,16,"Suka Cinta",31471,,,null
1604092011,160409,1604,16,"Gunung Agung",31471,,,null
1604092012,160409,1604,16,"Tanjung Pinang",31471,,,null
1604092013,160409,1604,16,"Suka Marga",31471,,,null
1604092014,160409,1604,16,Payo,31471,,,null
1604092015,160409,1604,16,"Karang Endah",31471,,,null
1604092016,160409,1604,16,"Tanjung Telang",31471,,,null
1604092017,160409,1604,16,"Lubuk Kepayang",31471,,,null
1604092018,160409,1604,16,"Muara Temiang",31471,,,null
1604092019,160409,1604,16,"Ulak Pandan",31471,,,null
1604092020,160409,1604,16,"Negeri Agung",31471,,,null
1604092021,160409,1604,16,"Lebak Budi",31471,,,null
1604092022,160409,1604,16,"Tanjung Baru",31471,,,null
1604092023,160409,1604,16,Kebur,31471,,,null
1604092024,160409,1604,16,Telatang,31471,,,null
1604092025,160409,1604,16,"Muara Maung",31471,,,null
1604092026,160409,1604,16,Merapi,31471,,,null
1604092040,160409,1604,16,Purwosari,31471,,,null
1604092041,160409,1604,16,"Karang Rejo",31471,,,null
1604101031,160410,1604,16,"Lahat Tengah",31419,,,null
1604101032,160410,1604,16,"Gunung Gajah",31418,,,null
1604101033,160410,1604,16,"Pagar Agung",31417,,,null
1604101037,160410,1604,16,"Talang Jawa",31416,,,null
1604101038,160410,1604,16,"Pasar Baru",31411,,,null
1604101040,160410,1604,16,"Kota Baru",31415,,,null
1604101041,160410,1604,16,"Pasar Lama",31413,,,null
1604101042,160410,1604,16,"Pasar Bawah",31412,,,null
1604101043,160410,1604,16,"RD. PJKA",31419,,,null
1604101046,160410,1604,16,"Bandar Agung",31414,,,null
1604101051,160410,1604,16,"Kota Negara",31414,,,null
1604101052,160410,1604,16,"Kota Jaya",31412,,,null
1604101054,160410,1604,16,"RD. PJKA Bandar Agung",31419,,,null
1604101058,160410,1604,16,"Sari Bunga Mas",31419,,,null
1604101059,160410,1604,16,"Bandar Jaya",31419,,,null
1604101060,160410,1604,16,"Talang Jawa Selatan",31416,,,null
1604101061,160410,1604,16,"Talang Jawa Utara",31416,,,null
1604102012,160410,1604,16,"Padang Lengkuas",31419,,,null
1604102027,160410,1604,16,Selawi,31419,,,null
1604102030,160410,1604,16,Sukanegara,31419,,,null
1604102034,160410,1604,16,"Kota Raya",31419,,,null
1604102035,160410,1604,16,Keban,31419,,,null
1604102036,160410,1604,16,"Pagar Sari",31419,,,null
1604102039,160410,1604,16,"Pagar Negara",31419,,,null
1604102049,160410,1604,16,Senabing,31419,,,null
1604102050,160410,1604,16,Manggul,31419,,,null
1604102053,160410,1604,16,"Ulak Lebar",31419,,,null
1604102055,160410,1604,16,"Giri Mulya",31419,,,null
1604102056,160410,1604,16,"Makarti Tama",31419,,,null
1604102057,160410,1604,16,"Ulak Mas",31419,,,null
1604122001,160412,1604,16,"Talang Baru",31356,,,null
1604122002,160412,1604,16,"Talang Pagar Agung",31356,,,null
1604122003,160412,1604,16,Bantunan,31356,,,null
1604122004,160412,1604,16,"Suka Bumi",31356,,,null
1604122005,160412,1604,16,"Pulau Panggung",31356,,,null
1604122006,160412,1604,16,"Pajar Bulan",31356,,,null
1604122007,160412,1604,16,"Kota Raya Lembak",31356,,,null
1604122008,160412,1604,16,Sumur,31356,,,null
1604122009,160412,1604,16,"Gelung Sakti",31356,,,null
1604122010,160412,1604,16,Pulau,31356,,,null
1604122011,160412,1604,16,"Ulak Bandung",31356,,,null
1604122012,160412,1604,16,"Talang Padang Tinggi",31356,,,null
1604122019,160412,1604,16,Aceh,31356,,,null
1604122020,160412,1604,16,"Pajar Tinggi",31356,,,null
1604122025,160412,1604,16,"Kota Raya Darat",31356,,,null
1604122026,160412,1604,16,Jenti'an,31356,,,null
1604122027,160412,1604,16,Tongkok,31356,,,null
1604122028,160412,1604,16,"Benua Raja",31356,,,null
1604122029,160412,1604,16,"Talang Mengkenang",31356,,,null
1604122030,160412,1604,16,"Talang Tangsi",31356,,,null
1604152007,160415,1604,16,"Pajar Bulan",31453,,,null
1604152008,160415,1604,16,Sukananti,31453,,,null
1604152009,160415,1604,16,"Karang Lebak",31453,,,null
1604152011,160415,1604,16,Babatan,31453,,,null
1604152014,160415,1604,16,"Muara Tiga",31453,,,null
1604152015,160415,1604,16,Sengkuang,31453,,,null
1604152016,160415,1604,16,Penindayan,31453,,,null
1604152017,160415,1604,16,"Datar Balam",31453,,,null
1604152018,160415,1604,16,"Tebing Tinggi",31453,,,null
1604152019,160415,1604,16,Geramat,31453,,,null
1604152020,160415,1604,16,Pengentaan,31453,,,null
1604152021,160415,1604,16,"Lesung Batu",31453,,,null
1604152022,160415,1604,16,"Air Puar",31453,,,null
1604152024,160415,1604,16,Mengkenang,31453,,,null
1604152029,160415,1604,16,"Lawang Agung Mulak",31453,,,null
1604152030,160415,1604,16,"Padang Masat",31453,,,null
1604162001,160416,1604,16,"Pandan Arang",31451,,,null
1604162002,160416,1604,16,"Tanjung Kurung",31451,,,null
1604162003,160416,1604,16,Nanjungan,31451,,,null
1604162004,160416,1604,16,Pagardin,31451,,,null
1604162005,160416,1604,16,"Pulau Beringin",31451,,,null
1604162006,160416,1604,16,"Beriningin Jaya",31451,,,null
1604162007,160416,1604,16,"Banu Ayu",31451,,,null
1604162008,160416,1604,16,"Tanjung Alam",31451,,,null
1604162009,160416,1604,16,"Sirah Pulau",31451,,,null
1604162010,160416,1604,16,"Tanjung Beringin",31451,,,null
1604162011,160416,1604,16,"Pagar Jati",31451,,,null
1604162012,160416,1604,16,"Karang Cahaya",31451,,,null
1604162013,160416,1604,16,"Jaga Baya",31451,,,null
1604162014,160416,1604,16,"Keban Agung",31451,,,null
1604162015,160416,1604,16,"Padang Bindu",31451,,,null
1604162016,160416,1604,16,"Beringin Janggut",31451,,,null
1604162017,160416,1604,16,"Keban Raya",31451,,,null
1604162018,160416,1604,16,"Lubuk Tungkang",31451,,,null
1604172001,160417,1604,16,"Bunga Mas",31458,,,null
1604172002,160417,1604,16,"Gunung Kembang",31458,,,null
1604172003,160417,1604,16,"Tanjung Bindu",31458,,,null
1604172004,160417,1604,16,"Lubuk Tapang",31458,,,null
1604172005,160417,1604,16,"Lubuk Nambulan",31458,,,null
1604172006,160417,1604,16,Gelumbang,31458,,,null
1604172007,160417,1604,16,"Gunung Aji",31458,,,null
1604172008,160417,1604,16,"Gunung Karto",31458,,,null
1604172009,160417,1604,16,"Karang Endah",31458,,,null
1604172010,160417,1604,16,"Padu Raksa",31458,,,null
1604172011,160417,1604,16,Seronggo,31458,,,null
1604172012,160417,1604,16,"Datar Serdang",31458,,,null
1604172013,160417,1604,16,"Batu Urip",31458,,,null
1604172014,160417,1604,16,Cecar,31458,,,null
1604172015,160417,1604,16,"Patikal Lama",31458,,,null
1604172016,160417,1604,16,"Muara Empayang",31458,,,null
1604172017,160417,1604,16,"Lubuk Kute",31458,,,null
1604172018,160417,1604,16,"Patikal Baru",31458,,,null
1604172019,160417,1604,16,"Gedung Agung",31458,,,null
1604172020,160417,1604,16,"Babat Lama",31458,,,null
1604172021,160417,1604,16,"Tanda Raja",31458,,,null
1604172022,160417,1604,16,"Muara Danau",31458,,,null
1604172023,160417,1604,16,Sendawar,31458,,,null
1604172024,160417,1604,16,"Lubuk Layang Ilir",31458,,,null
1604172025,160417,1604,16,Binjai,31458,,,null
1604172026,160417,1604,16,"Lubuk Layang Ulu",31458,,,null
1604172027,160417,1604,16,"Cempaka Sakti",31458,,,null
1604172028,160417,1604,16,"Suka Harjo",31458,,,null
1604172029,160417,1604,16,"Marga Mulya",31458,,,null
1604172030,160417,1604,16,"Kencana Sari",31458,,,null
1604172031,160417,1604,16,"Linggar Jaya",31458,,,null
1604172032,160417,1604,16,Purwaraja,31458,,,null
1604182001,160418,1604,16,"Sungai Laru",31459,,,null
1604182002,160418,1604,16,"Muara Lingsing",31459,,,null
1604182003,160418,1604,16,"Tanjung Baru",31459,,,null
1604182004,160418,1604,16,"Kepala Siring",31459,,,null
1604182005,160418,1604,16,Maspura,31459,,,null
1604182006,160418,1604,16,"Suka Raja",31459,,,null
1604182007,160418,1604,16,"Tanjung Aur",31459,,,null
1604182008,160418,1604,16,Purbamas,31459,,,null
1604182009,160418,1604,16,"Banyu Mas",31459,,,null
1604192001,160419,1604,16,"Saung Naga",31452,,,null
1604192002,160419,1604,16,Penantian,31452,,,null
1604192003,160419,1604,16,"Suka Merindu",31452,,,null
1604192004,160419,1604,16,"Jajaran Baru",31452,,,null
1604192005,160419,1604,16,Wonorejo,31452,,,null
1604192006,160419,1604,16,"Babatan Baru",31452,,,null
1604192007,160419,1604,16,"Jajaran Lama",31452,,,null
1604192008,160419,1604,16,"Lubuk Seketi",31452,,,null
1604192009,160419,1604,16,Sukarami,31452,,,null
1604192010,160419,1604,16,Singapura,31452,,,null
1604192011,160419,1604,16,"Ulak Bandung",31452,,,null
1604192012,160419,1604,16,"Bandar Jaya",31452,,,null
1604192013,160419,1604,16,"Purnama Sari",31452,,,null
1604192014,160419,1604,16,Wanaraya,31452,,,null
1604192015,160419,1604,16,Purworejo,31452,,,null
1604192016,160419,1604,16,"Suka Bakti",31452,,,null
1604192017,160419,1604,16,"Mekar Jaya",31452,,,null
1604192018,160419,1604,16,"Darma Raharja",31452,,,null
1604192019,160419,1604,16,"Sido Makmur",31452,,,null
1604202001,160420,1604,16,Sukajadi,31419,,,null
1604202002,160420,1604,16,"Tanjung Agung",31419,,,null
1604202003,160420,1604,16,Penandingan,31419,,,null
1604202004,160420,1604,16,"Talang Tinggi",31419,,,null
1604202005,160420,1604,16,"Batu Niding",31419,,,null
1604202006,160420,1604,16,"Tanjung Raya",31419,,,null
1604202007,160420,1604,16,"Lubuk Mabar",31419,,,null
1604202008,160420,1604,16,"Pagar Agung",31417,,,null
1604202009,160420,1604,16,"Lubuk Tuba",31419,,,null
1604202010,160420,1604,16,"Lubuk Atung",31419,,,null
1604202011,160420,1604,16,"Muara Cawang",31419,,,null
1604212001,160421,1604,16,"Sugi Waras",31419,,,null
1604212002,160421,1604,16,"Tanjung Periuk",31419,,,null
1604212003,160421,1604,16,"Tanjung Karangan",31419,,,null
1604212004,160421,1604,16,"Muara Tandi",31419,,,null
1604212005,160421,1604,16,Darmo,31419,,,null
1604212006,160421,1604,16,"Indikat Ilir",31419,,,null
1604212007,160421,1604,16,"Tanjung Baru",31419,,,null
1604212008,160421,1604,16,"Mandi Angin",31419,,,null
1604212009,160421,1604,16,"Ngalam Baru",31419,,,null
1604212010,160421,1604,16,Sukarami,31419,,,null
1604212011,160421,1604,16,"Tanjung Dalam",31419,,,null
1604212012,160421,1604,16,"Tanah Pilih",31419,,,null
1604212013,160421,1604,16,"Tanjung Beringin",31419,,,null
1604212014,160421,1604,16,Batay,31419,,,null
1604212015,160421,1604,16,"Suka Makmur",31419,,,null
1604222001,160422,1604,16,Kedaton,31460,,,null
1604222002,160422,1604,16,"Tanjung Agung",31460,,,null
1604222003,160422,1604,16,"Karang Agung",31460,,,null
1604222004,160422,1604,16,"Bandung Agung",31460,,,null
1604222005,160422,1604,16,"Lesung Batu",31460,,,null
1604222006,160422,1604,16,"Air Lingkar",31460,,,null
1604222007,160422,1604,16,"Batu Rusa",31460,,,null
1604222008,160422,1604,16,Kupang,31460,,,null
1604222009,160422,1604,16,"Sawah Darat",31460,,,null
1604222010,160422,1604,16,Danau,31460,,,null
1604222011,160422,1604,16,"Siring Agung",31460,,,null
1604222012,160422,1604,16,"Pagar Alam",31460,,,null
1604222013,160422,1604,16,"Rimba Sujud",31460,,,null
1604222014,160422,1604,16,"Germidar Ilir",31460,,,null
1604222015,160422,1604,16,"Pagar Gunung",31460,,,null
1604222016,160422,1604,16,"Germidar Ulu",31460,,,null
1604222017,160422,1604,16,"Padang Pagun",31460,,,null
1604222018,160422,1604,16,"Muara Dua",31460,,,null
1604222019,160422,1604,16,Penantian,31460,,,null
1604222020,160422,1604,16,Merindu,31460,,,null
1604231014,160423,1604,16,"Lebuay Bandung",31473,,,null
1604232001,160423,1604,16,"Sirah Pulau",31473,,,null
1604232002,160423,1604,16,"Gunung Kembang",31473,,,null
1604232003,160423,1604,16,"Prabu Menang",31473,,,null
1604232004,160423,1604,16,"Banjar Sari",31473,,,null
1604232005,160423,1604,16,Arahan,31473,,,null
1604232006,160423,1604,16,Nanjungan,31473,,,null
1604232007,160423,1604,16,Sengkuang,31473,,,null
1604232008,160423,1604,16,"Tanjung Lontar",31473,,,null
1604232009,160423,1604,16,"Gedung Agung",31473,,,null
1604232010,160423,1604,16,"Muara Lawai",31473,,,null
1604232011,160423,1604,16,"Tanjung Jambu",31473,,,null
1604232012,160423,1604,16,"Cempaka Wangi",31473,,,null
1604232013,160423,1604,16,"Lematang Jaya",31473,,,null
1604242001,160424,1604,16,"Pulau Panas",31581,,,null
1604242002,160424,1604,16,"Sindang Panjang",31581,,,null
1604242003,160424,1604,16,"Gunung Kembang",31581,,,null
1604242004,160424,1604,16,"Pagar Agung",31581,,,null
1604242005,160424,1604,16,Benteng,31581,,,null
1604242006,160424,1604,16,"Ulak Lebar",31581,,,null
1604242007,160424,1604,16,"Gunung Agung",31581,,,null
1604242008,160424,1604,16,"Masam Bulau",31581,,,null
1604242009,160424,1604,16,"Pajar Bulan",31581,,,null
1604242010,160424,1604,16,"Tanjung Bulan",31581,,,null
1604242011,160424,1604,16,Penandingan,31581,,,null
1604242012,160424,1604,16,"Tanjung Sakti",31581,,,null
1604242013,160424,1604,16,"Negeri Kaya",31581,,,null
1604242014,160424,1604,16,"Pulau Panggung",31581,,,null
1604242015,160424,1604,16,"Gunung Kerto",31581,,,null
1604242016,160424,1604,16,"Lubuk Tabun",31581,,,null
1604242017,160424,1604,16,"Pagar Jati",31581,,,null
1604242018,160424,1604,16,"Lubuk Dalam",31581,,,null
1604252001,160425,1604,16,"Tinggi Hari",31461,,,null
1604252002,160425,1604,16,"Tanjung Raja",31461,,,null
1604252003,160425,1604,16,"Sinjar Bulan",31461,,,null
1604252004,160425,1604,16,"Padang Gumay",31461,,,null
1604252005,160425,1604,16,"Tanjung Aur",31461,,,null
1604252006,160425,1604,16,Simpur,31461,,,null
1604252007,160425,1604,16,"Lubuk Selo",31461,,,null
1604252008,160425,1604,16,"Rindu Hati",31461,,,null
1604252009,160425,1604,16,"Sumber Karya",31461,,,null
1604252010,160425,1604,16,"Trans SP II Padang Muara Dua",31461,,,null
1604262001,160426,1604,16,Padang,31472,,,null
1604262002,160426,1604,16,"Tanjung Menang",31472,,,null
1604262003,160426,1604,16,"Lubuk Pedaro",31472,,,null
1604262004,160426,1604,16,"Suka Merindu",31472,,,null
1604262005,160426,1604,16,"Tanjung Beringin",31472,,,null
1604262006,160426,1604,16,"Talang Akar",31472,,,null
1604262007,160426,1604,16,"Lubuk Betung",31472,,,null
1604262008,160426,1604,16,Perangai,31472,,,null
1604262009,160426,1604,16,Geramat,31472,,,null
1604272001,160427,1604,16,"Pandan Arang Ilir",31455,,,null
1604272002,160427,1604,16,"Tanjung Kurung Ulu",31455,,,null
1604272003,160427,1604,16,"Tanjung Kurung Ilir",31455,,,null
1604272004,160427,1604,16,"Tanjung Baru",31455,,,null
1604272005,160427,1604,16,"Tanjung Nibung",31455,,,null
1604272006,160427,1604,16,TanjungTebat,31455,,,null
1604272007,160427,1604,16,"Tanjung Bai",31455,,,null
1604272008,160427,1604,16,"Tanjung Menang",31455,,,null
1604272009,160427,1604,16,"Tanjung Raya",31455,,,null
1604272010,160427,1604,16,"Air Dingin Lama",31455,,,null
1604272011,160427,1604,16,"Air Dingin Baru",31455,,,null
1604272012,160427,1604,16,"Muara Danau",31455,,,null
1604272013,160427,1604,16,"Talang Jawa",31455,,,null
1604272014,160427,1604,16,"Padang Perigi",31455,,,null
1604282001,160428,1604,16,"Muara Payang",31590,,,null
1604282002,160428,1604,16,"Muara Gelumpai",31590,,,null
1604282003,160428,1604,16,"Talang Tinggi",31590,,,null
1604282004,160428,1604,16,"Lawang Agung Lama",31590,,,null
1604282005,160428,1604,16,"Lawang Agung Baru",31590,,,null
1604282006,160428,1604,16,"Muara Jauh",31590,,,null
1604282007,160428,1604,16,"Bandu Agung",31590,,,null
1604292001,160429,1604,16,Sukamerindu,31350,,,null
1604292002,160429,1604,16,"Guru Agung",31350,,,null
1604292003,160429,1604,16,"Karang Caya",31350,,,null
1604292004,160429,1604,16,"Gunung liwat",31350,,,null
1604292005,160429,1604,16,Kapitan,31350,,,null
1604292006,160429,1604,16,"Rambai Kaca",31350,,,null
1604292007,160429,1604,16,"Pagar Kaya",31350,,,null
1604292008,160429,1604,16,"Tanjung Raya",31350,,,null
1604292009,160429,1604,16,Sukaraja,31350,,,null
1604292010,160429,1604,16,"Tanjung Agung",31350,,,null
1604302001,160430,1604,16,"Jadian Baru",31454,,,null
1604302002,160430,1604,16,"Jadian Lama",31454,,,null
1604302003,160430,1604,16,"Talang Berangin",31454,,,null
1604302004,160430,1604,16,"Padang Bindu",31454,,,null
1604302005,160430,1604,16,"Keban Agung",31454,,,null
1604302006,160430,1604,16,"Danau Belidang",31454,,,null
1604302007,160430,1604,16,"Talang Padang",31454,,,null
1604302008,160430,1604,16,"Lubuk Dendan",31454,,,null
1604302009,160430,1604,16,Penandingan,31454,,,null
1604302010,160430,1604,16,"Durian Dangkal",31454,,,null
1604312001,160431,1604,16,"Banjar Negara",31420,,,null
1604312002,160431,1604,16,"Tanjung Payang",31424,,,null
1604312003,160431,1604,16,"Tanjung Tebat",31425,,,null
1604312004,160431,1604,16,Nantal,31423,,,null
1604312005,160431,1604,16,"Karang Anyar",31421,,,null
1604312006,160431,1604,16,"Karang Baru",31422,,,null
1604312007,160431,1604,16,Kerung,31426,,,null
1604312008,160431,1604,16,"Muara Cawang",31427,,,null
1604312009,160431,1604,16,"Talang Sawah",31428,,,null
1604312010,160431,1604,16,"Talang Sejemput",31429,,,null
1605011001,160501,1605,16,"B. Srikaton",31662,,,null
1605012002,160501,1605,16,Surodadi,31662,,,null
1605012003,160501,1605,16,"Tegal Rejo",31662,,,null
1605012004,160501,1605,16,Trikoyo,31662,,,null
1605012005,160501,1605,16,Kalibening,31662,,,null
1605012006,160501,1605,16,Widodo,31662,,,null
1605012007,160501,1605,16,Wonokerto,31662,,,null
1605012008,160501,1605,16,Nawangsasi,31662,,,null
1605012009,160501,1605,16,Sukomulyo,31662,,,null
1605012010,160501,1605,16,Wukirsari,31662,,,null
1605012011,160501,1605,16,Ngadirejo,31662,,,null
1605012012,160501,1605,16,Dwijaya,31662,,,null
1605012013,160501,1605,16,"Siti Harjo",31662,,,null
1605012014,160501,1605,16,Mataram,31662,,,null
1605012015,160501,1605,16,Tambahasri,31662,,,null
1605012016,160501,1605,16,Wonorejo,31662,,,null
1605012017,160501,1605,16,Sidoharjo,31662,,,null
1605012018,160501,1605,16,Triwikaton,31662,,,null
1605021019,160502,1605,16,"Muara Lakitan",31666,,,null
1605022001,160502,1605,16,"Tri Anggun Jaya",31666,,,null
1605022002,160502,1605,16,Semangus,31666,,,null
1605022003,160502,1605,16,Anyar,31666,,,null
1605022004,160502,1605,16,"Muara Rengas",31666,,,null
1605022005,160502,1605,16,"Sungai Pinang",31666,,,null
1605022006,160502,1605,16,Semeteh,31666,,,null
1605022007,160502,1605,16,"Prabumulih II",31666,,,null
1605022008,160502,1605,16,"Prabumulih I",31666,,,null
1605022009,160502,1605,16,"Lubuk Pandan",31666,,,null
1605022010,160502,1605,16,"Pelita Jaya",31666,,,null
1605022011,160502,1605,16,Sidomulyo,31666,,,null
1605022012,160502,1605,16,"Marga Baru",31666,,,null
1605022013,160502,1605,16,Pendingan,31666,,,null
1605022014,160502,1605,16,"Bumi Makmur",31666,,,null
1605022015,160502,1605,16,"Mukti Karya",31666,,,null
1605022016,160502,1605,16,"Harapan Makmur",31666,,,null
1605022017,160502,1605,16,"Pian Raya",31666,,,null
1605022018,160502,1605,16,"Sindang Laya",31666,,,null
1605022020,160502,1605,16,"Semanggus Baru",31666,,,null
1605031013,160503,1605,16,"Muara Kelingi",31663,,,null
1605032001,160503,1605,16,Binjai,31663,,,null
1605032002,160503,1605,16,"Pulau Panggung",31663,,,null
1605032003,160503,1605,16,"Tanjung Lama",31663,,,null
1605032012,160503,1605,16,"Mandi Aur",31663,,,null
1605032014,160503,1605,16,"Lubuk Tua",31663,,,null
1605032015,160503,1605,16,Mambang,31663,,,null
1605032016,160503,1605,16,"Bingin Janggut",31663,,,null
1605032017,160503,1605,16,"Tugu Sempurna",31663,,,null
1605032019,160503,1605,16,"Marga Sakti",31663,,,null
1605032021,160503,1605,16,"Karya Sakti",31663,,,null
1605032022,160503,1605,16,"Petrans Jaya",31663,,,null
1605032023,160503,1605,16,"Karya Mukti",31663,,,null
1605032024,160503,1605,16,"Beliti Jaya",31663,,,null
1605032026,160503,1605,16,"Karya Teladan",31663,,,null
1605032027,160503,1605,16,"Temuan Sari",31663,,,null
1605032028,160503,1605,16,"Temuan Jaya",31663,,,null
1605032029,160503,1605,16,"Mekar Sari",31663,,,null
1605032030,160503,1605,16,"Mangan Jaya",31663,,,null
1605032031,160503,1605,16,"Lubuk Muda",31663,,,null
1605032032,160503,1605,16,Sukamenang,31663,,,null
1605081006,160508,1605,16,"Marga Tunggal",31665,,,null
1605082001,160508,1605,16,"Giri Yoso",31665,,,null
1605082002,160508,1605,16,Kertosono,31665,,,null
1605082003,160508,1605,16,Margoyoso,31665,,,null
1605082004,160508,1605,16,"Bumi Rejo",31665,,,null
1605082005,160508,1605,16,Sidodadi,31665,,,null
1605082007,160508,1605,16,"Marga Tani",31665,,,null
1605082008,160508,1605,16,Sukowono,31665,,,null
1605082010,160508,1605,16,Purwodadi,31665,,,null
1605082012,160508,1605,16,"Dono Rejo",31665,,,null
1605082015,160508,1605,16,"Ngesti Boga I",31665,,,null
1605082016,160508,1605,16,"Ngesti Boga II",31665,,,null
1605082020,160508,1605,16,Ngestikarya,31665,,,null
1605091003,160509,1605,16,"Pasar Muara Beliti",31661,,,null
1605092001,160509,1605,16,Pedang,31661,,,null
1605092002,160509,1605,16,"Muara Beliti Baru",31661,,,null
1605092004,160509,1605,16,"Mana Resmi",31661,,,null
1605092005,160509,1605,16,"Bumi Agung",31661,,,null
1605092014,160509,1605,16,Suro,31661,,,null
1605092015,160509,1605,16,"Tanah Periuk",31661,,,null
1605092016,160509,1605,16,"Ketuan Jaya",31661,,,null
1605092017,160509,1605,16,"Air Satan",31661,,,null
1605092018,160509,1605,16,"Durian Remuk",31661,,,null
1605092019,160509,1605,16,"Satan Indah Jaya",31661,,,null
1605092020,160509,1605,16,"Air Lesing",31661,,,null
1605101017,160510,1605,16,Terawas,30771,,,null
1605102001,160510,1605,16,"Sumber Karya",30771,,,null
1605102002,160510,1605,16,"Suko Rejo",30771,,,null
1605102003,160510,1605,16,"Suka Karya",30771,,,null
1605102011,160510,1605,16,"Sri Mulyo",30771,,,null
1605102014,160510,1605,16,Sukamerindu,30771,,,null
1605102015,160510,1605,16,Paduraksa,30771,,,null
1605102016,160510,1605,16,Babat,30771,,,null
1605102018,160510,1605,16,Pasenan,30771,,,null
1605102019,160510,1605,16,Sukaraya,30771,,,null
1605102020,160510,1605,16,Sukamana,30771,,,null
1605102021,160510,1605,16,Kosgoro,30771,,,null
1605102022,160510,1605,16,"Sukaraya Baru",30771,,,null
1605111001,160511,1605,16,Selangit,31625,,,null
1605112002,160511,1605,16,"Lubuk Ngin",31625,,,null
1605112003,160511,1605,16,"Napal Melintang",31625,,,null
1605112004,160511,1605,16,"Taba Tengah",31625,,,null
1605112005,160511,1605,16,"Taba Remanik",31625,,,null
1605112006,160511,1605,16,"Batu Gane",31625,,,null
1605112007,160511,1605,16,"Karang Panggung",31625,,,null
1605112008,160511,1605,16,"Muara Nilau",31625,,,null
1605112009,160511,1605,16,Perabumenang,31625,,,null
1605112010,160511,1605,16,"Taba Rena",31625,,,null
1605112011,160511,1605,16,"Taba Gindo",31625,,,null
1605112012,160511,1605,16,"Lubuk Ngin Baru",31625,,,null
1605121001,160512,1605,16,"Megang Sakti I",31657,,,null
1605121021,160512,1605,16,"Talang Ubi",31657,,,null
1605122002,160512,1605,16,"Muara Megang",31657,,,null
1605122003,160512,1605,16,"Megang Sakti II",31657,,,null
1605122004,160512,1605,16,"Megang Sakti III",31657,,,null
1605122005,160512,1605,16,"Megang Sakti IV",31657,,,null
1605122006,160512,1605,16,"Jajaran Baru",31657,,,null
1605122007,160512,1605,16,"Sumber Rejo",31657,,,null
1605122008,160512,1605,16,"Rejo Sari",31657,,,null
1605122009,160512,1605,16,"Mekar Sari",31657,,,null
1605122010,160512,1605,16,"Campur Sari",31657,,,null
1605122011,160512,1605,16,"Tegal Sari",31657,,,null
1605122012,160512,1605,16,"Marga Puspita",31657,,,null
1605122013,160512,1605,16,"Megang Sakti V",31657,,,null
1605122014,160512,1605,16,"Pagar Ayu",31657,,,null
1605122015,160512,1605,16,"Karya Mulia",31657,,,null
1605122016,160512,1605,16,Wonosari,31657,,,null
1605122017,160512,1605,16,Trisakti,31657,,,null
1605122018,160512,1605,16,"Jajaran Baru II",31657,,,null
1605122019,160512,1605,16,"Muara Megang I",31657,,,null
1605122020,160512,1605,16,"Mulyo Sari",31657,,,null
1605131005,160513,1605,16,Purwodadi,31668,,,null
1605131007,160513,1605,16,"Mangun Harjo",31668,,,null
1605132001,160513,1605,16,"Bangun Sari",31668,,,null
1605132002,160513,1605,16,"Kerto Sari",31668,,,null
1605132003,160513,1605,16,"Pagar Sari",31668,,,null
1605132004,160513,1605,16,"Mardi Harjo",31668,,,null
1605132006,160513,1605,16,"Karya Dadi",31668,,,null
1605132008,160513,1605,16,"Rejo Sari",31668,,,null
1605132009,160513,1605,16,"Sadar Karya",31668,,,null
1605132010,160513,1605,16,Purwakarya,31668,,,null
1605132011,160513,1605,16,"Tri Karya",31668,,,null
1605141017,160514,1605,16,"Bangun Jaya",31652,,,null
1605142001,160514,1605,16,"Kembang Tanjung",31652,,,null
1605142002,160514,1605,16,"Gn. Kembang Baru",31652,,,null
1605142003,160514,1605,16,"Gn. Kembang Lama",31652,,,null
1605142004,160514,1605,16,"Sungai Bunut",31652,,,null
1605142005,160514,1605,16,"Sungai Naik",31652,,,null
1605142006,160514,1605,16,"Pangkalan T. Lama",31652,,,null
1605142007,160514,1605,16,Sadu,31652,,,null
1605142008,160514,1605,16,Tambangan,31652,,,null
1605142009,160514,1605,16,Pelawe,31652,,,null
1605142010,160514,1605,16,"Lubuk Pauh",31652,,,null
1605142011,160514,1605,16,"Tri Jaya",31652,,,null
1605142012,160514,1605,16,"Mulyo Harjo",31652,,,null
1605142013,160514,1605,16,"Suka Makmur",31652,,,null
1605142014,160514,1605,16,"Raksa Budi",31652,,,null
1605142015,160514,1605,16,"Kota Baru",31652,,,null
1605142016,160514,1605,16,Trimukti,31652,,,null
1605142018,160514,1605,16,"Mekar Jaya",31652,,,null
1605142019,160514,1605,16,"Sembatu Jaya",31652,,,null
1605182001,160518,1605,16,"Lubuk Besar",31660,,,null
1605182002,160518,1605,16,"Batu Bandung",31660,,,null
1605182003,160518,1605,16,"Rantau Bingin",31660,,,null
1605182004,160518,1605,16,"Rantau Serik",31660,,,null
1605182005,160518,1605,16,"Muara Kati Lama",31660,,,null
1605182006,160518,1605,16,"Muara Kati Baru I",31660,,,null
1605182007,160518,1605,16,"Muara Kati Baru II",31660,,,null
1605182008,160518,1605,16,Kebur,31660,,,null
1605182009,160518,1605,16,"Simpang Gegas Temuan",31660,,,null
1605182010,160518,1605,16,"Kebur Jaya",31660,,,null
1605191002,160519,1605,16,"Sumber Harta",30772,,,null
1605192001,160519,1605,16,"Sumber Jaya",30772,,,null
1605192003,160519,1605,16,Sukamaju,30772,,,null
1605192004,160519,1605,16,Jamburejo,30772,,,null
1605192005,160519,1605,16,"Sumber Sari",30772,,,null
1605192006,160519,1605,16,"Suka Mulya",30772,,,null
1605192007,160519,1605,16,Sukajaya,30772,,,null
1605192008,160519,1605,16,Madang,30772,,,null
1605192009,160519,1605,16,"Sukarami Jaya",30772,,,null
1605192010,160519,1605,16,"Sumber Asri",30772,,,null
1605202001,160520,1605,16,Banpres,31664,,,null
1605202002,160520,1605,16,"Jaya Tunggal",31664,,,null
1605202003,160520,1605,16,Sukamulya,31664,,,null
1605202004,160520,1605,16,"Darma Sakti",31664,,,null
1605202005,160520,1605,16,"Jaya Bhakti",31664,,,null
1605202006,160520,1605,16,Remayu,31664,,,null
1605202007,160520,1605,16,Petunang,31664,,,null
1605202008,160520,1605,16,"Lubuk Rumbai",31664,,,null
1605202009,160520,1605,16,"Air Beliti",31664,,,null
1605202010,160520,1605,16,"Leban Jaya",31664,,,null
1605202011,160520,1605,16,Bamasco,31664,,,null
1605212001,160521,1605,16,Sukowarno,31665,,,null
1605212002,160521,1605,16,"Sugih Waras",31665,,,null
1605212003,160521,1605,16,"Bangun Rejo",31665,,,null
1605212004,160521,1605,16,Ciptodadi,31665,,,null
1605212005,160521,1605,16,Sukarena,31665,,,null
1605212006,160521,1605,16,"Yudha Karya Bakti",31665,,,null
1605212007,160521,1605,16,"Rantau Alih",31665,,,null
1605212008,160521,1605,16,"Ciptodadi II",31665,,,null
1606011009,160601,1606,16,"Kayu Ara",30711,,,null
1606011010,160601,1606,16,"Serasan Jaya",30711,,,null
1606011011,160601,1606,16,"Soak baru",30711,,,null
1606011012,160601,1606,16,"Balai Agung",30711,,,null
1606012001,160601,1606,16,Sukarami,30711,,,null
1606012002,160601,1606,16,Lumpatan,30711,,,null
1606012003,160601,1606,16,Bailangu,30711,,,null
1606012004,160601,1606,16,"Muara Teladan",30711,,,null
1606012005,160601,1606,16,"Bandar Jaya",30711,,,null
1606012006,160601,1606,16,"Sungai Medak",30711,,,null
1606012007,160601,1606,16,"Sungai Batang",30711,,,null
1606012008,160601,1606,16,"Rimba Ukur",30711,,,null
1606012013,160601,1606,16,"Lumpatan 2",30711,,,null
1606012014,160601,1606,16,"Baliangu Timur",30711,,,null
1606022001,160602,1606,16,"Danau Cala",30757,,,null
1606022002,160602,1606,16,"Rantau Keroya",30757,,,null
1606022003,160602,1606,16,"Tanjung Agung Timur",30757,,,null
1606022004,160602,1606,16,Petaling,30757,,,null
1606022005,160602,1606,16,Lais,30757,,,null
1606022006,160602,1606,16,Teluk,30757,,,null
1606022007,160602,1606,16,Epil,30757,,,null
1606022008,160602,1606,16,Purwosari,30757,,,null
1606022009,160602,1606,16,"Teluk Kijing I",30757,,,null
1606022010,160602,1606,16,"Teluk Kijing II",30757,,,null
1606022011,160602,1606,16,"Teluk Kijing III",30757,,,null
1606022012,160602,1606,16,"Tanjung Agung Utara",30757,,,null
1606022013,160602,1606,16,"Tanjung Agung Barat",30757,,,null
1606022014,160602,1606,16,"Tanjung Agung Selatan",30757,,,null
1606022015,160602,1606,16,"Lais Utara",30757,,,null
1606032002,160603,1606,16,"Pagar Kaya",30751,,,null
1606032003,160603,1606,16,Sukalali,30751,,,null
1606032004,160603,1606,16,Kartayu,30751,,,null
1606032006,160603,1606,16,"Sungai Dua",30751,,,null
1606032007,160603,1606,16,"Sindang Marga",30751,,,null
1606032008,160603,1606,16,"Tebing Bulang",30751,,,null
1606032009,160603,1606,16,"Gajah Mati",30751,,,null
1606032010,160603,1606,16,"Rantau Sialang",30751,,,null
1606032014,160603,1606,16,"Kerta Jaya",30751,,,null
1606032015,160603,1606,16,"Keramat Jaya",30751,,,null
1606042001,160604,1606,16,"Bukit Sejahtera",30755,,,null
1606042002,160604,1606,16,"Bukit Pangkuasan",30755,,,null
1606042003,160604,1606,16,"Tanah Abang",30755,,,null
1606042004,160604,1606,16,"Talang Leban",30755,,,null
1606042005,160604,1606,16,"Talang Buluh",30755,,,null
1606042006,160604,1606,16,"Lubuk Buah",30755,,,null
1606042007,160604,1606,16,"Sungai Napal",30755,,,null
1606042008,160604,1606,16,"Lubuk Bintialo",30755,,,null
1606042009,160604,1606,16,"Sako Suban",30755,,,null
1606042010,160604,1606,16,"Bukit Selabu",30755,,,null
1606042011,160604,1606,16,Saut,30755,,,null
1606042012,160604,1606,16,"Tanjung Bali",30755,,,null
1606042013,160604,1606,16,Pinggap,30755,,,null
1606042014,160604,1606,16,Pengaturan,30755,,,null
1606042015,160604,1606,16,"Ulak Kembang",30755,,,null
1606042016,160604,1606,16,"Pangkalan Bulian",30755,,,null
1606051016,160605,1606,16,"Ngulak I",30759,,,null
1606051019,160605,1606,16,Ngulak,30759,,,null
1606052001,160605,1606,16,"Air Balui",30759,,,null
1606052002,160605,1606,16,Nganti,30759,,,null
1606052003,160605,1606,16,"Jud I",30759,,,null
1606052004,160605,1606,16,"Jud II",30759,,,null
1606052005,160605,1606,16,Penggage,30759,,,null
1606052006,160605,1606,16,Ngunang,30759,,,null
1606052007,160605,1606,16,"Ngulak II",30759,,,null
1606052008,160605,1606,16,"Ngulak III",30759,,,null
1606052009,160605,1606,16,"Ulak Embacang",30759,,,null
1606052010,160605,1606,16,Terusan,30759,,,null
1606052011,160605,1606,16,Kemang,30759,,,null
1606052012,160605,1606,16,"Tanjung Raya",30759,,,null
1606052013,160605,1606,16,"Air Itam",30759,,,null
1606052014,160605,1606,16,"Keban I",30759,,,null
1606052015,160605,1606,16,"Keban II",30759,,,null
1606052017,160605,1606,16,Panai,30759,,,null
1606052018,160605,1606,16,"Macang Sakti",30759,,,null
1606061038,160606,1606,16,Babat,30752,,,null
1606061039,160606,1606,16,"Mangun Jaya",30752,,,null
1606062001,160606,1606,16,Sereka,30752,,,null
1606062002,160606,1606,16,"Sugi Raya",30752,,,null
1606062003,160606,1606,16,"Sugi Waras",30752,,,null
1606062004,160606,1606,16,Beruge,30752,,,null
1606062005,160606,1606,16,"Muara Punjung",30752,,,null
1606062007,160606,1606,16,"Bangun Sari",30752,,,null
1606062008,160606,1606,16,Toman,30752,,,null
1606062009,160606,1606,16,Kasmaran,30752,,,null
1606062022,160606,1606,16,"Sungai Angit",30752,,,null
1606062023,160606,1606,16,Srimulyo,30752,,,null
1606062042,160606,1606,16,"Pangkalan Jaya",30752,,,null
1606071020,160607,1606,16,"Sungai Lilin",30750,,,null
1606071030,160607,1606,16,"Sungai Lilin Jaya",30750,,,null
1606072007,160607,1606,16,"Sri Gunung",30750,,,null
1606072008,160607,1606,16,"Sumber Rejeki",30750,,,null
1606072009,160607,1606,16,"Linggo Sari",30750,,,null
1606072010,160607,1606,16,"Mulyo Rejo",30750,,,null
1606072011,160607,1606,16,"Suka Damai Baru",30750,,,null
1606072012,160607,1606,16,"Cinta Damai",30750,,,null
1606072013,160607,1606,16,"Berlian Makmur",30750,,,null
1606072014,160607,1606,16,"Bumi Kencana",30750,,,null
1606072015,160607,1606,16,"Mekar Jadi",30750,,,null
1606072016,160607,1606,16,"Nusa Serasan",30750,,,null
1606072017,160607,1606,16,"Pinang Banjar",30750,,,null
1606072019,160607,1606,16,"Panca Tunggal",30750,,,null
1606072021,160607,1606,16,"Bukit Jaya",30750,,,null
1606081015,160608,1606,16,Keluang,30754,,,null
1606082001,160608,1606,16,Tenggaro,30754,,,null
1606082003,160608,1606,16,"Tanjung Dalam",30754,,,null
1606082004,160608,1606,16,Dawas,30754,,,null
1606082005,160608,1606,16,"Mekar Jaya",30754,,,null
1606082006,160608,1606,16,"Sumber Agung",30754,,,null
1606082007,160608,1606,16,"Karya Maju",30754,,,null
1606082008,160608,1606,16,"Tegal Mulyo",30754,,,null
1606082009,160608,1606,16,"Cipta Praja",30754,,,null
1606082010,160608,1606,16,"Loka Jaya",30754,,,null
1606082011,160608,1606,16,"Mekar Sari",30754,,,null
1606082012,160608,1606,16,"Sido Rejo",30754,,,null
1606082013,160608,1606,16,"Mulyo Asih",30754,,,null
1606082014,160608,1606,16,Sridamai,30754,,,null
1606091016,160609,1606,16,"Bayung Lencir",30756,,,null
1606091065,160609,1606,16,"Bayung Lencir Indah",30756,,,null
1606092006,160609,1606,16,"Muara Merang",30756,,,null
1606092007,160609,1606,16,Mangsang,30756,,,null
1606092008,160609,1606,16,"Tampang Baru",30756,,,null
1606092009,160609,1606,16,"Kali Berau",30756,,,null
1606092010,160609,1606,16,"Sindang Marga",30756,,,null
1606092011,160609,1606,16,Telang,30756,,,null
1606092012,160609,1606,16,"Pagar Desa",30756,,,null
1606092013,160609,1606,16,Mendis,30756,,,null
1606092014,160609,1606,16,"Pulai Gading",30756,,,null
1606092015,160609,1606,16,"Muara Medak",30756,,,null
1606092017,160609,1606,16,Sukajaya,30756,,,null
1606092026,160609,1606,16,"Senawar Jaya",30756,,,null
1606092048,160609,1606,16,"Simpang Bayat",30756,,,null
1606092049,160609,1606,16,"Bayat Ilir",30756,,,null
1606092050,160609,1606,16,"Pangkalan Bayat",30756,,,null
1606092051,160609,1606,16,"Muara Bahar",30756,,,null
1606092058,160609,1606,16,"Mekar Jaya",30756,,,null
1606092059,160609,1606,16,"Mendis Jaya",30756,,,null
1606092060,160609,1606,16,Kepayang,30756,,,null
1606092061,160609,1606,16,"Wono Rejo",30756,,,null
1606092063,160609,1606,16,"Lubuk Harjo",30756,,,null
1606102001,160610,1606,16,"Sido Mukti",30758,,,null
1606102002,160610,1606,16,"Suka Damai",30758,,,null
1606102003,160610,1606,16,"Suka Jaya",30758,,,null
1606102004,160610,1606,16,"Suka Makmur",30758,,,null
1606102005,160610,1606,16,"Suka Maju",30758,,,null
1606102006,160610,1606,16,"Bangun Harja",30758,,,null
1606102007,160610,1606,16,"Sido Rahayu",30758,,,null
1606102008,160610,1606,16,"Bukit Indah",30758,,,null
1606102009,160610,1606,16,"Warga Mulya",30758,,,null
1606102010,160610,1606,16,"Tanjung Kaputran",30758,,,null
1606102011,160610,1606,16,"Air Putih Ulu",30758,,,null
1606102012,160610,1606,16,"Sialang Agung",30758,,,null
1606102013,160610,1606,16,"Cinta Karya",30758,,,null
1606102014,160610,1606,16,"Air Putih Ilir",30758,,,null
1606102015,160610,1606,16,"Sumber Rejeki",30758,,,null
1606112001,160611,1606,16,"Karang Agung",30758,,,null
1606112002,160611,1606,16,"Karang Rejo",30758,,,null
1606112003,160611,1606,16,"Karang Makmur",30758,,,null
1606112004,160611,1606,16,"Perumpung Raya",30758,,,null
1606112005,160611,1606,16,"Galih Sari",30758,,,null
1606112006,160611,1606,16,"Karang Tirta",30758,,,null
1606112007,160611,1606,16,"Purwo Agung",30758,,,null
1606112008,160611,1606,16,"Karya Mukti",30758,,,null
1606112009,160611,1606,16,"Sri Karang Rejo",30758,,,null
1606112010,160611,1606,16,"Mekar Sari",30758,,,null
1606112011,160611,1606,16,"Agung Jaya",30758,,,null
1606112012,160611,1606,16,"Bumi Agung",30758,,,null
1606112013,160611,1606,16,"Jaya Agung",30758,,,null
1606112014,160611,1606,16,"Suka Makmur",30758,,,null
1606112015,160611,1606,16,"Mandala Sari",30758,,,null
1606112016,160611,1606,16,"Bandar Agung",30758,,,null
1606112017,160611,1606,16,"Karang Sari",30758,,,null
1606112018,160611,1606,16,"Sri Gading",30758,,,null
1606112019,160611,1606,16,"Mulya Agung",30758,,,null
1606112020,160611,1606,16,"Karang Mukti",30758,,,null
1606112021,160611,1606,16,"Madya Mulya",30758,,,null
1606112022,160611,1606,16,"Mulya Jaya",30758,,,null
1606112023,160611,1606,16,"Sari Agung",30758,,,null
1606112024,160611,1606,16,"Suka Jadi",30758,,,null
1606112025,160611,1606,16,"Ringin Agung",30758,,,null
1606112026,160611,1606,16,"Tri Mulya Agung",30758,,,null
1606112027,160611,1606,16,"Mekar Jaya",30758,,,null
1606122001,160612,1606,16,Peninggalan,30756,,,null
1606122002,160612,1606,16,"Suka Damai",30756,,,null
1606122003,160612,1606,16,"Berlian Jaya",30756,,,null
1606122004,160612,1606,16,"Simpang Tungkal",30756,,,null
1606122005,160612,1606,16,"Pangkalan Tungkal",30756,,,null
1606122006,160612,1606,16,"Sumber Harum",30756,,,null
1606122007,160612,1606,16,"Sumber Sari",30756,,,null
1606122008,160612,1606,16,"Sinar Harapan",30756,,,null
1606122009,160612,1606,16,"Banjar Jaya",30756,,,null
1606122010,160612,1606,16,"Beji Mulyo",30756,,,null
1606122011,160612,1606,16,"Bero Jaya Timur",30756,,,null
1606122012,160612,1606,16,"Pandan Sari",30756,,,null
1606122013,160612,1606,16,"Margo Mulyo",30756,,,null
1606122014,160612,1606,16,"Sri Mulyo",30756,,,null
1606122015,160612,1606,16,"Sido Mulyo",30756,,,null
1606122016,160612,1606,16,"Sinar Tungkal",30756,,,null
1606132001,160613,1606,16,"Ulak Paceh",30753,,,null
1606132002,160613,1606,16,"Ulak Paceh Jaya",30753,,,null
1606132003,160613,1606,16,"Tanjung Durian",30753,,,null
1606132004,160613,1606,16,Napal,30753,,,null
1606132005,160613,1606,16,"Rantau Kasih",30753,,,null
1606132006,160613,1606,16,"Karang Ringin I",30753,,,null
1606132007,160613,1606,16,"Karang Ringin II",30753,,,null
1606132008,160613,1606,16,"Ulak Teberau",30753,,,null
1606132009,160613,1606,16,"Bumi Ayu",30753,,,null
1606132010,160613,1606,16,"Karang Waru",30753,,,null
1606132011,160613,1606,16,"Karang Anyar",30753,,,null
1606132012,160613,1606,16,"Rantau Panjang",30753,,,null
1606132013,160613,1606,16,"Simpang Sari",30753,,,null
1606132014,160613,1606,16,"Talang Piase",30753,,,null
1606132015,160613,1606,16,"Pandan Dulang",30753,,,null
1606142001,160614,1606,16,"Suka Maju",30755,,,null
1606142002,160614,1606,16,Letang,30755,,,null
1606142003,160614,1606,16,Supat,30755,,,null
1606142004,160614,1606,16,"Babat Banyuasin",30755,,,null
1606142005,160614,1606,16,"Tanjung Kerang",30755,,,null
1606142006,160614,1606,16,Langkap,30755,,,null
1606142007,160614,1606,16,"Gajah Mati",30755,,,null
1606142008,160614,1606,16,"Tenggulang Jaya",30755,,,null
1606142009,160614,1606,16,"Bandar Tenggulang",30755,,,null
1606142010,160614,1606,16,"Sumber Jaya",30755,,,null
1606142011,160614,1606,16,"Tenggulang Baru",30755,,,null
1606142012,160614,1606,16,"Supat Barat",30755,,,null
1606142013,160614,1606,16,"Supat Timur",30755,,,null
1606142014,160614,1606,16,"Seratus Lapan",30755,,,null
1606142015,160614,1606,16,"Babat Ramba Jaya",30755,,,null
1606142016,160614,1606,16,"Gajah Muda",30755,,,null
1606152001,160615,1606,16,Jirak,30751,,,null
1606152002,160615,1606,16,"Rukun Rahayu",30751,,,null
1606152003,160615,1606,16,"Talang Simpang",30751,,,null
1606152004,160615,1606,16,"Jembatan Gantung",30751,,,null
1606152005,160615,1606,16,"Talang Mandung",30751,,,null
1606152006,160615,1606,16,Rejosari,30751,,,null
1606152007,160615,1606,16,"Bangkit Jaya",30751,,,null
1606152008,160615,1606,16,"Baru Jaya",30751,,,null
1606152009,160615,1606,16,"Sinar Jaya",30751,,,null
1606152010,160615,1606,16,"Setia Jaya",30751,,,null
1606152011,160615,1606,16,"Mekar Jaya",30751,,,null
1606152012,160615,1606,16,Layan,30751,,,null
1607011016,160701,1607,16,Mariana,30963,,,null
1607011021,160701,1607,16,"Mariana Ilir",30963,,,null
1607012001,160701,1607,16,Sungairebo,30963,,,null
1607012002,160701,1607,16,Sungaigerong,30963,,,null
1607012003,160701,1607,16,"Merah Mata",30963,,,null
1607012004,160701,1607,16,Perajen,30963,,,null
1607012005,160701,1607,16,"Cinta Manis Lama",30963,,,null
1607012008,160701,1607,16,Perambahan,30963,,,null
1607012011,160701,1607,16,"Pematang Palas",30963,,,null
1607012012,160701,1607,16,"Tirto Sari",30963,,,null
1607012014,160701,1607,16,Pulauborang,30963,,,null
1607012025,160701,1607,16,"Perambahan Baru",30963,,,null
1607012028,160701,1607,16,"Duren Ijo",30963,,,null
1607022001,160702,1607,16,"Sungsang I",30971,,,null
1607022002,160702,1607,16,"Sungsang II",30971,,,null
1607022003,160702,1607,16,"Sungsang III",30971,,,null
1607022004,160702,1607,16,"Sungsang IV",30971,,,null
1607022010,160702,1607,16,Telukpayo,30971,,,null
1607022013,160702,1607,16,"Tanah Pilih",30971,,,null
1607022015,160702,1607,16,"Perajen Jaya",30971,,,null
1607022016,160702,1607,16,"Rimau Sungsang",30971,,,null
1607022018,160702,1607,16,"Marga Sungsang",30971,,,null
1607022019,160702,1607,16,"Muara Sungsang",30971,,,null
1607031008,160703,1607,16,"Kayuara Kuning",30915,,,null
1607031009,160703,1607,16,"Mulya Agung",30914,,,null
1607031012,160703,1607,16,"Pangkalan Balai",30911,,,null
1607031023,160703,1607,16,Seterio,30912,,,null
1607031033,160703,1607,16,"Kedondong Raye",30953,,,null
1607032006,160703,1607,16,Langkan,30953,,,null
1607032007,160703,1607,16,"Pangkalan Panji",30953,,,null
1607032010,160703,1607,16,"Lubuk Saung",30953,,,null
1607032011,160703,1607,16,"Ujung Tanjung",30953,,,null
1607032013,160703,1607,16,"Sidang Mas",30953,,,null
1607032014,160703,1607,16,"Galang Tinggi",30953,,,null
1607032015,160703,1607,16,Petaling,30953,,,null
1607032016,160703,1607,16,"Rimba Alai",30953,,,null
1607032017,160703,1607,16,"Pelajau Ilir",30953,,,null
1607032018,160703,1607,16,"Regan Agung",30953,,,null
1607032019,160703,1607,16,Sukamulya,30916,,,null
1607032020,160703,1607,16,Tanjungagung,30953,,,null
1607032021,160703,1607,16,Tanjungmenang,30953,,,null
1607032022,160703,1607,16,"Sri Bandung",30953,,,null
1607032024,160703,1607,16,Pelajau,30953,,,null
1607032025,160703,1607,16,Tanjungberingin,30953,,,null
1607032026,160703,1607,16,Terentang,30953,,,null
1607032028,160703,1607,16,Tanjungkepayang,30953,,,null
1607032034,160703,1607,16,"Sukaraja Baru",30913,,,null
1607032037,160703,1607,16,Terlangu,30953,,,null
1607032038,160703,1607,16,"Rimba Balai",30953,,,null
1607042002,160704,1607,16,"Teluk Betung",30959,,,null
1607042004,160704,1607,16,Mukut,30959,,,null
1607042006,160704,1607,16,"Sumber Rejeki",30959,,,null
1607042007,160704,1607,16,"Dana Mulya",30959,,,null
1607042008,160704,1607,16,"Wana Mukti",30959,,,null
1607042009,160704,1607,16,"Budi Asih",30959,,,null
1607042013,160704,1607,16,"Rukun Makmur",30959,,,null
1607042014,160704,1607,16,"Nunggal Sari",30959,,,null
1607042017,160704,1607,16,Majatra,30959,,,null
1607042018,160704,1607,16,Wonosari,30959,,,null
1607042031,160704,1607,16,"Sumber Mulya",30959,,,null
1607042032,160704,1607,16,"Rawa Banda",30959,,,null
1607042037,160704,1607,16,"Senda Mukti",30959,,,null
1607042038,160704,1607,16,"Tirta Mulya",30959,,,null
1607042039,160704,1607,16,"Banjar Sari",30959,,,null
1607042040,160704,1607,16,"Buana Mukti",30959,,,null
1607042041,160704,1607,16,"Tabuan Asri",30959,,,null
1607051017,160705,1607,16,Betung,30958,,,null
1607051021,160705,1607,16,"Rimba Asam",30958,,,null
1607052002,160705,1607,16,"Pulau Rajak",30958,,,null
1607052003,160705,1607,16,Bukit,30958,,,null
1607052004,160705,1607,16,"Sri Kembang",30958,,,null
1607052005,160705,1607,16,"Lubuk Karet",30958,,,null
1607052014,160705,1607,16,"Taja Mulya",30958,,,null
1607052015,160705,1607,16,"Taja Raya I",30958,,,null
1607052016,160705,1607,16,"Taja Indah",30958,,,null
1607052018,160705,1607,16,"Taja Raya II",30958,,,null
1607052020,160705,1607,16,"Suka Mulya",30958,,,null
1607061021,160706,1607,16,"Jakabaring Selatan",30967,,,null
1607062001,160706,1607,16,"Kebon Sahang",30967,,,null
1607062002,160706,1607,16,Siju,30967,,,null
1607062003,160706,1607,16,"Tanah Lembak",30967,,,null
1607062004,160706,1607,16,Parit,30967,,,null
1607062005,160706,1607,16,Pelajau,30967,,,null
1607062006,160706,1607,16,"Suka Pindah",30967,,,null
1607062007,160706,1607,16,Baru,30967,,,null
1607062008,160706,1607,16,Tanjungkerang,30967,,,null
1607062009,160706,1607,16,Rambutan,30967,,,null
1607062010,160706,1607,16,Tanjungmerbu,30967,,,null
1607062011,160706,1607,16,Sako,30967,,,null
1607062012,160706,1607,16,"Gelebak Dalam",30967,,,null
1607062013,160706,1607,16,Menten,30967,,,null
1607062014,160706,1607,16,"Pangkalan Gelebak",30967,,,null
1607062015,160706,1607,16,Sungaidua,30967,,,null
1607062016,160706,1607,16,Sungaipinang,30967,,,null
1607062017,160706,1607,16,Sungaikedukan,30967,,,null
1607062019,160706,1607,16,"Durian Gadis",30967,,,null
1607062020,160706,1607,16,Pulauparang,30967,,,null
1607072001,160707,1607,16,"Muara Padang",30975,,,null
1607072002,160707,1607,16,Tanjungbaru,30975,,,null
1607072003,160707,1607,16,"Karang Anyar",30975,,,null
1607072006,160707,1607,16,Purwodadi,30975,,,null
1607072007,160707,1607,16,"Sumber Makmur",30975,,,null
1607072008,160707,1607,16,"Air Gading",30975,,,null
1607072009,160707,1607,16,"Tirto Raharjo",30975,,,null
1607072010,160707,1607,16,"Daya Utama",30975,,,null
1607072011,160707,1607,16,"Daya Makmur",30975,,,null
1607072012,160707,1607,16,"Sido Mulyo 18",30975,,,null
1607072013,160707,1607,16,"Sido Rejo",30975,,,null
1607072018,160707,1607,16,"Sido Mulyo 20",30975,,,null
1607072037,160707,1607,16,"Margo Mulyo 20",30975,,,null
1607072038,160707,1607,16,"Margo Sugihan",30975,,,null
1607072042,160707,1607,16,"Tirta Jaya",30975,,,null
1607082007,160708,1607,16,"Marga Rahayu",30974,,,null
1607082008,160708,1607,16,"Sumber Mulya",30974,,,null
1607082009,160708,1607,16,"Sumber Hidup",30974,,,null
1607082010,160708,1607,16,"Telang Rejo",30974,,,null
1607082011,160708,1607,16,"Telang Jaya",30974,,,null
1607082013,160708,1607,16,"Telang Makmur",30974,,,null
1607082014,160708,1607,16,"Telang Karya",30974,,,null
1607082015,160708,1607,16,"Panca Mukti",30974,,,null
1607082016,160708,1607,16,"Mukti Jaya",30974,,,null
1607082019,160708,1607,16,"Mekar Sari",30974,,,null
1607082024,160708,1607,16,"Talang Indah",30974,,,null
1607082025,160708,1607,16,"Mekar Mukti",30974,,,null
1607082026,160708,1607,16,"Upang Jaya",30974,,,null
1607082027,160708,1607,16,"Upang Karya",30974,,,null
1607082028,160708,1607,16,"Upang Cemara",30974,,,null
1607082029,160708,1607,16,"Upang Ceria",30974,,,null
1607091012,160709,1607,16,"Makarti Jaya",30972,,,null
1607092002,160709,1607,16,"Delta Upang",30972,,,null
1607092006,160709,1607,16,"Pendowo Harjo",30972,,,null
1607092007,160709,1607,16,Pangestu,30972,,,null
1607092008,160709,1607,16,"Tirta Kencana",30972,,,null
1607092010,160709,1607,16,"Upang Makmur",30972,,,null
1607092013,160709,1607,16,"Upang Mulya",30972,,,null
1607092017,160709,1607,16,Purwosari,30972,,,null
1607092019,160709,1607,16,Tanjungmas,30972,,,null
1607092020,160709,1607,16,Tanjungbaru,30972,,,null
1607092021,160709,1607,16,Sungaisemut,30972,,,null
1607092022,160709,1607,16,Muarabaru,30972,,,null
1607101002,160710,1607,16,"Air Batu",30961,,,null
1607101003,160710,1607,16,Sukomoro,30961,,,null
1607101004,160710,1607,16,Sukajadi,30961,,,null
1607101006,160710,1607,16,Kenten,30961,,,null
1607101022,160710,1607,16,"Tanah Mas",30961,,,null
1607101023,160710,1607,16,"Talang Keramat",30961,,,null
1607102001,160710,1607,16,Sungairengit,30961,,,null
1607102005,160710,1607,16,"Pangkalan Benteng",30961,,,null
1607102007,160710,1607,16,Gasing,30961,,,null
1607102019,160710,1607,16,"Talang Buluh",30961,,,null
1607102020,160710,1607,16,"Sungairengit Murni",30961,,,null
1607102021,160710,1607,16,"Kenten Laut",30961,,,null
1607112001,160711,1607,16,Muaraabab,30968,,,null
1607112002,160711,1607,16,Tanjungpasir,30968,,,null
1607112003,160711,1607,16,Tanjungtiga,30968,,,null
1607112004,160711,1607,16,"Rantau Bayur",30968,,,null
1607112005,160711,1607,16,"Pagar Bulan",30968,,,null
1607112006,160711,1607,16,"Kemang Bajalu",30968,,,null
1607112007,160711,1607,16,Tanjungmenang,30968,,,null
1607112008,160711,1607,16,"Sri Jaya",30968,,,null
1607112009,160711,1607,16,Sejagung,30968,,,null
1607112010,160711,1607,16,Sungaipinang,30968,,,null
1607112011,160711,1607,16,Semuntul,30968,,,null
1607112012,160711,1607,16,Lebung,30968,,,null
1607112013,160711,1607,16,"Lubuk Rengas",30968,,,null
1607112014,160711,1607,16,Paldas,30968,,,null
1607112015,160711,1607,16,"Tebing Abang",30968,,,null
1607112016,160711,1607,16,"Talang Kemang",30968,,,null
1607112017,160711,1607,16,"Rantau Harapan",30968,,,null
1607112018,160711,1607,16,Penandingan,30968,,,null
1607112019,160711,1607,16,Sungainaik,30968,,,null
1607112020,160711,1607,16,Sungaililin,30968,,,null
1607112021,160711,1607,16,Sukarela,30968,,,null
1607122001,160712,1607,16,"Telang Sari",30960,,,null
1607122002,160712,1607,16,"Mulya Sari",30960,,,null
1607122003,160712,1607,16,Purwosari,30960,,,null
1607122004,160712,1607,16,"Sri Menanti",30960,,,null
1607122005,160712,1607,16,Sebalik,30960,,,null
1607122006,160712,1607,16,Tanjunglago,30960,,,null
1607122007,160712,1607,16,"Kuala Puntian",30960,,,null
1607122008,160712,1607,16,"Suka Tani",30960,,,null
1607122009,160712,1607,16,"Suka Damai",30960,,,null
1607122010,160712,1607,16,"Banyu Urip",30960,,,null
1607122011,160712,1607,16,"Bangun Sari",30960,,,null
1607122012,160712,1607,16,"Sumber Mekar Mukti",30960,,,null
1607122013,160712,1607,16,"Muara Sugih",30960,,,null
1607122014,160712,1607,16,"Manggar Raya",30960,,,null
1607122015,160712,1607,16,"Bunga Karang",30960,,,null
1607132001,160713,1607,16,"Margo Mulyo 16",30976,,,null
1607132002,160713,1607,16,"Rejo Sari",30976,,,null
1607132003,160713,1607,16,"Daya Murni",30976,,,null
1607132004,160713,1607,16,"Daya Bangun Harjo",30976,,,null
1607132005,160713,1607,16,"Sumber Mulyo",30976,,,null
1607132006,160713,1607,16,"Sugih Waras",30976,,,null
1607132007,160713,1607,16,Indrapura,30976,,,null
1607132008,160713,1607,16,Cendana,30976,,,null
1607132009,160713,1607,16,"Argo Mulyo",30976,,,null
1607132010,160713,1607,16,"Tirta Harjo",30976,,,null
1607132011,160713,1607,16,"Tirta Mulyo",30976,,,null
1607132012,160713,1607,16,"Daya Kesuma",30976,,,null
1607132013,160713,1607,16,"Margo Rukun",30976,,,null
1607132014,160713,1607,16,"Genesa Mukti",30976,,,null
1607132015,160713,1607,16,"Timbul Jaya",30976,,,null
1607132016,160713,1607,16,"Jalur Mulya",30976,,,null
1607132017,160713,1607,16,Gilirang,30976,,,null
1607132018,160713,1607,16,"Juru Taro",30976,,,null
1607132019,160713,1607,16,"Kuala Sugihan",30976,,,null
1607132020,160713,1607,16,"Beringin Agung",30976,,,null
1607132021,160713,1607,16,"Mekar Jaya",30976,,,null
1607132022,160713,1607,16,"Sido Makmur",30976,,,null
1607142001,160714,1607,16,"Air Solok Batu",30973,,,null
1607142002,160714,1607,16,"Sri Mulyo",30973,,,null
1607142003,160714,1607,16,"Sri Katon",30973,,,null
1607142004,160714,1607,16,"Sido Harjo",30973,,,null
1607142005,160714,1607,16,Bintaran,30973,,,null
1607142006,160714,1607,16,"Damar Wulan",30973,,,null
1607142007,160714,1607,16,"Enggal Rejo",30973,,,null
1607142008,160714,1607,16,"Saleh Jaya",30973,,,null
1607142009,160714,1607,16,"Saleh Agung",30973,,,null
1607142010,160714,1607,16,"Saleh Mulya",30973,,,null
1607142011,160714,1607,16,"Saleh Mukti",30973,,,null
1607142012,160714,1607,16,"Saleh Makmur",30973,,,null
1607142013,160714,1607,16,Upang,30973,,,null
1607142014,160714,1607,16,"Upang Marga",30973,,,null
1607152001,160715,1607,16,Bentayan,30956,,,null
1607152002,160715,1607,16,Teluktenggulang,30956,,,null
1607152004,160715,1607,16,"Suka Mulya",30956,,,null
1607152005,160715,1607,16,"Suka Raja",30956,,,null
1607152006,160715,1607,16,"Karang Anyar",30956,,,null
1607152007,160715,1607,16,"Karang Asem",30956,,,null
1607152008,160715,1607,16,"Marga Rahayu",30956,,,null
1607152009,160715,1607,16,"Sido Mulyo",30956,,,null
1607152010,160715,1607,16,Keluang,30956,,,null
1607152011,160715,1607,16,"Bumi Serdang",30956,,,null
1607152012,160715,1607,16,"Karang Mulya",30956,,,null
1607152013,160715,1607,16,Sukakarya,30956,,,null
1607152014,160715,1607,16,"Panca Mulya",30956,,,null
1607152015,160715,1607,16,"Suka Jaya",30956,,,null
1607162001,160716,1607,16,"Talang Ipuh",30957,,,null
1607162002,160716,1607,16,"Durian Daun",30957,,,null
1607162003,160716,1607,16,"Lubuk Lancang",30957,,,null
1607162004,160716,1607,16,Biyuku,30957,,,null
1607162005,160716,1607,16,Bengkuang,30957,,,null
1607162006,160716,1607,16,"Rimba Terap",30957,,,null
1607162007,160716,1607,16,Sedang,30957,,,null
1607162008,160716,1607,16,Tanjunglaut,30957,,,null
1607162009,160716,1607,16,"Air Senggeris",30957,,,null
1607162010,160716,1607,16,Meranti,30957,,,null
1607162011,160716,1607,16,Sukaraja,30957,,,null
1607172001,160717,1607,16,Mainan,30953,,,null
1607172002,160717,1607,16,Santansari,30953,,,null
1607172003,160717,1607,16,Limau,30953,,,null
1607172004,160717,1607,16,Rejodadi,30953,,,null
1607172005,160717,1607,16,"Lalang Sembawa",30953,,,null
1607172006,160717,1607,16,Muaradamai,30953,,,null
1607172007,160717,1607,16,Pulauharapan,30953,,,null
1607172008,160717,1607,16,"Purwo Sari",30953,,,null
1607172009,160717,1607,16,"Limbang Mulia",30953,,,null
1607172010,160717,1607,16,"Sako Makmur",30953,,,null
1607172011,160717,1607,16,Pulaumuning,30953,,,null
1607182001,160718,1607,16,"Terusan Dalam",30977,,,null
1607182002,160718,1607,16,"Karang Anyar",30977,,,null
1607182003,160718,1607,16,Muaratelang,30977,,,null
1607182004,160718,1607,16,"Terusan Tengah",30977,,,null
1607182005,160718,1607,16,"Sumber Jaya",30977,,,null
1607182006,160718,1607,16,"Karang Baru",30977,,,null
1607182007,160718,1607,16,"Muaratelang Marga",30977,,,null
1607182008,160718,1607,16,"Terusan Muara",30977,,,null
1607182009,160718,1607,16,"Talang Lubuk",30977,,,null
1607182010,160718,1607,16,"Sri Tiga",30977,,,null
1607192001,160719,1607,16,"Cinta Manis Baru",30962,,,null
1607192002,160719,1607,16,"Sido Makmur",30962,,,null
1607192003,160719,1607,16,Sidomulyo,30962,,,null
1607192004,160719,1607,16,"Nusa Makmur",30962,,,null
1607192005,160719,1607,16,"Rimba Jaya",30962,,,null
1607192006,160719,1607,16,Teluktenggirik,30962,,,null
1607192007,160719,1607,16,Sebubus,30962,,,null
1607192008,160719,1607,16,"Padang Rejo",30962,,,null
1607192009,160719,1607,16,"Kumbang Padang Permata",30962,,,null
1607192010,160719,1607,16,Muarabaru,30962,,,null
1607192011,160719,1607,16,"Tirta Makmur",30962,,,null
1607192012,160719,1607,16,"Panca Mulya",30962,,,null
1607192013,160719,1607,16,"Budi Mulya",30962,,,null
1607192014,160719,1607,16,"Panca Desa",30962,,,null
1607192015,160719,1607,16,"Air Kumbang Bakti",30962,,,null
1607192016,160719,1607,16,Sebokor,30962,,,null
1607202001,160720,1607,16,"Karang Sari",30971,,,null
1607202002,160720,1607,16,"Maju Ria",30971,,,null
1607202003,160720,1607,16,"Sri Agung",30971,,,null
1607202004,160720,1607,16,"Sumber Rejeki",30971,,,null
1607202005,160720,1607,16,"Tabala Jaya",30971,,,null
1607202006,160720,1607,16,"Jati Sari",30971,,,null
1607202007,160720,1607,16,"Mekar Sari",30971,,,null
1607212001,160721,1607,16,Penuguan,30959,,,null
1607212002,160721,1607,16,"Sumber Rejo",30959,,,null
1607212003,160721,1607,16,"Sumber Mukti",30959,,,null
1607212004,160721,1607,16,"Sumber Agung",30959,,,null
1607212005,160721,1607,16,Wonodadi,30959,,,null
1607212006,160721,1607,16,"Mekar Sari",30959,,,null
1607212007,160721,1607,16,"Songo Makmur",30959,,,null
1607212008,160721,1607,16,"Karang Manunggal",30959,,,null
1607212009,160721,1607,16,Purwodadi,30959,,,null
1607212010,160721,1607,16,"Ringin Harjo",30959,,,null
1607212011,160721,1607,16,"Bumi Rejo",30959,,,null
1607212012,160721,1607,16,"Kelapa Dua",30959,,,null
1608011007,160801,1608,16,"Dusun Martapura",32313,,,null
1608011008,160801,1608,16,"Pasar Martapura",32312,,,null
1608011014,160801,1608,16,"Paku Sengkunyit",32314,,,null
1608011016,160801,1608,16,"Bukit Sari",32315,,,null
1608011017,160801,1608,16,"Sunagituha Jaya",32315,,,null
1608011018,160801,1608,16,"Terukis Rahayu",32315,,,null
1608011019,160801,1608,16,"Veteran Jaya",32315,,,null
1608012006,160801,1608,16,"Tanjung Kemala",32315,,,null
1608012009,160801,1608,16,"Kota Baru",32311,,,null
1608012010,160801,1608,16,Keromongan,32316,,,null
1608012011,160801,1608,16,Perjaya,32318,,,null
1608012015,160801,1608,16,Sukomulyo,32319,,,null
1608012020,160801,1608,16,"Kotabaru Barat",32315,,,null
1608012021,160801,1608,16,"Kotabaru Selatan",32315,,,null
1608012022,160801,1608,16,"Perjaya Barat",32317,,,null
1608012023,160801,1608,16,"Tanjung Kemala Barat",32315,,,null
1608022001,160802,1608,16,"Suka Raja",32361,,,null
1608022002,160802,1608,16,"Kurungan Nyawa",32361,,,null
1608022003,160802,1608,16,"Pisang Jaya",32361,,,null
1608022004,160802,1608,16,"Sumber Agung",32361,,,null
1608022005,160802,1608,16,"Tebat Jaya",32361,,,null
1608022006,160802,1608,16,Sridadi,32361,,,null
1608022009,160802,1608,16,"Tanjung Bulan",32361,,,null
1608022010,160802,1608,16,"Way Halom",32361,,,null
1608022031,160802,1608,16,"Kurungan Nyawa I",32361,,,null
1608022032,160802,1608,16,"Kurungan Nyawa II",32361,,,null
1608022033,160802,1608,16,"Kurungan Nyawa III",32361,,,null
1608022034,160802,1608,16,"Cipta Muda",32361,,,null
1608022035,160802,1608,16,"Aman Jaya",32361,,,null
1608022036,160802,1608,16,"Sukaraja Tuha",32361,,,null
1608022037,160802,1608,16,"Ganjar Agung",32361,,,null
1608022038,160802,1608,16,"Mulyo Agung",32361,,,null
1608022039,160802,1608,16,"Muda Sentosa",32361,,,null
1608032001,160803,1608,16,"Sido Rahayu",32382,,,null
1608032002,160803,1608,16,"Tawang Rejo",32382,,,null
1608032006,160803,1608,16,"Tanjung Raya",32382,,,null
1608032007,160803,1608,16,"Sido Mulyo",32382,,,null
1608032008,160803,1608,16,"Harjo Winangun",32382,,,null
1608032009,160803,1608,16,"Pujo Rahayu",32382,,,null
1608032010,160803,1608,16,Triyoso,32382,,,null
1608032011,160803,1608,16,"Sumber Suko",32382,,,null
1608032013,160803,1608,16,"Suko Sari",32382,,,null
1608032014,160803,1608,16,Gumawang,32382,,,null
1608032015,160803,1608,16,Bedilan,32382,,,null
1608032016,160803,1608,16,"Tegal Rejo",32382,,,null
1608032017,160803,1608,16,"Sido Gede",32382,,,null
1608032018,160803,1608,16,"Sido Makmur",32382,,,null
1608032021,160803,1608,16,"Suka Jadi",32382,,,null
1608032022,160803,1608,16,Serbaguna,32382,,,null
1608032023,160803,1608,16,Sukarami,32382,,,null
1608032024,160803,1608,16,"Gedung Rejo",32382,,,null
1608032025,160803,1608,16,Sidodadi,32382,,,null
1608032026,160803,1608,16,"Gunung Mas",32382,,,null
1608032027,160803,1608,16,"Sumbersuko jaya",32382,,,null
1608032028,160803,1608,16,"Karang Kemiri",32382,,,null
1608032029,160803,1608,16,Mojosari,32382,,,null
1608042001,160804,1608,16,"Gunung Batu",32384,,,null
1608042010,160804,1608,16,"Ulak Baru",32384,,,null
1608042011,160804,1608,16,"Gunung Jati",32384,,,null
1608042012,160804,1608,16,Kuripan,32384,,,null
1608042013,160804,1608,16,"Negeri Sakti",32384,,,null
1608042014,160804,1608,16,"Campang Tiga Hulu",32384,,,null
1608042015,160804,1608,16,Sukaraja,32384,,,null
1608042016,160804,1608,16,Cempaka,32384,,,null
1608042017,160804,1608,16,Sukabumi,32384,,,null
1608042018,160804,1608,16,"Campang Tiga Ilir",32384,,,null
1608042019,160804,1608,16,"Maluai Indah",32384,,,null
1608042020,160804,1608,16,"Harisan Jaya",32384,,,null
1608042021,160804,1608,16,"Campang Tiga Jaya",32384,,,null
1608052001,160805,1608,16,"Negeri Pakuan",32367,,,null
1608052002,160805,1608,16,"Negeri Agung",32367,,,null
1608052003,160805,1608,16,"Banu Mas",32367,,,null
1608052004,160805,1608,16,"Banu Ayu",32367,,,null
1608052005,160805,1608,16,"Pulau Negara",32367,,,null
1608052006,160805,1608,16,"Saung Dadi",32367,,,null
1608052007,160805,1608,16,"Trantang Sakti",32367,,,null
1608052008,160805,1608,16,"Pemetung Besuki",32367,,,null
1608052009,160805,1608,16,"Pahang Asri",32367,,,null
1608052010,160805,1608,16,Bantan,32367,,,null
1608052011,160805,1608,16,"Bandar Jaya",32367,,,null
1608052012,160805,1608,16,"Negeri Agung Jaya",32367,,,null
1608052013,160805,1608,16,"Bantan Pelita",32367,,,null
1608062001,160806,1608,16,"Karang Negara",32366,,,null
1608062002,160806,1608,16,"Riang Bandung",32366,,,null
1608062005,160806,1608,16,"Kota Negara",32366,,,null
1608062006,160806,1608,16,"Karta Negara",32366,,,null
1608062007,160806,1608,16,"Pandan Agung",32366,,,null
1608062009,160806,1608,16,"Sri Mulyo",32366,,,null
1608062010,160806,1608,16,"Margo Tani",32366,,,null
1608062011,160806,1608,16,"Jati Mulya II",32366,,,null
1608062012,160806,1608,16,"Pandan Jaya",32366,,,null
1608062014,160806,1608,16,"Rasuan Baru",32366,,,null
1608062020,160806,1608,16,Banbanrejo,32366,,,null
1608062021,160806,1608,16,"Suka Negara",32366,,,null
1608062022,160806,1608,16,Srikencana,32366,,,null
1608062023,160806,1608,16,Dadimulyo,32366,,,null
1608062024,160806,1608,16,"Riang Bandung Ilir",32366,,,null
1608062025,160806,1608,16,"Margotani II",32366,,,null
1608062026,160806,1608,16,"Kota Negara Timur",32366,,,null
1608062027,160806,1608,16,"Talang Giring",32366,,,null
1608062028,160806,1608,16,Kalirejo,32366,,,null
1608072002,160807,1608,16,Mendayun,32362,,,null
1608072003,160807,1608,16,"Gunung Terang",32362,,,null
1608072004,160807,1608,16,"Karta Mulya",32362,,,null
1608072007,160807,1608,16,"SP. Kerta Mulya",32362,,,null
1608072014,160807,1608,16,"Harjo Mulyo",32362,,,null
1608072015,160807,1608,16,"Jaya Bakti",32362,,,null
1608072016,160807,1608,16,Rasuan,32362,,,null
1608072017,160807,1608,16,Mengulak,32362,,,null
1608072019,160807,1608,16,"Jati Sari",32362,,,null
1608072021,160807,1608,16,"Tri Dadi",32362,,,null
1608072022,160807,1608,16,"Agung Jati",32362,,,null
1608072023,160807,1608,16,"Rasuan Darat",32362,,,null
1608072024,160807,1608,16,"Harjo Mulyo Jaya",32362,,,null
1608082002,160808,1608,16,"Jaya Mulya",32386,,,null
1608082003,160808,1608,16,"Gunung Sugih",32386,,,null
1608082007,160808,1608,16,"Margo Rejo",32386,,,null
1608082009,160808,1608,16,Trimoharjo,32386,,,null
1608082010,160808,1608,16,"Taman Agung",32386,,,null
1608082011,160808,1608,16,Krujon,32386,,,null
1608082013,160808,1608,16,"Karang Endah",32386,,,null
1608082014,160808,1608,16,Sriwangi,32386,,,null
1608082015,160808,1608,16,"Cahaya Negeri",32386,,,null
1608082016,160808,1608,16,"Suka Mulya",32386,,,null
1608082017,160808,1608,16,Taraman,32386,,,null
1608082025,160808,1608,16,"Mujo Rahayu",32386,,,null
1608082026,160808,1608,16,"Taman Harjo",32386,,,null
1608082027,160808,1608,16,Margodadi,32386,,,null
1608082028,160808,1608,16,"Taraman Jaya",32386,,,null
1608082029,160808,1608,16,"Karang Marga",32386,,,null
1608082030,160808,1608,16,"Trimo Rejo",32386,,,null
1608082031,160808,1608,16,"Sriwangi Ulu",32386,,,null
1608082032,160808,1608,16,"Taman Mulyo",32386,,,null
1608092004,160809,1608,16,"Tanjung Kemuning",32383,,,null
1608092005,160809,1608,16,"Raman Jaya",32383,,,null
1608092006,160809,1608,16,"Sumber Jaya",32383,,,null
1608092007,160809,1608,16,"Sumber Rejo",32383,,,null
1608092008,160809,1608,16,"Sumber Sari",32383,,,null
1608092009,160809,1608,16,"Tegal Sari",32383,,,null
1608092010,160809,1608,16,"Sri Bantolo",32383,,,null
1608092011,160809,1608,16,"Sumber Rahayu",32383,,,null
1608092012,160809,1608,16,"Margo Mulyo",32383,,,null
1608092015,160809,1608,16,Purwosari,32383,,,null
1608092016,160809,1608,16,"Karang Manik",32383,,,null
1608092017,160809,1608,16,"Sumber Harapan",32383,,,null
1608092018,160809,1608,16,"Keli Rejo",32383,,,null
1608092019,160809,1608,16,"Toto Rejo",32383,,,null
1608092020,160809,1608,16,"Karang Jaya",32383,,,null
1608092021,160809,1608,16,"Kemuning Jaya",32383,,,null
1608092022,160809,1608,16,"Bangun Rejo",32383,,,null
1608092023,160809,1608,16,"Batu Mas",32383,,,null
1608092024,160809,1608,16,"Suka Jaya",32383,,,null
1608092025,160809,1608,16,Srijaya,32383,,,null
1608092026,160809,1608,16,"Tegal Besar",32383,,,null
1608092027,160809,1608,16,"Darma Buana",32383,,,null
1608092028,160809,1608,16,"Rejo Mulyo",32383,,,null
1608092029,160809,1608,16,Purworejo,32383,,,null
1608102001,160810,1608,16,Kutosari,32385,,,null
1608102002,160810,1608,16,"Nusa Raya",32385,,,null
1608102003,160810,1608,16,"Nusa Tunggal",32385,,,null
1608102004,160810,1608,16,"Nusa Bali",32385,,,null
1608102005,160810,1608,16,"Nusa Bakti",32385,,,null
1608102006,160810,1608,16,"Nusa Jaya",32385,,,null
1608102007,160810,1608,16,"Nusa Tenggara",32385,,,null
1608102008,160810,1608,16,"Nusa Agung",32385,,,null
1608102009,160810,1608,16,"Nusa Maju",32385,,,null
1608102010,160810,1608,16,"Senu Marga",32385,,,null
1608102011,160810,1608,16,"Karang Sari",32385,,,null
1608102013,160810,1608,16,Trikarya,32385,,,null
1608102016,160810,1608,16,"Suka Negara",32385,,,null
1608102017,160810,1608,16,"Karang Jadi",32385,,,null
1608102018,160810,1608,16,"Dadi Rejo",32385,,,null
1608102019,160810,1608,16,"Ganti Warno",32385,,,null
1608102020,160810,1608,16,"Sinar Bali",32385,,,null
1608102021,160810,1608,16,"Sumber Rejo",32385,,,null
1608102022,160810,1608,16,"Ringin Sari",32385,,,null
1608102023,160810,1608,16,"Karya Maju",32385,,,null
1608112001,160811,1608,16,"Batu Raja Bungin",32387,,,null
1608112002,160811,1608,16,"Tulang Bawang",32387,,,null
1608112003,160811,1608,16,Sabahlioh,32387,,,null
1608112004,160811,1608,16,"Negeri Ratu",32387,,,null
1608112005,160811,1608,16,Peracak,32387,,,null
1608112006,160811,1608,16,"Negeri Ratu Baru",32387,,,null
1608112007,160811,1608,16,"Tunas Peracak",32387,,,null
1608112008,160811,1608,16,Sukabaru,32387,,,null
1608122001,160812,1608,16,"Tanjung Mas",32360,,,null
1608122002,160812,1608,16,Tanjungsari,32360,,,null
1608122003,160812,1608,16,"Toko Rejo",32360,,,null
1608122004,160812,1608,16,"Sumber Asri",32360,,,null
1608122005,160812,1608,16,"Suka Maju",32360,,,null
1608122006,160812,1608,16,Srikaton,32360,,,null
1608122007,160812,1608,16,"Liman Sari",32360,,,null
1608122008,160812,1608,16,"Sumber Harjo",32360,,,null
1608122009,160812,1608,16,"Sumber Mulyo",32360,,,null
1608122010,160812,1608,16,"Karang Tengah",32360,,,null
1608122011,160812,1608,16,"Bangun Harjo",32360,,,null
1608122012,160812,1608,16,"Tambak Boyo",32360,,,null
1608122013,160812,1608,16,Pengandonan,32360,,,null
1608122014,160812,1608,16,"Rejo Dadi",32360,,,null
1608122015,160812,1608,16,Sukoharjo,32360,,,null
1608122016,160812,1608,16,"Sumedang Sari",32360,,,null
1608122017,160812,1608,16,Rowodadi,32360,,,null
1608122018,160812,1608,16,Sukodadi,32360,,,null
1608122019,160812,1608,16,"Kumpul Rejo",32360,,,null
1608122020,160812,1608,16,"Metro Rejo",32360,,,null
1608122021,160812,1608,16,Kedu,32360,,,null
1608122022,160812,1608,16,"Kedung Rejo",32360,,,null
1608122023,160812,1608,16,"Banyumas Asri",32360,,,null
1608122024,160812,1608,16,"Gumuk Rejo",32360,,,null
1608122025,160812,1608,16,"Tanjung Mulya",32360,,,null
1608122026,160812,1608,16,"Raman Agung",32360,,,null
1608122027,160812,1608,16,"Bukit Mas",32360,,,null
1608122028,160812,1608,16,"Tanjung Agung",32360,,,null
1608122029,160812,1608,16,"Berasan Mulya",32360,,,null
1608122030,160812,1608,16,"Sumber Tani",32360,,,null
1608132001,160813,1608,16,"Banding Agung",32365,,,null
1608132002,160813,1608,16,Nikan,32365,,,null
1608132003,160813,1608,16,Surabaya,32365,,,null
1608132004,160813,1608,16,"Wana Bakti",32365,,,null
1608132005,160813,1608,16,"Batu Marta VI",32365,,,null
1608132006,160813,1608,16,"Karya Makmur",32365,,,null
1608132007,160813,1608,16,"Bina Amarta",32365,,,null
1608132008,160813,1608,16,"Suka Damai",32365,,,null
1608132009,160813,1608,16,"Batu Marta X",32365,,,null
1608132010,160813,1608,16,"Marta V Jaya",32365,,,null
1608142001,160814,1608,16,"Tanjung Kukuh",32184,,,null
1608142002,160814,1608,16,Betung,32184,,,null
1608142003,160814,1608,16,"Tanjung Mas",32184,,,null
1608142004,160814,1608,16,"Menanga Besar",32184,,,null
1608142005,160814,1608,16,"Menanga Tengah",32184,,,null
1608142006,160814,1608,16,"Adu manis",32184,,,null
1608142007,160814,1608,16,"Suka Negeri",32184,,,null
1608142008,160814,1608,16,Kangkung,32184,,,null
1608142009,160814,1608,16,"Sri Tanjung",32184,,,null
1608142010,160814,1608,16,"Kangkung Ilir",32184,,,null
1608142011,160814,1608,16,"Betung Timur",32184,,,null
1608142012,160814,1608,16,"Menanga Sari",32184,,,null
1608152001,160815,1608,16,"Karang Melati",32185,,,null
1608152002,160815,1608,16,"Karang Menjangan",32185,,,null
1608152003,160815,1608,16,"Karang Anyar",32185,,,null
1608152004,160815,1608,16,"Tulung Harapan",32185,,,null
1608152005,160815,1608,16,"Kota Tanah",32185,,,null
1608152006,160815,1608,16,Nirwana,32185,,,null
1608152007,160815,1608,16,"Brunai Mulia",32185,,,null
1608152008,160815,1608,16,"Kota Mulya",32185,,,null
1608152009,160815,1608,16,"Bungin Jaya",32185,,,null
1608152010,160815,1608,16,"Burnai Jaya",32185,,,null
1608152011,160815,1608,16,"Mulia Jaya",32185,,,null
1608152012,160815,1608,16,"Melati Jaya",32185,,,null
1608152013,160815,1608,16,"Karang Mulya",32185,,,null
1608152014,160815,1608,16,Wanasari,32185,,,null
1608152015,160815,1608,16,"Harapan Jaya",32185,,,null
1608152016,160815,1608,16,"Melati Agung",32185,,,null
1608152017,160815,1608,16,"Wana Makmur",32185,,,null
1608152018,160815,1608,16,"Bawang Tikar",32185,,,null
1608152019,160815,1608,16,"Karya Bakti",32185,,,null
1608162001,160816,1608,16,Jayapura,32381,,,null
1608162002,160816,1608,16,"Bunga Mayang",32381,,,null
1608162003,160816,1608,16,"Way Salak",32381,,,null
1608162004,160816,1608,16,Mendah,32381,,,null
1608162005,160816,1608,16,Tumijaya,32381,,,null
1608162006,160816,1608,16,Condong,32381,,,null
1608162007,160816,1608,16,"Peracak Jaya",32381,,,null
1608162008,160816,1608,16,Kambang,32381,,,null
1608172001,160817,1608,16,Rejosari,32380,,,null
1608172002,160817,1608,16,"Sido Rejo",32380,,,null
1608172003,160817,1608,16,"Banjar Rejo",32380,,,null
1608172004,160817,1608,16,"Panca Tunggal",32380,,,null
1608172005,160817,1608,16,"Marga Koyo",32380,,,null
1608172006,160817,1608,16,"Sumber Agung",32380,,,null
1608172007,160817,1608,16,"Karsa Jaya",32380,,,null
1608172008,160817,1608,16,Windusari,32380,,,null
1608172009,160817,1608,16,"Karya Makmur",32380,,,null
1608172010,160817,1608,16,"Giri Mulyo",32380,,,null
1608172011,160817,1608,16,Magugondo,32380,,,null
1608172012,160817,1608,16,Argomulyo,32380,,,null
1608172013,160817,1608,16,"Rejosari Jaya",32380,,,null
1608182001,160818,1608,16,"Tugu Mulyo",32363,,,null
1608182002,160818,1608,16,"Bangsa Negara",32363,,,null
1608182003,160818,1608,16,"Tugu Harum",32363,,,null
1608182004,160818,1608,16,"Tulus Ayu",32363,,,null
1608182005,160818,1608,16,Yosowinangun,32363,,,null
1608182006,160818,1608,16,"Karang Binangun",32363,,,null
1608182007,160818,1608,16,"Jati Mulyo I",32363,,,null
1608182008,160818,1608,16,"Pandan Sari I",32363,,,null
1608182009,160818,1608,16,"Pelita Jaya",32363,,,null
1608182010,160818,1608,16,"Mekar Jaya",32363,,,null
1608182011,160818,1608,16,"Lubuk Harjo",32363,,,null
1608182012,160818,1608,16,"Tanah Merah",32363,,,null
1608182013,160818,1608,16,"Rantau Jaya",32363,,,null
1608182014,160818,1608,16,"Tebing Sari Mulya",32363,,,null
1608182015,160818,1608,16,"Marga Cinta",32363,,,null
1608182016,160818,1608,16,"Karang Binangun II",32363,,,null
1608192001,160819,1608,16,"Sari Guna",32388,,,null
1608192002,160819,1608,16,"Sido Waluyo",32388,,,null
1608192003,160819,1608,16,"Sugih Waras",32388,,,null
1608192004,160819,1608,16,"Rejo Sari",32388,,,null
1608192005,160819,1608,16,Petanggan,32388,,,null
1608192006,160819,1608,16,Purwodadi,32388,,,null
1608192007,160819,1608,16,"Sri Mulyo",32388,,,null
1608192008,160819,1608,16,"Ulak Buntar",32388,,,null
1608192009,160819,1608,16,Sribudaya,32388,,,null
1608192010,160819,1608,16,Sukoharjo,32388,,,null
1608192011,160819,1608,16,"Tulung Sari",32388,,,null
1608192012,160819,1608,16,"Mulya Sari",32388,,,null
1608202001,160820,1608,16,"Sri Bunga",32364,,,null
1608202002,160820,1608,16,Anyar,32364,,,null
1608202003,160820,1608,16,"Pandan Sari III",32364,,,null
1608202004,160820,1608,16,Rawasari,32364,,,null
1608202005,160820,1608,16,"Surya Menang",32364,,,null
1608202006,160820,1608,16,"Muncak Kabau",32364,,,null
1608202007,160820,1608,16,"Sri Bulan",32364,,,null
1609011013,160901,1609,16,"Batu Belang Jaya",32212,,,null
1609011014,160901,1609,16,"Bumi Agung",32212,,,null
1609011015,160901,1609,16,"Pancur Pungah",32212,,,null
1609011016,160901,1609,16,Kisau,32212,,,null
1609011019,160901,1609,16,"Pasar Muaradua",32212,,,null
1609012002,160901,1609,16,"Gedung Lepihan",32212,,,null
1609012003,160901,1609,16,"Gunung Tiga",32212,,,null
1609012004,160901,1609,16,"Suka Banjar",32212,,,null
1609012005,160901,1609,16,"Sukaraja II",32212,,,null
1609012017,160901,1609,16,Pendagan,32212,,,null
1609012018,160901,1609,16,Mehanggin,32212,,,null
1609012024,160901,1609,16,Pelangki,32212,,,null
1609012025,160901,1609,16,"Batu Belang 2",32212,,,null
1609012026,160901,1609,16,Datar,32212,,,null
1609022012,160902,1609,16,"Tanjung Bulan",32273,,,null
1609022013,160902,1609,16,"Pulau Beringin",32273,,,null
1609022014,160902,1609,16,Aromantai,32273,,,null
1609022015,160902,1609,16,"Tanjung Kari",32273,,,null
1609022016,160902,1609,16,"Simpang Pancur",32273,,,null
1609022017,160902,1609,16,"Pagar Agung",32273,,,null
1609022018,160902,1609,16,"Gunung Batu",32273,,,null
1609022019,160902,1609,16,Kemu,32273,,,null
1609022020,160902,1609,16,"Anugerah Kemu",32273,,,null
1609022021,160902,1609,16,"Kemu Ulu",32273,,,null
1609022022,160902,1609,16,"Pematang Obar",32273,,,null
1609022023,160902,1609,16,"Tanjung Bulan Ulu",32273,,,null
1609022024,160902,1609,16,"Pulau Beringin Utara",32273,,,null
1609031023,160903,1609,16,"Bandar Agung Ranau",32274,,,null
1609032020,160903,1609,16,"Way Timah",32274,,,null
1609032021,160903,1609,16,Sipatuhu,32274,,,null
1609032022,160903,1609,16,"Banding Agung",32274,,,null
1609032024,160903,1609,16,Surabaya,32274,,,null
1609032025,160903,1609,16,"Sugih Waras",32274,,,null
1609032026,160903,1609,16,"Suka Negeri",32274,,,null
1609032027,160903,1609,16,"Rantau Nipis",32274,,,null
1609032028,160903,1609,16,"Air Rupik",32274,,,null
1609032031,160903,1609,16,"Talang Merbau",32274,,,null
1609032032,160903,1609,16,"Tanjung Agung",32274,,,null
1609032033,160903,1609,16,"Tanjung Harapan",32274,,,null
1609032034,160903,1609,16,Telanai,32274,,,null
1609032035,160903,1609,16,"Sumber Makmur",32274,,,null
1609032036,160903,1609,16,"Karang Indah",32274,,,null
1609032037,160903,1609,16,"Tangsi Agung",32274,,,null
1609032038,160903,1609,16,Penantian,32274,,,null
1609032039,160903,1609,16,"Suka Maju",32274,,,null
1609032040,160903,1609,16,Sidodadi,32274,,,null
1609032041,160903,1609,16,"Sipatuhu II",32274,,,null
1609032042,160903,1609,16,"Terap Mulia",32274,,,null
1609032043,160903,1609,16,"Surabaya Timur",32274,,,null
1609042001,160904,1609,16,"Lawang Agung",32271,,,null
1609042002,160904,1609,16,"Bayur Tengah",32271,,,null
1609042003,160904,1609,16,"Tanjung Tebat",32271,,,null
1609042004,160904,1609,16,Sugihan,32271,,,null
1609042005,160904,1609,16,Penyandingan,32271,,,null
1609042006,160904,1609,16,"Alun Dua",32271,,,null
1609042007,160904,1609,16,"Bandar Alam Baru",32271,,,null
1609042008,160904,1609,16,"Dusun Tengah",32271,,,null
1609042009,160904,1609,16,"Ulak Agung Ilir",32271,,,null
1609042011,160904,1609,16,"Gunung Gare",32271,,,null
1609042018,160904,1609,16,"Ulak Agung Ulu",32271,,,null
1609042019,160904,1609,16,"Muaradua Kisam",32271,,,null
1609042020,160904,1609,16,Sukananti,32271,,,null
1609042021,160904,1609,16,"Pagar Dewa",32271,,,null
1609042022,160904,1609,16,"Tanjung Beringin",32271,,,null
1609042028,160904,1609,16,Panantian,32271,,,null
1609042029,160904,1609,16,Sukaraja,32271,,,null
1609042040,160904,1609,16,"Simpang Lubuk Dalam",32271,,,null
1609052001,160905,1609,16,"Karang Agung",32263,,,null
1609052007,160905,1609,16,Lubar,32263,,,null
1609052008,160905,1609,16,"Tanjung Sari",32263,,,null
1609052009,160905,1609,16,Simpangan,32263,,,null
1609052010,160905,1609,16,"Bungin Campang",32263,,,null
1609052029,160905,1609,16,"Simpang Agung",32263,,,null
1609052030,160905,1609,16,"Sinar Mulyo",32263,,,null
1609062007,160906,1609,16,Sukarami,32277,,,null
1609062008,160906,1609,16,"Tanjung Raya",32277,,,null
1609062010,160906,1609,16,"Tanjung Menang Ilir",32277,,,null
1609062011,160906,1609,16,"Tanjung Menang Ulu",32277,,,null
1609062012,160906,1609,16,Kenali,32277,,,null
1609062013,160906,1609,16,"Negeri Cahya",32277,,,null
1609062014,160906,1609,16,"Sukaraja I",32277,,,null
1609062015,160906,1609,16,"Tanjung Iman",32277,,,null
1609062016,160906,1609,16,"Bunga Mas",32277,,,null
1609062017,160906,1609,16,"Lubuk Liku",32277,,,null
1609062018,160906,1609,16,"Kota Karang",32277,,,null
1609062019,160906,1609,16,"Negeri Batin",32277,,,null
1609062020,160906,1609,16,Madura,32277,,,null
1609062021,160906,1609,16,"Negeri Agung",32277,,,null
1609062022,160906,1609,16,"Gunung Terang",32277,,,null
1609062023,160906,1609,16,"Talang Baru",32277,,,null
1609072001,160907,1609,16,"Sugih Rawas",32278,,,null
1609072002,160907,1609,16,"Padang Sari",32278,,,null
1609072003,160907,1609,16,"Padang Bindu",32278,,,null
1609072005,160907,1609,16,"Saung Naga",32278,,,null
1609072006,160907,1609,16,"Negeri Batin Baru",32278,,,null
1609072007,160907,1609,16,"Kota Aman",32278,,,null
1609072008,160907,1609,16,Belambangan,32278,,,null
1609072009,160907,1609,16,Paninjauan,32278,,,null
1609072018,160907,1609,16,"Nagar Agung",32278,,,null
1609072019,160907,1609,16,"Simpang Saga",32278,,,null
1609072020,160907,1609,16,"Perupus Blambangan",32278,,,null
1609072021,160907,1609,16,"Kagelang Blambangan",32278,,,null
1609072022,160907,1609,16,"Sukajadi Blambangan",32278,,,null
1609072023,160907,1609,16,"Bedeng Blambangan",32278,,,null
1609082001,160908,1609,16,"Kota Dalam",32276,,,null
1609082002,160908,1609,16,"Teluk Agung",32276,,,null
1609082003,160908,1609,16,"Pulau Duku",32276,,,null
1609082004,160908,1609,16,"Tanjung Besar",32276,,,null
1609082005,160908,1609,16,"Sinar Marga",32276,,,null
1609082006,160908,1609,16,"Kota Baru",32276,,,null
1609082007,160908,1609,16,"Galang Tinggi",32276,,,null
1609082008,160908,1609,16,Sukaraja,32276,,,null
1609082009,160908,1609,16,"Sri Menanti",32276,,,null
1609082010,160908,1609,16,Kepayang,32276,,,null
1609082011,160908,1609,16,"Kemang Bandung",32276,,,null
1609082012,160908,1609,16,"Selabung Belimbing Jaya",32276,,,null
1609082013,160908,1609,16,Bunut,32276,,,null
1609082014,160908,1609,16,"Air Baru",32276,,,null
1609082015,160908,1609,16,Pere'an,32276,,,null
1609092001,160909,1609,16,"Tanjung Durian",32265,,,null
1609092002,160909,1609,16,Sipin,32265,,,null
1609092003,160909,1609,16,"Kota Way",32265,,,null
1609092004,160909,1609,16,"Talang Padang",32265,,,null
1609092005,160909,1609,16,"Sri Menanti",32265,,,null
1609092006,160909,1609,16,"Serakat Jaya",32265,,,null
1609092007,160909,1609,16,"Karet Jaya",32265,,,null
1609092008,160909,1609,16,"Danau Jaya",32265,,,null
1609092009,160909,1609,16,"Sumber Ringin",32265,,,null
1609092010,160909,1609,16,"Kembang Tinggi",32265,,,null
1609092011,160909,1609,16,"Sido Rahayu",32265,,,null
1609092012,160909,1609,16,Sidodadi,32265,,,null
1609092013,160909,1609,16,"Durian Sembilan",32265,,,null
1609092014,160909,1609,16,"Sumber Raya",32265,,,null
1609092015,160909,1609,16,"Sinar Napalan",32265,,,null
1609092016,160909,1609,16,"Tanjung Jaya",32265,,,null
1609092017,160909,1609,16,"Sinar Baru",32265,,,null
1609092018,160909,1609,16,"Mekar Jaya",32265,,,null
1609092019,160909,1609,16,"Tanjung Sari",32265,,,null
1609092020,160909,1609,16,"Tanjung Baru",32265,,,null
1609092021,160909,1609,16,"Air Kelian",32265,,,null
1609092022,160909,1609,16,"Tanjung Menang",32265,,,null
1609102001,160910,1609,16,Balayan,32279,,,null
1609102002,160910,1609,16,Berasang,32279,,,null
1609102003,160910,1609,16,"Tebat Gabus",32279,,,null
1609102004,160910,1609,16,"Padang Lay",32279,,,null
1609102005,160910,1609,16,"Danau Rata",32279,,,null
1609102006,160910,1609,16,"Pajar Bulan",32279,,,null
1609102007,160910,1609,16,"Bandar Alam Lama",32279,,,null
1609102008,160910,1609,16,"Muara Payang",32279,,,null
1609102009,160910,1609,16,"Siring Agung",32279,,,null
1609102010,160910,1609,16,"Kota Padang",32279,,,null
1609102011,160910,1609,16,"Padang Bindu",32279,,,null
1609102012,160910,1609,16,Tenang,32279,,,null
1609102013,160910,1609,16,"Gunung Megang",32279,,,null
1609102014,160910,1609,16,"Ulak Pandan",32279,,,null
1609102015,160910,1609,16,"Pulau Panggung",32279,,,null
1609102016,160910,1609,16,"Simpang Tiga",32279,,,null
1609102017,160910,1609,16,"Simpang Empat",32279,,,null
1609102018,160910,1609,16,"Singa Laga",32279,,,null
1609102019,160910,1609,16,"Air Alun",32279,,,null
1609112001,160911,1609,16,Pius,32272,,,null
1609112002,160911,1609,16,Pengandonan,32272,,,null
1609112003,160911,1609,16,"Siring Alam",32272,,,null
1609112004,160911,1609,16,"Simpang Campang",32272,,,null
1609112005,160911,1609,16,"Pulau Kemiling",32272,,,null
1609112006,160911,1609,16,"Keban Agung",32272,,,null
1609112007,160911,1609,16,"Muara Sindang",32272,,,null
1609112008,160911,1609,16,"Campang Jaya",32272,,,null
1609112009,160911,1609,16,"Tanjung Jati",32272,,,null
1609121013,160912,1609,16,"Simpang Sender",32268,,,null
1609122001,160912,1609,16,"Tanjung Kemala",32268,,,null
1609122002,160912,1609,16,Sukamarga,32268,,,null
1609122003,160912,1609,16,Subik,32268,,,null
1609122004,160912,1609,16,Jepara,32268,,,null
1609122005,160912,1609,16,Hangkusa,32268,,,null
1609122006,160912,1609,16,Sukarami,32268,,,null
1609122007,160912,1609,16,"Padang Ratu",32268,,,null
1609122008,160912,1609,16,"Tanjung Setia",32268,,,null
1609122009,160912,1609,16,"Gedung Baru",32268,,,null
1609122010,160912,1609,16,"Tanjung Sari",32268,,,null
1609122011,160912,1609,16,"Suka Bumi",32268,,,null
1609122012,160912,1609,16,"Sumber Mulia",32268,,,null
1609122014,160912,1609,16,"Way Relai",32268,,,null
1609122015,160912,1609,16,"Tanjung Baru Ranau",32268,,,null
1609122016,160912,1609,16,"Simpang Sender Selatan",32268,,,null
1609122017,160912,1609,16,"Simpang Sender Utara",32268,,,null
1609122018,160912,1609,16,"Simpang Sender Timur",32268,,,null
1609122019,160912,1609,16,"Simpang Sender Tengah",32268,,,null
1609122020,160912,1609,16,"Sumber Jaya",32268,,,null
1609122021,160912,1609,16,"Pakhda Suka",32268,,,null
1609122022,160912,1609,16,"Serumpun Jaya",32268,,,null
1609132001,160913,1609,16,Sukajaya,32275,,,null
1609132002,160913,1609,16,"Kota Batu",32275,,,null
1609132003,160913,1609,16,"Pagar Dewa",32275,,,null
1609132004,160913,1609,16,"Tanjung Jati",32275,,,null
1609132005,160913,1609,16,"Gunung Aji",32275,,,null
1609132006,160913,1609,16,Pilla,32275,,,null
1609132007,160913,1609,16,"Gunung Raya",32275,,,null
1609132008,160913,1609,16,"Remanam Jaya",32275,,,null
1609132009,160913,1609,16,"Kiwis Raya",32275,,,null
1609132010,160913,1609,16,"Segigok Raya",32275,,,null
1609132011,160913,1609,16,"Bumi Agung",32275,,,null
1609132012,160913,1609,16,"Mekar Sari",32275,,,null
1609132013,160913,1609,16,"Bedeng Tiga",32275,,,null
1609132014,160913,1609,16,"Gedung Ranau",32275,,,null
1609132015,160913,1609,16,"Tanjung Baru",32275,,,null
1609132016,160913,1609,16,"Way Wangi Seminung",32275,,,null
1609142001,160914,1609,16,Merpang,32270,,,null
1609142002,160914,1609,16,"Tanjung Kurung",32270,,,null
1609142003,160914,1609,16,"Air Baru",32270,,,null
1609142004,160914,1609,16,Penanggungan,32270,,,null
1609142005,160914,1609,16,"Bumi Genap",32270,,,null
1609142006,160914,1609,16,"Gedung Nyawa",32270,,,null
1609142007,160914,1609,16,"Gedung Wani",32270,,,null
1609142008,160914,1609,16,Sura,32270,,,null
1609142009,160914,1609,16,"Karang Endah",32270,,,null
1609152001,160915,1609,16,"Pulau Kemuning",32267,,,null
1609152002,160915,1609,16,"Guntung Jaya",32267,,,null
1609152003,160915,1609,16,"Tanah Pilih",32267,,,null
1609152004,160915,1609,16,"Ujan Mas",32267,,,null
1609152005,160915,1609,16,"Pecah Pinggan",32267,,,null
1609152006,160915,1609,16,"Cukoh Nau",32267,,,null
1609152007,160915,1609,16,"Simpang Luas",32267,,,null
1609152008,160915,1609,16,"Sedau Jaya",32267,,,null
1609152009,160915,1609,16,Sebaja,32267,,,null
1609162001,160916,1609,16,"Tanjung Harapan",32266,,,null
1609162002,160916,1609,16,"Muara Sindang Ilir",32266,,,null
1609162003,160916,1609,16,"Muara Sindang Tengah",32266,,,null
1609162004,160916,1609,16,"Pematang Danau",32266,,,null
1609162005,160916,1609,16,"Ulu Danau",32266,,,null
1609162006,160916,1609,16,"Tebat Layang",32266,,,null
1609162007,160916,1609,16,Watas,32266,,,null
1609172001,160917,1609,16,Tekana,32264,,,null
1609172002,160917,1609,16,"Tanjung Beringin",32264,,,null
1609172003,160917,1609,16,Bandar,32264,,,null
1609172004,160917,1609,16,Jagaraga,32264,,,null
1609172005,160917,1609,16,Damarpura,32264,,,null
1609172006,160917,1609,16,"Tunas Jaya",32264,,,null
1609172007,160917,1609,16,"Sinar Danau",32264,,,null
1609172008,160917,1609,16,Gemiung,32264,,,null
1609182001,160918,1609,16,Peninggiran,32262,,,null
1609182002,160918,1609,16,Kuripan,32262,,,null
1609182003,160918,1609,16,Surabaya,32262,,,null
1609182004,160918,1609,16,Sukarena,32262,,,null
1609182005,160918,1609,16,"Karang Pendeta",32262,,,null
1609182006,160918,1609,16,"Kota Agung",32262,,,null
1609182007,160918,1609,16,Sukabumi,32262,,,null
1609182008,160918,1609,16,"Kuripan II",32262,,,null
1609192001,160919,1609,16,"Rantau Panjang",32211,,,null
1609192002,160919,1609,16,Sukajaya,32211,,,null
1609192003,160919,1609,16,"Banjar Agung",32211,,,null
1609192004,160919,1609,16,Ruos,32211,,,null
1609192005,160919,1609,16,"Gunung Cahya",32211,,,null
1609192006,160919,1609,16,"Bumi Jaya",32211,,,null
1609192007,160919,1609,16,Bendi,32211,,,null
1609192008,160919,1609,16,Pekuolan,32211,,,null
1609192009,160919,1609,16,Pelawi,32211,,,null
1609192011,160919,1609,16,Majar,32211,,,null
1609192012,160919,1609,16,"Bumi Agung Jaya",32211,,,null
1610011011,161001,1610,16,"Muara Kuang",30865,,,null
1610012005,161001,1610,16,Munggu,30865,,,null
1610012006,161001,1610,16,"Seri Menanti",30865,,,null
1610012007,161001,1610,16,"Rantau Sialang",30865,,,null
1610012008,161001,1610,16,"Kuang Anyar",30865,,,null
1610012009,161001,1610,16,Kasah,30865,,,null
1610012012,161001,1610,16,"Tanabang Ulu",30865,,,null
1610012013,161001,1610,16,"Seri Kembang",30865,,,null
1610012014,161001,1610,16,Nagasari,30865,,,null
1610012015,161001,1610,16,"Suka Cinta",30865,,,null
1610012016,161001,1610,16,Kelampadu,30865,,,null
1610012029,161001,1610,16,Sukajadi,30865,,,null
1610012030,161001,1610,16,Ramakasih,30865,,,null
1610012031,161001,1610,16,"Tanabang Ilir",30865,,,null
1610021017,161002,1610,16,"Tanjung Batu",30665,,,null
1610021037,161002,1610,16,"Tanjung Batu Timur",30665,,,null
1610022010,161002,1610,16,"Seri Bandung",30665,,,null
1610022011,161002,1610,16,"Seri Tanjung",30665,,,null
1610022012,161002,1610,16,"Tanjung Tambak",30665,,,null
1610022013,161002,1610,16,"Senuro Timur",30665,,,null
1610022014,161002,1610,16,"Tanjung Baru Petai",30665,,,null
1610022015,161002,1610,16,"Tanjung Batu Seberang",30665,,,null
1610022016,161002,1610,16,"Pajar Bulan",30665,,,null
1610022018,161002,1610,16,"Tanjung Atap",30665,,,null
1610022019,161002,1610,16,"Tanjung Pinang I",30665,,,null
1610022020,161002,1610,16,"Limbang Jaya I",30665,,,null
1610022021,161002,1610,16,"Tanjung Laut",30665,,,null
1610022026,161002,1610,16,Burai,30665,,,null
1610022027,161002,1610,16,Sentul,30665,,,null
1610022031,161002,1610,16,"Bangun Jaya",30665,,,null
1610022032,161002,1610,16,"Tanjung Tambak Baru",30665,,,null
1610022033,161002,1610,16,"Limbang Jaya II",30665,,,null
1610022034,161002,1610,16,"Senuro Barat",30665,,,null
1610022035,161002,1610,16,"Tanjung Pinang II",30665,,,null
1610022036,161002,1610,16,"Tanjung Atap Barat",30665,,,null
1610031001,161003,1610,16,"Tanjung Raja",30663,,,null
1610031027,161003,1610,16,"Tanjung Raja Barat",30663,,,null
1610031028,161003,1610,16,"Tanjung Raja Utara",30663,,,null
1610031035,161003,1610,16,"Tanjung Raja Timur",30663,,,null
1610032002,161003,1610,16,"Suka Pindah",30663,,,null
1610032007,161003,1610,16,"Tanjung Temiang",30663,,,null
1610032008,161003,1610,16,"Seri Dalam",30663,,,null
1610032018,161003,1610,16,Kerinjing,30663,,,null
1610032019,161003,1610,16,"Ulak Kerbau Baru",30663,,,null
1610032020,161003,1610,16,"Ulak Kerbau Lama",30663,,,null
1610032021,161003,1610,16,"Tanjung Agas",30663,,,null
1610032022,161003,1610,16,"Siring Alam",30663,,,null
1610032023,161003,1610,16,"Talang Balai Baru I",30663,,,null
1610032024,161003,1610,16,"Talang Balai Lama",30663,,,null
1610032030,161003,1610,16,Skonjing,30663,,,null
1610032031,161003,1610,16,"Tanjung Raja Selatan",30663,,,null
1610032032,161003,1610,16,Belanti,30663,,,null
1610032033,161003,1610,16,"Tanjung Harapan",30663,,,null
1610032034,161003,1610,16,"Talang Balai Baru II",30663,,,null
1610041030,161004,1610,16,"Indralaya Raya",30862,,,null
1610041031,161004,1610,16,"Indralaya Indah",30862,,,null
1610041032,161004,1610,16,"Indralaya Mulia",30862,,,null
1610042005,161004,1610,16,"Lubuk Sakti",30862,,,null
1610042006,161004,1610,16,"Tanjung Gelam",30862,,,null
1610042007,161004,1610,16,"Tanjung Agung",30862,,,null
1610042008,161004,1610,16,"Tanjung Sejaro",30815,,,null
1610042009,161004,1610,16,"Sakatiga Seberang",30814,,,null
1610042010,161004,1610,16,"Muara P. Ulu",30862,,,null
1610042012,161004,1610,16,"Tanjung Seteko",30817,,,null
1610042013,161004,1610,16,"Saka Tiga",30816,,,null
1610042014,161004,1610,16,"Ulak Banding",30862,,,null
1610042015,161004,1610,16,"Muara P. Ilir",30862,,,null
1610042016,161004,1610,16,"Talang Aur",30862,,,null
1610042017,161004,1610,16,"Ulak Bedil",30862,,,null
1610042018,161004,1610,16,Penyandingan,30862,,,null
1610042019,161004,1610,16,Sudimampir,30862,,,null
1610042027,161004,1610,16,"Ulak Segelung",30862,,,null
1610042028,161004,1610,16,"Sejaro Sakti",30862,,,null
1610042029,161004,1610,16,"Tunas Aur",30862,,,null
1610052015,161005,1610,16,Aurstanding,30653,,,null
1610052016,161005,1610,16,Sukarami,30653,,,null
1610052017,161005,1610,16,"Muara Dua",30653,,,null
1610052018,161005,1610,16,Palu,30653,,,null
1610052019,161005,1610,16,"Teluk Kecapi",30653,,,null
1610052020,161005,1610,16,"Pelabuhan Dalam",30653,,,null
1610052021,161005,1610,16,"Pemulutan Ulu",30653,,,null
1610052022,161005,1610,16,"Pemulutan Ilir",30653,,,null
1610052023,161005,1610,16,"Sungai Rasau",30653,,,null
1610052024,161005,1610,16,"Ibul Besar I",30653,,,null
1610052025,161005,1610,16,Pegayut,30653,,,null
1610052029,161005,1610,16,"S. Pelabuhan Dlm",30653,,,null
1610052030,161005,1610,16,"Ibul Besar II",30653,,,null
1610052031,161005,1610,16,"Ibul Besar III",30653,,,null
1610052032,161005,1610,16,"Mekar Jaya",30653,,,null
1610052033,161005,1610,16,"Kedukan Bujang",30653,,,null
1610052034,161005,1610,16,"Rawa Jaya",30653,,,null
1610052035,161005,1610,16,"Babatan Saudagar",30653,,,null
1610052036,161005,1610,16,"Tanjung Pasir",30653,,,null
1610052037,161005,1610,16,Harapan,30653,,,null
1610052038,161005,1610,16,"Pipa Putih",30653,,,null
1610052039,161005,1610,16,"Sungai Buaya",30653,,,null
1610052040,161005,1610,16,"Muara Baru",30653,,,null
1610052041,161005,1610,16,Sembadak,30653,,,null
1610052042,161005,1610,16,"Lebung Jangkar",30653,,,null
1610062006,161006,1610,16,"Sirah Pulau Kilip",30866,,,null
1610062011,161006,1610,16,Kelampaian,30866,,,null
1610062012,161006,1610,16,Sukananti,30866,,,null
1610062013,161006,1610,16,Sukamarga,30866,,,null
1610062014,161006,1610,16,"Rantau Alai",30866,,,null
1610062015,161006,1610,16,"Kerta Bayang",30866,,,null
1610062016,161006,1610,16,"Tanjung Mas",30866,,,null
1610062017,161006,1610,16,"Talang Sari",30866,,,null
1610062018,161006,1610,16,"Lebung Bandung",30866,,,null
1610062020,161006,1610,16,"Sanding Marga",30866,,,null
1610062021,161006,1610,16,Sukamaju,30866,,,null
1610062022,161006,1610,16,"Mekar Sari",30866,,,null
1610062023,161006,1610,16,"Sukananti Baru",30866,,,null
1610071016,161007,1610,16,Timbangan,30862,,,null
1610072001,161007,1610,16,"Tanjung Pering",30813,,,null
1610072002,161007,1610,16,Bakung,30862,,,null
1610072003,161007,1610,16,Lorok,30862,,,null
1610072004,161007,1610,16,Parit,30862,,,null
1610072005,161007,1610,16,Payakabung,30812,,,null
1610072006,161007,1610,16,"Sungai Rambutan",30862,,,null
1610072007,161007,1610,16,"Purna Jaya",30862,,,null
1610072008,161007,1610,16,"Soak Batok",30862,,,null
1610072009,161007,1610,16,"Tanjung Baru",30862,,,null
1610072010,161007,1610,16,"Tanjung Pule",30862,,,null
1610072011,161007,1610,16,"Permata Baru",30862,,,null
1610072012,161007,1610,16,"Suka Mulia",30862,,,null
1610072013,161007,1610,16,"Pulau Kabai",30862,,,null
1610072014,161007,1610,16,"Pulau Semambu",30862,,,null
1610072015,161007,1610,16,"Palem Raya",30862,,,null
1610082001,161008,1610,16,"Mandi Angin",30862,,,null
1610082002,161008,1610,16,"Tanjung Lubuk",30862,,,null
1610082003,161008,1610,16,"Tebing Gerinting Selatan",30862,,,null
1610082004,161008,1610,16,"Arisan Gading",30862,,,null
1610082005,161008,1610,16,"Tanjung Dayang Selatan",30862,,,null
1610082006,161008,1610,16,Beti,30862,,,null
1610082007,161008,1610,16,"Meranjat I",30862,,,null
1610082008,161008,1610,16,"Meranjat Ilir",30862,,,null
1610082009,161008,1610,16,"Meranjat II",30862,,,null
1610082010,161008,1610,16,"Sukaraja Lama",30862,,,null
1610082011,161008,1610,16,"Sukaraja Baru",30862,,,null
1610082012,161008,1610,16,"Tebing Gerinting Utara",30862,,,null
1610082013,161008,1610,16,"Tanjung Dayang Utara",30862,,,null
1610082014,161008,1610,16,"Meranjat III",30862,,,null
1610092001,161009,1610,16,"Pematang Bangsal",30653,,,null
1610092002,161009,1610,16,"Maya Pati",30653,,,null
1610092003,161009,1610,16,"Sungai Lebung",30653,,,null
1610092005,161009,1610,16,Kapuk,30653,,,null
1610092006,161009,1610,16,"Ulak Aurstanding",30653,,,null
1610092007,161009,1610,16,"Maju Jaya",30653,,,null
1610092008,161009,1610,16,"Naikan Tembakang",30653,,,null
1610092009,161009,1610,16,Segayam,30653,,,null
1610092010,161009,1610,16,"Cahaya Marga",30653,,,null
1610092011,161009,1610,16,"S. Lebung Ulu",30653,,,null
1610092012,161009,1610,16,"Sungai Keli",30653,,,null
1610092013,161009,1610,16,"Lebak Pering",30653,,,null
1610092014,161009,1610,16,"Sungai Ondok",30653,,,null
1610092015,161009,1610,16,"Harimau Tandang",30653,,,null
1610092016,161009,1610,16,"Pematang Bungur",30653,,,null
1610102001,161010,1610,16,"Suka Merindu",30653,,,null
1610102002,161010,1610,16,"Sarang Elang",30653,,,null
1610102003,161010,1610,16,Kamal,30653,,,null
1610102004,161010,1610,16,"Pulau Negara",30653,,,null
1610102005,161010,1610,16,"Talang Pangeran Ulu",30653,,,null
1610102006,161010,1610,16,"Ulak Kembahang I",30653,,,null
1610102007,161010,1610,16,"Ulak Petangisan",30653,,,null
1610102008,161010,1610,16,"Seri Bandung",30653,,,null
1610102009,161010,1610,16,"Ulak Kembahang II",30653,,,null
1610102010,161010,1610,16,"Talang Pangeran Ilir",30653,,,null
1610102011,161010,1610,16,"Arisan Jaya",30653,,,null
1610112001,161011,1610,16,"Kotadaro I",30661,,,null
1610112002,161011,1610,16,"Ketapang I",30661,,,null
1610112003,161011,1610,16,"Rantau Panjang Ilir",30661,,,null
1610112004,161011,1610,16,Jagaraja,30661,,,null
1610112005,161011,1610,16,Jagalano,30661,,,null
1610112006,161011,1610,16,"Sejangko I",30661,,,null
1610112007,161011,1610,16,"Kota Daro II",30661,,,null
1610112008,161011,1610,16,"Sungai Rotan",30661,,,null
1610112009,161011,1610,16,"Rantau Panjang Ulu",30661,,,null
1610112010,161011,1610,16,"Ketapang II",30661,,,null
1610112011,161011,1610,16,"Sejangko II",30661,,,null
1610112012,161011,1610,16,"Arisan Deras",30661,,,null
1610121007,161012,1610,16,"Sungai Pinang",30662,,,null
1610122001,161012,1610,16,Serijabo,30662,,,null
1610122002,161012,1610,16,"Sungai Pinang II",30662,,,null
1610122003,161012,1610,16,"Talang Dukun",30662,,,null
1610122004,161012,1610,16,"Tanjung Serian",30662,,,null
1610122005,161012,1610,16,Penyandingan,30662,,,null
1610122006,161012,1610,16,"Sungai Pinang III",30662,,,null
1610122008,161012,1610,16,"Pinang Jaya",30662,,,null
1610122009,161012,1610,16,"Sungai Pinang I",30662,,,null
1610122010,161012,1610,16,"Pinang Mas",30662,,,null
1610122011,161012,1610,16,"S. Pinang Lagati",30662,,,null
1610122012,161012,1610,16,"S. Pinang Nibung",30662,,,null
1610122013,161012,1610,16,"Seri Jabo Baru",30662,,,null
1610132001,161013,1610,16,"Lubuk Rukam",30867,,,null
1610132002,161013,1610,16,"Tanjung Alai",30867,,,null
1610132003,161013,1610,16,"Kandis I",30867,,,null
1610132004,161013,1610,16,"Kumbang Ulu",30867,,,null
1610132005,161013,1610,16,"Kumbang Ilir",30867,,,null
1610132006,161013,1610,16,Miji,30867,,,null
1610132007,161013,1610,16,"Santapan Barat",30867,,,null
1610132008,161013,1610,16,"Pandan Arang",30867,,,null
1610132009,161013,1610,16,"Muara Kumbang",30867,,,null
1610132010,161013,1610,16,"Kandis II",30867,,,null
1610132011,161013,1610,16,"Santapan Timur",30867,,,null
1610132012,161013,1610,16,"Lubuk Segonang",30867,,,null
1610142001,161014,1610,16,"Ibul Dalam",30869,,,null
1610142002,161014,1610,16,"Beringin Dalam",30869,,,null
1610142003,161014,1610,16,"Kuang Dalam Barat",30869,,,null
1610142004,161014,1610,16,"Lubuk Tunggal",30869,,,null
1610142005,161014,1610,16,"Ulak Segara",30869,,,null
1610142006,161014,1610,16,"Tanjung Bulan",30869,,,null
1610142007,161014,1610,16,"Tambang Rambang",30869,,,null
1610142008,161014,1610,16,Tangai/Sukananti,30869,,,null
1610142009,161014,1610,16,"Kayu Ara",30869,,,null
1610142010,161014,1610,16,"Tanjung Miring",30869,,,null
1610142011,161014,1610,16,Sunur,30869,,,null
1610142012,161014,1610,16,"Kuang Dalam Timur",30869,,,null
1610142013,161014,1610,16,"Suka Tangai",30869,,,null
1610152001,161015,1610,16,"Ulak Kembahang",30868,,,null
1610152002,161015,1610,16,"Lubuk Keliat",30868,,,null
1610152003,161015,1610,16,Embecang,30868,,,null
1610152004,161015,1610,16,"Kasi Raja",30868,,,null
1610152005,161015,1610,16,"Talang Tengah Darat",30868,,,null
1610152006,161015,1610,16,"Betung II",30868,,,null
1610152007,161015,1610,16,Ketiau,30868,,,null
1610152008,161015,1610,16,Payalengkang,30868,,,null
1610152009,161015,1610,16,"Betung I",30868,,,null
1610152010,161015,1610,16,"Talang Tengah Laut",30868,,,null
1610161012,161016,1610,16,"Payaraman Barat",30664,,,null
1610161013,161016,1610,16,"Payaraman Timur",30664,,,null
1610162001,161016,1610,16,"Tebedak I",30664,,,null
1610162002,161016,1610,16,"Lubuk Bandung",30664,,,null
1610162003,161016,1610,16,"Talang Seleman",30664,,,null
1610162004,161016,1610,16,"Tebedak II",30664,,,null
1610162005,161016,1610,16,"Tanjung lalang",30664,,,null
1610162006,161016,1610,16,"Seri Kembang I",30664,,,null
1610162007,161016,1610,16,"Rengas I",30664,,,null
1610162008,161016,1610,16,"Paya Besar",30664,,,null
1610162009,161016,1610,16,"Rengas II",30664,,,null
1610162010,161016,1610,16,"Seri Kembang II",30664,,,null
1610162011,161016,1610,16,"Seri Kembang III",30664,,,null
1611012001,161101,1611,16,"Batu Jungul",31592,,,null
1611012002,161101,1611,16,"Suka Dana",31592,,,null
1611012003,161101,1611,16,"Padang Bumai",31592,,,null
1611012004,161101,1611,16,Belimbing,31592,,,null
1611012005,161101,1611,16,"Tanjung Kurung",31592,,,null
1611012006,161101,1611,16,"Muara Pinang Baru",31592,,,null
1611012007,161101,1611,16,"Lubuk Tanjung",31592,,,null
1611012008,161101,1611,16,"Talang Baru",31592,,,null
1611012009,161101,1611,16,"Sapa Panjang",31592,,,null
1611012010,161101,1611,16,"Muara Pinang Lama",31592,,,null
1611012011,161101,1611,16,"Tanjung Tawang",31592,,,null
1611012012,161101,1611,16,"Gedung Agung",31592,,,null
1611012013,161101,1611,16,"Pajar Menang",31592,,,null
1611012014,161101,1611,16,Niur,31592,,,null
1611012015,161101,1611,16,"Muara Semah",31592,,,null
1611012016,161101,1611,16,"Talang Benteng",31592,,,null
1611012017,161101,1611,16,"Lubuk Ulak",31592,,,null
1611012018,161101,1611,16,"Batu Galang",31592,,,null
1611012019,161101,1611,16,"Muara Timbuk",31592,,,null
1611012020,161101,1611,16,"Seleman Ilir",31592,,,null
1611012021,161101,1611,16,"Seleman Ulu",31592,,,null
1611012022,161101,1611,16,Sawah,31592,,,null
1611021018,161102,1611,16,"Beruge Ilir",31598,,,null
1611021030,161102,1611,16,Pendopo,31598,,,null
1611021031,161102,1611,16,"Pagar Tengah",31598,,,null
1611022001,161102,1611,16,Jarakan,31598,,,null
1611022002,161102,1611,16,"Bandar Agung",31598,,,null
1611022003,161102,1611,16,"Lubuk Sepang",31598,,,null
1611022004,161102,1611,16,"Lubuk Layang",31598,,,null
1611022005,161102,1611,16,Nanjungan,31598,,,null
1611022006,161102,1611,16,Tanjungeran,31598,,,null
1611022007,161102,1611,16,Tanjungraman,31598,,,null
1611022020,161102,1611,16,Bayau,31598,,,null
1611022022,161102,1611,16,"Gn. Meraksa Baru",31598,,,null
1611022023,161102,1611,16,Landur,31598,,,null
1611022024,161102,1611,16,Muarakarang,31598,,,null
1611022025,161102,1611,16,"Sarang Bulan",31598,,,null
1611022026,161102,1611,16,Tanjungbaru,31598,,,null
1611022027,161102,1611,16,"Batu Cawang",31598,,,null
1611022028,161102,1611,16,Manggilan,31598,,,null
1611022029,161102,1611,16,"Gn Merakasa Lama",31598,,,null
1611032001,161103,1611,16,"Air Kelincar",31597,,,null
1611032002,161103,1611,16,"Talang Bengkulu",31597,,,null
1611032003,161103,1611,16,Kunduran,31597,,,null
1611032004,161103,1611,16,"Simpang Perigi",31597,,,null
1611032005,161103,1611,16,"Muara Kalangan",31597,,,null
1611032006,161103,1611,16,"Batu Lintang",31597,,,null
1611032007,161103,1611,16,"Padang Tepong",31597,,,null
1611032008,161103,1611,16,"Muara Betung",31597,,,null
1611032009,161103,1611,16,"Lb. Puding Baru",31597,,,null
1611032010,161103,1611,16,"Pulau Kemang",31597,,,null
1611032011,161103,1611,16,"Lb. Puding Lama",31597,,,null
1611032012,161103,1611,16,"Batu Bidung",31597,,,null
1611032024,161103,1611,16,"Tanjung Agung",31597,,,null
1611032025,161103,1611,16,Galang,31597,,,null
1611041010,161104,1611,16,Kupang,31456,,,null
1611041013,161104,1611,16,Tanjungkupang,31456,,,null
1611041014,161104,1611,16,"Tanjung Makmur",31456,,,null
1611041017,161104,1611,16,"Ps. Tebing Tinggi",31456,,,null
1611041033,161104,1611,16,"Jaya Loka",31456,,,null
1611041036,161104,1611,16,"Kelumpang Jaya",31456,,,null
1611042001,161104,1611,16,"Ujung Alih",31456,,,null
1611042002,161104,1611,16,"Lb. Gelanggang",31456,,,null
1611042003,161104,1611,16,"Ulak Mengkudu",31456,,,null
1611042004,161104,1611,16,"Batu Pance",31456,,,null
1611042005,161104,1611,16,"Aur Gading",31456,,,null
1611042006,161104,1611,16,"Terusan Lama",31456,,,null
1611042007,161104,1611,16,"Terusan Baru",31456,,,null
1611042008,161104,1611,16,"Rantau Tenang",31456,,,null
1611042009,161104,1611,16,"Seguring Kecil",31456,,,null
1611042011,161104,1611,16,"Kemang Manis",31456,,,null
1611042012,161104,1611,16,"Lampar Baru",31456,,,null
1611042021,161104,1611,16,"Kota Gading",31456,,,null
1611042022,161104,1611,16,"Batu Raja Baru",31456,,,null
1611042023,161104,1611,16,"Batu Raja Lama",31456,,,null
1611042024,161104,1611,16,"Sugi Waras",31456,,,null
1611042027,161104,1611,16,"Mekar Jaya",31456,,,null
1611042030,161104,1611,16,"Fajar Bakti",31456,,,null
1611042032,161104,1611,16,"Pancur Mas",31456,,,null
1611042034,161104,1611,16,"Makarti Jaya",31456,,,null
1611042035,161104,1611,16,"Tanjung Kupang Baru",31456,,,null
1611052001,161105,1611,16,"Umo Jati",31593,,,null
1611052002,161105,1611,16,"Tanjung Jati",31593,,,null
1611052003,161105,1611,16,"Pagar Jati",31593,,,null
1611052004,161105,1611,16,Nibung,31593,,,null
1611052005,161105,1611,16,"Batu Ampar",31593,,,null
1611052006,161105,1611,16,"Karang Tanding",31593,,,null
1611052007,161105,1611,16,"Lubuk Cik",31593,,,null
1611052008,161105,1611,16,"Rantau Kasai",31593,,,null
1611052009,161105,1611,16,Sukarami,31593,,,null
1611052010,161105,1611,16,"Rantau Aleh",31593,,,null
1611052011,161105,1611,16,"Tanjung Alam",31593,,,null
1611052012,161105,1611,16,"Lesung Batu",31593,,,null
1611052013,161105,1611,16,Babatan,31593,,,null
1611052014,161105,1611,16,"Muara Danau",31593,,,null
1611052015,161105,1611,16,Endalo,31593,,,null
1611052016,161105,1611,16,"Lubuk Tapang",31593,,,null
1611062001,161106,1611,16,"Karang Are",31596,,,null
1611062002,161106,1611,16,"Padang Titiran",31596,,,null
1611062003,161106,1611,16,"Kembahang Lama",31596,,,null
1611062004,161106,1611,16,"Pasar Tj. Padang",31596,,,null
1611062005,161106,1611,16,"Macang Manis",31596,,,null
1611062006,161106,1611,16,"Lubuk Buntak",31596,,,null
1611062007,161106,1611,16,"Talang Durian",31596,,,null
1611062008,161106,1611,16,"Talang Padang",31596,,,null
1611062009,161106,1611,16,"Kembahang Baru",31596,,,null
1611062010,161106,1611,16,Canggu,31596,,,null
1611062011,161106,1611,16,Remantai,31596,,,null
1611062012,161106,1611,16,"Ulak Dabuk",31596,,,null
1611062013,161106,1611,16,"Lampar Baru",31596,,,null
1611072001,161107,1611,16,"Talang Padang",31595,,,null
1611072002,161107,1611,16,"Tanjung Beringin",31595,,,null
1611072003,161107,1611,16,Penantian,31595,,,null
1611072004,161107,1611,16,"Pagar Jati",31595,,,null
1611072005,161107,1611,16,"Kebon Jati",31595,,,null
1611072006,161107,1611,16,"Bandar Agung",31595,,,null
1611072007,161107,1611,16,"Lawang Agung",31595,,,null
1611072008,161107,1611,16,Nanjungan,31595,,,null
1611072009,161107,1611,16,"Talang Randai",31595,,,null
1611072010,161107,1611,16,"Air Mayam",31595,,,null
1611072011,161107,1611,16,"Muara Rungga",31595,,,null
1611072012,161107,1611,16,"Padang Gelai",31595,,,null
1611072013,161107,1611,16,"Padang Bindu",31595,,,null
1611072014,161107,1611,16,"Muara Sindang",31595,,,null
1611072015,161107,1611,16,"Muara Aman",31595,,,null
1611082001,161108,1611,16,Puntang,31594,,,null
1611082002,161108,1611,16,Bandaraji,31594,,,null
1611082003,161108,1611,16,Paduraksa,31594,,,null
1611082004,161108,1611,16,"Karang Gede",31594,,,null
1611082005,161108,1611,16,"Karang Dapo Baru",31594,,,null
1611082006,161108,1611,16,"Karang Dapo Lama",31594,,,null
1611082007,161108,1611,16,Tanggarasa,31594,,,null
1611082008,161108,1611,16,"Tapa Baru",31594,,,null
1611082009,161108,1611,16,"Tapa Lama",31594,,,null
1611082010,161108,1611,16,Martapura,31594,,,null
1611082011,161108,1611,16,"Karang Anyar",31594,,,null
1611092001,161109,1611,16,"Lubuk Kelumpang",31457,,,null
1611092002,161109,1611,16,"Tanjungning Simpang",31457,,,null
1611092003,161109,1611,16,"Tanjungning Tengah",31457,,,null
1611092004,161109,1611,16,"Tanjungning Lama",31457,,,null
1611092005,161109,1611,16,"Tanjungning Jaya",31457,,,null
1611092006,161109,1611,16,Sawah,31457,,,null
1611092007,161109,1611,16,Kebon,31457,,,null
1611092008,161109,1611,16,"Suka Kaya",31457,,,null
1611092009,161109,1611,16,Taba,31457,,,null
1611092010,161109,1611,16,"Muara Saling",31457,,,null
1611102001,161110,1611,16,"Muaralintang Lama",31599,,,null
1611102002,161110,1611,16,"Muaralintang Baru",31599,,,null
1611102003,161110,1611,16,"Tebat Payang",31599,,,null
1611102004,161110,1611,16,"Karang Caya",31599,,,null
1611102005,161110,1611,16,Tanjungraya,31599,,,null
1611102006,161110,1611,16,"Padang Bindu",31599,,,null
1611102007,161110,1611,16,"Air Kandis",31599,,,null
1611102008,161110,1611,16,Lingge,31599,,,null
1611102009,161110,1611,16,"Rantau Dodor",31599,,,null
1611102010,161110,1611,16,Kungkilan,31599,,,null
1612011003,161201,1612,16,"Talang Ubi Timur",31213,,,null
1612011010,161201,1612,16,"Talang Ubi Barat",31211,,,null
1612011011,161201,1612,16,"Talang Ubi Utara",31214,,,null
1612011012,161201,1612,16,"Talang Ubi Selatan",31212,,,null
1612011017,161201,1612,16,"Pasar Bhayangkara",31214,,,null
1612011018,161201,1612,16,"Handayani Mulya",31214,,,null
1612012001,161201,1612,16,"Talang Bulang",31214,,,null
1612012002,161201,1612,16,Benuang,31214,,,null
1612012004,161201,1612,16,"Talang Akar",31214,,,null
1612012005,161201,1612,16,"Sungai Ibul",31214,,,null
1612012006,161201,1612,16,"Karta Dewa",31214,,,null
1612012007,161201,1612,16,"Panta Dewa",31214,,,null
1612012008,161201,1612,16,"Sungai Baung",31214,,,null
1612012009,161201,1612,16,Semangus,31214,,,null
1612012013,161201,1612,16,"Sinar Dewa",31214,,,null
1612012014,161201,1612,16,"Benakat Minyak",31214,,,null
1612012015,161201,1612,16,"Suka Maju",31214,,,null
1612012016,161201,1612,16,"Suka Damai",31214,,,null
1612012019,161201,1612,16,"Beruge Darat",31214,,,null
1612012020,161201,1612,16,"Simpang Tais",31214,,,null
1612022001,161202,1612,16,Sukarami,31317,,,null
1612022002,161202,1612,16,"Tanjung Baru",31317,,,null
1612022003,161202,1612,16,"Prabu Menang",31317,,,null
1612022004,161202,1612,16,"Tanding Marga",31317,,,null
1612022005,161202,1612,16,"Karang Tanding",31317,,,null
1612022006,161202,1612,16,"Lubuk Tampui",31317,,,null
1612022007,161202,1612,16,Tempirai,31317,,,null
1612022008,161202,1612,16,"Tempirai Selatan",31317,,,null
1612022009,161202,1612,16,"Kota Baru",31317,,,null
1612022010,161202,1612,16,"Tempirai Utara",31317,,,null
1612022011,161202,1612,16,"Tempirai Timur",31317,,,null
1612022012,161202,1612,16,Tambak,31317,,,null
1612022013,161202,1612,16,"Muara Ikan",31317,,,null
1612032001,161203,1612,16,Purun,31316,,,null
1612032002,161203,1612,16,"Gunung Menang",31316,,,null
1612032003,161203,1612,16,Mangkunegara,31316,,,null
1612032004,161203,1612,16,"Raja Jaya",31316,,,null
1612032005,161203,1612,16,"Air Itam",31316,,,null
1612032006,161203,1612,16,"Gunung Raja",31316,,,null
1612032007,161203,1612,16,"Air Itam Timur",31316,,,null
1612032008,161203,1612,16,"Sungai Langan",31316,,,null
1612032009,161203,1612,16,"Spantan Jaya",31316,,,null
1612032010,161203,1612,16,Babat,31316,,,null
1612032011,161203,1612,16,"Suka Raja",31316,,,null
1612032012,161203,1612,16,"Purun Timur",31316,,,null
1612032013,161203,1612,16,"Mangkunegara Timur",31316,,,null
1612042001,161204,1612,16,Betung,31315,,,null
1612042002,161204,1612,16,"Betung Barat",31315,,,null
1612042003,161204,1612,16,"Karang Agung",31315,,,null
1612042004,161204,1612,16,"Tanjung Kurung",31315,,,null
1612042005,161204,1612,16,Pengabuan,31315,,,null
1612042006,161204,1612,16,Prambatan,31315,,,null
1612042007,161204,1612,16,"Pengabuan Timur",31315,,,null
1612042008,161204,1612,16,"Betung Selatan",31315,,,null
1612052001,161205,1612,16,"Bumi Ayu",31314,,,null
1612052002,161205,1612,16,"Muara Sungai",31314,,,null
1612052003,161205,1612,16,"Tanah Abang Utara",31314,,,null
1612052004,161205,1612,16,Sedupi,31314,,,null
1612052005,161205,1612,16,Sukaraja,31314,,,null
1612052006,161205,1612,16,Curup,31314,,,null
1612052007,161205,1612,16,Raja,31314,,,null
1612052008,161205,1612,16,Pandan,31314,,,null
1612052009,161205,1612,16,Modong,31314,,,null
1612052010,161205,1612,16,"Tanah Abang Selatan",31314,,,null
1612052011,161205,1612,16,"Harapan Jaya",31314,,,null
1612052012,161205,1612,16,"Tanjung Dalam",31314,,,null
1612052013,161205,1612,16,"Lunas Jaya",31314,,,null
1612052014,161205,1612,16,"Raja Barat",31314,,,null
1612052015,161205,1612,16,"Tanah Abang Jaya",31314,,,null
1612052016,161205,1612,16,"Muara Dua",31314,,,null
1612052017,161205,1612,16,Sukamanis,31314,,,null
1613011007,161301,1613,16,"Muara Rupit",31653,,,null
1613012001,161301,1613,16,"Tanjung Beringin",31653,,,null
1613012002,161301,1613,16,Noman,31653,,,null
1613012003,161301,1613,16,"Batu Gajah",31653,,,null
1613012004,161301,1613,16,"Maur Lama",31653,,,null
1613012005,161301,1613,16,"Maur Baru",31653,,,null
1613012006,161301,1613,16,"Bingin Rupit",31653,,,null
1613012008,161301,1613,16,"Lubuk Rumbai",31653,,,null
1613012009,161301,1613,16,Pantai,31653,,,null
1613012010,161301,1613,16,"Lawang Agung",31653,,,null
1613012011,161301,1613,16,"Karang Waru",31653,,,null
1613012012,161301,1613,16,"Karang Anyar",31653,,,null
1613012013,161301,1613,16,"Sungai Jernih",31653,,,null
1613012014,161301,1613,16,"Beringin Jaya",31653,,,null
1613012015,161301,1613,16,"Lubuk Rumbai Baru",31653,,,null
1613012016,161301,1613,16,"Noman Baru",31653,,,null
1613012017,161301,1613,16,"Batu Gajah Baru",31653,,,null
1613021005,161302,1613,16,"Pasar Surulangun",31656,,,null
1613022001,161302,1613,16,Pangkalan,31656,,,null
1613022002,161302,1613,16,"Kerta Dewa",31656,,,null
1613022003,161302,1613,16,Teladas,31656,,,null
1613022004,161302,1613,16,"Pulau Lebar",31656,,,null
1613022006,161302,1613,16,"Sungai Baung",31656,,,null
1613022007,161302,1613,16,"Sungai Jauh",31656,,,null
1613022008,161302,1613,16,"Sungai Kijang",31656,,,null
1613022009,161302,1613,16,Surulangun,31656,,,null
1613022010,161302,1613,16,"Lesung Batu",31656,,,null
1613022011,161302,1613,16,"Lubuk Kemang",31656,,,null
1613022012,161302,1613,16,Remban,31656,,,null
1613022013,161302,1613,16,"Lesung Batu Muda",31656,,,null
1613022014,161302,1613,16,"Simpang Nibung Rawas",31656,,,null
1613022015,161302,1613,16,"Lubuk Mas",31656,,,null
1613022016,161302,1613,16,"Sungai Lanang",31656,,,null
1613022017,161302,1613,16,Sukomoro,31656,,,null
1613031003,161303,1613,16,"Karya Makmur",31667,,,null
1613032001,161303,1613,16,"Tebing Tinggi",31667,,,null
1613032002,161303,1613,16,"Jadi Mulya",31667,,,null
1613032004,161303,1613,16,"Mulya Jaya",31667,,,null
1613032005,161303,1613,16,"Sumber Makmur",31667,,,null
1613032006,161303,1613,16,"Sri Jaya Makmur",31667,,,null
1613032007,161303,1613,16,"Kelumpang Jaya",31667,,,null
1613032008,161303,1613,16,"Bumi Makmur",31667,,,null
1613032009,161303,1613,16,"Sumber Sari",31667,,,null
1613032010,161303,1613,16,"Krani Jaya",31667,,,null
1613032011,161303,1613,16,"Jadi Mulya I",31667,,,null
1613041005,161304,1613,16,"Bingin Teluk",31655,,,null
1613042001,161304,1613,16,Pauh,31655,,,null
1613042002,161304,1613,16,"Batu Kucing",31655,,,null
1613042003,161304,1613,16,Belani,31655,,,null
1613042004,161304,1613,16,"Tanjung Raja",31655,,,null
1613042006,161304,1613,16,"Mandi Angin",31655,,,null
1613042007,161304,1613,16,"Air Bening",31655,,,null
1613042008,161304,1613,16,"Beringin Sakti",31655,,,null
1613042009,161304,1613,16,"Beringin Makmur I",31655,,,null
1613042010,161304,1613,16,"Beringin Makmur II",31655,,,null
1613042011,161304,1613,16,"Pauh I",31655,,,null
1613042012,161304,1613,16,"Ketapat Bening",31655,,,null
1613042013,161304,1613,16,Mekarsari,31655,,,null
1613051004,161305,1613,16,"Karang Dapo I",31658,,,null
1613052001,161305,1613,16,Aringin,31658,,,null
1613052002,161305,1613,16,"Biaro Baru",31658,,,null
1613052003,161305,1613,16,"Biaro Lama",31658,,,null
1613052005,161305,1613,16,"Rantau Kadam",31658,,,null
1613052006,161305,1613,16,"Kerta Sari",31658,,,null
1613052007,161305,1613,16,"Karang Dapo II",31658,,,null
1613052008,161305,1613,16,"Setia Marga",31658,,,null
1613052009,161305,1613,16,"Bina Karya",31658,,,null
1613061009,161306,1613,16,"Karang Jaya",31654,,,null
1613062001,161306,1613,16,"Bukit Ulu",31654,,,null
1613062002,161306,1613,16,Sukaraja,31654,,,null
1613062003,161306,1613,16,"Lubuk Kumbung",31654,,,null
1613062004,161306,1613,16,"Muara Batang Empu",31654,,,null
1613062005,161306,1613,16,"Tanjung Agung",31654,,,null
1613062006,161306,1613,16,"Rantau Telang",31654,,,null
1613062007,161306,1613,16,"Suka Menang",31654,,,null
1613062008,161306,1613,16,Terusan,31654,,,null
1613062010,161306,1613,16,"Muara Tiku",31654,,,null
1613062011,161306,1613,16,"Embacang Baru",31654,,,null
1613062012,161306,1613,16,"Embacang Lama",31654,,,null
1613062013,161306,1613,16,"Rantau Jaya",31654,,,null
1613062014,161306,1613,16,"Bukit Langkap",31654,,,null
1613062015,161306,1613,16,"Embacang Baru Ilir",31654,,,null
1613071007,161307,1613,16,"Muara Kulam",31669,,,null
1613072001,161307,1613,16,Jangkat,31669,,,null
1613072002,161307,1613,16,"Napal Licin",31669,,,null
1613072003,161307,1613,16,Sosokan,31669,,,null
1613072004,161307,1613,16,"Kuto Tanjung",31669,,,null
1613072005,161307,1613,16,"Muara Kuis",31669,,,null
1613072006,161307,1613,16,"Pulau Kidak",31669,,,null
1671011001,167101,1671,16,"35 Ilir",30146,,,null
1671011002,167101,1671,16,"32 Ilir",30145,,,null
1671011003,167101,1671,16,"30 Ilir",30144,,,null
1671011004,167101,1671,16,"29 Ilir",30143,,,null
1671011005,167101,1671,16,"28 Ilir",30142,,,null
1671011006,167101,1671,16,"27 Ilir",30141,,,null
1671011007,167101,1671,16,"Kemang Manis",30144,,,null
1671021002,167102,1671,16,"1 Ulu",30257,,,null
1671021003,167102,1671,16,"2 Ulu",30257,,,null
1671021004,167102,1671,16,"3 / 4 Ulu",30255,,,null
1671021005,167102,1671,16,"5 Ulu",30254,,,null
1671021006,167102,1671,16,"7 Ulu",30253,,,null
1671031001,167103,1671,16,"11 Ulu",30267,,,null
1671031002,167103,1671,16,"12 Ulu",30262,,,null
1671031003,167103,1671,16,"13 Ulu",30263,,,null
1671031004,167103,1671,16,"14 Ulu",30264,,,null
1671031005,167103,1671,16,"16 Ulu",30265,,,null
1671031006,167103,1671,16,"Tangga Takat",30264,,,null
1671031007,167103,1671,16,Sentosa,30261,,,null
1671041001,167104,1671,16,"Bukit Lama",30139,,,null
1671041002,167104,1671,16,"Lorok Pakjo",30137,,,null
1671041003,167104,1671,16,"26 Ilir D. I",30136,,,null
1671041004,167104,1671,16,"Siring Agung",30138,,,null
1671041005,167104,1671,16,"Demang Lebar Daun",30131,,,null
1671041006,167104,1671,16,"Bukit Baru",30131,,,null
1671051001,167105,1671,16,"18 Ilir",30121,,,null
1671051002,167105,1671,16,"16 Ilir",30122,,,null
1671051003,167105,1671,16,"13 Ilir",30123,,,null
1671051004,167105,1671,16,"14 Ilir",30124,,,null
1671051005,167105,1671,16,"15 Ilir",30124,,,null
1671051006,167105,1671,16,"17 Ilir",30125,,,null
1671051007,167105,1671,16,"20 Ilir D. III",30129,,,null
1671051008,167105,1671,16,"20 Ilir D IV",30128,,,null
1671051009,167105,1671,16,"20 Ilir D. I",30126,,,null
1671051010,167105,1671,16,"Sungai Pangeran",30121,,,null
1671051011,167105,1671,16,"Kepandean Baru",30125,,,null
1671061005,167106,1671,16,"5 Ilir",30115,,,null
1671061006,167106,1671,16,"3 Ilir",30116,,,null
1671061007,167106,1671,16,"1 Ilir",30117,,,null
1671061008,167106,1671,16,"2 Ilir",30118,,,null
1671061009,167106,1671,16,"Lawang Kidul",30111,,,null
1671061012,167106,1671,16,"Sei Buah",30111,,,null
1671071002,167107,1671,16,"Talang Betutu",30155,,,null
1671071004,167107,1671,16,Sukajaya,30151,,,null
1671071005,167107,1671,16,"Suka Rami",30153,,,null
1671071007,167107,1671,16,"Kebun Bunga",30151,,,null
1671071009,167107,1671,16,"Suka Bangun",30151,,,null
1671071010,167107,1671,16,"Talang Jambe",30151,,,null
1671071011,167107,1671,16,Sukodadi,30151,,,null
1671081001,167108,1671,16,"Suka Maju",30164,,,null
1671081002,167108,1671,16,Sako,30163,,,null
1671081006,167108,1671,16,Sialang,30161,,,null
1671081007,167108,1671,16,"Sako Baru",30165,,,null
1671091001,167109,1671,16,"20 Ilir D II",30127,,,null
1671091002,167109,1671,16,"Ario Kemuning",30128,,,null
1671091003,167109,1671,16,"Sekip Jaya",30128,,,null
1671091004,167109,1671,16,Pahlawan,30128,,,null
1671091005,167109,1671,16,"Pipa Reja",30128,,,null
1671091006,167109,1671,16,"Talang Aman",30128,,,null
1671101001,167110,1671,16,"Bukit Sangkal",30114,,,null
1671101002,167110,1671,16,Kalidoni,30119,,,null
1671101003,167110,1671,16,"Sei Selayur",30119,,,null
1671101004,167110,1671,16,"Sei Selincah",30119,,,null
1671101005,167110,1671,16,"Sei Lais",30119,,,null
1671111001,167111,1671,16,"19 Ilir",30132,,,null
1671111002,167111,1671,16,"22 Ilir",30131,,,null
1671111003,167111,1671,16,"23 Ilir",30133,,,null
1671111004,167111,1671,16,"24 Ilir",30134,,,null
1671111005,167111,1671,16,"26 Ilir",30136,,,null
1671111006,167111,1671,16,"Talang Semut",30135,,,null
1671121001,167112,1671,16,Gandus,30149,,,null
1671121002,167112,1671,16,"Karang Anyar",30148,,,null
1671121003,167112,1671,16,"36 Ilir",30147,,,null
1671121004,167112,1671,16,"Karang Jaya",30149,,,null
1671121005,167112,1671,16,"Pulo Kerto",30149,,,null
1671131001,167113,1671,16,"Kemas Rindo",30258,,,null
1671131002,167113,1671,16,"Kemang Agung",30258,,,null
1671131003,167113,1671,16,Keramasan,30259,,,null
1671131004,167113,1671,16,Kertapati,30258,,,null
1671131005,167113,1671,16,"Karya Jaya",30259,,,null
1671131006,167113,1671,16,"Ogan Baru",30258,,,null
1671141001,167114,1671,16,"Plaju Ulu",30266,,,null
1671141002,167114,1671,16,"Plaju Darat",30267,,,null
1671141003,167114,1671,16,"Plaju Ilir",30268,,,null
1671141004,167114,1671,16,"Bagus Kuning",30268,,,null
1671141005,167114,1671,16,Komperta,30268,,,null
1671141006,167114,1671,16,"Talang Putri",30268,,,null
1671141007,167114,1671,16,"Talang Bubuk",30268,,,null
1671151001,167115,1671,16,"Alang-Alang Lebar",30154,,,null
1671151002,167115,1671,16,"Sri Jaya",30153,,,null
1671151003,167115,1671,16,"Talang Kelapa",30151,,,null
1671151004,167115,1671,16,"Karya Baru",30151,,,null
1671161001,167116,1671,16,"Sri Mulya",30162,,,null
1671161002,167116,1671,16,Sukamulya,30161,,,null
1671161003,167116,1671,16,"Lebung Gajah",30161,,,null
1671161005,167116,1671,16,"Karya Mulia",30161,,,null
1671171001,167117,1671,16,"8 Ulu",30252,,,null
1671171002,167117,1671,16,"9-10 Ulu",30251,,,null
1671171003,167117,1671,16,"15 Ulu",30257,,,null
1671171004,167117,1671,16,Silaberanti,30251,,,null
1671171005,167117,1671,16,"Tuan Kentang",30251,,,null
1671181001,167118,1671,16,"8 Ilir",30114,,,null
1671181002,167118,1671,16,"9 Ilir",30113,,,null
1671181003,167118,1671,16,"10 Ilir",30111,,,null
1671181004,167118,1671,16,"11 Ilir",30112,,,null
1671181005,167118,1671,16,"Kuto Batu",30111,,,null
1671181006,167118,1671,16,Duku,30111,,,null
1672011001,167201,1672,16,Sukorejo,31551,,,null
1672011002,167201,1672,16,"Bangun Rejo",31517,,,null
1672011005,167201,1672,16,"Pagar Alam",31512,,,null
1672011007,167201,1672,16,"Alun Dua",31513,,,null
1672011014,167201,1672,16,Selibar,31515,,,null
1672011016,167201,1672,16,"Beringin Jaya",31511,,,null
1672011018,167201,1672,16,"Dempio Makmur",31519,,,null
1672011019,167201,1672,16,"Kusipan Babas",31514,,,null
1672011020,167201,1672,16,"Bangun Jaya",31512,,,null
1672011021,167201,1672,16,"Curup Jare",31516,,,null
1672021003,167202,1672,16,Sidorejo,31527,,,null
1672021004,167202,1672,16,Nendayung,31527,,,null
1672021005,167202,1672,16,"Gunung Dempo",31529,,,null
1672021018,167202,1672,16,"Tebat Giri Indah",31526,,,null
1672021019,167202,1672,16,"Tumbak Ulas",31526,,,null
1672021020,167202,1672,16,"Ulu Rurah",31526,,,null
1672021021,167202,1672,16,"Tanjung Agung",31522,,,null
1672021022,167202,1672,16,"Basemah Sersan",31526,,,null
1672031006,167203,1672,16,"Jangkar Mas",31510,,,null
1672031012,167203,1672,16,"Bumi Agung",31510,,,null
1672031019,167203,1672,16,"Muara Siban",31510,,,null
1672031022,167203,1672,16,"Agung Lawongan",31510,,,null
1672031023,167203,1672,16,"Pagar Wangi",31510,,,null
1672031024,167203,1672,16,"Burung Dinang",31510,,,null
1672031025,167203,1672,16,"Reba Tinggi",31510,,,null
1672041002,167204,1672,16,"Lubuk Buntak",31521,,,null
1672041018,167204,1672,16,"Prabu Dipo",31521,,,null
1672041020,167204,1672,16,"Kance Diwe",31521,,,null
1672041021,167204,1672,16,"Atung Bungsu",31521,,,null
1672041022,167204,1672,16,Penjalang,31521,,,null
1672051001,167205,1672,16,"Karang Dalo",31520,,,null
1672051003,167205,1672,16,"Pelang Kenidai",31520,,,null
1672051008,167205,1672,16,Jokoh,31520,,,null
1672051011,167205,1672,16,"Padang Temu",31520,,,null
1672051012,167205,1672,16,"Candi Jaya",31520,,,null
1673011001,167301,1673,16,"Air Kuti",31628,,,null
1673011002,167301,1673,16,Majapahit,31628,,,null
1673011003,167301,1673,16,"Taba Jemekeh",31628,,,null
1673011004,167301,1673,16,"Nikan Jaya",31628,,,null
1673011005,167301,1673,16,"Taba Lestari",31628,,,null
1673011007,167301,1673,16,"Batu Urip Taba",31628,,,null
1673011015,167301,1673,16,"Taba Koji",31628,,,null
1673011016,167301,1673,16,Watervang,31628,,,null
1673021001,167302,1673,16,"Kayu Ara",31615,,,null
1673021002,167302,1673,16,"Lubuk Tanjung",31614,,,null
1673021003,167302,1673,16,"Tanjung Indah",31611,,,null
1673021004,167302,1673,16,"Bandung Ujung",31611,,,null
1673021008,167302,1673,16,"Bandung Kiri",31611,,,null
1673021009,167302,1673,16,Sukajadi,31613,,,null
1673021010,167302,1673,16,"Muara Enim",31611,,,null
1673021015,167302,1673,16,"Watas Lubuk Durian",31611,,,null
1673021016,167302,1673,16,"Lubuk Aman",31614,,,null
1673021018,167302,1673,16,"Tanjung Aman",31611,,,null
1673021019,167302,1673,16,"Pelita Jaya",31611,,,null
1673031001,167303,1673,16,"Lubuk Kupang",31629,,,null
1673031003,167303,1673,16,Rahmah,31629,,,null
1673031008,167303,1673,16,Jukung,31629,,,null
1673031009,167303,1673,16,"Air Kati",31629,,,null
1673031010,167303,1673,16,"Air Teman",31629,,,null
1673031011,167303,1673,16,"Perumnas Rahmah",31629,,,null
1673031012,167303,1673,16,"Lubuk Binjai",31629,,,null
1673041001,167304,1673,16,"Durian Rampak",31619,,,null
1673041002,167304,1673,16,"Tanjung Raya",31619,,,null
1673041003,167304,1673,16,"Sumber Agung",31619,,,null
1673041004,167304,1673,16,"Marga Bakti",31619,,,null
1673041005,167304,1673,16,"Belalau I",31619,,,null
1673041006,167304,1673,16,"Belalau II",31619,,,null
1673041007,167304,1673,16,"Taba Baru",31619,,,null
1673041008,167304,1673,16,Margorejo,31619,,,null
1673041009,167304,1673,16,"Petanang Ulu",31618,,,null
1673041010,167304,1673,16,"Petanang Ilir",31618,,,null
1673051001,167305,1673,16,"Jawa Kanan",31621,,,null
1673051002,167305,1673,16,"Jawa Kanan SS",31621,,,null
1673051003,167305,1673,16,"Wira Karya",31623,,,null
1673051004,167305,1673,16,Dempo,31623,,,null
1673051005,167305,1673,16,"Jawa Kiri",31622,,,null
1673051006,167305,1673,16,"Karya Bakti",31623,,,null
1673051007,167305,1673,16,"Mesat Jaya",31624,,,null
1673051008,167305,1673,16,"Mesat Seni",31623,,,null
1673051009,167305,1673,16,"Cereme Taba",31623,,,null
1673061001,167306,1673,16,Sidorejo,31616,,,null
1673061002,167306,1673,16,"Ulak Lebar",31611,,,null
1673061003,167306,1673,16,"Tapak Lebar",31611,,,null
1673061004,167306,1673,16,"Bandung Kanan",31611,,,null
1673061005,167306,1673,16,Keputraan,31611,,,null
1673061006,167306,1673,16,"Lubuklinggau Ilir",31611,,,null
1673061007,167306,1673,16,"Lubuklinggau Ulu",31611,,,null
1673061008,167306,1673,16,"Pasar Permiri",31611,,,null
1673071001,167307,1673,16,"Tanah Periuk",31627,,,null
1673071002,167307,1673,16,"Simpang Periuk",31627,,,null
1673071003,167307,1673,16,"Karang Ketuan",31627,,,null
1673071004,167307,1673,16,"Siring Agung",31627,,,null
1673071005,167307,1673,16,"Eka Marga",31627,,,null
1673071006,167307,1673,16,"Marga Mulya",31627,,,null
1673071007,167307,1673,16,"Marga Rahayu",31627,,,null
1673071008,167307,1673,16,"Taba Pingin",31627,,,null
1673071009,167307,1673,16,"Moneng Sepati",31627,,,null
1673081001,167308,1673,16,"Batu Urip",31627,,,null
1673081002,167308,1673,16,"Ulak Surung",31617,,,null
1673081003,167308,1673,16,Kenanga,31619,,,null
1673081004,167308,1673,16,"Pasar Satelit",31619,,,null
1673081005,167308,1673,16,Senalang,31619,,,null
1673081006,167308,1673,16,Megang,31628,,,null
1673081007,167308,1673,16,Jogoboyo,31619,,,null
1673081008,167308,1673,16,"Puncak Kemuning",31619,,,null
1673081009,167308,1673,16,Ponorogo,31619,,,null
1673081010,167308,1673,16,"Kali Serayu",31619,,,null
1674011001,167401,1674,16,Prabumulih,31123,,,null
1674011007,167401,1674,16,"Patih Galung",31127,,,null
1674011009,167401,1674,16,"Muntang Tapus",31121,,,null
1674011011,167401,1674,16,"Gunung Kemala",31122,,,null
1674011012,167401,1674,16,Payuputat,31141,,,null
1674011014,167401,1674,16,"Tebing Tanah Puteh",31127,,,null
1674012013,167401,1674,16,"Tanjung Telang",31146,,,null
1674021003,167402,1674,16,"Karang Raja",31111,,,null
1674021004,167402,1674,16,"Tugu Kecil",31111,,,null
1674021005,167402,1674,16,"Prabu Jaya",31111,,,null
1674021006,167402,1674,16,"Muara Dua",31113,,,null
1674021007,167402,1674,16,"Gunung Ibul",31113,,,null
1674021008,167402,1674,16,"Gunung Ibul Barat",31117,,,null
1674021009,167402,1674,16,Sukajadi,31111,,,null
1674021010,167402,1674,16,"Karang Jaya",31115,,,null
1674021011,167402,1674,16,"Muara Dua Barat",31113,,,null
1674021012,167402,1674,16,"Gunung Ibul Timur",31113,,,null
1674021013,167402,1674,16,"Gunung Ibul Selatan",31113,,,null
1674021014,167402,1674,16,"Gunung Ibul Utara",31113,,,null
1674021015,167402,1674,16,"Arimbi Jaya",31111,,,null
1674031001,167403,1674,16,Cambai,31141,,,null
1674031002,167403,1674,16,Sindur,31142,,,null
1674031005,167403,1674,16,"Sungai Medang",31145,,,null
1674032003,167403,1674,16,Pangkul,31143,,,null
1674032004,167403,1674,16,"Muara Sungai",31144,,,null
1674041001,167404,1674,16,"Tanjung Rambang",31131,,,null
1674042003,167404,1674,16,"Karya Mulya",31135,,,null
1674042005,167404,1674,16,"Rambang Senuling",31132,,,null
1674042006,167404,1674,16,Jungai,31131,,,null
1674042007,167404,1674,16,"Talang Batu",31131,,,null
1674042008,167404,1674,16,Karangan,31131,,,null
1674042009,167404,1674,16,"Karang Bindu",31133,,,null
1674042010,167404,1674,16,"Sinar Rambang",31131,,,null
1674042011,167404,1674,16,"Kemang Tanduk",31131,,,null
1674051001,167405,1674,16,"Pasar Prabumulih I",31121,,,null
1674051002,167405,1674,16,"Pasar Prabumulih II",31121,,,null
1674051003,167405,1674,16,Wonosari,31126,,,null
1674051004,167405,1674,16,"Mangga Besar",31125,,,null
1674051005,167405,1674,16,"Anak Petai",31121,,,null
1674051006,167405,1674,16,Sidomulyo,31126,,,null
1674051007,167405,1674,16,Sidogede,31125,,,null
1674061001,167406,1674,16,Majasari,31124,,,null
1674061002,167406,1674,16,"Tanjung Raman",31116,,,null
1674061003,167406,1674,16,Sukaraja,31112,,,null
1674062004,167406,1674,16,"Tanjung Menang",31134,,,null
