[
    {
        "code": 5101011006,
        "district_code": 510101,
        "regency_code": 5101,
        "province_code": 51,
        "name": "Baler Bale Agung",
        "postal_code": "82212",
        "latitude": null,
        "longitude": null,
        "coordinates": null
    },
    {
        "code": 5101011008,
        "district_code": 510101,
        "regency_code": 5101,
        "province_code": 51,
        "name": "Banjar Tengah",
        "postal_code": "82213",
        "latitude": null,
        "longitude": null,
        "coordinates": null
    },
    {
        "code": 5101011013,
        "district_code": 510101,
        "regency_code": 5101,
        "province_code": 51,
        "name": "Lelateng",
        "postal_code": "82214",
        "latitude": null,
        "longitude": null,
        "coordinates": null
    },
    {
        "code": 5101011014,
        "district_code": 510101,
        "regency_code": 5101,
        "province_code": 51,
        "name": "Loloan Barat",
        "postal_code": "82215",
        "latitude": null,
        "longitude": null,
        "coordinates": null
    },
    {
        "code": 5101012001,
        "district_code": 510101,
        "regency_code": 5101,
        "province_code": 51,
        "name": "Cupel",
        "postal_code": "82218",
        "latitude": null,
        "longitude": null,
        "coordinates": null
    },
    {
        "code": 5101012002,
        "district_code": 510101,
        "regency_code": 5101,
        "province_code": 51,
        "name": "Baluk",
        "postal_code": "82218",
        "latitude": null,
        "longitude": null,
        "coordinates": null
    },
    {
        "code": 5101012003,
        "district_code": 510101,
        "regency_code": 5101,
        "province_code": 51,
        "name": "Banyu Biru",
        "postal_code": "82218",
        "latitude": null,
        "longitude": null,
        "coordinates": null
    },
    {
        "code": 5101012004,
        "district_code": 510101,
        "regency_code": 5101,
        "province_code": 51,
        "name": "Kaliakah",
        "postal_code": "82218",
        "latitude": null,
        "longitude": null,
        "coordinates": null
    },
    {
        "code": 5101012005,
        "district_code": 510101,
        "regency_code": 5101,
        "province_code": 51,
        "name": "Berangbang",
        "postal_code": "82218",
        "latitude": null,
        "longitude": null,
        "coordinates": null
    },
    {
        "code": 5101012009,
        "district_code": 510101,
        "regency_code": 5101,
        "province_code": 51,
        "name": "Tegal Badeng Timur",
        "postal_code": "82218",
        "latitude": null,
        "longitude": null,
        "coordinates": null
    },
    {
        "code": 5101012010,
        "district_code": 510101,
        "regency_code": 5101,
        "province_code": 51,
        "name": "Tegal Badeng Barat",
        "postal_code": "82218",
        "latitude": null,
        "longitude": null,
        "coordinates": null
    },
    {
        "code": 5101012011,
        "district_code": 510101,
        "regency_code": 5101,
        "province_code": 51,
        "name": "Pengambengan",
        "postal_code": "82218",
        "latitude": null,
        "longitude": null,
        "coordinates": null
    },
    {
        "code": 5101021006,
        "district_code": 510102,
        "regency_code": 5101,
        "province_code": 51,
        "name": "Tegalcangkring",
        "postal_code": "82261",
        "latitude": null,
        "longitude": null,
        "coordinates": null
    },
    {
        "code": 5101022001,
        "district_code": 510102,
        "regency_code": 5101,
        "province_code": 51,
        "name": "Mendoyo Dauh Tukad",
        "postal_code": "82261",
        "latitude": null,
        "longitude": null,
        "coordinates": null
    },
    {
        "code": 5101022002,
        "district_code": 510102,
        "regency_code": 5101,
        "province_code": 51,
        "name": "Pohsanten",
        "postal_code": "82261",
        "latitude": null,
        "longitude": null,
        "coordinates": null
    },
    {
        "code": 5101022003,
        "district_code": 510102,
        "regency_code": 5101,
        "province_code": 51,
        "name": "Mendoyo Dangin Tukad",
        "postal_code": "82261",
        "latitude": null,
        "longitude": null,
        "coordinates": null
    },
    {
        "code": 5101022004,
        "district_code": 510102,
        "regency_code": 5101,
        "province_code": 51,
        "name": "Pergung",
        "postal_code": "82261",
        "latitude": null,
        "longitude": null,
        "coordinates": null
    },
    {
        "code": 5101022005,
        "district_code": 510102,
        "regency_code": 5101,
        "province_code": 51,
        "name": "Delodberawah",
        "postal_code": "82261",
        "latitude": null,
        "longitude": null,
        "coordinates": null
    },
    {
        "code": 5101022007,
        "district_code": 510102,
        "regency_code": 5101,
        "province_code": 51,
        "name": "Penyaringan",
        "postal_code": "82261",
        "latitude": null,
        "longitude": null,
        "coordinates": null
    },
    {
        "code": 5101022008,
        "district_code": 510102,
        "regency_code": 5101,
        "province_code": 51,
        "name": "Yehembang",
        "postal_code": "82261",
        "latitude": null,
        "longitude": null,
        "coordinates": null
    },
    {
        "code": 5101022009,
        "district_code": 510102,
        "regency_code": 5101,
        "province_code": 51,
        "name": "Yeh Sumbul",
        "postal_code": "82261",
        "latitude": null,
        "longitude": null,
        "coordinates": null
    },
    {
        "code": 5101022010,
        "district_code": 510102,
        "regency_code": 5101,
        "province_code": 51,
        "name": "Yehembang Kauh",
        "postal_code": "82261",
        "latitude": null,
        "longitude": null,
        "coordinates": null
    },
    {
        "code": 5101022011,
        "district_code": 510102,
        "regency_code": 5101,
        "province_code": 51,
        "name": "Yehembang Kangin",
        "postal_code": "82261",
        "latitude": null,
        "longitude": null,
        "coordinates": null
    },
    {
        "code": 5101032001,
        "district_code": 510103,
        "regency_code": 5101,
        "province_code": 51,
        "name": "Medewi",
        "postal_code": "82262",
        "latitude": null,
        "longitude": null,
        "coordinates": null
    },
    {
        "code": 5101032002,
        "district_code": 510103,
        "regency_code": 5101,
        "province_code": 51,
        "name": "Pulukan",
        "postal_code": "82262",
        "latitude": null,
        "longitude": null,
        "coordinates": null
    },
    {
        "code": 5101032003,
        "district_code": 510103,
        "regency_code": 5101,
        "province_code": 51,
        "name": "Asahduren",
        "postal_code": "82262",
        "latitude": null,
        "longitude": null,
        "coordinates": null
    },
    {
        "code": 5101032004,
        "district_code": 510103,
        "regency_code": 5101,
        "province_code": 51,
        "name": "Pekutatan",
        "postal_code": "82262",
        "latitude": null,
        "longitude": null,
        "coordinates": null
    },
    {
        "code": 5101032005,
        "district_code": 510103,
        "regency_code": 5101,
        "province_code": 51,
        "name": "Pangyangan",
        "postal_code": "82262",
        "latitude": null,
        "longitude": null,
        "coordinates": null
    },
    {
        "code": 5101032006,
        "district_code": 510103,
        "regency_code": 5101,
        "province_code": 51,
        "name": "Gumbrih",
        "postal_code": "82262",
        "latitude": null,
        "longitude": null,
        "coordinates": null
    },
    {
        "code": 5101032007,
        "district_code": 510103,
        "regency_code": 5101,
        "province_code": 51,
        "name": "Manggissari",
        "postal_code": "82262",
        "latitude": null,
        "longitude": null,
        "coordinates": null
    },
    {
        "code": 5101032008,
        "district_code": 510103,
        "regency_code": 5101,
        "province_code": 51,
        "name": "Pengragoan",
        "postal_code": "82262",
        "latitude": null,
        "longitude": null,
        "coordinates": null
    },
    {
        "code": 5101041001,
        "district_code": 510104,
        "regency_code": 5101,
        "province_code": 51,
        "name": "Gilimanuk",
        "postal_code": "82252",
        "latitude": null,
        "longitude": null,
        "coordinates": null
    },
    {
        "code": 5101042002,
        "district_code": 510104,
        "regency_code": 5101,
        "province_code": 51,
        "name": "Melaya",
        "postal_code": "82252",
        "latitude": null,
        "longitude": null,
        "coordinates": null
    },
    {
        "code": 5101042003,
        "district_code": 510104,
        "regency_code": 5101,
        "province_code": 51,
        "name": "Belimbingsari",
        "postal_code": "82252",
        "latitude": null,
        "longitude": null,
        "coordinates": null
    },
    {
        "code": 5101042004,
        "district_code": 510104,
        "regency_code": 5101,
        "province_code": 51,
        "name": "Ekasari",
        "postal_code": "82252",
        "latitude": null,
        "longitude": null,
        "coordinates": null
    },
    {
        "code": 5101042005,
        "district_code": 510104,
        "regency_code": 5101,
        "province_code": 51,
        "name": "Nusasari",
        "postal_code": "82252",
        "latitude": null,
        "longitude": null,
        "coordinates": null
    },
    {
        "code": 5101042006,
        "district_code": 510104,
        "regency_code": 5101,
        "province_code": 51,
        "name": "Warnasari",
        "postal_code": "82252",
        "latitude": null,
        "longitude": null,
        "coordinates": null
    },
    {
        "code": 5101042007,
        "district_code": 510104,
        "regency_code": 5101,
        "province_code": 51,
        "name": "Candikusuma",
        "postal_code": "82252",
        "latitude": null,
        "longitude": null,
        "coordinates": null
    },
    {
        "code": 5101042008,
        "district_code": 510104,
        "regency_code": 5101,
        "province_code": 51,
        "name": "Tuwed",
        "postal_code": "82252",
        "latitude": null,
        "longitude": null,
        "coordinates": null
    },
    {
        "code": 5101042009,
        "district_code": 510104,
        "regency_code": 5101,
        "province_code": 51,
        "name": "Tukadaya",
        "postal_code": "82252",
        "latitude": null,
        "longitude": null,
        "coordinates": null
    },
    {
        "code": 5101042010,
        "district_code": 510104,
        "regency_code": 5101,
        "province_code": 51,
        "name": "Manistutu",
        "postal_code": "82252",
        "latitude": null,
        "longitude": null,
        "coordinates": null
    },
    {
        "code": 5101051001,
        "district_code": 510105,
        "regency_code": 5101,
        "province_code": 51,
        "name": "Pendem",
        "postal_code": "82211",
        "latitude": null,
        "longitude": null,
        "coordinates": null
    },
    {
        "code": 5101051003,
        "district_code": 510105,
        "regency_code": 5101,
        "province_code": 51,
        "name": "Loloan Timur",
        "postal_code": "82216",
        "latitude": null,
        "longitude": null,
        "coordinates": null
    },
    {
        "code": 5101051005,
        "district_code": 510105,
        "regency_code": 5101,
        "province_code": 51,
        "name": "Dauhwaru",
        "postal_code": "82218",
        "latitude": null,
        "longitude": null,
        "coordinates": null
    },
    {
        "code": 5101051009,
        "district_code": 510105,
        "regency_code": 5101,
        "province_code": 51,
        "name": "Sangkaragung",
        "postal_code": "82218",
        "latitude": null,
        "longitude": null,
        "coordinates": null
    },
    {
        "code": 5101052002,
        "district_code": 510105,
        "regency_code": 5101,
        "province_code": 51,
        "name": "Perancak",
        "postal_code": "82218",
        "latitude": null,
        "longitude": null,
        "coordinates": null
    },
    {
        "code": 5101052004,
        "district_code": 510105,
        "regency_code": 5101,
        "province_code": 51,
        "name": "Batu Agung",
        "postal_code": "82218",
        "latitude": null,
        "longitude": null,
        "coordinates": null
    },
    {
        "code": 5101052006,
        "district_code": 510105,
        "regency_code": 5101,
        "province_code": 51,
        "name": "Budeng",
        "postal_code": "82218",
        "latitude": null,
        "longitude": null,
        "coordinates": null
    },
    {
        "code": 5101052007,
        "district_code": 510105,
        "regency_code": 5101,
        "province_code": 51,
        "name": "Air Kuning",
        "postal_code": "82218",
        "latitude": null,
        "longitude": null,
        "coordinates": null
    },
    {
        "code": 5101052008,
        "district_code": 510105,
        "regency_code": 5101,
        "province_code": 51,
        "name": "Yehkuning",
        "postal_code": "82218",
        "latitude": null,
        "longitude": null,
        "coordinates": null
    },
    {
        "code": 5101052010,
        "district_code": 510105,
        "regency_code": 5101,
        "province_code": 51,
        "name": "Dangin Tukadaya",
        "postal_code": "82218",
        "latitude": null,
        "longitude": null,
        "coordinates": null
    },
    {
        "code": 5102012001,
        "district_code": 510201,
        "regency_code": 5102,
        "province_code": 51,
        "name": "Bajera",
        "postal_code": "82164",
        "latitude": null,
        "longitude": null,
        "coordinates": null
    },
    {
        "code": 5102012002,
        "district_code": 510201,
        "regency_code": 5102,
        "province_code": 51,
        "name": "Wanagiri",
        "postal_code": "82164",
        "latitude": null,
        "longitude": null,
        "coordinates": null
    },
    {
        "code": 5102012003,
        "district_code": 510201,
        "regency_code": 5102,
        "province_code": 51,
        "name": "Pupuan Sawah",
        "postal_code": "82164",
        "latitude": null,
        "longitude": null,
        "coordinates": null
    },
    {
        "code": 5102012004,
        "district_code": 510201,
        "regency_code": 5102,
        "province_code": 51,
        "name": "Berembeng",
        "postal_code": "82164",
        "latitude": null,
        "longitude": null,
        "coordinates": null
    },
    {
        "code": 5102012005,
        "district_code": 510201,
        "regency_code": 5102,
        "province_code": 51,
        "name": "Selemadeg",
        "postal_code": "82164",
        "latitude": null,
        "longitude": null,
        "coordinates": null
    },
    {
        "code": 5102012006,
        "district_code": 510201,
        "regency_code": 5102,
        "province_code": 51,
        "name": "Sarampingan",
        "postal_code": "82164",
        "latitude": null,
        "longitude": null,
        "coordinates": null
    },
    {
        "code": 5102012007,
        "district_code": 510201,
        "regency_code": 5102,
        "province_code": 51,
        "name": "Antap",
        "postal_code": "82164",
        "latitude": null,
        "longitude": null,
        "coordinates": null
    },
    {
        "code": 5102012008,
        "district_code": 510201,
        "regency_code": 5102,
        "province_code": 51,
        "name": "Wanagiri Kauh",
        "postal_code": "82164",
        "latitude": null,
        "longitude": null,
        "coordinates": null
    },
    {
        "code": 5102012009,
        "district_code": 510201,
        "regency_code": 5102,
        "province_code": 51,
        "name": "Manikyang",
        "postal_code": "82164",
        "latitude": null,
        "longitude": null,
        "coordinates": null
    },
    {
        "code": 5102012010,
        "district_code": 510201,
        "regency_code": 5102,
        "province_code": 51,
        "name": "Bajera Utara",
        "postal_code": "82164",
        "latitude": null,
        "longitude": null,
        "coordinates": null
    },
    {
        "code": 5102022001,
        "district_code": 510202,
        "regency_code": 5102,
        "province_code": 51,
        "name": "Gunung Salak",
        "postal_code": "82160",
        "latitude": null,
        "longitude": null,
        "coordinates": null
    },
    {
        "code": 5102022002,
        "district_code": 510202,
        "regency_code": 5102,
        "province_code": 51,
        "name": "Gadungan",
        "postal_code": "82160",
        "latitude": null,
        "longitude": null,
        "coordinates": null
    },
    {
        "code": 5102022003,
        "district_code": 510202,
        "regency_code": 5102,
        "province_code": 51,
        "name": "Bantas",
        "postal_code": "82160",
        "latitude": null,
        "longitude": null,
        "coordinates": null
    },
    {
        "code": 5102022004,
        "district_code": 510202,
        "regency_code": 5102,
        "province_code": 51,
        "name": "Mambang",
        "postal_code": "82160",
        "latitude": null,
        "longitude": null,
        "coordinates": null
    },
    {
        "code": 5102022005,
        "district_code": 510202,
        "regency_code": 5102,
        "province_code": 51,
        "name": "Megati",
        "postal_code": "82160",
        "latitude": null,
        "longitude": null,
        "coordinates": null
    },
    {
        "code": 5102022006,
        "district_code": 510202,
        "regency_code": 5102,
        "province_code": 51,
        "name": "Tangguntiti",
        "postal_code": "82160",
        "latitude": null,
        "longitude": null,
        "coordinates": null
    },
    {
        "code": 5102022007,
        "district_code": 510202,
        "regency_code": 5102,
        "province_code": 51,
        "name": "Beraban",
        "postal_code": "82160",
        "latitude": null,
        "longitude": null,
        "coordinates": null
    },
    {
        "code": 5102022008,
        "district_code": 510202,
        "regency_code": 5102,
        "province_code": 51,
        "name": "Tegal Mengkeb",
        "postal_code": "82160",
        "latitude": null,
        "longitude": null,
        "coordinates": null
    },
    {
        "code": 5102022009,
        "district_code": 510202,
        "regency_code": 5102,
        "province_code": 51,
        "name": "Dalang",
        "postal_code": "82160",
        "latitude": null,
        "longitude": null,
        "coordinates": null
    },
    {
        "code": 5102022010,
        "district_code": 510202,
        "regency_code": 5102,
        "province_code": 51,
        "name": "Gadungsari",
        "postal_code": "82160",
        "latitude": null,
        "longitude": null,
        "coordinates": null
    },
    {
        "code": 5102032001,
        "district_code": 510203,
        "regency_code": 5102,
        "province_code": 51,
        "name": "Mundeh",
        "postal_code": "82162",
        "latitude": null,
        "longitude": null,
        "coordinates": null
    },
    {
        "code": 5102032002,
        "district_code": 510203,
        "regency_code": 5102,
        "province_code": 51,
        "name": "Mundeh Kangin",
        "postal_code": "82162",
        "latitude": null,
        "longitude": null,
        "coordinates": null
    },
    {
        "code": 5102032003,
        "district_code": 510203,
        "regency_code": 5102,
        "province_code": 51,
        "name": "Lalanglinggah",
        "postal_code": "82162",
        "latitude": null,
        "longitude": null,
        "coordinates": null
    },
    {
        "code": 5102032004,
        "district_code": 510203,
        "regency_code": 5102,
        "province_code": 51,
        "name": "Antosari",
        "postal_code": "82162",
        "latitude": null,
        "longitude": null,
        "coordinates": null
    },
    {
        "code": 5102032005,
        "district_code": 510203,
        "regency_code": 5102,
        "province_code": 51,
        "name": "Lumbung",
        "postal_code": "82162",
        "latitude": null,
        "longitude": null,
        "coordinates": null
    },
    {
        "code": 5102032006,
        "district_code": 510203,
        "regency_code": 5102,
        "province_code": 51,
        "name": "Lumbung Kauh",
        "postal_code": "82162",
        "latitude": null,
        "longitude": null,
        "coordinates": null
    },
    {
        "code": 5102032007,
        "district_code": 510203,
        "regency_code": 5102,
        "province_code": 51,
        "name": "Tiing Gading",
        "postal_code": "82162",
        "latitude": null,
        "longitude": null,
        "coordinates": null
    },
    {
        "code": 5102032008,
        "district_code": 510203,
        "regency_code": 5102,
        "province_code": 51,
        "name": "Mundeh Kauh",
        "postal_code": "82162",
        "latitude": null,
        "longitude": null,
        "coordinates": null
    },
    {
        "code": 5102032009,
        "district_code": 510203,
        "regency_code": 5102,
        "province_code": 51,
        "name": "Angkah",
        "postal_code": "82162",
        "latitude": null,
        "longitude": null,
        "coordinates": null
    },
    {
        "code": 5102032010,
        "district_code": 510203,
        "regency_code": 5102,
        "province_code": 51,
        "name": "Selabih",
        "postal_code": "82162",
        "latitude": null,
        "longitude": null,
        "coordinates": null
    },
    {
        "code": 5102032011,
        "district_code": 510203,
        "regency_code": 5102,
        "province_code": 51,
        "name": "Bengkel Sari",
        "postal_code": "82162",
        "latitude": null,
        "longitude": null,
        "coordinates": null
    },
    {
        "code": 5102042001,
        "district_code": 510204,
        "regency_code": 5102,
        "province_code": 51,
        "name": "Tibubiu",
        "postal_code": "82161",
        "latitude": null,
        "longitude": null,
        "coordinates": null
    },
    {
        "code": 5102042002,
        "district_code": 510204,
        "regency_code": 5102,
        "province_code": 51,
        "name": "Kelating",
        "postal_code": "82161",
        "latitude": null,
        "longitude": null,
        "coordinates": null
    },
    {
        "code": 5102042003,
        "district_code": 510204,
        "regency_code": 5102,
        "province_code": 51,
        "name": "Penarukan",
        "postal_code": "82161",
        "latitude": null,
        "longitude": null,
        "coordinates": null
    },
    {
        "code": 5102042004,
        "district_code": 510204,
        "regency_code": 5102,
        "province_code": 51,
        "name": "Belumbang",
        "postal_code": "82161",
        "latitude": null,
        "longitude": null,
        "coordinates": null
    },
    {
        "code": 5102042005,
        "district_code": 510204,
        "regency_code": 5102,
        "province_code": 51,
        "name": "Tista",
        "postal_code": "82161",
        "latitude": null,
        "longitude": null,
        "coordinates": null
    },
    {
        "code": 5102042006,
        "district_code": 510204,
        "regency_code": 5102,
        "province_code": 51,
        "name": "Kerambitan",
        "postal_code": "82161",
        "latitude": null,
        "longitude": null,
        "coordinates": null
    },
    {
        "code": 5102042007,
        "district_code": 510204,
        "regency_code": 5102,
        "province_code": 51,
        "name": "Pangkung Karung",
        "postal_code": "82161",
        "latitude": null,
        "longitude": null,
        "coordinates": null
    },
    {
        "code": 5102042008,
        "district_code": 510204,
        "regency_code": 5102,
        "province_code": 51,
        "name": "Samsam",
        "postal_code": "82161",
        "latitude": null,
        "longitude": null,
        "coordinates": null
    },
    {
        "code": 5102042009,
        "district_code": 510204,
        "regency_code": 5102,
        "province_code": 51,
        "name": "Kukuh",
        "postal_code": "82161",
        "latitude": null,
        "longitude": null,
        "coordinates": null
    },
    {
        "code": 5102042010,
        "district_code": 510204,
        "regency_code": 5102,
        "province_code": 51,
        "name": "Baturiti",
        "postal_code": "82161",
        "latitude": null,
        "longitude": null,
        "coordinates": null
    },
    {
        "code": 5102042011,
        "district_code": 510204,
        "regency_code": 5102,
        "province_code": 51,
        "name": "Meliling",
        "postal_code": "82161",
        "latitude": null,
        "longitude": null,
        "coordinates": null
    },
    {
        "code": 5102042012,
        "district_code": 510204,
        "regency_code": 5102,
        "province_code": 51,
        "name": "Sembung Gede",
        "postal_code": "82161",
        "latitude": null,
        "longitude": null,
        "coordinates": null
    },
    {
        "code": 5102042013,
        "district_code": 510204,
        "regency_code": 5102,
        "province_code": 51,
        "name": "Batuaji",
        "postal_code": "82161",
        "latitude": null,
        "longitude": null,
        "coordinates": null
    },
    {
        "code": 5102042014,
        "district_code": 510204,
        "regency_code": 5102,
        "province_code": 51,
        "name": "Kesiut",
        "postal_code": "82161",
        "latitude": null,
        "longitude": null,
        "coordinates": null
    },
    {
        "code": 5102042015,
        "district_code": 510204,
        "regency_code": 5102,
        "province_code": 51,
        "name": "Timpag",
        "postal_code": "82161",
        "latitude": null,
        "longitude": null,
        "coordinates": null
    },
    {
        "code": 5102052001,
        "district_code": 510205,
        "regency_code": 5102,
        "province_code": 51,
        "name": "Sudimara",
        "postal_code": "82115",
        "latitude": null,
        "longitude": null,
        "coordinates": null
    },
    {
        "code": 5102052002,
        "district_code": 510205,
        "regency_code": 5102,
        "province_code": 51,
        "name": "Gubug",
        "postal_code": "82115",
        "latitude": null,
        "longitude": null,
        "coordinates": null
    },
    {
        "code": 5102052003,
        "district_code": 510205,
        "regency_code": 5102,
        "province_code": 51,
        "name": "Bongan",
        "postal_code": "82112",
        "latitude": null,
        "longitude": null,
        "coordinates": null
    },
    {
        "code": 5102052004,
        "district_code": 510205,
        "regency_code": 5102,
        "province_code": 51,
        "name": "Delod Peken",
        "postal_code": "82113",
        "latitude": null,
        "longitude": null,
        "coordinates": null
    },
    {
        "code": 5102052005,
        "district_code": 510205,
        "regency_code": 5102,
        "province_code": 51,
        "name": "Dauh Peken",
        "postal_code": "82111",
        "latitude": null,
        "longitude": null,
        "coordinates": null
    },
    {
        "code": 5102052006,
        "district_code": 510205,
        "regency_code": 5102,
        "province_code": 51,
        "name": "Dajan Peken",
        "postal_code": "82114",
        "latitude": null,
        "longitude": null,
        "coordinates": null
    },
    {
        "code": 5102052007,
        "district_code": 510205,
        "regency_code": 5102,
        "province_code": 51,
        "name": "Denbantas",
        "postal_code": "82115",
        "latitude": null,
        "longitude": null,
        "coordinates": null
    },
    {
        "code": 5102052008,
        "district_code": 510205,
        "regency_code": 5102,
        "province_code": 51,
        "name": "Subamia",
        "postal_code": "82115",
        "latitude": null,
        "longitude": null,
        "coordinates": null
    },
    {
        "code": 5102052009,
        "district_code": 510205,
        "regency_code": 5102,
        "province_code": 51,
        "name": "Wanasari",
        "postal_code": "82111",
        "latitude": null,
        "longitude": null,
        "coordinates": null
    },
    {
        "code": 5102052010,
        "district_code": 510205,
        "regency_code": 5102,
        "province_code": 51,
        "name": "Tunjuk",
        "postal_code": "82115",
        "latitude": null,
        "longitude": null,
        "coordinates": null
    },
    {
        "code": 5102052011,
        "district_code": 510205,
        "regency_code": 5102,
        "province_code": 51,
        "name": "Buahan",
        "postal_code": "82115",
        "latitude": null,
        "longitude": null,
        "coordinates": null
    },
    {
        "code": 5102052012,
        "district_code": 510205,
        "regency_code": 5102,
        "province_code": 51,
        "name": "Sedandan",
        "postal_code": "82115",
        "latitude": null,
        "longitude": null,
        "coordinates": null
    },
    {
        "code": 5102062001,
        "district_code": 510206,
        "regency_code": 5102,
        "province_code": 51,
        "name": "Bengkel",
        "postal_code": "82121",
        "latitude": null,
        "longitude": null,
        "coordinates": null
    },
    {
        "code": 5102062002,
        "district_code": 510206,
        "regency_code": 5102,
        "province_code": 51,
        "name": "Pangkung Tibah",
        "postal_code": "82121",
        "latitude": null,
        "longitude": null,
        "coordinates": null
    },
    {
        "code": 5102062003,
        "district_code": 510206,
        "regency_code": 5102,
        "province_code": 51,
        "name": "Belalang",
        "postal_code": "82121",
        "latitude": null,
        "longitude": null,
        "coordinates": null
    },
    {
        "code": 5102062004,
        "district_code": 510206,
        "regency_code": 5102,
        "province_code": 51,
        "name": "Beraban",
        "postal_code": "82121",
        "latitude": null,
        "longitude": null,
        "coordinates": null
    },
    {
        "code": 5102062005,
        "district_code": 510206,
        "regency_code": 5102,
        "province_code": 51,
        "name": "Buwit",
        "postal_code": "82121",
        "latitude": null,
        "longitude": null,
        "coordinates": null
    },
    {
        "code": 5102062006,
        "district_code": 510206,
        "regency_code": 5102,
        "province_code": 51,
        "name": "Cepaka",
        "postal_code": "82121",
        "latitude": null,
        "longitude": null,
        "coordinates": null
    },
    {
        "code": 5102062007,
        "district_code": 510206,
        "regency_code": 5102,
        "province_code": 51,
        "name": "Kaba-kaba",
        "postal_code": "82121",
        "latitude": null,
        "longitude": null,
        "coordinates": null
    },
    {
        "code": 5102062008,
        "district_code": 510206,
        "regency_code": 5102,
        "province_code": 51,
        "name": "Nyambu",
        "postal_code": "82121",
        "latitude": null,
        "longitude": null,
        "coordinates": null
    },
    {
        "code": 5102062009,
        "district_code": 510206,
        "regency_code": 5102,
        "province_code": 51,
        "name": "Pandak Bandung",
        "postal_code": "82121",
        "latitude": null,
        "longitude": null,
        "coordinates": null
    },
    {
        "code": 5102062010,
        "district_code": 510206,
        "regency_code": 5102,
        "province_code": 51,
        "name": "Pandak Gede",
        "postal_code": "82121",
        "latitude": null,
        "longitude": null,
        "coordinates": null
    },
    {
        "code": 5102062011,
        "district_code": 510206,
        "regency_code": 5102,
        "province_code": 51,
        "name": "Nyitdah",
        "postal_code": "82121",
        "latitude": null,
        "longitude": null,
        "coordinates": null
    },
    {
        "code": 5102062012,
        "district_code": 510206,
        "regency_code": 5102,
        "province_code": 51,
        "name": "Pejaten",
        "postal_code": "82121",
        "latitude": null,
        "longitude": null,
        "coordinates": null
    },
    {
        "code": 5102062013,
        "district_code": 510206,
        "regency_code": 5102,
        "province_code": 51,
        "name": "Kediri",
        "postal_code": "82121",
        "latitude": null,
        "longitude": null,
        "coordinates": null
    },
    {
        "code": 5102062014,
        "district_code": 510206,
        "regency_code": 5102,
        "province_code": 51,
        "name": "Abian Tuwung",
        "postal_code": "82121",
        "latitude": null,
        "longitude": null,
        "coordinates": null
    },
    {
        "code": 5102062015,
        "district_code": 510206,
        "regency_code": 5102,
        "province_code": 51,
        "name": "Banjar Anyar",
        "postal_code": "82123",
        "latitude": null,
        "longitude": null,
        "coordinates": null
    },
    {
        "code": 5102072001,
        "district_code": 510207,
        "regency_code": 5102,
        "province_code": 51,
        "name": "Kukuh",
        "postal_code": "82181",
        "latitude": null,
        "longitude": null,
        "coordinates": null
    },
    {
        "code": 5102072002,
        "district_code": 510207,
        "regency_code": 5102,
        "province_code": 51,
        "name": "Beringkit",
        "postal_code": "82181",
        "latitude": null,
        "longitude": null,
        "coordinates": null
    },
    {
        "code": 5102072003,
        "district_code": 510207,
        "regency_code": 5102,
        "province_code": 51,
        "name": "Peken",
        "postal_code": "82181",
        "latitude": null,
        "longitude": null,
        "coordinates": null
    },
    {
        "code": 5102072004,
        "district_code": 510207,
        "regency_code": 5102,
        "province_code": 51,
        "name": "Batannyuh",
        "postal_code": "82181",
        "latitude": null,
        "longitude": null,
        "coordinates": null
    },
    {
        "code": 5102072005,
        "district_code": 510207,
        "regency_code": 5102,
        "province_code": 51,
        "name": "Tegaljadi",
        "postal_code": "82181",
        "latitude": null,
        "longitude": null,
        "coordinates": null
    },
    {
        "code": 5102072006,
        "district_code": 510207,
        "regency_code": 5102,
        "province_code": 51,
        "name": "Kuwum",
        "postal_code": "82181",
        "latitude": null,
        "longitude": null,
        "coordinates": null
    },
    {
        "code": 5102072007,
        "district_code": 510207,
        "regency_code": 5102,
        "province_code": 51,
        "name": "Selanbawak",
        "postal_code": "82181",
        "latitude": null,
        "longitude": null,
        "coordinates": null
    },
    {
        "code": 5102072008,
        "district_code": 510207,
        "regency_code": 5102,
        "province_code": 51,
        "name": "Marga",
        "postal_code": "82181",
        "latitude": null,
        "longitude": null,
        "coordinates": null
    },
    {
        "code": 5102072009,
        "district_code": 510207,
        "regency_code": 5102,
        "province_code": 51,
        "name": "Petiga",
        "postal_code": "82181",
        "latitude": null,
        "longitude": null,
        "coordinates": null
    },
    {
        "code": 5102072010,
        "district_code": 510207,
        "regency_code": 5102,
        "province_code": 51,
        "name": "Cau Belayu",
        "postal_code": "82181",
        "latitude": null,
        "longitude": null,
        "coordinates": null
    },
    {
        "code": 5102072011,
        "district_code": 510207,
        "regency_code": 5102,
        "province_code": 51,
        "name": "Tua",
        "postal_code": "82181",
        "latitude": null,
        "longitude": null,
        "coordinates": null
    },
    {
        "code": 5102072012,
        "district_code": 510207,
        "regency_code": 5102,
        "province_code": 51,
        "name": "Payangan",
        "postal_code": "82181",
        "latitude": null,
        "longitude": null,
        "coordinates": null
    },
    {
        "code": 5102072013,
        "district_code": 510207,
        "regency_code": 5102,
        "province_code": 51,
        "name": "Marga Dajan Puri",
        "postal_code": "82181",
        "latitude": null,
        "longitude": null,
        "coordinates": null
    },
    {
        "code": 5102072014,
        "district_code": 510207,
        "regency_code": 5102,
        "province_code": 51,
        "name": "Marga Dauh Puri",
        "postal_code": "82181",
        "latitude": null,
        "longitude": null,
        "coordinates": null
    },
    {
        "code": 5102072015,
        "district_code": 510207,
        "regency_code": 5102,
        "province_code": 51,
        "name": "Geluntung",
        "postal_code": "82181",
        "latitude": null,
        "longitude": null,
        "coordinates": null
    },
    {
        "code": 5102072016,
        "district_code": 510207,
        "regency_code": 5102,
        "province_code": 51,
        "name": "Baru",
        "postal_code": "82181",
        "latitude": null,
        "longitude": null,
        "coordinates": null
    },
    {
        "code": 5102082001,
        "district_code": 510208,
        "regency_code": 5102,
        "province_code": 51,
        "name": "Rejasa",
        "postal_code": "82152",
        "latitude": null,
        "longitude": null,
        "coordinates": null
    },
    {
        "code": 5102082002,
        "district_code": 510208,
        "regency_code": 5102,
        "province_code": 51,
        "name": "Jegu",
        "postal_code": "82152",
        "latitude": null,
        "longitude": null,
        "coordinates": null
    },
    {
        "code": 5102082003,
        "district_code": 510208,
        "regency_code": 5102,
        "province_code": 51,
        "name": "Riang Gede",
        "postal_code": "82152",
        "latitude": null,
        "longitude": null,
        "coordinates": null
    },
    {
        "code": 5102082004,
        "district_code": 510208,
        "regency_code": 5102,
        "province_code": 51,
        "name": "Buruan",
        "postal_code": "82152",
        "latitude": null,
        "longitude": null,
        "coordinates": null
    },
    {
        "code": 5102082005,
        "district_code": 510208,
        "regency_code": 5102,
        "province_code": 51,
        "name": "Biaung",
        "postal_code": "82152",
        "latitude": null,
        "longitude": null,
        "coordinates": null
    },
    {
        "code": 5102082006,
        "district_code": 510208,
        "regency_code": 5102,
        "province_code": 51,
        "name": "Pitra",
        "postal_code": "82152",
        "latitude": null,
        "longitude": null,
        "coordinates": null
    },
    {
        "code": 5102082007,
        "district_code": 510208,
        "regency_code": 5102,
        "province_code": 51,
        "name": "Penatahan",
        "postal_code": "82152",
        "latitude": null,
        "longitude": null,
        "coordinates": null
    },
    {
        "code": 5102082008,
        "district_code": 510208,
        "regency_code": 5102,
        "province_code": 51,
        "name": "Tengkudak",
        "postal_code": "82152",
        "latitude": null,
        "longitude": null,
        "coordinates": null
    },
    {
        "code": 5102082009,
        "district_code": 510208,
        "regency_code": 5102,
        "province_code": 51,
        "name": "Mengesta",
        "postal_code": "82152",
        "latitude": null,
        "longitude": null,
        "coordinates": null
    },
    {
        "code": 5102082010,
        "district_code": 510208,
        "regency_code": 5102,
        "province_code": 51,
        "name": "Penebel",
        "postal_code": "82152",
        "latitude": null,
        "longitude": null,
        "coordinates": null
    },
    {
        "code": 5102082011,
        "district_code": 510208,
        "regency_code": 5102,
        "province_code": 51,
        "name": "Babakan",
        "postal_code": "82152",
        "latitude": null,
        "longitude": null,
        "coordinates": null
    },
    {
        "code": 5102082012,
        "district_code": 510208,
        "regency_code": 5102,
        "province_code": 51,
        "name": "Senganan",
        "postal_code": "82152",
        "latitude": null,
        "longitude": null,
        "coordinates": null
    },
    {
        "code": 5102082013,
        "district_code": 510208,
        "regency_code": 5102,
        "province_code": 51,
        "name": "Jatiluwih",
        "postal_code": "82152",
        "latitude": null,
        "longitude": null,
        "coordinates": null
    },
    {
        "code": 5102082014,
        "district_code": 510208,
        "regency_code": 5102,
        "province_code": 51,
        "name": "Wongaya Gede",
        "postal_code": "82152",
        "latitude": null,
        "longitude": null,
        "coordinates": null
    },
    {
        "code": 5102082015,
        "district_code": 510208,
        "regency_code": 5102,
        "province_code": 51,
        "name": "Tajen",
        "postal_code": "82152",
        "latitude": null,
        "longitude": null,
        "coordinates": null
    },
    {
        "code": 5102082016,
        "district_code": 510208,
        "regency_code": 5102,
        "province_code": 51,
        "name": "Tegallinggah",
        "postal_code": "82152",
        "latitude": null,
        "longitude": null,
        "coordinates": null
    },
    {
        "code": 5102082017,
        "district_code": 510208,
        "regency_code": 5102,
        "province_code": 51,
        "name": "Pesagi",
        "postal_code": "82152",
        "latitude": null,
        "longitude": null,
        "coordinates": null
    },
    {
        "code": 5102082018,
        "district_code": 510208,
        "regency_code": 5102,
        "province_code": 51,
        "name": "Sangketan",
        "postal_code": "82152",
        "latitude": null,
        "longitude": null,
        "coordinates": null
    },
    {
        "code": 5102092001,
        "district_code": 510209,
        "regency_code": 5102,
        "province_code": 51,
        "name": "Perean",
        "postal_code": "82191",
        "latitude": null,
        "longitude": null,
        "coordinates": null
    },
    {
        "code": 5102092002,
        "district_code": 510209,
        "regency_code": 5102,
        "province_code": 51,
        "name": "Luwus",
        "postal_code": "82191",
        "latitude": null,
        "longitude": null,
        "coordinates": null
    },
    {
        "code": 5102092003,
        "district_code": 510209,
        "regency_code": 5102,
        "province_code": 51,
        "name": "Apuan",
        "postal_code": "82191",
        "latitude": null,
        "longitude": null,
        "coordinates": null
    },
    {
        "code": 5102092004,
        "district_code": 510209,
        "regency_code": 5102,
        "province_code": 51,
        "name": "Angseri",
        "postal_code": "82191",
        "latitude": null,
        "longitude": null,
        "coordinates": null
    },
    {
        "code": 5102092005,
        "district_code": 510209,
        "regency_code": 5102,
        "province_code": 51,
        "name": "Bangli",
        "postal_code": "82191",
        "latitude": null,
        "longitude": null,
        "coordinates": null
    },
    {
        "code": 5102092006,
        "district_code": 510209,
        "regency_code": 5102,
        "province_code": 51,
        "name": "Baturiti",
        "postal_code": "82191",
        "latitude": null,
        "longitude": null,
        "coordinates": null
    },
    {
        "code": 5102092007,
        "district_code": 510209,
        "regency_code": 5102,
        "province_code": 51,
        "name": "Antapan",
        "postal_code": "82191",
        "latitude": null,
        "longitude": null,
        "coordinates": null
    },
    {
        "code": 5102092008,
        "district_code": 510209,
        "regency_code": 5102,
        "province_code": 51,
        "name": "Candikuning",
        "postal_code": "82191",
        "latitude": null,
        "longitude": null,
        "coordinates": null
    },
    {
        "code": 5102092009,
        "district_code": 510209,
        "regency_code": 5102,
        "province_code": 51,
        "name": "Mekarsari",
        "postal_code": "82191",
        "latitude": null,
        "longitude": null,
        "coordinates": null
    },
    {
        "code": 5102092010,
        "district_code": 510209,
        "regency_code": 5102,
        "province_code": 51,
        "name": "Batunya",
        "postal_code": "82191",
        "latitude": null,
        "longitude": null,
        "coordinates": null
    },
    {
        "code": 5102092011,
        "district_code": 510209,
        "regency_code": 5102,
        "province_code": 51,
        "name": "Perean Tengah",
        "postal_code": "82191",
        "latitude": null,
        "longitude": null,
        "coordinates": null
    },
    {
        "code": 5102092012,
        "district_code": 510209,
        "regency_code": 5102,
        "province_code": 51,
        "name": "Perean Kangin",
        "postal_code": "82191",
        "latitude": null,
        "longitude": null,
        "coordinates": null
    },
    {
        "code": 5102102001,
        "district_code": 510210,
        "regency_code": 5102,
        "province_code": 51,
        "name": "Belimbing",
        "postal_code": "82163",
        "latitude": null,
        "longitude": null,
        "coordinates": null
    },
    {
        "code": 5102102002,
        "district_code": 510210,
        "regency_code": 5102,
        "province_code": 51,
        "name": "Sanda",
        "postal_code": "82163",
        "latitude": null,
        "longitude": null,
        "coordinates": null
    },
    {
        "code": 5102102003,
        "district_code": 510210,
        "regency_code": 5102,
        "province_code": 51,
        "name": "Batungsel",
        "postal_code": "82163",
        "latitude": null,
        "longitude": null,
        "coordinates": null
    },
    {
        "code": 5102102004,
        "district_code": 510210,
        "regency_code": 5102,
        "province_code": 51,
        "name": "Kebon Padangan",
        "postal_code": "82163",
        "latitude": null,
        "longitude": null,
        "coordinates": null
    },
    {
        "code": 5102102005,
        "district_code": 510210,
        "regency_code": 5102,
        "province_code": 51,
        "name": "Munduk Temu",
        "postal_code": "82163",
        "latitude": null,
        "longitude": null,
        "coordinates": null
    },
    {
        "code": 5102102006,
        "district_code": 510210,
        "regency_code": 5102,
        "province_code": 51,
        "name": "Pujungan",
        "postal_code": "82163",
        "latitude": null,
        "longitude": null,
        "coordinates": null
    },
    {
        "code": 5102102007,
        "district_code": 510210,
        "regency_code": 5102,
        "province_code": 51,
        "name": "Pupuan",
        "postal_code": "82163",
        "latitude": null,
        "longitude": null,
        "coordinates": null
    },
    {
        "code": 5102102008,
        "district_code": 510210,
        "regency_code": 5102,
        "province_code": 51,
        "name": "Bantiran",
        "postal_code": "82163",
        "latitude": null,
        "longitude": null,
        "coordinates": null
    },
    {
        "code": 5102102009,
        "district_code": 510210,
        "regency_code": 5102,
        "province_code": 51,
        "name": "Padangan",
        "postal_code": "82163",
        "latitude": null,
        "longitude": null,
        "coordinates": null
    },
    {
        "code": 5102102010,
        "district_code": 510210,
        "regency_code": 5102,
        "province_code": 51,
        "name": "Jelijih Punggung",
        "postal_code": "82163",
        "latitude": null,
        "longitude": null,
        "coordinates": null
    },
    {
        "code": 5102102011,
        "district_code": 510210,
        "regency_code": 5102,
        "province_code": 51,
        "name": "Belatungan",
        "postal_code": "82163",
        "latitude": null,
        "longitude": null,
        "coordinates": null
    },
    {
        "code": 5102102012,
        "district_code": 510210,
        "regency_code": 5102,
        "province_code": 51,
        "name": "Pajahan",
        "postal_code": "82163",
        "latitude": null,
        "longitude": null,
        "coordinates": null
    },
    {
        "code": 5102102013,
        "district_code": 510210,
        "regency_code": 5102,
        "province_code": 51,
        "name": "Karyasari",
        "postal_code": "82163",
        "latitude": null,
        "longitude": null,
        "coordinates": null
    },
    {
        "code": 5102102014,
        "district_code": 510210,
        "regency_code": 5102,
        "province_code": 51,
        "name": "Sai",
        "postal_code": "82163",
        "latitude": null,
        "longitude": null,
        "coordinates": null
    },
    {
        "code": 5103011001,
        "district_code": 510301,
        "regency_code": 5103,
        "province_code": 51,
        "name": "Tuban",
        "postal_code": "80361",
        "latitude": null,
        "longitude": null,
        "coordinates": null
    },
    {
        "code": 5103011002,
        "district_code": 510301,
        "regency_code": 5103,
        "province_code": 51,
        "name": "Kuta",
        "postal_code": "80361",
        "latitude": null,
        "longitude": null,
        "coordinates": null
    },
    {
        "code": 5103011003,
        "district_code": 510301,
        "regency_code": 5103,
        "province_code": 51,
        "name": "Kedonganan",
        "postal_code": "80361",
        "latitude": null,
        "longitude": null,
        "coordinates": null
    },
    {
        "code": 5103011004,
        "district_code": 510301,
        "regency_code": 5103,
        "province_code": 51,
        "name": "Legian",
        "postal_code": "80361",
        "latitude": null,
        "longitude": null,
        "coordinates": null
    },
    {
        "code": 5103011005,
        "district_code": 510301,
        "regency_code": 5103,
        "province_code": 51,
        "name": "Seminyak",
        "postal_code": "80361",
        "latitude": null,
        "longitude": null,
        "coordinates": null
    },
    {
        "code": 5103021004,
        "district_code": 510302,
        "regency_code": 5103,
        "province_code": 51,
        "name": "Kapal",
        "postal_code": "80351",
        "latitude": null,
        "longitude": null,
        "coordinates": null
    },
    {
        "code": 5103021005,
        "district_code": 510302,
        "regency_code": 5103,
        "province_code": 51,
        "name": "Sempidi",
        "postal_code": "80351",
        "latitude": null,
        "longitude": null,
        "coordinates": null
    },
    {
        "code": 5103021014,
        "district_code": 510302,
        "regency_code": 5103,
        "province_code": 51,
        "name": "Abianbase",
        "postal_code": "80351",
        "latitude": null,
        "longitude": null,
        "coordinates": null
    },
    {
        "code": 5103021015,
        "district_code": 510302,
        "regency_code": 5103,
        "province_code": 51,
        "name": "Sading",
        "postal_code": "80351",
        "latitude": null,
        "longitude": null,
        "coordinates": null
    },
    {
        "code": 5103021016,
        "district_code": 510302,
        "regency_code": 5103,
        "province_code": 51,
        "name": "Lukluk",
        "postal_code": "80351",
        "latitude": null,
        "longitude": null,
        "coordinates": null
    },
    {
        "code": 5103022001,
        "district_code": 510302,
        "regency_code": 5103,
        "province_code": 51,
        "name": "Munggu",
        "postal_code": "80351",
        "latitude": null,
        "longitude": null,
        "coordinates": null
    },
    {
        "code": 5103022002,
        "district_code": 510302,
        "regency_code": 5103,
        "province_code": 51,
        "name": "Buduk",
        "postal_code": "80351",
        "latitude": null,
        "longitude": null,
        "coordinates": null
    },
    {
        "code": 5103022003,
        "district_code": 510302,
        "regency_code": 5103,
        "province_code": 51,
        "name": "Mengwitani",
        "postal_code": "80351",
        "latitude": null,
        "longitude": null,
        "coordinates": null
    },
    {
        "code": 5103022006,
        "district_code": 510302,
        "regency_code": 5103,
        "province_code": 51,
        "name": "Penarungan",
        "postal_code": "80351",
        "latitude": null,
        "longitude": null,
        "coordinates": null
    },
    {
        "code": 5103022007,
        "district_code": 510302,
        "regency_code": 5103,
        "province_code": 51,
        "name": "Sembung",
        "postal_code": "80351",
        "latitude": null,
        "longitude": null,
        "coordinates": null
    },
    {
        "code": 5103022008,
        "district_code": 510302,
        "regency_code": 5103,
        "province_code": 51,
        "name": "Baha",
        "postal_code": "80351",
        "latitude": null,
        "longitude": null,
        "coordinates": null
    },
    {
        "code": 5103022009,
        "district_code": 510302,
        "regency_code": 5103,
        "province_code": 51,
        "name": "Mengwi",
        "postal_code": "80351",
        "latitude": null,
        "longitude": null,
        "coordinates": null
    },
    {
        "code": 5103022010,
        "district_code": 510302,
        "regency_code": 5103,
        "province_code": 51,
        "name": "Kekeran",
        "postal_code": "80351",
        "latitude": null,
        "longitude": null,
        "coordinates": null
    },
    {
        "code": 5103022011,
        "district_code": 510302,
        "regency_code": 5103,
        "province_code": 51,
        "name": "Sobangan",
        "postal_code": "80351",
        "latitude": null,
        "longitude": null,
        "coordinates": null
    },
    {
        "code": 5103022012,
        "district_code": 510302,
        "regency_code": 5103,
        "province_code": 51,
        "name": "Gulingan",
        "postal_code": "80351",
        "latitude": null,
        "longitude": null,
        "coordinates": null
    },
    {
        "code": 5103022013,
        "district_code": 510302,
        "regency_code": 5103,
        "province_code": 51,
        "name": "Werdi Bhuwana",
        "postal_code": "80351",
        "latitude": null,
        "longitude": null,
        "coordinates": null
    },
    {
        "code": 5103022017,
        "district_code": 510302,
        "regency_code": 5103,
        "province_code": 51,
        "name": "Cemagi",
        "postal_code": "80351",
        "latitude": null,
        "longitude": null,
        "coordinates": null
    },
    {
        "code": 5103022018,
        "district_code": 510302,
        "regency_code": 5103,
        "province_code": 51,
        "name": "Pererenan",
        "postal_code": "80351",
        "latitude": null,
        "longitude": null,
        "coordinates": null
    },
    {
        "code": 5103022019,
        "district_code": 510302,
        "regency_code": 5103,
        "province_code": 51,
        "name": "Tumbakbayuh",
        "postal_code": "80351",
        "latitude": null,
        "longitude": null,
        "coordinates": null
    },
    {
        "code": 5103022020,
        "district_code": 510302,
        "regency_code": 5103,
        "province_code": 51,
        "name": "Kuwun",
        "postal_code": "80351",
        "latitude": null,
        "longitude": null,
        "coordinates": null
    },
    {
        "code": 5103032001,
        "district_code": 510303,
        "regency_code": 5103,
        "province_code": 51,
        "name": "Darmasaba",
        "postal_code": "80352",
        "latitude": null,
        "longitude": null,
        "coordinates": null
    },
    {
        "code": 5103032002,
        "district_code": 510303,
        "regency_code": 5103,
        "province_code": 51,
        "name": "Sibangkaja",
        "postal_code": "80352",
        "latitude": null,
        "longitude": null,
        "coordinates": null
    },
    {
        "code": 5103032003,
        "district_code": 510303,
        "regency_code": 5103,
        "province_code": 51,
        "name": "Sibanggede",
        "postal_code": "80352",
        "latitude": null,
        "longitude": null,
        "coordinates": null
    },
    {
        "code": 5103032004,
        "district_code": 510303,
        "regency_code": 5103,
        "province_code": 51,
        "name": "Jagapati",
        "postal_code": "80352",
        "latitude": null,
        "longitude": null,
        "coordinates": null
    },
    {
        "code": 5103032005,
        "district_code": 510303,
        "regency_code": 5103,
        "province_code": 51,
        "name": "Angantaka",
        "postal_code": "80352",
        "latitude": null,
        "longitude": null,
        "coordinates": null
    },
    {
        "code": 5103032006,
        "district_code": 510303,
        "regency_code": 5103,
        "province_code": 51,
        "name": "Sedang",
        "postal_code": "80352",
        "latitude": null,
        "longitude": null,
        "coordinates": null
    },
    {
        "code": 5103032007,
        "district_code": 510303,
        "regency_code": 5103,
        "province_code": 51,
        "name": "Mambal",
        "postal_code": "80352",
        "latitude": null,
        "longitude": null,
        "coordinates": null
    },
    {
        "code": 5103032008,
        "district_code": 510303,
        "regency_code": 5103,
        "province_code": 51,
        "name": "Abiansemal",
        "postal_code": "80352",
        "latitude": null,
        "longitude": null,
        "coordinates": null
    },
    {
        "code": 5103032009,
        "district_code": 510303,
        "regency_code": 5103,
        "province_code": 51,
        "name": "Bongkasa",
        "postal_code": "80352",
        "latitude": null,
        "longitude": null,
        "coordinates": null
    },
    {
        "code": 5103032010,
        "district_code": 510303,
        "regency_code": 5103,
        "province_code": 51,
        "name": "Taman",
        "postal_code": "80352",
        "latitude": null,
        "longitude": null,
        "coordinates": null
    },
    {
        "code": 5103032011,
        "district_code": 510303,
        "regency_code": 5103,
        "province_code": 51,
        "name": "Blahkiuh",
        "postal_code": "80352",
        "latitude": null,
        "longitude": null,
        "coordinates": null
    },
    {
        "code": 5103032012,
        "district_code": 510303,
        "regency_code": 5103,
        "province_code": 51,
        "name": "Ayunan",
        "postal_code": "80352",
        "latitude": null,
        "longitude": null,
        "coordinates": null
    },
    {
        "code": 5103032013,
        "district_code": 510303,
        "regency_code": 5103,
        "province_code": 51,
        "name": "Sangeh",
        "postal_code": "80352",
        "latitude": null,
        "longitude": null,
        "coordinates": null
    },
    {
        "code": 5103032014,
        "district_code": 510303,
        "regency_code": 5103,
        "province_code": 51,
        "name": "Punggul",
        "postal_code": "80352",
        "latitude": null,
        "longitude": null,
        "coordinates": null
    },
    {
        "code": 5103032015,
        "district_code": 510303,
        "regency_code": 5103,
        "province_code": 51,
        "name": "Mekar Bhuwana",
        "postal_code": "80352",
        "latitude": null,
        "longitude": null,
        "coordinates": null
    },
    {
        "code": 5103032016,
        "district_code": 510303,
        "regency_code": 5103,
        "province_code": 51,
        "name": "Abiansemal Dauh Yeh Cani",
        "postal_code": "80352",
        "latitude": null,
        "longitude": null,
        "coordinates": null
    },
    {
        "code": 5103032017,
        "district_code": 510303,
        "regency_code": 5103,
        "province_code": 51,
        "name": "Selat",
        "postal_code": "80352",
        "latitude": null,
        "longitude": null,
        "coordinates": null
    },
    {
        "code": 5103032018,
        "district_code": 510303,
        "regency_code": 5103,
        "province_code": 51,
        "name": "Bongkasa Pertiwi",
        "postal_code": "80352",
        "latitude": null,
        "longitude": null,
        "coordinates": null
    },
    {
        "code": 5103042001,
        "district_code": 510304,
        "regency_code": 5103,
        "province_code": 51,
        "name": "Carangsari",
        "postal_code": "80353",
        "latitude": null,
        "longitude": null,
        "coordinates": null
    },
    {
        "code": 5103042002,
        "district_code": 510304,
        "regency_code": 5103,
        "province_code": 51,
        "name": "Petang",
        "postal_code": "80353",
        "latitude": null,
        "longitude": null,
        "coordinates": null
    },
    {
        "code": 5103042003,
        "district_code": 510304,
        "regency_code": 5103,
        "province_code": 51,
        "name": "Belok\/Sidan",
        "postal_code": "80353",
        "latitude": null,
        "longitude": null,
        "coordinates": null
    },
    {
        "code": 5103042004,
        "district_code": 510304,
        "regency_code": 5103,
        "province_code": 51,
        "name": "Pelaga",
        "postal_code": "80353",
        "latitude": null,
        "longitude": null,
        "coordinates": null
    },
    {
        "code": 5103042005,
        "district_code": 510304,
        "regency_code": 5103,
        "province_code": 51,
        "name": "Getasan",
        "postal_code": "80353",
        "latitude": null,
        "longitude": null,
        "coordinates": null
    },
    {
        "code": 5103042006,
        "district_code": 510304,
        "regency_code": 5103,
        "province_code": 51,
        "name": "Pangsan",
        "postal_code": "80353",
        "latitude": null,
        "longitude": null,
        "coordinates": null
    },
    {
        "code": 5103042007,
        "district_code": 510304,
        "regency_code": 5103,
        "province_code": 51,
        "name": "Sulangai",
        "postal_code": "80353",
        "latitude": null,
        "longitude": null,
        "coordinates": null
    },
    {
        "code": 5103051004,
        "district_code": 510305,
        "regency_code": 5103,
        "province_code": 51,
        "name": "Benoa",
        "postal_code": "80362",
        "latitude": null,
        "longitude": null,
        "coordinates": null
    },
    {
        "code": 5103051005,
        "district_code": 510305,
        "regency_code": 5103,
        "province_code": 51,
        "name": "Tanjung Benoa",
        "postal_code": "80362",
        "latitude": null,
        "longitude": null,
        "coordinates": null
    },
    {
        "code": 5103051006,
        "district_code": 510305,
        "regency_code": 5103,
        "province_code": 51,
        "name": "Jimbaran",
        "postal_code": "80362",
        "latitude": null,
        "longitude": null,
        "coordinates": null
    },
    {
        "code": 5103052001,
        "district_code": 510305,
        "regency_code": 5103,
        "province_code": 51,
        "name": "Pecatu",
        "postal_code": "80362",
        "latitude": null,
        "longitude": null,
        "coordinates": null
    },
    {
        "code": 5103052002,
        "district_code": 510305,
        "regency_code": 5103,
        "province_code": 51,
        "name": "Ungasan",
        "postal_code": "80362",
        "latitude": null,
        "longitude": null,
        "coordinates": null
    },
    {
        "code": 5103052003,
        "district_code": 510305,
        "regency_code": 5103,
        "province_code": 51,
        "name": "Kutuh",
        "postal_code": "80362",
        "latitude": null,
        "longitude": null,
        "coordinates": null
    },
    {
        "code": 5103061001,
        "district_code": 510306,
        "regency_code": 5103,
        "province_code": 51,
        "name": "Kerobokan Kelod",
        "postal_code": "80363",
        "latitude": null,
        "longitude": null,
        "coordinates": null
    },
    {
        "code": 5103061002,
        "district_code": 510306,
        "regency_code": 5103,
        "province_code": 51,
        "name": "Kerobokan",
        "postal_code": "80363",
        "latitude": null,
        "longitude": null,
        "coordinates": null
    },
    {
        "code": 5103061003,
        "district_code": 510306,
        "regency_code": 5103,
        "province_code": 51,
        "name": "Kerobokan Kaja",
        "postal_code": "80363",
        "latitude": null,
        "longitude": null,
        "coordinates": null
    },
    {
        "code": 5103062004,
        "district_code": 510306,
        "regency_code": 5103,
        "province_code": 51,
        "name": "Tibubeneng",
        "postal_code": "80363",
        "latitude": null,
        "longitude": null,
        "coordinates": null
    },
    {
        "code": 5103062005,
        "district_code": 510306,
        "regency_code": 5103,
        "province_code": 51,
        "name": "Canggu",
        "postal_code": "80363",
        "latitude": null,
        "longitude": null,
        "coordinates": null
    },
    {
        "code": 5103062006,
        "district_code": 510306,
        "regency_code": 5103,
        "province_code": 51,
        "name": "Dalung",
        "postal_code": "80363",
        "latitude": null,
        "longitude": null,
        "coordinates": null
    },
    {
        "code": 5104012001,
        "district_code": 510401,
        "regency_code": 5104,
        "province_code": 51,
        "name": "Batubulan",
        "postal_code": "80582",
        "latitude": null,
        "longitude": null,
        "coordinates": null
    },
    {
        "code": 5104012002,
        "district_code": 510401,
        "regency_code": 5104,
        "province_code": 51,
        "name": "Ketewel",
        "postal_code": "80582",
        "latitude": null,
        "longitude": null,
        "coordinates": null
    },
    {
        "code": 5104012003,
        "district_code": 510401,
        "regency_code": 5104,
        "province_code": 51,
        "name": "Guwang",
        "postal_code": "80582",
        "latitude": null,
        "longitude": null,
        "coordinates": null
    },
    {
        "code": 5104012004,
        "district_code": 510401,
        "regency_code": 5104,
        "province_code": 51,
        "name": "Sukawati",
        "postal_code": "80582",
        "latitude": null,
        "longitude": null,
        "coordinates": null
    },
    {
        "code": 5104012005,
        "district_code": 510401,
        "regency_code": 5104,
        "province_code": 51,
        "name": "Celuk",
        "postal_code": "80582",
        "latitude": null,
        "longitude": null,
        "coordinates": null
    },
    {
        "code": 5104012006,
        "district_code": 510401,
        "regency_code": 5104,
        "province_code": 51,
        "name": "Singapadu",
        "postal_code": "80582",
        "latitude": null,
        "longitude": null,
        "coordinates": null
    },
    {
        "code": 5104012007,
        "district_code": 510401,
        "regency_code": 5104,
        "province_code": 51,
        "name": "Batuan",
        "postal_code": "80582",
        "latitude": null,
        "longitude": null,
        "coordinates": null
    },
    {
        "code": 5104012008,
        "district_code": 510401,
        "regency_code": 5104,
        "province_code": 51,
        "name": "Kemenuh",
        "postal_code": "80582",
        "latitude": null,
        "longitude": null,
        "coordinates": null
    },
    {
        "code": 5104012009,
        "district_code": 510401,
        "regency_code": 5104,
        "province_code": 51,
        "name": "Batubulan Kangin",
        "postal_code": "80582",
        "latitude": null,
        "longitude": null,
        "coordinates": null
    },
    {
        "code": 5104012010,
        "district_code": 510401,
        "regency_code": 5104,
        "province_code": 51,
        "name": "Singapadu Tengah",
        "postal_code": "80582",
        "latitude": null,
        "longitude": null,
        "coordinates": null
    },
    {
        "code": 5104012011,
        "district_code": 510401,
        "regency_code": 5104,
        "province_code": 51,
        "name": "Singapadu Kaler",
        "postal_code": "80582",
        "latitude": null,
        "longitude": null,
        "coordinates": null
    },
    {
        "code": 5104012012,
        "district_code": 510401,
        "regency_code": 5104,
        "province_code": 51,
        "name": "Batuan Kaler",
        "postal_code": "80582",
        "latitude": null,
        "longitude": null,
        "coordinates": null
    },
    {
        "code": 5104022001,
        "district_code": 510402,
        "regency_code": 5104,
        "province_code": 51,
        "name": "Saba",
        "postal_code": "80581",
        "latitude": null,
        "longitude": null,
        "coordinates": null
    },
    {
        "code": 5104022002,
        "district_code": 510402,
        "regency_code": 5104,
        "province_code": 51,
        "name": "Pering",
        "postal_code": "80581",
        "latitude": null,
        "longitude": null,
        "coordinates": null
    },
    {
        "code": 5104022003,
        "district_code": 510402,
        "regency_code": 5104,
        "province_code": 51,
        "name": "Keramas",
        "postal_code": "80581",
        "latitude": null,
        "longitude": null,
        "coordinates": null
    },
    {
        "code": 5104022004,
        "district_code": 510402,
        "regency_code": 5104,
        "province_code": 51,
        "name": "Belega",
        "postal_code": "80581",
        "latitude": null,
        "longitude": null,
        "coordinates": null
    },
    {
        "code": 5104022005,
        "district_code": 510402,
        "regency_code": 5104,
        "province_code": 51,
        "name": "Blahbatuh",
        "postal_code": "80581",
        "latitude": null,
        "longitude": null,
        "coordinates": null
    },
    {
        "code": 5104022006,
        "district_code": 510402,
        "regency_code": 5104,
        "province_code": 51,
        "name": "Buruan",
        "postal_code": "80581",
        "latitude": null,
        "longitude": null,
        "coordinates": null
    },
    {
        "code": 5104022007,
        "district_code": 510402,
        "regency_code": 5104,
        "province_code": 51,
        "name": "Bedulu",
        "postal_code": "80581",
        "latitude": null,
        "longitude": null,
        "coordinates": null
    },
    {
        "code": 5104022008,
        "district_code": 510402,
        "regency_code": 5104,
        "province_code": 51,
        "name": "Medahan",
        "postal_code": "80581",
        "latitude": null,
        "longitude": null,
        "coordinates": null
    },
    {
        "code": 5104022009,
        "district_code": 510402,
        "regency_code": 5104,
        "province_code": 51,
        "name": "Bona",
        "postal_code": "80581",
        "latitude": null,
        "longitude": null,
        "coordinates": null
    },
    {
        "code": 5104031003,
        "district_code": 510403,
        "regency_code": 5104,
        "province_code": 51,
        "name": "Samplangan",
        "postal_code": "80512",
        "latitude": null,
        "longitude": null,
        "coordinates": null
    },
    {
        "code": 5104031005,
        "district_code": 510403,
        "regency_code": 5104,
        "province_code": 51,
        "name": "Abianbase",
        "postal_code": "80515",
        "latitude": null,
        "longitude": null,
        "coordinates": null
    },
    {
        "code": 5104031006,
        "district_code": 510403,
        "regency_code": 5104,
        "province_code": 51,
        "name": "Gianyar",
        "postal_code": "80511",
        "latitude": null,
        "longitude": null,
        "coordinates": null
    },
    {
        "code": 5104031007,
        "district_code": 510403,
        "regency_code": 5104,
        "province_code": 51,
        "name": "Bitera",
        "postal_code": "80515",
        "latitude": null,
        "longitude": null,
        "coordinates": null
    },
    {
        "code": 5104031008,
        "district_code": 510403,
        "regency_code": 5104,
        "province_code": 51,
        "name": "Beng",
        "postal_code": "80513",
        "latitude": null,
        "longitude": null,
        "coordinates": null
    },
    {
        "code": 5104032001,
        "district_code": 510403,
        "regency_code": 5104,
        "province_code": 51,
        "name": "Tulikup",
        "postal_code": "80515",
        "latitude": null,
        "longitude": null,
        "coordinates": null
    },
    {
        "code": 5104032002,
        "district_code": 510403,
        "regency_code": 5104,
        "province_code": 51,
        "name": "Sidan",
        "postal_code": "80515",
        "latitude": null,
        "longitude": null,
        "coordinates": null
    },
    {
        "code": 5104032004,
        "district_code": 510403,
        "regency_code": 5104,
        "province_code": 51,
        "name": "Lebih",
        "postal_code": "80515",
        "latitude": null,
        "longitude": null,
        "coordinates": null
    },
    {
        "code": 5104032009,
        "district_code": 510403,
        "regency_code": 5104,
        "province_code": 51,
        "name": "Bakbakan",
        "postal_code": "80515",
        "latitude": null,
        "longitude": null,
        "coordinates": null
    },
    {
        "code": 5104032010,
        "district_code": 510403,
        "regency_code": 5104,
        "province_code": 51,
        "name": "Siangan",
        "postal_code": "80515",
        "latitude": null,
        "longitude": null,
        "coordinates": null
    },
    {
        "code": 5104032011,
        "district_code": 510403,
        "regency_code": 5104,
        "province_code": 51,
        "name": "Suwat",
        "postal_code": "80515",
        "latitude": null,
        "longitude": null,
        "coordinates": null
    },
    {
        "code": 5104032012,
        "district_code": 510403,
        "regency_code": 5104,
        "province_code": 51,
        "name": "Petak",
        "postal_code": "80515",
        "latitude": null,
        "longitude": null,
        "coordinates": null
    },
    {
        "code": 5104032013,
        "district_code": 510403,
        "regency_code": 5104,
        "province_code": 51,
        "name": "Serongga",
        "postal_code": "80515",
        "latitude": null,
        "longitude": null,
        "coordinates": null
    },
    {
        "code": 5104032014,
        "district_code": 510403,
        "regency_code": 5104,
        "province_code": 51,
        "name": "Petak Kaja",
        "postal_code": "80515",
        "latitude": null,
        "longitude": null,
        "coordinates": null
    },
    {
        "code": 5104032015,
        "district_code": 510403,
        "regency_code": 5104,
        "province_code": 51,
        "name": "Temesi",
        "postal_code": "80515",
        "latitude": null,
        "longitude": null,
        "coordinates": null
    },
    {
        "code": 5104032016,
        "district_code": 510403,
        "regency_code": 5104,
        "province_code": 51,
        "name": "Sumita",
        "postal_code": "80515",
        "latitude": null,
        "longitude": null,
        "coordinates": null
    },
    {
        "code": 5104032017,
        "district_code": 510403,
        "regency_code": 5104,
        "province_code": 51,
        "name": "Tegal Tugu",
        "postal_code": "80515",
        "latitude": null,
        "longitude": null,
        "coordinates": null
    },
    {
        "code": 5104042001,
        "district_code": 510404,
        "regency_code": 5104,
        "province_code": 51,
        "name": "Pejeng",
        "postal_code": "80552",
        "latitude": null,
        "longitude": null,
        "coordinates": null
    },
    {
        "code": 5104042002,
        "district_code": 510404,
        "regency_code": 5104,
        "province_code": 51,
        "name": "Sanding",
        "postal_code": "80552",
        "latitude": null,
        "longitude": null,
        "coordinates": null
    },
    {
        "code": 5104042003,
        "district_code": 510404,
        "regency_code": 5104,
        "province_code": 51,
        "name": "Tampaksiring",
        "postal_code": "80552",
        "latitude": null,
        "longitude": null,
        "coordinates": null
    },
    {
        "code": 5104042004,
        "district_code": 510404,
        "regency_code": 5104,
        "province_code": 51,
        "name": "Manukaya",
        "postal_code": "80552",
        "latitude": null,
        "longitude": null,
        "coordinates": null
    },
    {
        "code": 5104042005,
        "district_code": 510404,
        "regency_code": 5104,
        "province_code": 51,
        "name": "Pejeng Kawan",
        "postal_code": "80552",
        "latitude": null,
        "longitude": null,
        "coordinates": null
    },
    {
        "code": 5104042006,
        "district_code": 510404,
        "regency_code": 5104,
        "province_code": 51,
        "name": "Pejeng Kaja",
        "postal_code": "80552",
        "latitude": null,
        "longitude": null,
        "coordinates": null
    },
    {
        "code": 5104042007,
        "district_code": 510404,
        "regency_code": 5104,
        "province_code": 51,
        "name": "Pejeng Kangin",
        "postal_code": "80552",
        "latitude": null,
        "longitude": null,
        "coordinates": null
    },
    {
        "code": 5104042008,
        "district_code": 510404,
        "regency_code": 5104,
        "province_code": 51,
        "name": "Pejeng Kelod",
        "postal_code": "80552",
        "latitude": null,
        "longitude": null,
        "coordinates": null
    },
    {
        "code": 5104051005,
        "district_code": 510405,
        "regency_code": 5104,
        "province_code": 51,
        "name": "Ubud",
        "postal_code": "80571",
        "latitude": null,
        "longitude": null,
        "coordinates": null
    },
    {
        "code": 5104052001,
        "district_code": 510405,
        "regency_code": 5104,
        "province_code": 51,
        "name": "Lodtunduh",
        "postal_code": "80571",
        "latitude": null,
        "longitude": null,
        "coordinates": null
    },
    {
        "code": 5104052002,
        "district_code": 510405,
        "regency_code": 5104,
        "province_code": 51,
        "name": "Mas",
        "postal_code": "80571",
        "latitude": null,
        "longitude": null,
        "coordinates": null
    },
    {
        "code": 5104052003,
        "district_code": 510405,
        "regency_code": 5104,
        "province_code": 51,
        "name": "Singakerta",
        "postal_code": "80571",
        "latitude": null,
        "longitude": null,
        "coordinates": null
    },
    {
        "code": 5104052004,
        "district_code": 510405,
        "regency_code": 5104,
        "province_code": 51,
        "name": "Kedewatan",
        "postal_code": "80571",
        "latitude": null,
        "longitude": null,
        "coordinates": null
    },
    {
        "code": 5104052006,
        "district_code": 510405,
        "regency_code": 5104,
        "province_code": 51,
        "name": "Peliatan",
        "postal_code": "80571",
        "latitude": null,
        "longitude": null,
        "coordinates": null
    },
    {
        "code": 5104052007,
        "district_code": 510405,
        "regency_code": 5104,
        "province_code": 51,
        "name": "Petulu",
        "postal_code": "80571",
        "latitude": null,
        "longitude": null,
        "coordinates": null
    },
    {
        "code": 5104052008,
        "district_code": 510405,
        "regency_code": 5104,
        "province_code": 51,
        "name": "Sayan",
        "postal_code": "80571",
        "latitude": null,
        "longitude": null,
        "coordinates": null
    },
    {
        "code": 5104062001,
        "district_code": 510406,
        "regency_code": 5104,
        "province_code": 51,
        "name": "Keliki",
        "postal_code": "80561",
        "latitude": null,
        "longitude": null,
        "coordinates": null
    },
    {
        "code": 5104062002,
        "district_code": 510406,
        "regency_code": 5104,
        "province_code": 51,
        "name": "Tegallalang",
        "postal_code": "80561",
        "latitude": null,
        "longitude": null,
        "coordinates": null
    },
    {
        "code": 5104062003,
        "district_code": 510406,
        "regency_code": 5104,
        "province_code": 51,
        "name": "Kenderan",
        "postal_code": "80561",
        "latitude": null,
        "longitude": null,
        "coordinates": null
    },
    {
        "code": 5104062004,
        "district_code": 510406,
        "regency_code": 5104,
        "province_code": 51,
        "name": "Kedisan",
        "postal_code": "80561",
        "latitude": null,
        "longitude": null,
        "coordinates": null
    },
    {
        "code": 5104062005,
        "district_code": 510406,
        "regency_code": 5104,
        "province_code": 51,
        "name": "Pupuan",
        "postal_code": "80561",
        "latitude": null,
        "longitude": null,
        "coordinates": null
    },
    {
        "code": 5104062006,
        "district_code": 510406,
        "regency_code": 5104,
        "province_code": 51,
        "name": "Sebatu",
        "postal_code": "80561",
        "latitude": null,
        "longitude": null,
        "coordinates": null
    },
    {
        "code": 5104062007,
        "district_code": 510406,
        "regency_code": 5104,
        "province_code": 51,
        "name": "Taro",
        "postal_code": "80561",
        "latitude": null,
        "longitude": null,
        "coordinates": null
    },
    {
        "code": 5104072001,
        "district_code": 510407,
        "regency_code": 5104,
        "province_code": 51,
        "name": "Melinggih",
        "postal_code": "80572",
        "latitude": null,
        "longitude": null,
        "coordinates": null
    },
    {
        "code": 5104072002,
        "district_code": 510407,
        "regency_code": 5104,
        "province_code": 51,
        "name": "Kelusa",
        "postal_code": "80572",
        "latitude": null,
        "longitude": null,
        "coordinates": null
    },
    {
        "code": 5104072003,
        "district_code": 510407,
        "regency_code": 5104,
        "province_code": 51,
        "name": "Bukian",
        "postal_code": "80572",
        "latitude": null,
        "longitude": null,
        "coordinates": null
    },
    {
        "code": 5104072004,
        "district_code": 510407,
        "regency_code": 5104,
        "province_code": 51,
        "name": "Puhu",
        "postal_code": "80572",
        "latitude": null,
        "longitude": null,
        "coordinates": null
    },
    {
        "code": 5104072005,
        "district_code": 510407,
        "regency_code": 5104,
        "province_code": 51,
        "name": "Buahan",
        "postal_code": "80572",
        "latitude": null,
        "longitude": null,
        "coordinates": null
    },
    {
        "code": 5104072006,
        "district_code": 510407,
        "regency_code": 5104,
        "province_code": 51,
        "name": "Kerta",
        "postal_code": "80572",
        "latitude": null,
        "longitude": null,
        "coordinates": null
    },
    {
        "code": 5104072007,
        "district_code": 510407,
        "regency_code": 5104,
        "province_code": 51,
        "name": "Melinggih Kelod",
        "postal_code": "80572",
        "latitude": null,
        "longitude": null,
        "coordinates": null
    },
    {
        "code": 5104072008,
        "district_code": 510407,
        "regency_code": 5104,
        "province_code": 51,
        "name": "Buahan Kaja",
        "postal_code": "80572",
        "latitude": null,
        "longitude": null,
        "coordinates": null
    },
    {
        "code": 5104072009,
        "district_code": 510407,
        "regency_code": 5104,
        "province_code": 51,
        "name": "Bresela",
        "postal_code": "80572",
        "latitude": null,
        "longitude": null,
        "coordinates": null
    },
    {
        "code": 5105012001,
        "district_code": 510501,
        "regency_code": 5105,
        "province_code": 51,
        "name": "Sakti",
        "postal_code": "80771",
        "latitude": null,
        "longitude": null,
        "coordinates": null
    },
    {
        "code": 5105012002,
        "district_code": 510501,
        "regency_code": 5105,
        "province_code": 51,
        "name": "Batumadeg",
        "postal_code": "80771",
        "latitude": null,
        "longitude": null,
        "coordinates": null
    },
    {
        "code": 5105012003,
        "district_code": 510501,
        "regency_code": 5105,
        "province_code": 51,
        "name": "Klumpu",
        "postal_code": "80771",
        "latitude": null,
        "longitude": null,
        "coordinates": null
    },
    {
        "code": 5105012004,
        "district_code": 510501,
        "regency_code": 5105,
        "province_code": 51,
        "name": "Batukandik",
        "postal_code": "80771",
        "latitude": null,
        "longitude": null,
        "coordinates": null
    },
    {
        "code": 5105012005,
        "district_code": 510501,
        "regency_code": 5105,
        "province_code": 51,
        "name": "Sekartaji",
        "postal_code": "80771",
        "latitude": null,
        "longitude": null,
        "coordinates": null
    },
    {
        "code": 5105012006,
        "district_code": 510501,
        "regency_code": 5105,
        "province_code": 51,
        "name": "Tanglad",
        "postal_code": "80771",
        "latitude": null,
        "longitude": null,
        "coordinates": null
    },
    {
        "code": 5105012007,
        "district_code": 510501,
        "regency_code": 5105,
        "province_code": 51,
        "name": "Suana",
        "postal_code": "80771",
        "latitude": null,
        "longitude": null,
        "coordinates": null
    },
    {
        "code": 5105012008,
        "district_code": 510501,
        "regency_code": 5105,
        "province_code": 51,
        "name": "Batununggul",
        "postal_code": "80771",
        "latitude": null,
        "longitude": null,
        "coordinates": null
    },
    {
        "code": 5105012009,
        "district_code": 510501,
        "regency_code": 5105,
        "province_code": 51,
        "name": "Kutampi",
        "postal_code": "80771",
        "latitude": null,
        "longitude": null,
        "coordinates": null
    },
    {
        "code": 5105012010,
        "district_code": 510501,
        "regency_code": 5105,
        "province_code": 51,
        "name": "Ped",
        "postal_code": "80771",
        "latitude": null,
        "longitude": null,
        "coordinates": null
    },
    {
        "code": 5105012011,
        "district_code": 510501,
        "regency_code": 5105,
        "province_code": 51,
        "name": "Kampung Toyapakeh",
        "postal_code": "80771",
        "latitude": null,
        "longitude": null,
        "coordinates": null
    },
    {
        "code": 5105012012,
        "district_code": 510501,
        "regency_code": 5105,
        "province_code": 51,
        "name": "Lembongan",
        "postal_code": "80771",
        "latitude": null,
        "longitude": null,
        "coordinates": null
    },
    {
        "code": 5105012013,
        "district_code": 510501,
        "regency_code": 5105,
        "province_code": 51,
        "name": "Jungutbatu",
        "postal_code": "80771",
        "latitude": null,
        "longitude": null,
        "coordinates": null
    },
    {
        "code": 5105012014,
        "district_code": 510501,
        "regency_code": 5105,
        "province_code": 51,
        "name": "Pejukutan",
        "postal_code": "80771",
        "latitude": null,
        "longitude": null,
        "coordinates": null
    },
    {
        "code": 5105012015,
        "district_code": 510501,
        "regency_code": 5105,
        "province_code": 51,
        "name": "Kutampi Kaler",
        "postal_code": "80771",
        "latitude": null,
        "longitude": null,
        "coordinates": null
    },
    {
        "code": 5105012016,
        "district_code": 510501,
        "regency_code": 5105,
        "province_code": 51,
        "name": "Bunga Mekar",
        "postal_code": "80771",
        "latitude": null,
        "longitude": null,
        "coordinates": null
    },
    {
        "code": 5105022001,
        "district_code": 510502,
        "regency_code": 5105,
        "province_code": 51,
        "name": "Negari",
        "postal_code": "80752",
        "latitude": null,
        "longitude": null,
        "coordinates": null
    },
    {
        "code": 5105022002,
        "district_code": 510502,
        "regency_code": 5105,
        "province_code": 51,
        "name": "Takmung",
        "postal_code": "80752",
        "latitude": null,
        "longitude": null,
        "coordinates": null
    },
    {
        "code": 5105022003,
        "district_code": 510502,
        "regency_code": 5105,
        "province_code": 51,
        "name": "Banjarangkan",
        "postal_code": "80752",
        "latitude": null,
        "longitude": null,
        "coordinates": null
    },
    {
        "code": 5105022004,
        "district_code": 510502,
        "regency_code": 5105,
        "province_code": 51,
        "name": "Tusan",
        "postal_code": "80752",
        "latitude": null,
        "longitude": null,
        "coordinates": null
    },
    {
        "code": 5105022005,
        "district_code": 510502,
        "regency_code": 5105,
        "province_code": 51,
        "name": "Bakas",
        "postal_code": "80752",
        "latitude": null,
        "longitude": null,
        "coordinates": null
    },
    {
        "code": 5105022006,
        "district_code": 510502,
        "regency_code": 5105,
        "province_code": 51,
        "name": "Getakan",
        "postal_code": "80752",
        "latitude": null,
        "longitude": null,
        "coordinates": null
    },
    {
        "code": 5105022007,
        "district_code": 510502,
        "regency_code": 5105,
        "province_code": 51,
        "name": "Tihingan",
        "postal_code": "80752",
        "latitude": null,
        "longitude": null,
        "coordinates": null
    },
    {
        "code": 5105022008,
        "district_code": 510502,
        "regency_code": 5105,
        "province_code": 51,
        "name": "Aan",
        "postal_code": "80752",
        "latitude": null,
        "longitude": null,
        "coordinates": null
    },
    {
        "code": 5105022009,
        "district_code": 510502,
        "regency_code": 5105,
        "province_code": 51,
        "name": "Nyalian",
        "postal_code": "80752",
        "latitude": null,
        "longitude": null,
        "coordinates": null
    },
    {
        "code": 5105022010,
        "district_code": 510502,
        "regency_code": 5105,
        "province_code": 51,
        "name": "Bungbungan",
        "postal_code": "80752",
        "latitude": null,
        "longitude": null,
        "coordinates": null
    },
    {
        "code": 5105022011,
        "district_code": 510502,
        "regency_code": 5105,
        "province_code": 51,
        "name": "Timuhun",
        "postal_code": "80752",
        "latitude": null,
        "longitude": null,
        "coordinates": null
    },
    {
        "code": 5105022012,
        "district_code": 510502,
        "regency_code": 5105,
        "province_code": 51,
        "name": "Nyanglan",
        "postal_code": "80752",
        "latitude": null,
        "longitude": null,
        "coordinates": null
    },
    {
        "code": 5105022013,
        "district_code": 510502,
        "regency_code": 5105,
        "province_code": 51,
        "name": "Tohpati",
        "postal_code": "80752",
        "latitude": null,
        "longitude": null,
        "coordinates": null
    },
    {
        "code": 5105031008,
        "district_code": 510503,
        "regency_code": 5105,
        "province_code": 51,
        "name": "Semarapura Kaja",
        "postal_code": "80712",
        "latitude": null,
        "longitude": null,
        "coordinates": null
    },
    {
        "code": 5105031009,
        "district_code": 510503,
        "regency_code": 5105,
        "province_code": 51,
        "name": "Semarapura Kauh",
        "postal_code": "80713",
        "latitude": null,
        "longitude": null,
        "coordinates": null
    },
    {
        "code": 5105031010,
        "district_code": 510503,
        "regency_code": 5105,
        "province_code": 51,
        "name": "Semarapura Tengah",
        "postal_code": "80711",
        "latitude": null,
        "longitude": null,
        "coordinates": null
    },
    {
        "code": 5105031011,
        "district_code": 510503,
        "regency_code": 5105,
        "province_code": 51,
        "name": "Semarapura Kangin",
        "postal_code": "80716",
        "latitude": null,
        "longitude": null,
        "coordinates": null
    },
    {
        "code": 5105031012,
        "district_code": 510503,
        "regency_code": 5105,
        "province_code": 51,
        "name": "Semarapura Kelod Kangin",
        "postal_code": "80716",
        "latitude": null,
        "longitude": null,
        "coordinates": null
    },
    {
        "code": 5105031013,
        "district_code": 510503,
        "regency_code": 5105,
        "province_code": 51,
        "name": "Semarapura Kelod",
        "postal_code": "80716",
        "latitude": null,
        "longitude": null,
        "coordinates": null
    },
    {
        "code": 5105032001,
        "district_code": 510503,
        "regency_code": 5105,
        "province_code": 51,
        "name": "Satra",
        "postal_code": "80716",
        "latitude": null,
        "longitude": null,
        "coordinates": null
    },
    {
        "code": 5105032002,
        "district_code": 510503,
        "regency_code": 5105,
        "province_code": 51,
        "name": "Tojan",
        "postal_code": "80716",
        "latitude": null,
        "longitude": null,
        "coordinates": null
    },
    {
        "code": 5105032003,
        "district_code": 510503,
        "regency_code": 5105,
        "province_code": 51,
        "name": "Gelgel",
        "postal_code": "80716",
        "latitude": null,
        "longitude": null,
        "coordinates": null
    },
    {
        "code": 5105032004,
        "district_code": 510503,
        "regency_code": 5105,
        "province_code": 51,
        "name": "Kampung Gelgel",
        "postal_code": "80716",
        "latitude": null,
        "longitude": null,
        "coordinates": null
    },
    {
        "code": 5105032005,
        "district_code": 510503,
        "regency_code": 5105,
        "province_code": 51,
        "name": "Jumpai",
        "postal_code": "80716",
        "latitude": null,
        "longitude": null,
        "coordinates": null
    },
    {
        "code": 5105032006,
        "district_code": 510503,
        "regency_code": 5105,
        "province_code": 51,
        "name": "Tangkas",
        "postal_code": "80716",
        "latitude": null,
        "longitude": null,
        "coordinates": null
    },
    {
        "code": 5105032007,
        "district_code": 510503,
        "regency_code": 5105,
        "province_code": 51,
        "name": "Kamasan",
        "postal_code": "80716",
        "latitude": null,
        "longitude": null,
        "coordinates": null
    },
    {
        "code": 5105032014,
        "district_code": 510503,
        "regency_code": 5105,
        "province_code": 51,
        "name": "Akah",
        "postal_code": "80716",
        "latitude": null,
        "longitude": null,
        "coordinates": null
    },
    {
        "code": 5105032015,
        "district_code": 510503,
        "regency_code": 5105,
        "province_code": 51,
        "name": "Manduang",
        "postal_code": "80716",
        "latitude": null,
        "longitude": null,
        "coordinates": null
    },
    {
        "code": 5105032016,
        "district_code": 510503,
        "regency_code": 5105,
        "province_code": 51,
        "name": "Selat",
        "postal_code": "80716",
        "latitude": null,
        "longitude": null,
        "coordinates": null
    },
    {
        "code": 5105032017,
        "district_code": 510503,
        "regency_code": 5105,
        "province_code": 51,
        "name": "Tegak",
        "postal_code": "80716",
        "latitude": null,
        "longitude": null,
        "coordinates": null
    },
    {
        "code": 5105032018,
        "district_code": 510503,
        "regency_code": 5105,
        "province_code": 51,
        "name": "Selisihan",
        "postal_code": "80716",
        "latitude": null,
        "longitude": null,
        "coordinates": null
    },
    {
        "code": 5105042001,
        "district_code": 510504,
        "regency_code": 5105,
        "province_code": 51,
        "name": "Paksebali",
        "postal_code": "80761",
        "latitude": null,
        "longitude": null,
        "coordinates": null
    },
    {
        "code": 5105042002,
        "district_code": 510504,
        "regency_code": 5105,
        "province_code": 51,
        "name": "Sampalan Tengah",
        "postal_code": "80761",
        "latitude": null,
        "longitude": null,
        "coordinates": null
    },
    {
        "code": 5105042003,
        "district_code": 510504,
        "regency_code": 5105,
        "province_code": 51,
        "name": "Sampalan Kelod",
        "postal_code": "80761",
        "latitude": null,
        "longitude": null,
        "coordinates": null
    },
    {
        "code": 5105042004,
        "district_code": 510504,
        "regency_code": 5105,
        "province_code": 51,
        "name": "Sulang",
        "postal_code": "80761",
        "latitude": null,
        "longitude": null,
        "coordinates": null
    },
    {
        "code": 5105042005,
        "district_code": 510504,
        "regency_code": 5105,
        "province_code": 51,
        "name": "Gunaksa",
        "postal_code": "80761",
        "latitude": null,
        "longitude": null,
        "coordinates": null
    },
    {
        "code": 5105042006,
        "district_code": 510504,
        "regency_code": 5105,
        "province_code": 51,
        "name": "Kusamba",
        "postal_code": "80761",
        "latitude": null,
        "longitude": null,
        "coordinates": null
    },
    {
        "code": 5105042007,
        "district_code": 510504,
        "regency_code": 5105,
        "province_code": 51,
        "name": "Kampung Kusamba",
        "postal_code": "80761",
        "latitude": null,
        "longitude": null,
        "coordinates": null
    },
    {
        "code": 5105042008,
        "district_code": 510504,
        "regency_code": 5105,
        "province_code": 51,
        "name": "Pesinggahan",
        "postal_code": "80761",
        "latitude": null,
        "longitude": null,
        "coordinates": null
    },
    {
        "code": 5105042009,
        "district_code": 510504,
        "regency_code": 5105,
        "province_code": 51,
        "name": "Dawan Kelod",
        "postal_code": "80761",
        "latitude": null,
        "longitude": null,
        "coordinates": null
    },
    {
        "code": 5105042010,
        "district_code": 510504,
        "regency_code": 5105,
        "province_code": 51,
        "name": "Pikat",
        "postal_code": "80761",
        "latitude": null,
        "longitude": null,
        "coordinates": null
    },
    {
        "code": 5105042011,
        "district_code": 510504,
        "regency_code": 5105,
        "province_code": 51,
        "name": "Dawan Kaler",
        "postal_code": "80761",
        "latitude": null,
        "longitude": null,
        "coordinates": null
    },
    {
        "code": 5105042012,
        "district_code": 510504,
        "regency_code": 5105,
        "province_code": 51,
        "name": "Besan",
        "postal_code": "80761",
        "latitude": null,
        "longitude": null,
        "coordinates": null
    },
    {
        "code": 5106012001,
        "district_code": 510601,
        "regency_code": 5106,
        "province_code": 51,
        "name": "Apuan",
        "postal_code": "80661",
        "latitude": null,
        "longitude": null,
        "coordinates": null
    },
    {
        "code": 5106012002,
        "district_code": 510601,
        "regency_code": 5106,
        "province_code": 51,
        "name": "Demulih",
        "postal_code": "80661",
        "latitude": null,
        "longitude": null,
        "coordinates": null
    },
    {
        "code": 5106012003,
        "district_code": 510601,
        "regency_code": 5106,
        "province_code": 51,
        "name": "Abuan",
        "postal_code": "80661",
        "latitude": null,
        "longitude": null,
        "coordinates": null
    },
    {
        "code": 5106012004,
        "district_code": 510601,
        "regency_code": 5106,
        "province_code": 51,
        "name": "Susut",
        "postal_code": "80661",
        "latitude": null,
        "longitude": null,
        "coordinates": null
    },
    {
        "code": 5106012005,
        "district_code": 510601,
        "regency_code": 5106,
        "province_code": 51,
        "name": "Sulahan",
        "postal_code": "80661",
        "latitude": null,
        "longitude": null,
        "coordinates": null
    },
    {
        "code": 5106012006,
        "district_code": 510601,
        "regency_code": 5106,
        "province_code": 51,
        "name": "Penglumbaran",
        "postal_code": "80661",
        "latitude": null,
        "longitude": null,
        "coordinates": null
    },
    {
        "code": 5106012007,
        "district_code": 510601,
        "regency_code": 5106,
        "province_code": 51,
        "name": "Tiga",
        "postal_code": "80661",
        "latitude": null,
        "longitude": null,
        "coordinates": null
    },
    {
        "code": 5106012008,
        "district_code": 510601,
        "regency_code": 5106,
        "province_code": 51,
        "name": "Selat",
        "postal_code": "80661",
        "latitude": null,
        "longitude": null,
        "coordinates": null
    },
    {
        "code": 5106012009,
        "district_code": 510601,
        "regency_code": 5106,
        "province_code": 51,
        "name": "Pengiangan",
        "postal_code": "80661",
        "latitude": null,
        "longitude": null,
        "coordinates": null
    },
    {
        "code": 5106021003,
        "district_code": 510602,
        "regency_code": 5106,
        "province_code": 51,
        "name": "Bebalang",
        "postal_code": "80614",
        "latitude": null,
        "longitude": null,
        "coordinates": null
    },
    {
        "code": 5106021004,
        "district_code": 510602,
        "regency_code": 5106,
        "province_code": 51,
        "name": "Kawan",
        "postal_code": "80613",
        "latitude": null,
        "longitude": null,
        "coordinates": null
    },
    {
        "code": 5106021005,
        "district_code": 510602,
        "regency_code": 5106,
        "province_code": 51,
        "name": "Cempaga",
        "postal_code": "80612",
        "latitude": null,
        "longitude": null,
        "coordinates": null
    },
    {
        "code": 5106021006,
        "district_code": 510602,
        "regency_code": 5106,
        "province_code": 51,
        "name": "Kubu",
        "postal_code": "80611",
        "latitude": null,
        "longitude": null,
        "coordinates": null
    },
    {
        "code": 5106022001,
        "district_code": 510602,
        "regency_code": 5106,
        "province_code": 51,
        "name": "Bunutin",
        "postal_code": "80614",
        "latitude": null,
        "longitude": null,
        "coordinates": null
    },
    {
        "code": 5106022002,
        "district_code": 510602,
        "regency_code": 5106,
        "province_code": 51,
        "name": "Tamanbali",
        "postal_code": "80614",
        "latitude": null,
        "longitude": null,
        "coordinates": null
    },
    {
        "code": 5106022007,
        "district_code": 510602,
        "regency_code": 5106,
        "province_code": 51,
        "name": "Kayubihi",
        "postal_code": "80614",
        "latitude": null,
        "longitude": null,
        "coordinates": null
    },
    {
        "code": 5106022008,
        "district_code": 510602,
        "regency_code": 5106,
        "province_code": 51,
        "name": "Pengotan",
        "postal_code": "80614",
        "latitude": null,
        "longitude": null,
        "coordinates": null
    },
    {
        "code": 5106022009,
        "district_code": 510602,
        "regency_code": 5106,
        "province_code": 51,
        "name": "Landih",
        "postal_code": "80611",
        "latitude": null,
        "longitude": null,
        "coordinates": null
    },
    {
        "code": 5106032001,
        "district_code": 510603,
        "regency_code": 5106,
        "province_code": 51,
        "name": "Jehem",
        "postal_code": "80671",
        "latitude": null,
        "longitude": null,
        "coordinates": null
    },
    {
        "code": 5106032002,
        "district_code": 510603,
        "regency_code": 5106,
        "province_code": 51,
        "name": "Tembuku",
        "postal_code": "80671",
        "latitude": null,
        "longitude": null,
        "coordinates": null
    },
    {
        "code": 5106032003,
        "district_code": 510603,
        "regency_code": 5106,
        "province_code": 51,
        "name": "Yangapi",
        "postal_code": "80671",
        "latitude": null,
        "longitude": null,
        "coordinates": null
    },
    {
        "code": 5106032004,
        "district_code": 510603,
        "regency_code": 5106,
        "province_code": 51,
        "name": "Undisan",
        "postal_code": "80671",
        "latitude": null,
        "longitude": null,
        "coordinates": null
    },
    {
        "code": 5106032005,
        "district_code": 510603,
        "regency_code": 5106,
        "province_code": 51,
        "name": "Bangbang",
        "postal_code": "80671",
        "latitude": null,
        "longitude": null,
        "coordinates": null
    },
    {
        "code": 5106032006,
        "district_code": 510603,
        "regency_code": 5106,
        "province_code": 51,
        "name": "Peninjoan",
        "postal_code": "80671",
        "latitude": null,
        "longitude": null,
        "coordinates": null
    },
    {
        "code": 5106042001,
        "district_code": 510604,
        "regency_code": 5106,
        "province_code": 51,
        "name": "Mengani",
        "postal_code": "80652",
        "latitude": null,
        "longitude": null,
        "coordinates": null
    },
    {
        "code": 5106042002,
        "district_code": 510604,
        "regency_code": 5106,
        "province_code": 51,
        "name": "Binyan",
        "postal_code": "80652",
        "latitude": null,
        "longitude": null,
        "coordinates": null
    },
    {
        "code": 5106042003,
        "district_code": 510604,
        "regency_code": 5106,
        "province_code": 51,
        "name": "Ulian",
        "postal_code": "80652",
        "latitude": null,
        "longitude": null,
        "coordinates": null
    },
    {
        "code": 5106042004,
        "district_code": 510604,
        "regency_code": 5106,
        "province_code": 51,
        "name": "Bunutin",
        "postal_code": "80652",
        "latitude": null,
        "longitude": null,
        "coordinates": null
    },
    {
        "code": 5106042005,
        "district_code": 510604,
        "regency_code": 5106,
        "province_code": 51,
        "name": "Langgahan",
        "postal_code": "80652",
        "latitude": null,
        "longitude": null,
        "coordinates": null
    },
    {
        "code": 5106042006,
        "district_code": 510604,
        "regency_code": 5106,
        "province_code": 51,
        "name": "Lembean",
        "postal_code": "80652",
        "latitude": null,
        "longitude": null,
        "coordinates": null
    },
    {
        "code": 5106042007,
        "district_code": 510604,
        "regency_code": 5106,
        "province_code": 51,
        "name": "Manikliyu",
        "postal_code": "80652",
        "latitude": null,
        "longitude": null,
        "coordinates": null
    },
    {
        "code": 5106042008,
        "district_code": 510604,
        "regency_code": 5106,
        "province_code": 51,
        "name": "Bayung Cerik",
        "postal_code": "80652",
        "latitude": null,
        "longitude": null,
        "coordinates": null
    },
    {
        "code": 5106042009,
        "district_code": 510604,
        "regency_code": 5106,
        "province_code": 51,
        "name": "Mangguh",
        "postal_code": "80652",
        "latitude": null,
        "longitude": null,
        "coordinates": null
    },
    {
        "code": 5106042010,
        "district_code": 510604,
        "regency_code": 5106,
        "province_code": 51,
        "name": "Belancan",
        "postal_code": "80652",
        "latitude": null,
        "longitude": null,
        "coordinates": null
    },
    {
        "code": 5106042011,
        "district_code": 510604,
        "regency_code": 5106,
        "province_code": 51,
        "name": "Katung",
        "postal_code": "80652",
        "latitude": null,
        "longitude": null,
        "coordinates": null
    },
    {
        "code": 5106042012,
        "district_code": 510604,
        "regency_code": 5106,
        "province_code": 51,
        "name": "Banua",
        "postal_code": "80652",
        "latitude": null,
        "longitude": null,
        "coordinates": null
    },
    {
        "code": 5106042013,
        "district_code": 510604,
        "regency_code": 5106,
        "province_code": 51,
        "name": "Abuan",
        "postal_code": "80652",
        "latitude": null,
        "longitude": null,
        "coordinates": null
    },
    {
        "code": 5106042014,
        "district_code": 510604,
        "regency_code": 5106,
        "province_code": 51,
        "name": "Bonyoh",
        "postal_code": "80652",
        "latitude": null,
        "longitude": null,
        "coordinates": null
    },
    {
        "code": 5106042015,
        "district_code": 510604,
        "regency_code": 5106,
        "province_code": 51,
        "name": "Sekaan",
        "postal_code": "80652",
        "latitude": null,
        "longitude": null,
        "coordinates": null
    },
    {
        "code": 5106042016,
        "district_code": 510604,
        "regency_code": 5106,
        "province_code": 51,
        "name": "Bayung Gede",
        "postal_code": "80652",
        "latitude": null,
        "longitude": null,
        "coordinates": null
    },
    {
        "code": 5106042017,
        "district_code": 510604,
        "regency_code": 5106,
        "province_code": 51,
        "name": "Sekardadi",
        "postal_code": "80652",
        "latitude": null,
        "longitude": null,
        "coordinates": null
    },
    {
        "code": 5106042018,
        "district_code": 510604,
        "regency_code": 5106,
        "province_code": 51,
        "name": "Kedisan",
        "postal_code": "80652",
        "latitude": null,
        "longitude": null,
        "coordinates": null
    },
    {
        "code": 5106042019,
        "district_code": 510604,
        "regency_code": 5106,
        "province_code": 51,
        "name": "Buahan",
        "postal_code": "80652",
        "latitude": null,
        "longitude": null,
        "coordinates": null
    },
    {
        "code": 5106042020,
        "district_code": 510604,
        "regency_code": 5106,
        "province_code": 51,
        "name": "Abangsongan",
        "postal_code": "80652",
        "latitude": null,
        "longitude": null,
        "coordinates": null
    },
    {
        "code": 5106042021,
        "district_code": 510604,
        "regency_code": 5106,
        "province_code": 51,
        "name": "Suter",
        "postal_code": "80652",
        "latitude": null,
        "longitude": null,
        "coordinates": null
    },
    {
        "code": 5106042022,
        "district_code": 510604,
        "regency_code": 5106,
        "province_code": 51,
        "name": "Batudinding",
        "postal_code": "80652",
        "latitude": null,
        "longitude": null,
        "coordinates": null
    },
    {
        "code": 5106042023,
        "district_code": 510604,
        "regency_code": 5106,
        "province_code": 51,
        "name": "Terunyan",
        "postal_code": "80652",
        "latitude": null,
        "longitude": null,
        "coordinates": null
    },
    {
        "code": 5106042024,
        "district_code": 510604,
        "regency_code": 5106,
        "province_code": 51,
        "name": "Songan A",
        "postal_code": "80652",
        "latitude": null,
        "longitude": null,
        "coordinates": null
    },
    {
        "code": 5106042025,
        "district_code": 510604,
        "regency_code": 5106,
        "province_code": 51,
        "name": "Songan B",
        "postal_code": "80652",
        "latitude": null,
        "longitude": null,
        "coordinates": null
    },
    {
        "code": 5106042026,
        "district_code": 510604,
        "regency_code": 5106,
        "province_code": 51,
        "name": "Batur Selatan",
        "postal_code": "80652",
        "latitude": null,
        "longitude": null,
        "coordinates": null
    },
    {
        "code": 5106042027,
        "district_code": 510604,
        "regency_code": 5106,
        "province_code": 51,
        "name": "Batur Tengah",
        "postal_code": "80652",
        "latitude": null,
        "longitude": null,
        "coordinates": null
    },
    {
        "code": 5106042028,
        "district_code": 510604,
        "regency_code": 5106,
        "province_code": 51,
        "name": "Batur Utara",
        "postal_code": "80652",
        "latitude": null,
        "longitude": null,
        "coordinates": null
    },
    {
        "code": 5106042029,
        "district_code": 510604,
        "regency_code": 5106,
        "province_code": 51,
        "name": "Kintamani",
        "postal_code": "80652",
        "latitude": null,
        "longitude": null,
        "coordinates": null
    },
    {
        "code": 5106042030,
        "district_code": 510604,
        "regency_code": 5106,
        "province_code": 51,
        "name": "Serai",
        "postal_code": "80652",
        "latitude": null,
        "longitude": null,
        "coordinates": null
    },
    {
        "code": 5106042031,
        "district_code": 510604,
        "regency_code": 5106,
        "province_code": 51,
        "name": "Daup",
        "postal_code": "80652",
        "latitude": null,
        "longitude": null,
        "coordinates": null
    },
    {
        "code": 5106042032,
        "district_code": 510604,
        "regency_code": 5106,
        "province_code": 51,
        "name": "Awan",
        "postal_code": "80652",
        "latitude": null,
        "longitude": null,
        "coordinates": null
    },
    {
        "code": 5106042033,
        "district_code": 510604,
        "regency_code": 5106,
        "province_code": 51,
        "name": "Gunungbau",
        "postal_code": "80652",
        "latitude": null,
        "longitude": null,
        "coordinates": null
    },
    {
        "code": 5106042034,
        "district_code": 510604,
        "regency_code": 5106,
        "province_code": 51,
        "name": "Belanga",
        "postal_code": "80652",
        "latitude": null,
        "longitude": null,
        "coordinates": null
    },
    {
        "code": 5106042035,
        "district_code": 510604,
        "regency_code": 5106,
        "province_code": 51,
        "name": "Batukaang",
        "postal_code": "80652",
        "latitude": null,
        "longitude": null,
        "coordinates": null
    },
    {
        "code": 5106042036,
        "district_code": 510604,
        "regency_code": 5106,
        "province_code": 51,
        "name": "Belantih",
        "postal_code": "80652",
        "latitude": null,
        "longitude": null,
        "coordinates": null
    },
    {
        "code": 5106042037,
        "district_code": 510604,
        "regency_code": 5106,
        "province_code": 51,
        "name": "Catur",
        "postal_code": "80652",
        "latitude": null,
        "longitude": null,
        "coordinates": null
    },
    {
        "code": 5106042038,
        "district_code": 510604,
        "regency_code": 5106,
        "province_code": 51,
        "name": "Pengejaran",
        "postal_code": "80652",
        "latitude": null,
        "longitude": null,
        "coordinates": null
    },
    {
        "code": 5106042039,
        "district_code": 510604,
        "regency_code": 5106,
        "province_code": 51,
        "name": "Selulung",
        "postal_code": "80652",
        "latitude": null,
        "longitude": null,
        "coordinates": null
    },
    {
        "code": 5106042040,
        "district_code": 510604,
        "regency_code": 5106,
        "province_code": 51,
        "name": "Satra",
        "postal_code": "80652",
        "latitude": null,
        "longitude": null,
        "coordinates": null
    },
    {
        "code": 5106042041,
        "district_code": 510604,
        "regency_code": 5106,
        "province_code": 51,
        "name": "Dausa",
        "postal_code": "80652",
        "latitude": null,
        "longitude": null,
        "coordinates": null
    },
    {
        "code": 5106042042,
        "district_code": 510604,
        "regency_code": 5106,
        "province_code": 51,
        "name": "Bantang",
        "postal_code": "80652",
        "latitude": null,
        "longitude": null,
        "coordinates": null
    },
    {
        "code": 5106042043,
        "district_code": 510604,
        "regency_code": 5106,
        "province_code": 51,
        "name": "Sukawana",
        "postal_code": "80652",
        "latitude": null,
        "longitude": null,
        "coordinates": null
    },
    {
        "code": 5106042044,
        "district_code": 510604,
        "regency_code": 5106,
        "province_code": 51,
        "name": "Kutuh",
        "postal_code": "80652",
        "latitude": null,
        "longitude": null,
        "coordinates": null
    },
    {
        "code": 5106042045,
        "district_code": 510604,
        "regency_code": 5106,
        "province_code": 51,
        "name": "Subaya",
        "postal_code": "80652",
        "latitude": null,
        "longitude": null,
        "coordinates": null
    },
    {
        "code": 5106042046,
        "district_code": 510604,
        "regency_code": 5106,
        "province_code": 51,
        "name": "Siakin",
        "postal_code": "80652",
        "latitude": null,
        "longitude": null,
        "coordinates": null
    },
    {
        "code": 5106042047,
        "district_code": 510604,
        "regency_code": 5106,
        "province_code": 51,
        "name": "Pinggan",
        "postal_code": "80652",
        "latitude": null,
        "longitude": null,
        "coordinates": null
    },
    {
        "code": 5106042048,
        "district_code": 510604,
        "regency_code": 5106,
        "province_code": 51,
        "name": "Belandingan",
        "postal_code": "80652",
        "latitude": null,
        "longitude": null,
        "coordinates": null
    },
    {
        "code": 5107012001,
        "district_code": 510701,
        "regency_code": 5107,
        "province_code": 51,
        "name": "Nongan",
        "postal_code": "80863",
        "latitude": null,
        "longitude": null,
        "coordinates": null
    },
    {
        "code": 5107012002,
        "district_code": 510701,
        "regency_code": 5107,
        "province_code": 51,
        "name": "Rendang",
        "postal_code": "80863",
        "latitude": null,
        "longitude": null,
        "coordinates": null
    },
    {
        "code": 5107012003,
        "district_code": 510701,
        "regency_code": 5107,
        "province_code": 51,
        "name": "Menanga",
        "postal_code": "80863",
        "latitude": null,
        "longitude": null,
        "coordinates": null
    },
    {
        "code": 5107012004,
        "district_code": 510701,
        "regency_code": 5107,
        "province_code": 51,
        "name": "Besakih",
        "postal_code": "80863",
        "latitude": null,
        "longitude": null,
        "coordinates": null
    },
    {
        "code": 5107012005,
        "district_code": 510701,
        "regency_code": 5107,
        "province_code": 51,
        "name": "Pempatan",
        "postal_code": "80863",
        "latitude": null,
        "longitude": null,
        "coordinates": null
    },
    {
        "code": 5107012006,
        "district_code": 510701,
        "regency_code": 5107,
        "province_code": 51,
        "name": "Pesaban",
        "postal_code": "80863",
        "latitude": null,
        "longitude": null,
        "coordinates": null
    },
    {
        "code": 5107022001,
        "district_code": 510702,
        "regency_code": 5107,
        "province_code": 51,
        "name": "Tangkup",
        "postal_code": "80864",
        "latitude": null,
        "longitude": null,
        "coordinates": null
    },
    {
        "code": 5107022002,
        "district_code": 510702,
        "regency_code": 5107,
        "province_code": 51,
        "name": "Talibeng",
        "postal_code": "80864",
        "latitude": null,
        "longitude": null,
        "coordinates": null
    },
    {
        "code": 5107022003,
        "district_code": 510702,
        "regency_code": 5107,
        "province_code": 51,
        "name": "Sidemen",
        "postal_code": "80864",
        "latitude": null,
        "longitude": null,
        "coordinates": null
    },
    {
        "code": 5107022004,
        "district_code": 510702,
        "regency_code": 5107,
        "province_code": 51,
        "name": "Sangkan Gunung",
        "postal_code": "80864",
        "latitude": null,
        "longitude": null,
        "coordinates": null
    },
    {
        "code": 5107022005,
        "district_code": 510702,
        "regency_code": 5107,
        "province_code": 51,
        "name": "Telaga Tawang",
        "postal_code": "80864",
        "latitude": null,
        "longitude": null,
        "coordinates": null
    },
    {
        "code": 5107022006,
        "district_code": 510702,
        "regency_code": 5107,
        "province_code": 51,
        "name": "Sinduwati",
        "postal_code": "80864",
        "latitude": null,
        "longitude": null,
        "coordinates": null
    },
    {
        "code": 5107022007,
        "district_code": 510702,
        "regency_code": 5107,
        "province_code": 51,
        "name": "Tri Eka Buana",
        "postal_code": "80864",
        "latitude": null,
        "longitude": null,
        "coordinates": null
    },
    {
        "code": 5107022008,
        "district_code": 510702,
        "regency_code": 5107,
        "province_code": 51,
        "name": "Kerta Buana",
        "postal_code": "80864",
        "latitude": null,
        "longitude": null,
        "coordinates": null
    },
    {
        "code": 5107022009,
        "district_code": 510702,
        "regency_code": 5107,
        "province_code": 51,
        "name": "Lakasari",
        "postal_code": "80864",
        "latitude": null,
        "longitude": null,
        "coordinates": null
    },
    {
        "code": 5107022010,
        "district_code": 510702,
        "regency_code": 5107,
        "province_code": 51,
        "name": "Wismakerta",
        "postal_code": "80864",
        "latitude": null,
        "longitude": null,
        "coordinates": null
    },
    {
        "code": 5107032001,
        "district_code": 510703,
        "regency_code": 5107,
        "province_code": 51,
        "name": "Gegelang",
        "postal_code": "80871",
        "latitude": null,
        "longitude": null,
        "coordinates": null
    },
    {
        "code": 5107032002,
        "district_code": 510703,
        "regency_code": 5107,
        "province_code": 51,
        "name": "Antiga",
        "postal_code": "80871",
        "latitude": null,
        "longitude": null,
        "coordinates": null
    },
    {
        "code": 5107032003,
        "district_code": 510703,
        "regency_code": 5107,
        "province_code": 51,
        "name": "Ulakan",
        "postal_code": "80871",
        "latitude": null,
        "longitude": null,
        "coordinates": null
    },
    {
        "code": 5107032004,
        "district_code": 510703,
        "regency_code": 5107,
        "province_code": 51,
        "name": "Manggis",
        "postal_code": "80871",
        "latitude": null,
        "longitude": null,
        "coordinates": null
    },
    {
        "code": 5107032005,
        "district_code": 510703,
        "regency_code": 5107,
        "province_code": 51,
        "name": "Nyuh Tebel",
        "postal_code": "80871",
        "latitude": null,
        "longitude": null,
        "coordinates": null
    },
    {
        "code": 5107032006,
        "district_code": 510703,
        "regency_code": 5107,
        "province_code": 51,
        "name": "Tenganan",
        "postal_code": "80871",
        "latitude": null,
        "longitude": null,
        "coordinates": null
    },
    {
        "code": 5107032007,
        "district_code": 510703,
        "regency_code": 5107,
        "province_code": 51,
        "name": "Ngis",
        "postal_code": "80871",
        "latitude": null,
        "longitude": null,
        "coordinates": null
    },
    {
        "code": 5107032008,
        "district_code": 510703,
        "regency_code": 5107,
        "province_code": 51,
        "name": "Selumbung",
        "postal_code": "80871",
        "latitude": null,
        "longitude": null,
        "coordinates": null
    },
    {
        "code": 5107032009,
        "district_code": 510703,
        "regency_code": 5107,
        "province_code": 51,
        "name": "Padangbai",
        "postal_code": "80871",
        "latitude": null,
        "longitude": null,
        "coordinates": null
    },
    {
        "code": 5107032010,
        "district_code": 510703,
        "regency_code": 5107,
        "province_code": 51,
        "name": "Antiga Kelod",
        "postal_code": "80871",
        "latitude": null,
        "longitude": null,
        "coordinates": null
    },
    {
        "code": 5107032011,
        "district_code": 510703,
        "regency_code": 5107,
        "province_code": 51,
        "name": "Pasedahan",
        "postal_code": "80871",
        "latitude": null,
        "longitude": null,
        "coordinates": null
    },
    {
        "code": 5107032012,
        "district_code": 510703,
        "regency_code": 5107,
        "province_code": 51,
        "name": "Sengkidu",
        "postal_code": "80871",
        "latitude": null,
        "longitude": null,
        "coordinates": null
    },
    {
        "code": 5107041002,
        "district_code": 510704,
        "regency_code": 5107,
        "province_code": 51,
        "name": "Subagan",
        "postal_code": "80813",
        "latitude": null,
        "longitude": null,
        "coordinates": null
    },
    {
        "code": 5107041003,
        "district_code": 510704,
        "regency_code": 5107,
        "province_code": 51,
        "name": "Padang Kerta",
        "postal_code": "80811",
        "latitude": null,
        "longitude": null,
        "coordinates": null
    },
    {
        "code": 5107041004,
        "district_code": 510704,
        "regency_code": 5107,
        "province_code": 51,
        "name": "Karang asem",
        "postal_code": "80811",
        "latitude": null,
        "longitude": null,
        "coordinates": null
    },
    {
        "code": 5107042001,
        "district_code": 510704,
        "regency_code": 5107,
        "province_code": 51,
        "name": "Bugbug",
        "postal_code": "80811",
        "latitude": null,
        "longitude": null,
        "coordinates": null
    },
    {
        "code": 5107042005,
        "district_code": 510704,
        "regency_code": 5107,
        "province_code": 51,
        "name": "Tumbu",
        "postal_code": "80811",
        "latitude": null,
        "longitude": null,
        "coordinates": null
    },
    {
        "code": 5107042006,
        "district_code": 510704,
        "regency_code": 5107,
        "province_code": 51,
        "name": "Seraya",
        "postal_code": "80811",
        "latitude": null,
        "longitude": null,
        "coordinates": null
    },
    {
        "code": 5107042007,
        "district_code": 510704,
        "regency_code": 5107,
        "province_code": 51,
        "name": "Seraya Barat",
        "postal_code": "80811",
        "latitude": null,
        "longitude": null,
        "coordinates": null
    },
    {
        "code": 5107042008,
        "district_code": 510704,
        "regency_code": 5107,
        "province_code": 51,
        "name": "Seraya Timur",
        "postal_code": "80811",
        "latitude": null,
        "longitude": null,
        "coordinates": null
    },
    {
        "code": 5107042009,
        "district_code": 510704,
        "regency_code": 5107,
        "province_code": 51,
        "name": "Pertima",
        "postal_code": "80811",
        "latitude": null,
        "longitude": null,
        "coordinates": null
    },
    {
        "code": 5107042010,
        "district_code": 510704,
        "regency_code": 5107,
        "province_code": 51,
        "name": "Tegalinggah",
        "postal_code": "80811",
        "latitude": null,
        "longitude": null,
        "coordinates": null
    },
    {
        "code": 5107042011,
        "district_code": 510704,
        "regency_code": 5107,
        "province_code": 51,
        "name": "Bukit",
        "postal_code": "80811",
        "latitude": null,
        "longitude": null,
        "coordinates": null
    },
    {
        "code": 5107052001,
        "district_code": 510705,
        "regency_code": 5107,
        "province_code": 51,
        "name": "Ababi",
        "postal_code": "80852",
        "latitude": null,
        "longitude": null,
        "coordinates": null
    },
    {
        "code": 5107052002,
        "district_code": 510705,
        "regency_code": 5107,
        "province_code": 51,
        "name": "Tiying Tali",
        "postal_code": "80852",
        "latitude": null,
        "longitude": null,
        "coordinates": null
    },
    {
        "code": 5107052003,
        "district_code": 510705,
        "regency_code": 5107,
        "province_code": 51,
        "name": "Bunutan",
        "postal_code": "80852",
        "latitude": null,
        "longitude": null,
        "coordinates": null
    },
    {
        "code": 5107052004,
        "district_code": 510705,
        "regency_code": 5107,
        "province_code": 51,
        "name": "Tista",
        "postal_code": "80852",
        "latitude": null,
        "longitude": null,
        "coordinates": null
    },
    {
        "code": 5107052005,
        "district_code": 510705,
        "regency_code": 5107,
        "province_code": 51,
        "name": "Abang",
        "postal_code": "80852",
        "latitude": null,
        "longitude": null,
        "coordinates": null
    },
    {
        "code": 5107052006,
        "district_code": 510705,
        "regency_code": 5107,
        "province_code": 51,
        "name": "Pidpid",
        "postal_code": "80852",
        "latitude": null,
        "longitude": null,
        "coordinates": null
    },
    {
        "code": 5107052007,
        "district_code": 510705,
        "regency_code": 5107,
        "province_code": 51,
        "name": "Datah",
        "postal_code": "80852",
        "latitude": null,
        "longitude": null,
        "coordinates": null
    },
    {
        "code": 5107052008,
        "district_code": 510705,
        "regency_code": 5107,
        "province_code": 51,
        "name": "Culik",
        "postal_code": "80852",
        "latitude": null,
        "longitude": null,
        "coordinates": null
    },
    {
        "code": 5107052009,
        "district_code": 510705,
        "regency_code": 5107,
        "province_code": 51,
        "name": "Purwakerti",
        "postal_code": "80852",
        "latitude": null,
        "longitude": null,
        "coordinates": null
    },
    {
        "code": 5107052010,
        "district_code": 510705,
        "regency_code": 5107,
        "province_code": 51,
        "name": "Kerta Mandala",
        "postal_code": "80852",
        "latitude": null,
        "longitude": null,
        "coordinates": null
    },
    {
        "code": 5107052011,
        "district_code": 510705,
        "regency_code": 5107,
        "province_code": 51,
        "name": "Labasari",
        "postal_code": "80852",
        "latitude": null,
        "longitude": null,
        "coordinates": null
    },
    {
        "code": 5107052012,
        "district_code": 510705,
        "regency_code": 5107,
        "province_code": 51,
        "name": "Nawa Kerti",
        "postal_code": "80852",
        "latitude": null,
        "longitude": null,
        "coordinates": null
    },
    {
        "code": 5107052013,
        "district_code": 510705,
        "regency_code": 5107,
        "province_code": 51,
        "name": "Kesimpar",
        "postal_code": "80852",
        "latitude": null,
        "longitude": null,
        "coordinates": null
    },
    {
        "code": 5107052014,
        "district_code": 510705,
        "regency_code": 5107,
        "province_code": 51,
        "name": "Tribuana",
        "postal_code": "80852",
        "latitude": null,
        "longitude": null,
        "coordinates": null
    },
    {
        "code": 5107062001,
        "district_code": 510706,
        "regency_code": 5107,
        "province_code": 51,
        "name": "Bungaya",
        "postal_code": "80861",
        "latitude": null,
        "longitude": null,
        "coordinates": null
    },
    {
        "code": 5107062002,
        "district_code": 510706,
        "regency_code": 5107,
        "province_code": 51,
        "name": "Budekeling",
        "postal_code": "80861",
        "latitude": null,
        "longitude": null,
        "coordinates": null
    },
    {
        "code": 5107062003,
        "district_code": 510706,
        "regency_code": 5107,
        "province_code": 51,
        "name": "Bebanden",
        "postal_code": "80861",
        "latitude": null,
        "longitude": null,
        "coordinates": null
    },
    {
        "code": 5107062004,
        "district_code": 510706,
        "regency_code": 5107,
        "province_code": 51,
        "name": "Sibetan",
        "postal_code": "80861",
        "latitude": null,
        "longitude": null,
        "coordinates": null
    },
    {
        "code": 5107062005,
        "district_code": 510706,
        "regency_code": 5107,
        "province_code": 51,
        "name": "Jungutan",
        "postal_code": "80861",
        "latitude": null,
        "longitude": null,
        "coordinates": null
    },
    {
        "code": 5107062006,
        "district_code": 510706,
        "regency_code": 5107,
        "province_code": 51,
        "name": "Bungaya Kangin",
        "postal_code": "80861",
        "latitude": null,
        "longitude": null,
        "coordinates": null
    },
    {
        "code": 5107062007,
        "district_code": 510706,
        "regency_code": 5107,
        "province_code": 51,
        "name": "Buana Giri",
        "postal_code": "80861",
        "latitude": null,
        "longitude": null,
        "coordinates": null
    },
    {
        "code": 5107062008,
        "district_code": 510706,
        "regency_code": 5107,
        "province_code": 51,
        "name": "Macang",
        "postal_code": "80861",
        "latitude": null,
        "longitude": null,
        "coordinates": null
    },
    {
        "code": 5107072001,
        "district_code": 510707,
        "regency_code": 5107,
        "province_code": 51,
        "name": "Muncan",
        "postal_code": "80862",
        "latitude": null,
        "longitude": null,
        "coordinates": null
    },
    {
        "code": 5107072002,
        "district_code": 510707,
        "regency_code": 5107,
        "province_code": 51,
        "name": "Selat",
        "postal_code": "80862",
        "latitude": null,
        "longitude": null,
        "coordinates": null
    },
    {
        "code": 5107072003,
        "district_code": 510707,
        "regency_code": 5107,
        "province_code": 51,
        "name": "Duda",
        "postal_code": "80862",
        "latitude": null,
        "longitude": null,
        "coordinates": null
    },
    {
        "code": 5107072004,
        "district_code": 510707,
        "regency_code": 5107,
        "province_code": 51,
        "name": "Sebudi",
        "postal_code": "80862",
        "latitude": null,
        "longitude": null,
        "coordinates": null
    },
    {
        "code": 5107072005,
        "district_code": 510707,
        "regency_code": 5107,
        "province_code": 51,
        "name": "Duda Utara",
        "postal_code": "80862",
        "latitude": null,
        "longitude": null,
        "coordinates": null
    },
    {
        "code": 5107072006,
        "district_code": 510707,
        "regency_code": 5107,
        "province_code": 51,
        "name": "Duda Timur",
        "postal_code": "80862",
        "latitude": null,
        "longitude": null,
        "coordinates": null
    },
    {
        "code": 5107072007,
        "district_code": 510707,
        "regency_code": 5107,
        "province_code": 51,
        "name": "Pering Sari",
        "postal_code": "80862",
        "latitude": null,
        "longitude": null,
        "coordinates": null
    },
    {
        "code": 5107072008,
        "district_code": 510707,
        "regency_code": 5107,
        "province_code": 51,
        "name": "Amerta Bhuana",
        "postal_code": "80862",
        "latitude": null,
        "longitude": null,
        "coordinates": null
    },
    {
        "code": 5107082001,
        "district_code": 510708,
        "regency_code": 5107,
        "province_code": 51,
        "name": "Ban",
        "postal_code": "80853",
        "latitude": null,
        "longitude": null,
        "coordinates": null
    },
    {
        "code": 5107082002,
        "district_code": 510708,
        "regency_code": 5107,
        "province_code": 51,
        "name": "Dukuh",
        "postal_code": "80853",
        "latitude": null,
        "longitude": null,
        "coordinates": null
    },
    {
        "code": 5107082003,
        "district_code": 510708,
        "regency_code": 5107,
        "province_code": 51,
        "name": "Kubu",
        "postal_code": "80853",
        "latitude": null,
        "longitude": null,
        "coordinates": null
    },
    {
        "code": 5107082004,
        "district_code": 510708,
        "regency_code": 5107,
        "province_code": 51,
        "name": "Tianyar",
        "postal_code": "80853",
        "latitude": null,
        "longitude": null,
        "coordinates": null
    },
    {
        "code": 5107082005,
        "district_code": 510708,
        "regency_code": 5107,
        "province_code": 51,
        "name": "Tianyar Barat",
        "postal_code": "80853",
        "latitude": null,
        "longitude": null,
        "coordinates": null
    },
    {
        "code": 5107082006,
        "district_code": 510708,
        "regency_code": 5107,
        "province_code": 51,
        "name": "Tianyar Tengah",
        "postal_code": "80853",
        "latitude": null,
        "longitude": null,
        "coordinates": null
    },
    {
        "code": 5107082007,
        "district_code": 510708,
        "regency_code": 5107,
        "province_code": 51,
        "name": "Tulamben",
        "postal_code": "80853",
        "latitude": null,
        "longitude": null,
        "coordinates": null
    },
    {
        "code": 5107082008,
        "district_code": 510708,
        "regency_code": 5107,
        "province_code": 51,
        "name": "Baturinggit",
        "postal_code": "80853",
        "latitude": null,
        "longitude": null,
        "coordinates": null
    },
    {
        "code": 5107082009,
        "district_code": 510708,
        "regency_code": 5107,
        "province_code": 51,
        "name": "Sukadana",
        "postal_code": "80853",
        "latitude": null,
        "longitude": null,
        "coordinates": null
    },
    {
        "code": 5108012001,
        "district_code": 510801,
        "regency_code": 5108,
        "province_code": 51,
        "name": "Sumberklampok",
        "postal_code": "81155",
        "latitude": null,
        "longitude": null,
        "coordinates": null
    },
    {
        "code": 5108012002,
        "district_code": 510801,
        "regency_code": 5108,
        "province_code": 51,
        "name": "Pejarakan",
        "postal_code": "81155",
        "latitude": null,
        "longitude": null,
        "coordinates": null
    },
    {
        "code": 5108012003,
        "district_code": 510801,
        "regency_code": 5108,
        "province_code": 51,
        "name": "Sumberkima",
        "postal_code": "81155",
        "latitude": null,
        "longitude": null,
        "coordinates": null
    },
    {
        "code": 5108012004,
        "district_code": 510801,
        "regency_code": 5108,
        "province_code": 51,
        "name": "Pemuteran",
        "postal_code": "81155",
        "latitude": null,
        "longitude": null,
        "coordinates": null
    },
    {
        "code": 5108012005,
        "district_code": 510801,
        "regency_code": 5108,
        "province_code": 51,
        "name": "Banyupoh",
        "postal_code": "81155",
        "latitude": null,
        "longitude": null,
        "coordinates": null
    },
    {
        "code": 5108012006,
        "district_code": 510801,
        "regency_code": 5108,
        "province_code": 51,
        "name": "Penyambangan",
        "postal_code": "81155",
        "latitude": null,
        "longitude": null,
        "coordinates": null
    },
    {
        "code": 5108012007,
        "district_code": 510801,
        "regency_code": 5108,
        "province_code": 51,
        "name": "Musi",
        "postal_code": "81155",
        "latitude": null,
        "longitude": null,
        "coordinates": null
    },
    {
        "code": 5108012008,
        "district_code": 510801,
        "regency_code": 5108,
        "province_code": 51,
        "name": "Sanggalangit",
        "postal_code": "81155",
        "latitude": null,
        "longitude": null,
        "coordinates": null
    },
    {
        "code": 5108012009,
        "district_code": 510801,
        "regency_code": 5108,
        "province_code": 51,
        "name": "Gerokgak",
        "postal_code": "81155",
        "latitude": null,
        "longitude": null,
        "coordinates": null
    },
    {
        "code": 5108012010,
        "district_code": 510801,
        "regency_code": 5108,
        "province_code": 51,
        "name": "Patas",
        "postal_code": "81155",
        "latitude": null,
        "longitude": null,
        "coordinates": null
    },
    {
        "code": 5108012011,
        "district_code": 510801,
        "regency_code": 5108,
        "province_code": 51,
        "name": "Pengulon",
        "postal_code": "81155",
        "latitude": null,
        "longitude": null,
        "coordinates": null
    },
    {
        "code": 5108012012,
        "district_code": 510801,
        "regency_code": 5108,
        "province_code": 51,
        "name": "Tinga-tinga",
        "postal_code": "81155",
        "latitude": null,
        "longitude": null,
        "coordinates": null
    },
    {
        "code": 5108012013,
        "district_code": 510801,
        "regency_code": 5108,
        "province_code": 51,
        "name": "Celukanbawang",
        "postal_code": "81155",
        "latitude": null,
        "longitude": null,
        "coordinates": null
    },
    {
        "code": 5108012014,
        "district_code": 510801,
        "regency_code": 5108,
        "province_code": 51,
        "name": "Tukadsumaga",
        "postal_code": "81155",
        "latitude": null,
        "longitude": null,
        "coordinates": null
    },
    {
        "code": 5108021015,
        "district_code": 510802,
        "regency_code": 5108,
        "province_code": 51,
        "name": "Seririt",
        "postal_code": "81153",
        "latitude": null,
        "longitude": null,
        "coordinates": null
    },
    {
        "code": 5108022001,
        "district_code": 510802,
        "regency_code": 5108,
        "province_code": 51,
        "name": "Unggahan",
        "postal_code": "81153",
        "latitude": null,
        "longitude": null,
        "coordinates": null
    },
    {
        "code": 5108022002,
        "district_code": 510802,
        "regency_code": 5108,
        "province_code": 51,
        "name": "Ularan",
        "postal_code": "81153",
        "latitude": null,
        "longitude": null,
        "coordinates": null
    },
    {
        "code": 5108022003,
        "district_code": 510802,
        "regency_code": 5108,
        "province_code": 51,
        "name": "Ringdikit",
        "postal_code": "81153",
        "latitude": null,
        "longitude": null,
        "coordinates": null
    },
    {
        "code": 5108022004,
        "district_code": 510802,
        "regency_code": 5108,
        "province_code": 51,
        "name": "Rangdu",
        "postal_code": "81153",
        "latitude": null,
        "longitude": null,
        "coordinates": null
    },
    {
        "code": 5108022005,
        "district_code": 510802,
        "regency_code": 5108,
        "province_code": 51,
        "name": "Mayong",
        "postal_code": "81153",
        "latitude": null,
        "longitude": null,
        "coordinates": null
    },
    {
        "code": 5108022006,
        "district_code": 510802,
        "regency_code": 5108,
        "province_code": 51,
        "name": "Gunungsari",
        "postal_code": "81153",
        "latitude": null,
        "longitude": null,
        "coordinates": null
    },
    {
        "code": 5108022007,
        "district_code": 510802,
        "regency_code": 5108,
        "province_code": 51,
        "name": "Munduk Bestala",
        "postal_code": "81153",
        "latitude": null,
        "longitude": null,
        "coordinates": null
    },
    {
        "code": 5108022008,
        "district_code": 510802,
        "regency_code": 5108,
        "province_code": 51,
        "name": "Bestala",
        "postal_code": "81153",
        "latitude": null,
        "longitude": null,
        "coordinates": null
    },
    {
        "code": 5108022009,
        "district_code": 510802,
        "regency_code": 5108,
        "province_code": 51,
        "name": "Kalianget",
        "postal_code": "81153",
        "latitude": null,
        "longitude": null,
        "coordinates": null
    },
    {
        "code": 5108022010,
        "district_code": 510802,
        "regency_code": 5108,
        "province_code": 51,
        "name": "Joanyar",
        "postal_code": "81153",
        "latitude": null,
        "longitude": null,
        "coordinates": null
    },
    {
        "code": 5108022011,
        "district_code": 510802,
        "regency_code": 5108,
        "province_code": 51,
        "name": "Tangguwisia",
        "postal_code": "81153",
        "latitude": null,
        "longitude": null,
        "coordinates": null
    },
    {
        "code": 5108022012,
        "district_code": 510802,
        "regency_code": 5108,
        "province_code": 51,
        "name": "Sulanyah",
        "postal_code": "81153",
        "latitude": null,
        "longitude": null,
        "coordinates": null
    },
    {
        "code": 5108022013,
        "district_code": 510802,
        "regency_code": 5108,
        "province_code": 51,
        "name": "Bubunan",
        "postal_code": "81153",
        "latitude": null,
        "longitude": null,
        "coordinates": null
    },
    {
        "code": 5108022014,
        "district_code": 510802,
        "regency_code": 5108,
        "province_code": 51,
        "name": "Patemon",
        "postal_code": "81153",
        "latitude": null,
        "longitude": null,
        "coordinates": null
    },
    {
        "code": 5108022016,
        "district_code": 510802,
        "regency_code": 5108,
        "province_code": 51,
        "name": "Pengastulan",
        "postal_code": "81153",
        "latitude": null,
        "longitude": null,
        "coordinates": null
    },
    {
        "code": 5108022017,
        "district_code": 510802,
        "regency_code": 5108,
        "province_code": 51,
        "name": "Lokapaksa",
        "postal_code": "81153",
        "latitude": null,
        "longitude": null,
        "coordinates": null
    },
    {
        "code": 5108022018,
        "district_code": 510802,
        "regency_code": 5108,
        "province_code": 51,
        "name": "Pangkungparuk",
        "postal_code": "81153",
        "latitude": null,
        "longitude": null,
        "coordinates": null
    },
    {
        "code": 5108022019,
        "district_code": 510802,
        "regency_code": 5108,
        "province_code": 51,
        "name": "Banjarasem",
        "postal_code": "81153",
        "latitude": null,
        "longitude": null,
        "coordinates": null
    },
    {
        "code": 5108022020,
        "district_code": 510802,
        "regency_code": 5108,
        "province_code": 51,
        "name": "Kalisada",
        "postal_code": "81153",
        "latitude": null,
        "longitude": null,
        "coordinates": null
    },
    {
        "code": 5108022021,
        "district_code": 510802,
        "regency_code": 5108,
        "province_code": 51,
        "name": "Umeanyar",
        "postal_code": "81153",
        "latitude": null,
        "longitude": null,
        "coordinates": null
    },
    {
        "code": 5108032001,
        "district_code": 510803,
        "regency_code": 5108,
        "province_code": 51,
        "name": "Sepang",
        "postal_code": "81154",
        "latitude": null,
        "longitude": null,
        "coordinates": null
    },
    {
        "code": 5108032002,
        "district_code": 510803,
        "regency_code": 5108,
        "province_code": 51,
        "name": "Tista",
        "postal_code": "81154",
        "latitude": null,
        "longitude": null,
        "coordinates": null
    },
    {
        "code": 5108032003,
        "district_code": 510803,
        "regency_code": 5108,
        "province_code": 51,
        "name": "Bongancina",
        "postal_code": "81154",
        "latitude": null,
        "longitude": null,
        "coordinates": null
    },
    {
        "code": 5108032004,
        "district_code": 510803,
        "regency_code": 5108,
        "province_code": 51,
        "name": "Pucaksari",
        "postal_code": "81154",
        "latitude": null,
        "longitude": null,
        "coordinates": null
    },
    {
        "code": 5108032005,
        "district_code": 510803,
        "regency_code": 5108,
        "province_code": 51,
        "name": "Telaga",
        "postal_code": "81154",
        "latitude": null,
        "longitude": null,
        "coordinates": null
    },
    {
        "code": 5108032006,
        "district_code": 510803,
        "regency_code": 5108,
        "province_code": 51,
        "name": "Titab",
        "postal_code": "81154",
        "latitude": null,
        "longitude": null,
        "coordinates": null
    },
    {
        "code": 5108032007,
        "district_code": 510803,
        "regency_code": 5108,
        "province_code": 51,
        "name": "Subuk",
        "postal_code": "81154",
        "latitude": null,
        "longitude": null,
        "coordinates": null
    },
    {
        "code": 5108032008,
        "district_code": 510803,
        "regency_code": 5108,
        "province_code": 51,
        "name": "Tinggarsari",
        "postal_code": "81154",
        "latitude": null,
        "longitude": null,
        "coordinates": null
    },
    {
        "code": 5108032009,
        "district_code": 510803,
        "regency_code": 5108,
        "province_code": 51,
        "name": "Kedis",
        "postal_code": "81154",
        "latitude": null,
        "longitude": null,
        "coordinates": null
    },
    {
        "code": 5108032010,
        "district_code": 510803,
        "regency_code": 5108,
        "province_code": 51,
        "name": "Kekeran",
        "postal_code": "81154",
        "latitude": null,
        "longitude": null,
        "coordinates": null
    },
    {
        "code": 5108032011,
        "district_code": 510803,
        "regency_code": 5108,
        "province_code": 51,
        "name": "Busungbiu",
        "postal_code": "81154",
        "latitude": null,
        "longitude": null,
        "coordinates": null
    },
    {
        "code": 5108032012,
        "district_code": 510803,
        "regency_code": 5108,
        "province_code": 51,
        "name": "Pelapuan",
        "postal_code": "81154",
        "latitude": null,
        "longitude": null,
        "coordinates": null
    },
    {
        "code": 5108032013,
        "district_code": 510803,
        "regency_code": 5108,
        "province_code": 51,
        "name": "Bengkel",
        "postal_code": "81154",
        "latitude": null,
        "longitude": null,
        "coordinates": null
    },
    {
        "code": 5108032014,
        "district_code": 510803,
        "regency_code": 5108,
        "province_code": 51,
        "name": "Umejero",
        "postal_code": "81154",
        "latitude": null,
        "longitude": null,
        "coordinates": null
    },
    {
        "code": 5108032015,
        "district_code": 510803,
        "regency_code": 5108,
        "province_code": 51,
        "name": "Sepang Kelod",
        "postal_code": "81154",
        "latitude": null,
        "longitude": null,
        "coordinates": null
    },
    {
        "code": 5108042001,
        "district_code": 510804,
        "regency_code": 5108,
        "province_code": 51,
        "name": "Banyuseri",
        "postal_code": "81152",
        "latitude": null,
        "longitude": null,
        "coordinates": null
    },
    {
        "code": 5108042002,
        "district_code": 510804,
        "regency_code": 5108,
        "province_code": 51,
        "name": "Tirtasari",
        "postal_code": "81152",
        "latitude": null,
        "longitude": null,
        "coordinates": null
    },
    {
        "code": 5108042003,
        "district_code": 510804,
        "regency_code": 5108,
        "province_code": 51,
        "name": "Kayuputih",
        "postal_code": "81152",
        "latitude": null,
        "longitude": null,
        "coordinates": null
    },
    {
        "code": 5108042004,
        "district_code": 510804,
        "regency_code": 5108,
        "province_code": 51,
        "name": "Banyuatis",
        "postal_code": "81152",
        "latitude": null,
        "longitude": null,
        "coordinates": null
    },
    {
        "code": 5108042005,
        "district_code": 510804,
        "regency_code": 5108,
        "province_code": 51,
        "name": "Gesing",
        "postal_code": "81152",
        "latitude": null,
        "longitude": null,
        "coordinates": null
    },
    {
        "code": 5108042006,
        "district_code": 510804,
        "regency_code": 5108,
        "province_code": 51,
        "name": "Munduk",
        "postal_code": "81152",
        "latitude": null,
        "longitude": null,
        "coordinates": null
    },
    {
        "code": 5108042007,
        "district_code": 510804,
        "regency_code": 5108,
        "province_code": 51,
        "name": "Gobleg",
        "postal_code": "81152",
        "latitude": null,
        "longitude": null,
        "coordinates": null
    },
    {
        "code": 5108042008,
        "district_code": 510804,
        "regency_code": 5108,
        "province_code": 51,
        "name": "Pedawa",
        "postal_code": "81152",
        "latitude": null,
        "longitude": null,
        "coordinates": null
    },
    {
        "code": 5108042009,
        "district_code": 510804,
        "regency_code": 5108,
        "province_code": 51,
        "name": "Cempaga",
        "postal_code": "81152",
        "latitude": null,
        "longitude": null,
        "coordinates": null
    },
    {
        "code": 5108042010,
        "district_code": 510804,
        "regency_code": 5108,
        "province_code": 51,
        "name": "Sidetapa",
        "postal_code": "81152",
        "latitude": null,
        "longitude": null,
        "coordinates": null
    },
    {
        "code": 5108042011,
        "district_code": 510804,
        "regency_code": 5108,
        "province_code": 51,
        "name": "Tampekan",
        "postal_code": "81152",
        "latitude": null,
        "longitude": null,
        "coordinates": null
    },
    {
        "code": 5108042012,
        "district_code": 510804,
        "regency_code": 5108,
        "province_code": 51,
        "name": "Banjar Tegeha",
        "postal_code": "81152",
        "latitude": null,
        "longitude": null,
        "coordinates": null
    },
    {
        "code": 5108042013,
        "district_code": 510804,
        "regency_code": 5108,
        "province_code": 51,
        "name": "Banjar",
        "postal_code": "81152",
        "latitude": null,
        "longitude": null,
        "coordinates": null
    },
    {
        "code": 5108042014,
        "district_code": 510804,
        "regency_code": 5108,
        "province_code": 51,
        "name": "Dencarik",
        "postal_code": "81152",
        "latitude": null,
        "longitude": null,
        "coordinates": null
    },
    {
        "code": 5108042015,
        "district_code": 510804,
        "regency_code": 5108,
        "province_code": 51,
        "name": "Temukus",
        "postal_code": "81152",
        "latitude": null,
        "longitude": null,
        "coordinates": null
    },
    {
        "code": 5108042016,
        "district_code": 510804,
        "regency_code": 5108,
        "province_code": 51,
        "name": "Tigawasa",
        "postal_code": "81152",
        "latitude": null,
        "longitude": null,
        "coordinates": null
    },
    {
        "code": 5108042017,
        "district_code": 510804,
        "regency_code": 5108,
        "province_code": 51,
        "name": "Kaliasem",
        "postal_code": "81152",
        "latitude": null,
        "longitude": null,
        "coordinates": null
    },
    {
        "code": 5108051009,
        "district_code": 510805,
        "regency_code": 5108,
        "province_code": 51,
        "name": "Sukasada",
        "postal_code": "81161",
        "latitude": null,
        "longitude": null,
        "coordinates": null
    },
    {
        "code": 5108052001,
        "district_code": 510805,
        "regency_code": 5108,
        "province_code": 51,
        "name": "Pancasari",
        "postal_code": "81161",
        "latitude": null,
        "longitude": null,
        "coordinates": null
    },
    {
        "code": 5108052002,
        "district_code": 510805,
        "regency_code": 5108,
        "province_code": 51,
        "name": "Wanagiri",
        "postal_code": "81161",
        "latitude": null,
        "longitude": null,
        "coordinates": null
    },
    {
        "code": 5108052003,
        "district_code": 510805,
        "regency_code": 5108,
        "province_code": 51,
        "name": "Ambengan",
        "postal_code": "81161",
        "latitude": null,
        "longitude": null,
        "coordinates": null
    },
    {
        "code": 5108052004,
        "district_code": 510805,
        "regency_code": 5108,
        "province_code": 51,
        "name": "Gitgit",
        "postal_code": "81161",
        "latitude": null,
        "longitude": null,
        "coordinates": null
    },
    {
        "code": 5108052005,
        "district_code": 510805,
        "regency_code": 5108,
        "province_code": 51,
        "name": "Pegayaman",
        "postal_code": "81161",
        "latitude": null,
        "longitude": null,
        "coordinates": null
    },
    {
        "code": 5108052006,
        "district_code": 510805,
        "regency_code": 5108,
        "province_code": 51,
        "name": "Silangjana",
        "postal_code": "81161",
        "latitude": null,
        "longitude": null,
        "coordinates": null
    },
    {
        "code": 5108052007,
        "district_code": 510805,
        "regency_code": 5108,
        "province_code": 51,
        "name": "Pegadungan",
        "postal_code": "81161",
        "latitude": null,
        "longitude": null,
        "coordinates": null
    },
    {
        "code": 5108052008,
        "district_code": 510805,
        "regency_code": 5108,
        "province_code": 51,
        "name": "Padangbulia",
        "postal_code": "81161",
        "latitude": null,
        "longitude": null,
        "coordinates": null
    },
    {
        "code": 5108052010,
        "district_code": 510805,
        "regency_code": 5108,
        "province_code": 51,
        "name": "Sambangan",
        "postal_code": "81161",
        "latitude": null,
        "longitude": null,
        "coordinates": null
    },
    {
        "code": 5108052011,
        "district_code": 510805,
        "regency_code": 5108,
        "province_code": 51,
        "name": "Panji",
        "postal_code": "81161",
        "latitude": null,
        "longitude": null,
        "coordinates": null
    },
    {
        "code": 5108052012,
        "district_code": 510805,
        "regency_code": 5108,
        "province_code": 51,
        "name": "Panji Anom",
        "postal_code": "81161",
        "latitude": null,
        "longitude": null,
        "coordinates": null
    },
    {
        "code": 5108052013,
        "district_code": 510805,
        "regency_code": 5108,
        "province_code": 51,
        "name": "Tegallinggah",
        "postal_code": "81161",
        "latitude": null,
        "longitude": null,
        "coordinates": null
    },
    {
        "code": 5108052014,
        "district_code": 510805,
        "regency_code": 5108,
        "province_code": 51,
        "name": "Selat",
        "postal_code": "81161",
        "latitude": null,
        "longitude": null,
        "coordinates": null
    },
    {
        "code": 5108052015,
        "district_code": 510805,
        "regency_code": 5108,
        "province_code": 51,
        "name": "Kayu Putih",
        "postal_code": "81161",
        "latitude": null,
        "longitude": null,
        "coordinates": null
    },
    {
        "code": 5108061006,
        "district_code": 510806,
        "regency_code": 5108,
        "province_code": 51,
        "name": "Banyuasri",
        "postal_code": "81116",
        "latitude": null,
        "longitude": null,
        "coordinates": null
    },
    {
        "code": 5108061007,
        "district_code": 510806,
        "regency_code": 5108,
        "province_code": 51,
        "name": "Banjar Tegal",
        "postal_code": "81117",
        "latitude": null,
        "longitude": null,
        "coordinates": null
    },
    {
        "code": 5108061008,
        "district_code": 510806,
        "regency_code": 5108,
        "province_code": 51,
        "name": "Kendran",
        "postal_code": "81112",
        "latitude": null,
        "longitude": null,
        "coordinates": null
    },
    {
        "code": 5108061009,
        "district_code": 510806,
        "regency_code": 5108,
        "province_code": 51,
        "name": "Paket Agung",
        "postal_code": "81118",
        "latitude": null,
        "longitude": null,
        "coordinates": null
    },
    {
        "code": 5108061010,
        "district_code": 510806,
        "regency_code": 5108,
        "province_code": 51,
        "name": "Kampung Singaraja",
        "postal_code": "81111",
        "latitude": null,
        "longitude": null,
        "coordinates": null
    },
    {
        "code": 5108061011,
        "district_code": 510806,
        "regency_code": 5108,
        "province_code": 51,
        "name": "Liligundi",
        "postal_code": "81119",
        "latitude": null,
        "longitude": null,
        "coordinates": null
    },
    {
        "code": 5108061012,
        "district_code": 510806,
        "regency_code": 5108,
        "province_code": 51,
        "name": "Beratan",
        "postal_code": "81119",
        "latitude": null,
        "longitude": null,
        "coordinates": null
    },
    {
        "code": 5108061019,
        "district_code": 510806,
        "regency_code": 5108,
        "province_code": 51,
        "name": "Banyuning",
        "postal_code": "81119",
        "latitude": null,
        "longitude": null,
        "coordinates": null
    },
    {
        "code": 5108061020,
        "district_code": 510806,
        "regency_code": 5108,
        "province_code": 51,
        "name": "Penarukan",
        "postal_code": "81119",
        "latitude": null,
        "longitude": null,
        "coordinates": null
    },
    {
        "code": 5108061021,
        "district_code": 510806,
        "regency_code": 5108,
        "province_code": 51,
        "name": "Kampung Kajanan",
        "postal_code": "81114",
        "latitude": null,
        "longitude": null,
        "coordinates": null
    },
    {
        "code": 5108061022,
        "district_code": 510806,
        "regency_code": 5108,
        "province_code": 51,
        "name": "Astina",
        "postal_code": "81112",
        "latitude": null,
        "longitude": null,
        "coordinates": null
    },
    {
        "code": 5108061023,
        "district_code": 510806,
        "regency_code": 5108,
        "province_code": 51,
        "name": "Banjar Jawa",
        "postal_code": "81113",
        "latitude": null,
        "longitude": null,
        "coordinates": null
    },
    {
        "code": 5108061024,
        "district_code": 510806,
        "regency_code": 5108,
        "province_code": 51,
        "name": "Kaliuntu",
        "postal_code": "81116",
        "latitude": null,
        "longitude": null,
        "coordinates": null
    },
    {
        "code": 5108061025,
        "district_code": 510806,
        "regency_code": 5108,
        "province_code": 51,
        "name": "Kampung Anyar",
        "postal_code": "81115",
        "latitude": null,
        "longitude": null,
        "coordinates": null
    },
    {
        "code": 5108061026,
        "district_code": 510806,
        "regency_code": 5108,
        "province_code": 51,
        "name": "Kampung Bugis",
        "postal_code": "81115",
        "latitude": null,
        "longitude": null,
        "coordinates": null
    },
    {
        "code": 5108061027,
        "district_code": 510806,
        "regency_code": 5108,
        "province_code": 51,
        "name": "Banjar Bali",
        "postal_code": "81113",
        "latitude": null,
        "longitude": null,
        "coordinates": null
    },
    {
        "code": 5108061029,
        "district_code": 510806,
        "regency_code": 5108,
        "province_code": 51,
        "name": "Kampung Baru",
        "postal_code": "81114",
        "latitude": null,
        "longitude": null,
        "coordinates": null
    },
    {
        "code": 5108062001,
        "district_code": 510806,
        "regency_code": 5108,
        "province_code": 51,
        "name": "Kalibukbuk",
        "postal_code": "81119",
        "latitude": null,
        "longitude": null,
        "coordinates": null
    },
    {
        "code": 5108062002,
        "district_code": 510806,
        "regency_code": 5108,
        "province_code": 51,
        "name": "Anturan",
        "postal_code": "81119",
        "latitude": null,
        "longitude": null,
        "coordinates": null
    },
    {
        "code": 5108062003,
        "district_code": 510806,
        "regency_code": 5108,
        "province_code": 51,
        "name": "Tukadmungga",
        "postal_code": "81119",
        "latitude": null,
        "longitude": null,
        "coordinates": null
    },
    {
        "code": 5108062004,
        "district_code": 510806,
        "regency_code": 5108,
        "province_code": 51,
        "name": "Pemaron",
        "postal_code": "81119",
        "latitude": null,
        "longitude": null,
        "coordinates": null
    },
    {
        "code": 5108062005,
        "district_code": 510806,
        "regency_code": 5108,
        "province_code": 51,
        "name": "Baktiseraga",
        "postal_code": "81119",
        "latitude": null,
        "longitude": null,
        "coordinates": null
    },
    {
        "code": 5108062013,
        "district_code": 510806,
        "regency_code": 5108,
        "province_code": 51,
        "name": "Sarimekar",
        "postal_code": "81119",
        "latitude": null,
        "longitude": null,
        "coordinates": null
    },
    {
        "code": 5108062014,
        "district_code": 510806,
        "regency_code": 5108,
        "province_code": 51,
        "name": "Nagasepaha",
        "postal_code": "81119",
        "latitude": null,
        "longitude": null,
        "coordinates": null
    },
    {
        "code": 5108062015,
        "district_code": 510806,
        "regency_code": 5108,
        "province_code": 51,
        "name": "Petandakan",
        "postal_code": "81119",
        "latitude": null,
        "longitude": null,
        "coordinates": null
    },
    {
        "code": 5108062016,
        "district_code": 510806,
        "regency_code": 5108,
        "province_code": 51,
        "name": "Alasangker",
        "postal_code": "81119",
        "latitude": null,
        "longitude": null,
        "coordinates": null
    },
    {
        "code": 5108062017,
        "district_code": 510806,
        "regency_code": 5108,
        "province_code": 51,
        "name": "Poh Bergong",
        "postal_code": "81119",
        "latitude": null,
        "longitude": null,
        "coordinates": null
    },
    {
        "code": 5108062018,
        "district_code": 510806,
        "regency_code": 5108,
        "province_code": 51,
        "name": "Jinangdalem",
        "postal_code": "81119",
        "latitude": null,
        "longitude": null,
        "coordinates": null
    },
    {
        "code": 5108062028,
        "district_code": 510806,
        "regency_code": 5108,
        "province_code": 51,
        "name": "Penglatan",
        "postal_code": "81119",
        "latitude": null,
        "longitude": null,
        "coordinates": null
    },
    {
        "code": 5108072001,
        "district_code": 510807,
        "regency_code": 5108,
        "province_code": 51,
        "name": "Lemukih",
        "postal_code": "81171",
        "latitude": null,
        "longitude": null,
        "coordinates": null
    },
    {
        "code": 5108072002,
        "district_code": 510807,
        "regency_code": 5108,
        "province_code": 51,
        "name": "Galungan",
        "postal_code": "81171",
        "latitude": null,
        "longitude": null,
        "coordinates": null
    },
    {
        "code": 5108072003,
        "district_code": 510807,
        "regency_code": 5108,
        "province_code": 51,
        "name": "Sekumpul",
        "postal_code": "81171",
        "latitude": null,
        "longitude": null,
        "coordinates": null
    },
    {
        "code": 5108072004,
        "district_code": 510807,
        "regency_code": 5108,
        "province_code": 51,
        "name": "Bebetin",
        "postal_code": "81171",
        "latitude": null,
        "longitude": null,
        "coordinates": null
    },
    {
        "code": 5108072005,
        "district_code": 510807,
        "regency_code": 5108,
        "province_code": 51,
        "name": "Sudaji",
        "postal_code": "81171",
        "latitude": null,
        "longitude": null,
        "coordinates": null
    },
    {
        "code": 5108072006,
        "district_code": 510807,
        "regency_code": 5108,
        "province_code": 51,
        "name": "Sawan",
        "postal_code": "81171",
        "latitude": null,
        "longitude": null,
        "coordinates": null
    },
    {
        "code": 5108072007,
        "district_code": 510807,
        "regency_code": 5108,
        "province_code": 51,
        "name": "Menyali",
        "postal_code": "81171",
        "latitude": null,
        "longitude": null,
        "coordinates": null
    },
    {
        "code": 5108072008,
        "district_code": 510807,
        "regency_code": 5108,
        "province_code": 51,
        "name": "Suwug",
        "postal_code": "81171",
        "latitude": null,
        "longitude": null,
        "coordinates": null
    },
    {
        "code": 5108072009,
        "district_code": 510807,
        "regency_code": 5108,
        "province_code": 51,
        "name": "Jagaraga",
        "postal_code": "81171",
        "latitude": null,
        "longitude": null,
        "coordinates": null
    },
    {
        "code": 5108072010,
        "district_code": 510807,
        "regency_code": 5108,
        "province_code": 51,
        "name": "Sinabun",
        "postal_code": "81171",
        "latitude": null,
        "longitude": null,
        "coordinates": null
    },
    {
        "code": 5108072011,
        "district_code": 510807,
        "regency_code": 5108,
        "province_code": 51,
        "name": "Kerobokan",
        "postal_code": "81171",
        "latitude": null,
        "longitude": null,
        "coordinates": null
    },
    {
        "code": 5108072012,
        "district_code": 510807,
        "regency_code": 5108,
        "province_code": 51,
        "name": "Sangsit",
        "postal_code": "81171",
        "latitude": null,
        "longitude": null,
        "coordinates": null
    },
    {
        "code": 5108072013,
        "district_code": 510807,
        "regency_code": 5108,
        "province_code": 51,
        "name": "Bungkulan",
        "postal_code": "81171",
        "latitude": null,
        "longitude": null,
        "coordinates": null
    },
    {
        "code": 5108072014,
        "district_code": 510807,
        "regency_code": 5108,
        "province_code": 51,
        "name": "Giri Emas",
        "postal_code": "81171",
        "latitude": null,
        "longitude": null,
        "coordinates": null
    },
    {
        "code": 5108082001,
        "district_code": 510808,
        "regency_code": 5108,
        "province_code": 51,
        "name": "Tambakan",
        "postal_code": "81172",
        "latitude": null,
        "longitude": null,
        "coordinates": null
    },
    {
        "code": 5108082002,
        "district_code": 510808,
        "regency_code": 5108,
        "province_code": 51,
        "name": "Pakisan",
        "postal_code": "81172",
        "latitude": null,
        "longitude": null,
        "coordinates": null
    },
    {
        "code": 5108082003,
        "district_code": 510808,
        "regency_code": 5108,
        "province_code": 51,
        "name": "Bontihing",
        "postal_code": "81172",
        "latitude": null,
        "longitude": null,
        "coordinates": null
    },
    {
        "code": 5108082004,
        "district_code": 510808,
        "regency_code": 5108,
        "province_code": 51,
        "name": "Tajun",
        "postal_code": "81172",
        "latitude": null,
        "longitude": null,
        "coordinates": null
    },
    {
        "code": 5108082005,
        "district_code": 510808,
        "regency_code": 5108,
        "province_code": 51,
        "name": "Tunjung",
        "postal_code": "81172",
        "latitude": null,
        "longitude": null,
        "coordinates": null
    },
    {
        "code": 5108082006,
        "district_code": 510808,
        "regency_code": 5108,
        "province_code": 51,
        "name": "Depeha",
        "postal_code": "81172",
        "latitude": null,
        "longitude": null,
        "coordinates": null
    },
    {
        "code": 5108082007,
        "district_code": 510808,
        "regency_code": 5108,
        "province_code": 51,
        "name": "Tamblang",
        "postal_code": "81172",
        "latitude": null,
        "longitude": null,
        "coordinates": null
    },
    {
        "code": 5108082008,
        "district_code": 510808,
        "regency_code": 5108,
        "province_code": 51,
        "name": "Bulian",
        "postal_code": "81172",
        "latitude": null,
        "longitude": null,
        "coordinates": null
    },
    {
        "code": 5108082009,
        "district_code": 510808,
        "regency_code": 5108,
        "province_code": 51,
        "name": "Bila",
        "postal_code": "81172",
        "latitude": null,
        "longitude": null,
        "coordinates": null
    },
    {
        "code": 5108082010,
        "district_code": 510808,
        "regency_code": 5108,
        "province_code": 51,
        "name": "Bengkala",
        "postal_code": "81172",
        "latitude": null,
        "longitude": null,
        "coordinates": null
    },
    {
        "code": 5108082011,
        "district_code": 510808,
        "regency_code": 5108,
        "province_code": 51,
        "name": "Kubutambahan",
        "postal_code": "81172",
        "latitude": null,
        "longitude": null,
        "coordinates": null
    },
    {
        "code": 5108082012,
        "district_code": 510808,
        "regency_code": 5108,
        "province_code": 51,
        "name": "Bukti",
        "postal_code": "81172",
        "latitude": null,
        "longitude": null,
        "coordinates": null
    },
    {
        "code": 5108082013,
        "district_code": 510808,
        "regency_code": 5108,
        "province_code": 51,
        "name": "Mengening",
        "postal_code": "81172",
        "latitude": null,
        "longitude": null,
        "coordinates": null
    },
    {
        "code": 5108092001,
        "district_code": 510809,
        "regency_code": 5108,
        "province_code": 51,
        "name": "Sembiran",
        "postal_code": "81173",
        "latitude": null,
        "longitude": null,
        "coordinates": null
    },
    {
        "code": 5108092002,
        "district_code": 510809,
        "regency_code": 5108,
        "province_code": 51,
        "name": "Pacung",
        "postal_code": "81173",
        "latitude": null,
        "longitude": null,
        "coordinates": null
    },
    {
        "code": 5108092003,
        "district_code": 510809,
        "regency_code": 5108,
        "province_code": 51,
        "name": "Julah",
        "postal_code": "81173",
        "latitude": null,
        "longitude": null,
        "coordinates": null
    },
    {
        "code": 5108092004,
        "district_code": 510809,
        "regency_code": 5108,
        "province_code": 51,
        "name": "Madenan",
        "postal_code": "81173",
        "latitude": null,
        "longitude": null,
        "coordinates": null
    },
    {
        "code": 5108092005,
        "district_code": 510809,
        "regency_code": 5108,
        "province_code": 51,
        "name": "Bondalem",
        "postal_code": "81173",
        "latitude": null,
        "longitude": null,
        "coordinates": null
    },
    {
        "code": 5108092006,
        "district_code": 510809,
        "regency_code": 5108,
        "province_code": 51,
        "name": "Tejakula",
        "postal_code": "81173",
        "latitude": null,
        "longitude": null,
        "coordinates": null
    },
    {
        "code": 5108092007,
        "district_code": 510809,
        "regency_code": 5108,
        "province_code": 51,
        "name": "Les",
        "postal_code": "81173",
        "latitude": null,
        "longitude": null,
        "coordinates": null
    },
    {
        "code": 5108092008,
        "district_code": 510809,
        "regency_code": 5108,
        "province_code": 51,
        "name": "Penuktukan",
        "postal_code": "81173",
        "latitude": null,
        "longitude": null,
        "coordinates": null
    },
    {
        "code": 5108092009,
        "district_code": 510809,
        "regency_code": 5108,
        "province_code": 51,
        "name": "Sambirenteng",
        "postal_code": "81173",
        "latitude": null,
        "longitude": null,
        "coordinates": null
    },
    {
        "code": 5108092010,
        "district_code": 510809,
        "regency_code": 5108,
        "province_code": 51,
        "name": "Tembok",
        "postal_code": "81173",
        "latitude": null,
        "longitude": null,
        "coordinates": null
    },
    {
        "code": 5171011001,
        "district_code": 517101,
        "regency_code": 5171,
        "province_code": 51,
        "name": "Serangan",
        "postal_code": "80229",
        "latitude": null,
        "longitude": null,
        "coordinates": null
    },
    {
        "code": 5171011002,
        "district_code": 517101,
        "regency_code": 5171,
        "province_code": 51,
        "name": "Pedungan",
        "postal_code": "80222",
        "latitude": null,
        "longitude": null,
        "coordinates": null
    },
    {
        "code": 5171011003,
        "district_code": 517101,
        "regency_code": 5171,
        "province_code": 51,
        "name": "Sesetan",
        "postal_code": "80223",
        "latitude": null,
        "longitude": null,
        "coordinates": null
    },
    {
        "code": 5171011004,
        "district_code": 517101,
        "regency_code": 5171,
        "province_code": 51,
        "name": "Panjer",
        "postal_code": "80225",
        "latitude": null,
        "longitude": null,
        "coordinates": null
    },
    {
        "code": 5171011005,
        "district_code": 517101,
        "regency_code": 5171,
        "province_code": 51,
        "name": "Renon",
        "postal_code": "80226",
        "latitude": null,
        "longitude": null,
        "coordinates": null
    },
    {
        "code": 5171011006,
        "district_code": 517101,
        "regency_code": 5171,
        "province_code": 51,
        "name": "Sanur",
        "postal_code": "80228",
        "latitude": null,
        "longitude": null,
        "coordinates": null
    },
    {
        "code": 5171012007,
        "district_code": 517101,
        "regency_code": 5171,
        "province_code": 51,
        "name": "Sidakarya",
        "postal_code": "80224",
        "latitude": null,
        "longitude": null,
        "coordinates": null
    },
    {
        "code": 5171012008,
        "district_code": 517101,
        "regency_code": 5171,
        "province_code": 51,
        "name": "Pemogan",
        "postal_code": "80221",
        "latitude": null,
        "longitude": null,
        "coordinates": null
    },
    {
        "code": 5171012009,
        "district_code": 517101,
        "regency_code": 5171,
        "province_code": 51,
        "name": "Sanur Kaja",
        "postal_code": "80227",
        "latitude": null,
        "longitude": null,
        "coordinates": null
    },
    {
        "code": 5171012010,
        "district_code": 517101,
        "regency_code": 5171,
        "province_code": 51,
        "name": "Sanur Kauh",
        "postal_code": "80227",
        "latitude": null,
        "longitude": null,
        "coordinates": null
    },
    {
        "code": 5171021003,
        "district_code": 517102,
        "regency_code": 5171,
        "province_code": 51,
        "name": "Kesiman",
        "postal_code": "80237",
        "latitude": null,
        "longitude": null,
        "coordinates": null
    },
    {
        "code": 5171021006,
        "district_code": 517102,
        "regency_code": 5171,
        "province_code": 51,
        "name": "Sumerta",
        "postal_code": "80235",
        "latitude": null,
        "longitude": null,
        "coordinates": null
    },
    {
        "code": 5171021010,
        "district_code": 517102,
        "regency_code": 5171,
        "province_code": 51,
        "name": "Dangin Puri",
        "postal_code": "80232",
        "latitude": null,
        "longitude": null,
        "coordinates": null
    },
    {
        "code": 5171021014,
        "district_code": 517102,
        "regency_code": 5171,
        "province_code": 51,
        "name": "Penatih",
        "postal_code": "80238",
        "latitude": null,
        "longitude": null,
        "coordinates": null
    },
    {
        "code": 5171022001,
        "district_code": 517102,
        "regency_code": 5171,
        "province_code": 51,
        "name": "Dangin Puri Kelod",
        "postal_code": "80234",
        "latitude": null,
        "longitude": null,
        "coordinates": null
    },
    {
        "code": 5171022002,
        "district_code": 517102,
        "regency_code": 5171,
        "province_code": 51,
        "name": "Sumerta Kelod",
        "postal_code": "80239",
        "latitude": null,
        "longitude": null,
        "coordinates": null
    },
    {
        "code": 5171022004,
        "district_code": 517102,
        "regency_code": 5171,
        "province_code": 51,
        "name": "Kesiman Petilan",
        "postal_code": "80237",
        "latitude": null,
        "longitude": null,
        "coordinates": null
    },
    {
        "code": 5171022005,
        "district_code": 517102,
        "regency_code": 5171,
        "province_code": 51,
        "name": "Kesiman Kertalangu",
        "postal_code": "80237",
        "latitude": null,
        "longitude": null,
        "coordinates": null
    },
    {
        "code": 5171022007,
        "district_code": 517102,
        "regency_code": 5171,
        "province_code": 51,
        "name": "Sumerta Kaja",
        "postal_code": "80236",
        "latitude": null,
        "longitude": null,
        "coordinates": null
    },
    {
        "code": 5171022008,
        "district_code": 517102,
        "regency_code": 5171,
        "province_code": 51,
        "name": "Sumerta Kauh",
        "postal_code": "80236",
        "latitude": null,
        "longitude": null,
        "coordinates": null
    },
    {
        "code": 5171022015,
        "district_code": 517102,
        "regency_code": 5171,
        "province_code": 51,
        "name": "Penatih Dangin Puri",
        "postal_code": "80238",
        "latitude": null,
        "longitude": null,
        "coordinates": null
    },
    {
        "code": 5171031005,
        "district_code": 517103,
        "regency_code": 5171,
        "province_code": 51,
        "name": "Dauh Puri",
        "postal_code": "80113",
        "latitude": null,
        "longitude": null,
        "coordinates": null
    },
    {
        "code": 5171031007,
        "district_code": 517103,
        "regency_code": 5171,
        "province_code": 51,
        "name": "Pemecutan",
        "postal_code": "80119",
        "latitude": null,
        "longitude": null,
        "coordinates": null
    },
    {
        "code": 5171031010,
        "district_code": 517103,
        "regency_code": 5171,
        "province_code": 51,
        "name": "Padangsambian",
        "postal_code": "80117",
        "latitude": null,
        "longitude": null,
        "coordinates": null
    },
    {
        "code": 5171032001,
        "district_code": 517103,
        "regency_code": 5171,
        "province_code": 51,
        "name": "Padangsambian Kelod",
        "postal_code": "80117",
        "latitude": null,
        "longitude": null,
        "coordinates": null
    },
    {
        "code": 5171032002,
        "district_code": 517103,
        "regency_code": 5171,
        "province_code": 51,
        "name": "Pemecutan Kelod",
        "postal_code": "80119",
        "latitude": null,
        "longitude": null,
        "coordinates": null
    },
    {
        "code": 5171032003,
        "district_code": 517103,
        "regency_code": 5171,
        "province_code": 51,
        "name": "Dauh Puri Kauh",
        "postal_code": "80113",
        "latitude": null,
        "longitude": null,
        "coordinates": null
    },
    {
        "code": 5171032004,
        "district_code": 517103,
        "regency_code": 5171,
        "province_code": 51,
        "name": "Dauh Puri Kelod",
        "postal_code": "80114",
        "latitude": null,
        "longitude": null,
        "coordinates": null
    },
    {
        "code": 5171032006,
        "district_code": 517103,
        "regency_code": 5171,
        "province_code": 51,
        "name": "Dauh Puri Kangin",
        "postal_code": "80112",
        "latitude": null,
        "longitude": null,
        "coordinates": null
    },
    {
        "code": 5171032008,
        "district_code": 517103,
        "regency_code": 5171,
        "province_code": 51,
        "name": "Tegal Harum",
        "postal_code": "80119",
        "latitude": null,
        "longitude": null,
        "coordinates": null
    },
    {
        "code": 5171032009,
        "district_code": 517103,
        "regency_code": 5171,
        "province_code": 51,
        "name": "Tegal Kertha",
        "postal_code": "80119",
        "latitude": null,
        "longitude": null,
        "coordinates": null
    },
    {
        "code": 5171032011,
        "district_code": 517103,
        "regency_code": 5171,
        "province_code": 51,
        "name": "Padang Sambian Kaja",
        "postal_code": "80117",
        "latitude": null,
        "longitude": null,
        "coordinates": null
    },
    {
        "code": 5171041004,
        "district_code": 517104,
        "regency_code": 5171,
        "province_code": 51,
        "name": "Tonja",
        "postal_code": "80239",
        "latitude": null,
        "longitude": null,
        "coordinates": null
    },
    {
        "code": 5171041007,
        "district_code": 517104,
        "regency_code": 5171,
        "province_code": 51,
        "name": "Ubung",
        "postal_code": "80116",
        "latitude": null,
        "longitude": null,
        "coordinates": null
    },
    {
        "code": 5171041009,
        "district_code": 517104,
        "regency_code": 5171,
        "province_code": 51,
        "name": "Peguyangan",
        "postal_code": "80115",
        "latitude": null,
        "longitude": null,
        "coordinates": null
    },
    {
        "code": 5171042001,
        "district_code": 517104,
        "regency_code": 5171,
        "province_code": 51,
        "name": "Dangin Puri Kangin",
        "postal_code": "80233",
        "latitude": null,
        "longitude": null,
        "coordinates": null
    },
    {
        "code": 5171042002,
        "district_code": 517104,
        "regency_code": 5171,
        "province_code": 51,
        "name": "Dangin Puri Kauh",
        "postal_code": "80231",
        "latitude": null,
        "longitude": null,
        "coordinates": null
    },
    {
        "code": 5171042003,
        "district_code": 517104,
        "regency_code": 5171,
        "province_code": 51,
        "name": "Dangin Puri Kaja",
        "postal_code": "80231",
        "latitude": null,
        "longitude": null,
        "coordinates": null
    },
    {
        "code": 5171042005,
        "district_code": 517104,
        "regency_code": 5171,
        "province_code": 51,
        "name": "Pemecutan Kaja",
        "postal_code": "80118",
        "latitude": null,
        "longitude": null,
        "coordinates": null
    },
    {
        "code": 5171042006,
        "district_code": 517104,
        "regency_code": 5171,
        "province_code": 51,
        "name": "Dauh Puri Kaja",
        "postal_code": "80111",
        "latitude": null,
        "longitude": null,
        "coordinates": null
    },
    {
        "code": 5171042008,
        "district_code": 517104,
        "regency_code": 5171,
        "province_code": 51,
        "name": "Ubung Kaja",
        "postal_code": "80116",
        "latitude": null,
        "longitude": null,
        "coordinates": null
    },
    {
        "code": 5171042010,
        "district_code": 517104,
        "regency_code": 5171,
        "province_code": 51,
        "name": "Peguyangan Kaja",
        "postal_code": "80115",
        "latitude": null,
        "longitude": null,
        "coordinates": null
    },
    {
        "code": 5171042011,
        "district_code": 517104,
        "regency_code": 5171,
        "province_code": 51,
        "name": "Peguyangan Kangin",
        "postal_code": "80115",
        "latitude": null,
        "longitude": null,
        "coordinates": null
    }
]