code,district_code,regency_code,province_code,name,postal_code,latitude,longitude,coordinates
6301012001,630101,6301,63,"Banua lawas",70861,,,null
6301012002,630101,6301,63,Tabanio,70861,,,null
6301012003,630101,6301,63,"Kuala Tambangan",70861,,,null
6301012004,630101,6301,63,Takisung,70861,,,null
6301012005,630101,6301,63,"Gunung Makmur",70861,,,null
6301012006,630101,6301,63,"Banua Tengah",70861,,,null
6301012007,630101,6301,63,Ranggang,70861,,,null
6301012008,630101,6301,63,"Pagatan Besar",70861,,,null
6301012009,630101,6301,63,Batilai,70861,,,null
6301012010,630101,6301,63,"Ranggang Dalam",70861,,,null
6301012011,630101,6301,63,"Telaga langsat",70861,,,null
6301012012,630101,6301,63,"Sumber Makmur",70861,,,null
6301022001,630102,6301,63,Sabuhur,70881,,,null
6301022002,630102,6301,63,Jorong,70881,,,null
6301022003,630102,6301,63,Asam-Asam,70881,,,null
6301022004,630102,6301,63,Batalang,70881,,,null
6301022005,630102,6301,63,Swarangan,70881,,,null
6301022006,630102,6301,63,"Muara Asam-Asam",70881,,,null
6301022007,630102,6301,63,Alur,70881,,,null
6301022008,630102,6301,63,"Asri Mulya",70881,,,null
6301022009,630102,6301,63,"Karang Rejo",70881,,,null
6301022010,630102,6301,63,"Asam Jaya",70881,,,null
6301022011,630102,6301,63,"Simpang Empat Sungai Baru",70881,,,null
6301031001,630103,6301,63,"Sarang Halang",70815,,,null
6301031002,630103,6301,63,"Karang Taruna",70812,,,null
6301031003,630103,6301,63,Pelaihari,70815,,,null
6301031004,630103,6301,63,Angsau,70814,,,null
6301031005,630103,6301,63,Pabahanan,70815,,,null
6301032006,630103,6301,63,"Bumi Jaya",70815,,,null
6301032008,630103,6301,63,"Sungai Riam",70815,,,null
6301032009,630103,6301,63,Tampang,70815,,,null
6301032010,630103,6301,63,Telaga,70815,,,null
6301032011,630103,6301,63,Panjaratan,70815,,,null
6301032012,630103,6301,63,Atu-atu,70815,,,null
6301032015,630103,6301,63,Panggung,70815,,,null
6301032016,630103,6301,63,Tungkaran,70815,,,null
6301032017,630103,6301,63,"Ujung Batu",70815,,,null
6301032020,630103,6301,63,"Panggung Baru",70815,,,null
6301032024,630103,6301,63,Ambungan,70815,,,null
6301032025,630103,6301,63,"Guntung Besar",70815,,,null
6301032026,630103,6301,63,"Kampung Baru",70815,,,null
6301032027,630103,6301,63,"Sumber Mulia",70815,,,null
6301032029,630103,6301,63,Pemuda,70815,,,null
6301042001,630104,6301,63,"Sungai Bakau",70851,,,null
6301042002,630104,6301,63,"Maluka Baulin",70851,,,null
6301042003,630104,6301,63,"Bawah Layung",70851,,,null
6301042004,630104,6301,63,"Tambak Sarinah",70851,,,null
6301042005,630104,6301,63,"Kali Besar",70851,,,null
6301042006,630104,6301,63,"Handil Negara",70851,,,null
6301042007,630104,6301,63,"Padang Luas",70851,,,null
6301042008,630104,6301,63,Kurau,70851,,,null
6301042017,630104,6301,63,"Tambak Karya",70851,,,null
6301042018,630104,6301,63,Raden,70851,,,null
6301042019,630104,6301,63,Sarikandi,70851,,,null
6301052001,630105,6301,63,"Benua Raya",70852,,,null
6301052002,630105,6301,63,Bati-Bati,70852,,,null
6301052003,630105,6301,63,Ujung,70852,,,null
6301052004,630105,6301,63,"Liang Anggang",70852,,,null
6301052005,630105,6301,63,"Bentok Kampung",70852,,,null
6301052006,630105,6301,63,"Bentok Darat",70852,,,null
6301052007,630105,6301,63,"Banyu Irang",70852,,,null
6301052008,630105,6301,63,"Nusa Indah",70852,,,null
6301052009,630105,6301,63,Pandahan,70852,,,null
6301052010,630105,6301,63,Padang,70852,,,null
6301052011,630105,6301,63,"Ujung Baru",70852,,,null
6301052012,630105,6301,63,Sambangan,70852,,,null
6301052013,630105,6301,63,Kait-kait,70852,,,null
6301052014,630105,6301,63,"Kait-kait Baru",70852,,,null
6301062001,630106,6301,63,"Batu Tungku",70871,,,null
6301062002,630106,6301,63,Panyipatan,70871,,,null
6301062003,630106,6301,63,"Kandangan Baru",70871,,,null
6301062004,630106,6301,63,"Kandangan Lama",70871,,,null
6301062005,630106,6301,63,Batakan,70871,,,null
6301062006,630106,6301,63,Kuringkit,70871,,,null
6301062007,630106,6301,63,"Tanjung Dewa",70871,,,null
6301062008,630106,6301,63,"Suka Ramah",70871,,,null
6301062009,630106,6301,63,"Batu Mulya",70871,,,null
6301062010,630106,6301,63,"Bumi Asih",70871,,,null
6301072001,630107,6301,63,"Pandan Sari",70883,,,null
6301072002,630107,6301,63,Kintap,70883,,,null
6301072003,630107,6301,63,Kintapura,70883,,,null
6301072004,630107,6301,63,"Sungai Cuka",70883,,,null
6301072005,630107,6301,63,"Riam Adungan",70883,,,null
6301072006,630107,6301,63,"Muara Kintap",70883,,,null
6301072007,630107,6301,63,Salaman,70883,,,null
6301072008,630107,6301,63,"Kintap Kecil",70883,,,null
6301072009,630107,6301,63,"Pasir Putih",70883,,,null
6301072010,630107,6301,63,"Sumber Jaya",70883,,,null
6301072011,630107,6301,63,"Bukit Mulia",70883,,,null
6301072012,630107,6301,63,"Kebun Raya",70883,,,null
6301072013,630107,6301,63,"Mekar Raya",70883,,,null
6301072014,630107,6301,63,"Sebamban Baru",70883,,,null
6301082001,630108,6301,63,"Tambang Ulang",70854,,,null
6301082002,630108,6301,63,"Sungai Pinang",70854,,,null
6301082003,630108,6301,63,Martadah,70854,,,null
6301082004,630108,6301,63,"Sungai Jelai",70854,,,null
6301082005,630108,6301,63,Bingkulu,70854,,,null
6301082006,630108,6301,63,"Gunung Raja",70854,,,null
6301082007,630108,6301,63,"Pulau Sari",70854,,,null
6301082008,630108,6301,63,"Kayu Abang",70854,,,null
6301082009,630108,6301,63,"Martadah Baru",70854,,,null
6301092001,630109,6301,63,"Batu Ampar",70882,,,null
6301092002,630109,6301,63,"Gunung Mas",70882,,,null
6301092003,630109,6301,63,"Tajau Mulya",70882,,,null
6301092004,630109,6301,63,Jilatan,70882,,,null
6301092005,630109,6301,63,"Durian Bungkuk",70882,,,null
6301092006,630109,6301,63,Ambawang,70882,,,null
6301092007,630109,6301,63,Damit,70882,,,null
6301092008,630109,6301,63,"Gunung Melati",70882,,,null
6301092009,630109,6301,63,Bluru,70882,,,null
6301092010,630109,6301,63,"Pantai Linuh",70882,,,null
6301092011,630109,6301,63,"Damit Hulu",70882,,,null
6301092012,630109,6301,63,"Jilatan Alur",70882,,,null
6301092013,630109,6301,63,"Damar Lima",70882,,,null
6301092014,630109,6301,63,"Tajau Pecah",70882,,,null
6301102001,630110,6301,63,Bajuin,70815,,,null
6301102002,630110,6301,63,"Sungai Bakar",70815,,,null
6301102003,630110,6301,63,Ketapang,70815,,,null
6301102004,630110,6301,63,"Tirta Jaya",70815,,,null
6301102005,630110,6301,63,Galam,70815,,,null
6301102006,630110,6301,63,Pemalongan,70815,,,null
6301102007,630110,6301,63,Kunyit,70815,,,null
6301102008,630110,6301,63,"Tebing Siring",70815,,,null
6301102009,630110,6301,63,Tanjung,70815,,,null
6301112001,630111,6301,63,"Handil Babirik",70853,,,null
6301112002,630111,6301,63,"Kurau Utara",70853,,,null
6301112003,630111,6301,63,"Bumi Harapan",70853,,,null
6301112004,630111,6301,63,"Sungai Rasau",70853,,,null
6301112005,630111,6301,63,"Pantai Harapan",70853,,,null
6301112006,630111,6301,63,"Handil Suruk",70853,,,null
6301112007,630111,6301,63,"Handil Gayam",70853,,,null
6301112008,630111,6301,63,"Handil Birayang Atas",70853,,,null
6301112009,630111,6301,63,"Handil Birayang Bawah",70853,,,null
6301112010,630111,6301,63,"Handil Maluka",70853,,,null
6301112011,630111,6301,63,"Handil Labuan Amas",70853,,,null
6302012001,630201,6302,63,"Labuan Barat",72181,,,null
6302012002,630201,6302,63,"Teluk Sungai",72181,,,null
6302012003,630201,6302,63,Maradapan,72181,,,null
6302012004,630201,6302,63,Tengah,72181,,,null
6302012005,630201,6302,63,"Tanjung Nyiur",72181,,,null
6302022005,630202,6302,63,"Lontar Selatan",72153,,,null
6302022006,630202,6302,63,"Lontar Timur",72153,,,null
6302022007,630202,6302,63,Sebanti,72153,,,null
6302022008,630202,6302,63,Sepagar,72153,,,null
6302022009,630202,6302,63,Semaras,72153,,,null
6302022012,630202,6302,63,Terangkeh,72153,,,null
6302022015,630202,6302,63,Gemuruh,72153,,,null
6302022017,630202,6302,63,"Tapian Balai",72153,,,null
6302022018,630202,6302,63,"Lontar Utara",72153,,,null
6302022021,630202,6302,63,"Sumber Sari",72153,,,null
6302022022,630202,6302,63,"Subur Makmur",72153,,,null
6302032006,630203,6302,63,"Teluk Sirih",72157,,,null
6302032007,630203,6302,63,"Sungai Bahim",72157,,,null
6302032008,630203,6302,63,"Tanjung Seloka",72157,,,null
6302032009,630203,6302,63,"Tanjung Serudung",72157,,,null
6302032011,630203,6302,63,Alle-Alle,72157,,,null
6302032013,630203,6302,63,"Sungai Bulan",72157,,,null
6302032015,630203,6302,63,"Labuan Mas",72157,,,null
6302032016,630203,6302,63,"Tanjung Seloka Utara",72157,,,null
6302042001,630204,6302,63,"Batu Tunau",72152,,,null
6302042002,630204,6302,63,Sejakah,72152,,,null
6302042003,630204,6302,63,Bekambit,72152,,,null
6302042004,630204,6302,63,"Langkang Baru",72152,,,null
6302042005,630204,6302,63,"Langkang Lama",72152,,,null
6302042006,630204,6302,63,"Sungai Limau",72152,,,null
6302042007,630204,6302,63,Berangas,72152,,,null
6302042008,630204,6302,63,"Tanjung Pengharapan",72152,,,null
6302042009,630204,6302,63,Betung,72152,,,null
6302042010,630204,6302,63,"Teluk Mesjid",72152,,,null
6302042011,630204,6302,63,"Teluk Gosong",72152,,,null
6302042012,630204,6302,63,Kulipak,72152,,,null
6302042013,630204,6302,63,"Karangsari Indah",72152,,,null
6302042014,630204,6302,63,"Bekambit Asri",72152,,,null
6302052001,630205,6302,63,Sekapung,72155,,,null
6302052002,630205,6302,63,Kanibungan,72155,,,null
6302052003,630205,6302,63,Mandin,72155,,,null
6302052004,630205,6302,63,Serakaman,72155,,,null
6302052005,630205,6302,63,"Sungai Bali",72155,,,null
6302052006,630205,6302,63,Balambus,72155,,,null
6302052007,630205,6302,63,Rampa,72155,,,null
6302052008,630205,6302,63,Ujung,72155,,,null
6302061001,630206,6302,63,"Kotabaru Hulu",72114,,,null
6302062009,630206,6302,63,Megasari,72114,,,null
6302062010,630206,6302,63,Sebelimbingan,72114,,,null
6302062011,630206,6302,63,Stagen,72114,,,null
6302062012,630206,6302,63,Rampa,72114,,,null
6302062013,630206,6302,63,"Sungai Taib",72114,,,null
6302062014,630206,6302,63,Semayap,72117,,,null
6302062015,630206,6302,63,Dirgahayu,72116,,,null
6302062022,630206,6302,63,"Gunung Ulin",72114,,,null
6302062025,630206,6302,63,"Gunung Sari",72114,,,null
6302072004,630207,6302,63,"Tanjung Pangga",72160,,,null
6302072005,630207,6302,63,Pembelacanan,72160,,,null
6302072006,630207,6302,63,"Sungai Nipah",72160,,,null
6302072007,630207,6302,63,Pantai,72160,,,null
6302072009,630207,6302,63,"Sangking Baru",72160,,,null
6302072014,630207,6302,63,"Suka Maju",72160,,,null
6302072015,630207,6302,63,"Sungai Kupang Jaya",72160,,,null
6302072016,630207,6302,63,"Pantai Baru",72160,,,null
6302072017,630207,6302,63,"Bumi Asih",72160,,,null
6302082001,630208,6302,63,"Cantung Kiri Hilir",72162,,,null
6302082002,630208,6302,63,"Karang Payau",72162,,,null
6302082003,630208,6302,63,"Banua Lawas",72162,,,null
6302082004,630208,6302,63,"Sungai Kupang",72162,,,null
6302082005,630208,6302,63,"Bangkalaan Melayu",72162,,,null
6302082006,630208,6302,63,"Bangkalaan Dayak",72162,,,null
6302082007,630208,6302,63,Laburan,72162,,,null
6302082008,630208,6302,63,"Karang Liwar",72162,,,null
6302082009,630208,6302,63,Mangkirana,72162,,,null
6302082010,630208,6302,63,Sidomulyo,72162,,,null
6302092001,630209,6302,63,"Tanjung Batu",72164,,,null
6302092002,630209,6302,63,"Sungai Punggawa",72164,,,null
6302092003,630209,6302,63,"Tanah Rata",72164,,,null
6302092004,630209,6302,63,Sebuli,72164,,,null
6302092005,630209,6302,63,Sembilang,72164,,,null
6302092006,630209,6302,63,"Tamiang Bakung",72164,,,null
6302092007,630209,6302,63,Sang-Sang,72164,,,null
6302092011,630209,6302,63,"Sungai Pinang",72164,,,null
6302092012,630209,6302,63,"Tanjung Selayar",72164,,,null
6302092013,630209,6302,63,"Senakin Seberang",72164,,,null
6302092014,630209,6302,63,Senakin,72164,,,null
6302092016,630209,6302,63,"Tebing Tinggi",72164,,,null
6302092017,630209,6302,63,Geronggang,72164,,,null
6302102001,630210,6302,63,"Sungai Hanyar",72165,,,null
6302102002,630210,6302,63,"Sungai Seluang",72165,,,null
6302102003,630210,6302,63,Pudi,72165,,,null
6302102004,630210,6302,63,Mangga,72165,,,null
6302102005,630210,6302,63,Wilas,72165,,,null
6302102006,630210,6302,63,"Pudi Seberang",72165,,,null
6302102007,630210,6302,63,Sulangkit,72165,,,null
6302112001,630211,6302,63,Sekandis,72168,,,null
6302112002,630211,6302,63,"Gunung Calang",72168,,,null
6302112003,630211,6302,63,Talusi,72168,,,null
6302112004,630211,6302,63,Sakalimau,72168,,,null
6302112005,630211,6302,63,"Tanjung Samalantakan",72168,,,null
6302112006,630211,6302,63,Sakadoyan,72168,,,null
6302112007,630211,6302,63,"Rampa Cengal",72168,,,null
6302112008,630211,6302,63,Sesulung,72168,,,null
6302112009,630211,6302,63,"Pondok Labu",72168,,,null
6302112010,630211,6302,63,Mulyodadi,72168,,,null
6302112011,630211,6302,63,Sukadana,72168,,,null
6302122001,630212,6302,63,Sepapah,72166,,,null
6302122002,630212,6302,63,"Sungai Betung",72166,,,null
6302122003,630212,6302,63,Basuang,72166,,,null
6302122004,630212,6302,63,"Gunung Batu Besar",72166,,,null
6302122005,630212,6302,63,Sampanahan,72166,,,null
6302122006,630212,6302,63,"Rampa Manunggul",72166,,,null
6302122007,630212,6302,63,Papaan,72166,,,null
6302122008,630212,6302,63,"Sampanahan Hilir",72166,,,null
6302122009,630212,6302,63,Banjarsari,72166,,,null
6302122010,630212,6302,63,Sukamaju,72166,,,null
6302132002,630213,6302,63,Bepara,72169,,,null
6302132004,630213,6302,63,Betung,72169,,,null
6302132005,630213,6302,63,"Sekayu Baru",72169,,,null
6302132006,630213,6302,63,Bakau,72169,,,null
6302132007,630213,6302,63,Binturung,72169,,,null
6302132008,630213,6302,63,"Harapan Baru",72169,,,null
6302132009,630213,6302,63,Balaimea,72169,,,null
6302132010,630213,6302,63,Tamiang,72169,,,null
6302132011,630213,6302,63,Kalian,72169,,,null
6302132012,630213,6302,63,Mulyoharjo,72169,,,null
6302132013,630213,6302,63,"Pamukan Indah",72169,,,null
6302132014,630213,6302,63,Wonorejo,72169,,,null
6302132015,630213,6302,63,"Lintang Jaya",72169,,,null
6302142001,630214,6302,63,Hampang,72163,,,null
6302142002,630214,6302,63,"Cantung Kiri Hulu",72163,,,null
6302142003,630214,6302,63,"Cantung Kanan",72163,,,null
6302142004,630214,6302,63,"Muara Orie",72163,,,null
6302142005,630214,6302,63,Lalapin,72163,,,null
6302142006,630214,6302,63,"Peramasan Dua Kali Sanga",72163,,,null
6302142007,630214,6302,63,Limbur,72163,,,null
6302142008,630214,6302,63,"Hulu Sampanahan",72163,,,null
6302142009,630214,6302,63,Limbungan,72163,,,null
6302152001,630215,6302,63,"Buluh Kuning",72167,,,null
6302152002,630215,6302,63,"Gendang Timburu",72167,,,null
6302152004,630215,6302,63,"Manunggal Lama",72167,,,null
6302152006,630215,6302,63,"Rantau Buda",72167,,,null
6302152007,630215,6302,63,"Manunggul Baru",72167,,,null
6302152008,630215,6302,63,"Terombong Sari",72167,,,null
6302152009,630215,6302,63,"Rantau Jaya",72167,,,null
6302162001,630216,6302,63,Semisir,72156,,,null
6302162002,630216,6302,63,"Sungai Pasir",72156,,,null
6302162003,630216,6302,63,Mekarpura,72156,,,null
6302162004,630216,6302,63,Selaru,72156,,,null
6302162005,630216,6302,63,"Sungup Kanan",72156,,,null
6302162006,630216,6302,63,"Pantai Baru",72156,,,null
6302162007,630216,6302,63,Salino,72156,,,null
6302172001,630217,6302,63,Serongga,72161,,,null
6302172002,630217,6302,63,Tarjun,72161,,,null
6302172003,630217,6302,63,Langadai,72161,,,null
6302172004,630217,6302,63,"Pulau Panci",72161,,,null
6302172005,630217,6302,63,"Pelajau Baru",72161,,,null
6302172006,630217,6302,63,"Tegal Rejo",72161,,,null
6302172007,630217,6302,63,Mandala,72161,,,null
6302172008,630217,6302,63,Telagasari,72161,,,null
6302172009,630217,6302,63,Sahapi,72161,,,null
6302182001,630218,6302,63,Siayuh,72164,,,null
6302182002,630218,6302,63,Bungkukan,72164,,,null
6302182003,630218,6302,63,"Batang Kulur",72164,,,null
6302182004,630218,6302,63,"Tanjung Sari",72164,,,null
6302182005,630218,6302,63,"Magalau Hilir",72167,,,null
6302182006,630218,6302,63,"Magalau Hulu",72167,,,null
6302192001,630219,6302,63,Sengayam,72169,,,null
6302192002,630219,6302,63,"Mayang Sari",72169,,,null
6302192003,630219,6302,63,"Marga Jaya",72169,,,null
6302192004,630219,6302,63,Mangka,72169,,,null
6302192005,630219,6302,63,Batuah,72169,,,null
6302202001,630220,6302,63,"Tanjung Lalak Utara",72154,,,null
6302202002,630220,6302,63,"Tanjung Lalak Selatan",72154,,,null
6302202003,630220,6302,63,"Pulau Kerayaan",72154,,,null
6302202004,630220,6302,63,"Kerayaan Utara",72154,,,null
6302202005,630220,6302,63,"Pulau Kerasian",72154,,,null
6302202006,630220,6302,63,"Pulau Kerumputan",72154,,,null
6302202007,630220,6302,63,"Teluk Aru",72154,,,null
6302202008,630220,6302,63,"Teluk Kemuning",72154,,,null
6302202009,630220,6302,63,Oka-Oka,72154,,,null
6302212001,630221,6302,63,"Tanjung Pelayar",72151,,,null
6302212002,630221,6302,63,"Tanjung Sungkai",72151,,,null
6302212003,630221,6302,63,"Tanjung Tengah",72151,,,null
6302212004,630221,6302,63,"Tanjung Kunyit",72151,,,null
6302212005,630221,6302,63,"Teluk Tamiang",72151,,,null
6302212006,630221,6302,63,"Gosong Panjang",72151,,,null
6302212007,630221,6302,63,"Kampung Baru",72151,,,null
6302212008,630221,6302,63,"Tata Mekar",72151,,,null
6302212009,630221,6302,63,"Bandar Raya",72151,,,null
6302212010,630221,6302,63,"Bangun Rejo",72151,,,null
6302221009,630222,6302,63,"Baharu Selatan",72115,,,null
6302221010,630222,6302,63,"Kotabaru Tengah",72113,,,null
6302221011,630222,6302,63,"Kotabaru Hilir",72111,,,null
6302222001,630222,6302,63,Sebatung,72113,,,null
6302222002,630222,6302,63,"Hilir Muara",72111,,,null
6302222003,630222,6302,63,Batuah,72112,,,null
6302222004,630222,6302,63,"Baharu Utara",72112,,,null
6302222005,630222,6302,63,Tirawan,72112,,,null
6302222006,630222,6302,63,Gedambaan,72114,,,null
6302222007,630222,6302,63,"Sarang Tiung",72114,,,null
6302222008,630222,6302,63,Sigam,72112,,,null
6303012001,630301,6303,63,Bakambat,70655,,,null
6303012002,630301,6303,63,Tanipah,70655,,,null
6303012009,630301,6303,63,Pemurus,70655,,,null
6303012010,630301,6303,63,"Simpang Warga",70655,,,null
6303012011,630301,6303,63,Bunipah,70655,,,null
6303012012,630301,6303,63,"Aluh Aluh Besar",70655,,,null
6303012013,630301,6303,63,"Aluh Aluh Kecil",70655,,,null
6303012014,630301,6303,63,Podok,70655,,,null
6303012015,630301,6303,63,"Handil Bujur",70655,,,null
6303012016,630301,6303,63,"Kuin Besar",70655,,,null
6303012017,630301,6303,63,Terapu,70655,,,null
6303012019,630301,6303,63,"Labat Muara",70655,,,null
6303012022,630301,6303,63,Pulantan,70655,,,null
6303012024,630301,6303,63,"Aluh Aluh Kecil Muara",70655,,,null
6303012026,630301,6303,63,"Simpang Warga Dalam",70655,,,null
6303012027,630301,6303,63,"Kuin Kecil",70655,,,null
6303012028,630301,6303,63,"Handil Baru",70655,,,null
6303012030,630301,6303,63,Balimau,70655,,,null
6303012031,630301,6303,63,"Sungai Musang",70655,,,null
6303021001,630302,6303,63,"Kertak Hanyar I",70654,,,null
6303021008,630302,6303,63,"Manarap Lama",70654,,,null
6303021015,630302,6303,63,Mandarsari,70654,,,null
6303022005,630302,6303,63,"Pemangkih Laut",70654,,,null
6303022006,630302,6303,63,"Simpang Empat",70654,,,null
6303022007,630302,6303,63,"Sungai Lakum",70654,,,null
6303022009,630302,6303,63,"Manarap Baru",70654,,,null
6303022010,630302,6303,63,"Kertak Hanyar II",70654,,,null
6303022014,630302,6303,63,"Pasar Kamis",70654,,,null
6303022016,630302,6303,63,"Manarap Tengah",70654,,,null
6303022017,630302,6303,63,"Belayung Baru",70654,,,null
6303022021,630302,6303,63,"Banua Hanyar",70654,,,null
6303022022,630302,6303,63,"Mekar Raya",70654,,,null
6303031001,630303,6303,63,Gambut,70652,,,null
6303031014,630303,6303,63,"Gambut Barat",70652,,,null
6303032002,630303,6303,63,"Sungai Kupang",70652,,,null
6303032003,630303,6303,63,"Guntung Papuyu",70652,,,null
6303032004,630303,6303,63,Makmur,70652,,,null
6303032005,630303,6303,63,"Tambak Sirang Darat",70652,,,null
6303032006,630303,6303,63,"Tambak Sirang Laut",70652,,,null
6303032007,630303,6303,63,Malintang,70652,,,null
6303032008,630303,6303,63,"Kayu Bawang",70652,,,null
6303032009,630303,6303,63,"Banyu Hirang",70652,,,null
6303032010,630303,6303,63,"Guntung Ujung",70652,,,null
6303032011,630303,6303,63,"Tambak Sirang Baru",70652,,,null
6303032012,630303,6303,63,"Malintang Baru",70652,,,null
6303032013,630303,6303,63,"Keladan Baru",70652,,,null
6303041001,630304,6303,63,"Sungai Lulut",70653,,,null
6303042002,630304,6303,63,"Sungai Bakung",70653,,,null
6303042003,630304,6303,63,"Sungai Tandipah",70653,,,null
6303042004,630304,6303,63,"Lok Baintan",70653,,,null
6303042005,630304,6303,63,"Gudang Hirang",70653,,,null
6303042006,630304,6303,63,"Sungai Pinang",70653,,,null
6303042007,630304,6303,63,Pembantanan,70653,,,null
6303042008,630304,6303,63,Pemakuan,70653,,,null
6303042009,630304,6303,63,"Sungai Tabuk Kota",70653,,,null
6303042010,630304,6303,63,"Sungai Tabuk Keramat",70653,,,null
6303042011,630304,6303,63,"Lok Buntar",70653,,,null
6303042012,630304,6303,63,"Gudang Tengah",70653,,,null
6303042013,630304,6303,63,Pejambuan,70653,,,null
6303042014,630304,6303,63,"Keliling Benteng Ilir",70653,,,null
6303042015,630304,6303,63,"Sungai Pinang Baru",70653,,,null
6303042016,630304,6303,63,"Paku Alam",70653,,,null
6303042017,630304,6303,63,"Lok Baintan Dalam",70653,,,null
6303042018,630304,6303,63,"Pematang Panjang",70653,,,null
6303042019,630304,6303,63,"Sungai Bangkal",70653,,,null
6303042020,630304,6303,63,"Tajau Landung",70653,,,null
6303042021,630304,6303,63,"Abumbun Jaya",70653,,,null
6303051001,630305,6303,63,Keraton,70611,,,null
6303051002,630305,6303,63,Jawa,70614,,,null
6303051003,630305,6303,63,Pasayangan,70619,,,null
6303051004,630305,6303,63,"Murung Keraton",70616,,,null
6303051005,630305,6303,63,"Sungai Paring",71213,,,null
6303051055,630305,6303,63,"Tanjung Rema Darat",70613,,,null
6303051059,630305,6303,63,Sekumpul,70619,,,null
6303052009,630305,6303,63,"Sungai Sipai",70612,,,null
6303052010,630305,6303,63,"Pasayangan Selatan",70619,,,null
6303052011,630305,6303,63,"Tanjung Rema",70613,,,null
6303052012,630305,6303,63,Bincau,70619,,,null
6303052013,630305,6303,63,"Murung Kenanga",70617,,,null
6303052015,630305,6303,63,"Tunggul Irang",70615,,,null
6303052016,630305,6303,63,"Tambak Baru",70619,,,null
6303052034,630305,6303,63,"Cindai Alus",70612,,,null
6303052036,630305,6303,63,Tungkaran,70619,,,null
6303052037,630305,6303,63,"Tambak Baru Ulu",70619,,,null
6303052040,630305,6303,63,"Bincau Muara",70619,,,null
6303052042,630305,6303,63,"Tunggul Irang Ilir",70615,,,null
6303052043,630305,6303,63,"Tunggul Irang Ulu",70615,,,null
6303052051,630305,6303,63,"Labuan Tabu",70619,,,null
6303052052,630305,6303,63,"Indra Sari",70619,,,null
6303052054,630305,6303,63,"Jawa Laut",70615,,,null
6303052056,630305,6303,63,"Pasayangan Utara",70619,,,null
6303052057,630305,6303,63,"Pasayangan Barat",70619,,,null
6303052058,630305,6303,63,"Tambak Baru Ilir",70619,,,null
6303062001,630306,6303,63,Kiram,70661,,,null
6303062002,630306,6303,63,"Mandiangin Barat",70661,,,null
6303062003,630306,6303,63,"Karang Intan",70661,,,null
6303062004,630306,6303,63,"Pandak Daun",70661,,,null
6303062005,630306,6303,63,"Jingah Habang Hulu",70661,,,null
6303062006,630306,6303,63,"Mali Mali",70661,,,null
6303062007,630306,6303,63,"Lok Tangga",70661,,,null
6303062008,630306,6303,63,Lihung,70661,,,null
6303062009,630306,6303,63,"Bi ih",70661,,,null
6303062010,630306,6303,63,Penyambaran,70661,,,null
6303062011,630306,6303,63,"Sungai Alang",70661,,,null
6303062012,630306,6303,63,"Sungai Asam",70661,,,null
6303062013,630306,6303,63,"Mandikapau Timur",70661,,,null
6303062014,630306,6303,63,"Awang Bangkal Barat",70661,,,null
6303062015,630306,6303,63,"Awang Bangkal Timur",70661,,,null
6303062016,630306,6303,63,"Sungai Besar",70661,,,null
6303062017,630306,6303,63,"Mandiangin Timur",70661,,,null
6303062018,630306,6303,63,"Pasar Lama",70661,,,null
6303062019,630306,6303,63,"Jingah Habang Ilir",70661,,,null
6303062020,630306,6303,63,"Sungai Arfat",70661,,,null
6303062021,630306,6303,63,"Padang Panjang",70661,,,null
6303062022,630306,6303,63,"Sungai Landas",70661,,,null
6303062023,630306,6303,63,Abirau,70661,,,null
6303062024,630306,6303,63,"Pulau Nyiur",70661,,,null
6303062025,630306,6303,63,"Mandi Kapau Barat",70661,,,null
6303062026,630306,6303,63,Balau,70661,,,null
6303072001,630307,6303,63,Pingaran,70670,,,null
6303072002,630307,6303,63,"Jati Baru",70670,,,null
6303072003,630307,6303,63,"Pasar Jati",70670,,,null
6303072004,630307,6303,63,"Danau Salak",70670,,,null
6303072005,630307,6303,63,"Tambak Danau",70670,,,null
6303072006,630307,6303,63,Kaliukan,70670,,,null
6303072007,630307,6303,63,"Sungai Alat",70670,,,null
6303072008,630307,6303,63,"Pingaran Ulu",70670,,,null
6303072009,630307,6303,63,"Astambul Kota",70670,,,null
6303072010,630307,6303,63,"Astambul Seberang",70670,,,null
6303072011,630307,6303,63,"Sungai Tuan Ulu",70670,,,null
6303072012,630307,6303,63,"Benua Anyar Sungai Tuan",70670,,,null
6303072013,630307,6303,63,"Kelampaian Ilir",70670,,,null
6303072014,630307,6303,63,"Kelampaian Ulu",70670,,,null
6303072015,630307,6303,63,Limamar,70670,,,null
6303072016,630307,6303,63,"Lok Gabang",70670,,,null
6303072017,630307,6303,63,"Pematang Hambawang",70670,,,null
6303072018,630307,6303,63,"Kelampaian Tengah",70670,,,null
6303072019,630307,6303,63,Tambangan,70670,,,null
6303072020,630307,6303,63,"Benua Anyar Danau Salak",70670,,,null
6303072021,630307,6303,63,"Sungai Tuan Ilir",70670,,,null
6303072022,630307,6303,63,"Munggu Raya",70670,,,null
6303082005,630308,6303,63,Paku,70673,,,null
6303082006,630308,6303,63,"Simpang Empat",70673,,,null
6303082007,630308,6303,63,"Lok Cantung",70673,,,null
6303082008,630308,6303,63,"Tanah Intan",70673,,,null
6303082009,630308,6303,63,"Sungai Raya",70673,,,null
6303082010,630308,6303,63,Sungkai,70673,,,null
6303082011,630308,6303,63,"Sungai Langsat",70673,,,null
6303082014,630308,6303,63,Lawiran,70673,,,null
6303082017,630308,6303,63,"Batu Balian",70673,,,null
6303082018,630308,6303,63,Cabi,70673,,,null
6303082019,630308,6303,63,"Berkat Mulya",70673,,,null
6303082021,630308,6303,63,"Sungai Baru",70673,,,null
6303082022,630308,6303,63,"Paring Tali",70673,,,null
6303082025,630308,6303,63,"Pasar Lama",70673,,,null
6303082026,630308,6303,63,"Sungai Tabuk",70653,,,null
6303092001,630309,6303,63,Maniapun,70674,,,null
6303092002,630309,6303,63,"Lok Tunggul",70674,,,null
6303092003,630309,6303,63,"Lobang Baru",70674,,,null
6303092004,630309,6303,63,Pengaron,70674,,,null
6303092005,630309,6303,63,Benteng,70674,,,null
6303092006,630309,6303,63,Ati'im,70674,,,null
6303092007,630309,6303,63,Alimukim,70674,,,null
6303092008,630309,6303,63,Panyiuran,70674,,,null
6303092009,630309,6303,63,Antaraku,70674,,,null
6303092010,630309,6303,63,Mangkauk,70674,,,null
6303092015,630309,6303,63,"Kertak Empat",70674,,,null
6303092018,630309,6303,63,Lumpangi,70674,,,null
6303102001,630310,6303,63,"Kupang Rejo",70678,,,null
6303102002,630310,6303,63,"Sungai Pinang",70678,,,null
6303102003,630310,6303,63,Kahelaan,70678,,,null
6303102004,630310,6303,63,"Rantau Nangka",70678,,,null
6303102005,630310,6303,63,"Rantau Bakula",70678,,,null
6303102006,630310,6303,63,"Belimbing Lama",70678,,,null
6303102010,630310,6303,63,"Sumber Baru",70678,,,null
6303102011,630310,6303,63,"Belimbing Baru",70678,,,null
6303102012,630310,6303,63,Pakutik,70678,,,null
6303102013,630310,6303,63,"Sumber Harapan",70678,,,null
6303102015,630310,6303,63,"Hakim Makmur",70678,,,null
6303112001,630311,6303,63,"Tiwingan Lama",70671,,,null
6303112002,630311,6303,63,Kalaan,70671,,,null
6303112003,630311,6303,63,"Benua Riam",70671,,,null
6303112004,630311,6303,63,Bunglai,70671,,,null
6303112005,630311,6303,63,Apuai,70671,,,null
6303112006,630311,6303,63,"Rantau Bujur",70671,,,null
6303112007,630311,6303,63,Artain,70671,,,null
6303112008,630311,6303,63,"Rantau Balai",70671,,,null
6303112009,630311,6303,63,"Tiwingan Baru",70671,,,null
6303112010,630311,6303,63,Belangian,70671,,,null
6303112011,630311,6303,63,Aranio,70671,,,null
6303112012,630311,6303,63,Pa'au,70671,,,null
6303122001,630312,6303,63,Baru,70672,,,null
6303122002,630312,6303,63,"Bawahan Pasar",70672,,,null
6303122003,630312,6303,63,"Bawahan Seberang",70672,,,null
6303122004,630312,6303,63,"Pematang Danau",70672,,,null
6303122005,630312,6303,63,Surian,70672,,,null
6303122006,630312,6303,63,Mataraman,70672,,,null
6303122007,630312,6303,63,"Simpang Tiga",70672,,,null
6303122008,630312,6303,63,"Bawahan Selan",70672,,,null
6303122009,630312,6303,63,Takuti,70672,,,null
6303122010,630312,6303,63,Pasiraman,70672,,,null
6303122011,630312,6303,63,"Lok Tamu",70672,,,null
6303122012,630312,6303,63,"Sungai Jati",70672,,,null
6303122013,630312,6303,63,Mangkalawat,70672,,,null
6303122014,630312,6303,63,"Gunung Ulin",70672,,,null
6303122015,630312,6303,63,"Tanah Abang",70672,,,null
6303132001,630313,6303,63,"Pindahan Baru",70656,,,null
6303132002,630313,6303,63,"Handil Purai",70656,,,null
6303132003,630313,6303,63,"Kampung Baru",70656,,,null
6303132004,630313,6303,63,Lawahan,70656,,,null
6303132005,630313,6303,63,Babirik,70656,,,null
6303132006,630313,6303,63,"Jambu Burung",70656,,,null
6303132007,630313,6303,63,"Tambak Padi",70656,,,null
6303132008,630313,6303,63,"Haur Kuning",70656,,,null
6303132009,630313,6303,63,"Jambu Raya",70656,,,null
6303132010,630313,6303,63,Rumpiang,70656,,,null
6303132011,630313,6303,63,"Salat Makmur",70656,,,null
6303132012,630313,6303,63,"Muara Halayung",70656,,,null
6303142001,630314,6303,63,"Teluk Selong",70618,,,null
6303142002,630314,6303,63,"Sungai Batang",70618,,,null
6303142003,630314,6303,63,"Sungai Batang Ilir",70618,,,null
6303142004,630314,6303,63,"Sungai Ranggas",70618,,,null
6303142005,630314,6303,63,Penggalaman,70618,,,null
6303142006,630314,6303,63,"Keliling Benteng Ulu",70618,,,null
6303142007,630314,6303,63,"Antasan Sutun",70618,,,null
6303142008,630314,6303,63,"Sungai Ranggas Ulu",70618,,,null
6303142009,630314,6303,63,"Sungai Ranggas Hambuku",70618,,,null
6303142010,630314,6303,63,"Keliling Benteng Tengah",70618,,,null
6303142011,630314,6303,63,"Teluk Selong Ulu",70618,,,null
6303142012,630314,6303,63,Tangkas,70618,,,null
6303142013,630314,6303,63,"Sungai Ranggas Tengah",70618,,,null
6303152001,630315,6303,63,Pekauman,70617,,,null
6303152002,630315,6303,63,Keramat,70617,,,null
6303152003,630315,6303,63,"Antasan Senor",70617,,,null
6303152004,630315,6303,63,"Tambak Anyar",70617,,,null
6303152005,630315,6303,63,Melayu,70617,,,null
6303152006,630315,6303,63,"Melayu Ilir",70617,,,null
6303152007,630315,6303,63,"Akar Begantung Ulu",70617,,,null
6303152008,630315,6303,63,"Dalam Pagar",70617,,,null
6303152009,630315,6303,63,"Tambak Anyar Ulu",70617,,,null
6303152010,630315,6303,63,"Pematang Baru",70617,,,null
6303152011,630315,6303,63,"Melayu Tengah",70617,,,null
6303152012,630315,6303,63,"Akar Baru",70617,,,null
6303152013,630315,6303,63,"Dalam Pagar Ulu",70617,,,null
6303152014,630315,6303,63,"Pekauman Ulu",70617,,,null
6303152015,630315,6303,63,Mekar,70617,,,null
6303152016,630315,6303,63,"Tambak Anyar Ilir",70617,,,null
6303152017,630315,6303,63,"Sungai Kitano",70617,,,null
6303152018,630315,6303,63,"Keramat Baru",70617,,,null
6303152019,630315,6303,63,"Pekauman Dalam",70617,,,null
6303152020,630315,6303,63,"Antasan Senor Ilir",70617,,,null
6303162001,630316,6303,63,Madurejo,70677,,,null
6303162002,630316,6303,63,Baliangin,70677,,,null
6303162003,630316,6303,63,"Gunung Batu",70677,,,null
6303162004,630316,6303,63,"Batang Banyu",70677,,,null
6303162005,630316,6303,63,"Sungai Lurus",70677,,,null
6303162006,630316,6303,63,"Batu Tanam",70677,,,null
6303162007,630316,6303,63,"Pasar Baru",70677,,,null
6303172001,630317,6303,63,"Paramasan Atas",70675,,,null
6303172002,630317,6303,63,"Paramasan Bawah",70675,,,null
6303172003,630317,6303,63,Remo,70675,,,null
6303172004,630317,6303,63,Angkipih,70675,,,null
6303182001,630318,6303,63,"Rantau Bujur",70673,,,null
6303182002,630318,6303,63,"Lok Tanah",70673,,,null
6303182003,630318,6303,63,"Telaga Baru",70673,,,null
6303182004,630318,6303,63,Rampah,70673,,,null
6303192001,630319,6303,63,"Tatah Bangkal",70650,,,null
6303192002,630319,6303,63,"Bangkal Tengah",70650,,,null
6303192003,630319,6303,63,"Layap Baru",70650,,,null
6303192004,630319,6303,63,"Tatah Layap",70650,,,null
6303192005,630319,6303,63,"Mekar Sari",70650,,,null
6303192006,630319,6303,63,"Pandan Sari",70650,,,null
6303192007,630319,6303,63,"Tampang Awang",70650,,,null
6303192008,630319,6303,63,"Pemangkih Darat",70650,,,null
6303192009,630319,6303,63,"Pemangkih Baru",70650,,,null
6303192010,630319,6303,63,"Pemangkih Tengah",70650,,,null
6303192011,630319,6303,63,"Tatah Jaruju",70650,,,null
6303192012,630319,6303,63,"Jaruju Laut",70650,,,null
6303192013,630319,6303,63,"Thaibah Raya",70650,,,null
6303202001,630320,6303,63,"Keramat Mina",70676,,,null
6303202002,630320,6303,63,"Garis Hanyar",70676,,,null
6303202003,630320,6303,63,Cintapuri,70676,,,null
6303202004,630320,6303,63,"Surian Hanyar",70676,,,null
6303202005,630320,6303,63,"Benua Anyar",70676,,,null
6303202006,630320,6303,63,"Alalak Padang",70676,,,null
6303202007,630320,6303,63,"Makmur Karya",70676,,,null
6303202008,630320,6303,63,"Simpang Lima",70676,,,null
6303202009,630320,6303,63,"Karya Makmur",70676,,,null
6303202010,630320,6303,63,"Sindang Jaya",70676,,,null
6303202011,630320,6303,63,"Sumber Sari",70676,,,null
6304012001,630401,6304,63,"Kuala Lupak",70567,,,null
6304012002,630401,6304,63,"Sungai Telan Besar",70567,,,null
6304012003,630401,6304,63,"Sungai Telan Kecil",70567,,,null
6304012004,630401,6304,63,"Tabunganen Muara",70567,,,null
6304012005,630401,6304,63,"Tabunganen Tengah",70567,,,null
6304012006,630401,6304,63,"Karya Baru",70567,,,null
6304012007,630401,6304,63,"Tabunganen Perumus",70567,,,null
6304012008,630401,6304,63,"Sungai Teras Dalam",70567,,,null
6304012009,630401,6304,63,"Sungai Jingah Besar",70567,,,null
6304012010,630401,6304,63,"Tabunganen Kecil",70567,,,null
6304012011,630401,6304,63,"Sei Teras Luar",70567,,,null
6304012012,630401,6304,63,"Sei Telan Muara",70567,,,null
6304012013,630401,6304,63,"Beringin Kencana",70567,,,null
6304012014,630401,6304,63,"Tanggul Rejo",70567,,,null
6304022001,630402,6304,63,"Purwosari II",70566,,,null
6304022002,630402,6304,63,"Purwosari I",70566,,,null
6304022003,630402,6304,63,"Tamban Bangun",70566,,,null
6304022004,630402,6304,63,"Tamban Muara",70566,,,null
6304022005,630402,6304,63,"Tamban Kecil",70566,,,null
6304022006,630402,6304,63,"Tinggiran II Luar",70566,,,null
6304022007,630402,6304,63,"Jelapat I",70566,,,null
6304022008,630402,6304,63,"Tamban Muara Baru",70566,,,null
6304022009,630402,6304,63,"Purwosari Baru",70566,,,null
6304022010,630402,6304,63,"Sekata Baru",70566,,,null
6304022011,630402,6304,63,Koanda,70566,,,null
6304022012,630402,6304,63,Damsari,70566,,,null
6304022013,630402,6304,63,Sidorejo,70566,,,null
6304022014,630402,6304,63,"Jelapat Baru",70566,,,null
6304022015,630402,6304,63,"Tamban Bangun Baru",70566,,,null
6304022016,630402,6304,63,"Tamban Sari Baru",70566,,,null
6304032001,630403,6304,63,Andaman,70565,,,null
6304032002,630403,6304,63,"Hilir Mesjid",70565,,,null
6304032003,630403,6304,63,"Anjir Pasar Kota",70565,,,null
6304032004,630403,6304,63,Banyiur,70565,,,null
6304032005,630403,6304,63,Gandaraya,70565,,,null
6304032006,630403,6304,63,Gandaria,70565,,,null
6304032007,630403,6304,63,"Anjir Pasar Kota II",70565,,,null
6304032008,630403,6304,63,"Andaman II",70565,,,null
6304032009,630403,6304,63,"Anjir Seberang Pasar II",70565,,,null
6304032010,630403,6304,63,"Anjir Seberang Pasar I",70565,,,null
6304032011,630403,6304,63,"Anjir Pasar Lama",70565,,,null
6304032012,630403,6304,63,"Pandan Sari",70565,,,null
6304032013,630403,6304,63,Mentaren,70565,,,null
6304032014,630403,6304,63,"Barunai Baru",70565,,,null
6304032015,630403,6304,63,"Danau Karya",70565,,,null
6304042001,630404,6304,63,"Anjir Serapat Muara",70564,,,null
6304042002,630404,6304,63,"Anjir Muara Kota",70564,,,null
6304042003,630404,6304,63,"Patih Muhur",70564,,,null
6304042004,630404,6304,63,"Anjir Muara Kota Tengah",70564,,,null
6304042005,630404,6304,63,"Anjir Serapat Lama",70564,,,null
6304042006,630404,6304,63,"Anjir Serapat Baru",70564,,,null
6304042007,630404,6304,63,"Anjir Muara Lama",70564,,,null
6304042008,630404,6304,63,"Sungai Punggu",70564,,,null
6304042009,630404,6304,63,"Anjir Serapat Baru I",70564,,,null
6304042010,630404,6304,63,"Patih Muhur Baru",70564,,,null
6304042011,630404,6304,63,"Sei Punggu Baru",70564,,,null
6304042012,630404,6304,63,"Anjir Serapat Muara I",70564,,,null
6304042013,630404,6304,63,"Sepakat Barsama",70564,,,null
6304042014,630404,6304,63,"Marabahan Baru",70564,,,null
6304042015,630404,6304,63,"Beringin Jaya",70564,,,null
6304051001,630405,6304,63,"Berangas Barat",70582,,,null
6304051002,630405,6304,63,Berangas,70582,,,null
6304051003,630405,6304,63,"Handil Bakti",70582,,,null
6304052004,630405,6304,63,"Pulau Alalak",70582,,,null
6304052005,630405,6304,63,"Pulau Sewangi",70582,,,null
6304052006,630405,6304,63,"Pulau Sugara",70582,,,null
6304052007,630405,6304,63,"Sungai Lumbah",70582,,,null
6304052008,630405,6304,63,"Berangas Timur",70582,,,null
6304052009,630405,6304,63,"Sei Semangat Bhakti",70582,,,null
6304052010,630405,6304,63,"Sungai Pitung",70582,,,null
6304052011,630405,6304,63,"Belandean Muara",70582,,,null
6304052012,630405,6304,63,Belandean,70582,,,null
6304052013,630405,6304,63,"Tanjung Harapan",70582,,,null
6304052014,630405,6304,63,"Semangat Dalam",70582,,,null
6304052015,630405,6304,63,Beringin,70582,,,null
6304052016,630405,6304,63,"Semangat Karya",70582,,,null
6304052017,630405,6304,63,"Panca Karya",70582,,,null
6304052018,630405,6304,63,"Tatah Mesjid",70582,,,null
6304062001,630406,6304,63,Terantang,70580,,,null
6304062002,630406,6304,63,Tanipah,70580,,,null
6304062003,630406,6304,63,"Puntik Luar",70580,,,null
6304062004,630406,6304,63,"Puntik Dalam",70580,,,null
6304062005,630406,6304,63,"Tabing Rimbah",70580,,,null
6304062006,630406,6304,63,"Pantai Hambawang",70580,,,null
6304062009,630406,6304,63,"Tatah Alayung",70580,,,null
6304062011,630406,6304,63,"Puntik Tengah",70580,,,null
6304062014,630406,6304,63,Lokrawa,70580,,,null
6304062015,630406,6304,63,"Sei Ramania",70580,,,null
6304062016,630406,6304,63,"Bangkit Baru",70580,,,null
6304062017,630406,6304,63,"Antasan Segera",70580,,,null
6304062020,630406,6304,63,"Karang Bunga",70580,,,null
6304062021,630406,6304,63,"Karang Indah",70580,,,null
6304072001,630407,6304,63,"Sungai Pantai",70561,,,null
6304072002,630407,6304,63,"Pindahan Baru",70561,,,null
6304072003,630407,6304,63,"Sungai Gampa Asahi",70561,,,null
6304072004,630407,6304,63,"Sungai Gampa",70561,,,null
6304072005,630407,6304,63,"Sungai Sahurai",70561,,,null
6304072006,630407,6304,63,"Simpang Arya",70561,,,null
6304072007,630407,6304,63,"Sinar Baru",70561,,,null
6304072008,630407,6304,63,"Sungai Bamban",70561,,,null
6304072009,630407,6304,63,"Danda Jaya",70561,,,null
6304082001,630408,6304,63,"Murung Keramat",70563,,,null
6304082002,630408,6304,63,"Sungai Seluang",70563,,,null
6304082003,630408,6304,63,Belawang,70563,,,null
6304082004,630408,6304,63,Bambangin,70563,,,null
6304082005,630408,6304,63,Sukaramai,70563,,,null
6304082006,630408,6304,63,"Sungai Seluang Pasar",70563,,,null
6304082007,630408,6304,63,Samuda,70563,,,null
6304082008,630408,6304,63,Parimata,70563,,,null
6304082009,630408,6304,63,"Karang Dukuh",70563,,,null
6304082010,630408,6304,63,"Patih Selera",70563,,,null
6304082011,630408,6304,63,"Karang Buah",70563,,,null
6304082012,630408,6304,63,"Binaan Baru",70563,,,null
6304082013,630408,6304,63,"Rangga Surya",70563,,,null
6304092001,630409,6304,63,"Sungai Kambat",70571,,,null
6304092002,630409,6304,63,"Sungai Rasau",70571,,,null
6304092003,630409,6304,63,"Simpang Nungki",70571,,,null
6304092004,630409,6304,63,Sawahan,70571,,,null
6304092005,630409,6304,63,Bantuil,70571,,,null
6304092006,630409,6304,63,Badandan,70571,,,null
6304092007,630409,6304,63,"Sei Tunjang",70571,,,null
6304092008,630409,6304,63,"Sei Raya",70571,,,null
6304101001,630410,6304,63,Lepasan,70512,,,null
6304102002,630410,6304,63,"Banua Anyar",70513,,,null
6304102003,630410,6304,63,"Murung Raya",70513,,,null
6304102004,630410,6304,63,Palingkau,70513,,,null
6304102005,630410,6304,63,Balukung,70513,,,null
6304102006,630410,6304,63,Banitan,70513,,,null
6304102007,630410,6304,63,Batik,70513,,,null
6304102008,630410,6304,63,Bahalayung,70513,,,null
6304102009,630410,6304,63,"Sungai Selirik",70513,,,null
6304112001,630411,6304,63,"Jambu Baru",70552,,,null
6304112002,630411,6304,63,Jambu,70552,,,null
6304112003,630411,6304,63,Kabuau,70552,,,null
6304112004,630411,6304,63,Jarenang,70552,,,null
6304112005,630411,6304,63,Tabatan,70552,,,null
6304112006,630411,6304,63,Kuripan,70552,,,null
6304112007,630411,6304,63,"Tabatan Baru",70552,,,null
6304112008,630411,6304,63,"Asia Baru",70552,,,null
6304112009,630411,6304,63,"Rimbun Tulang",70552,,,null
6304122001,630412,6304,63,"Pantang Raya",70553,,,null
6304122002,630412,6304,63,"Tabukan Raya",70553,,,null
6304122003,630412,6304,63,"Teluk Tamba",70553,,,null
6304122004,630412,6304,63,"Rantau Bamban",70553,,,null
6304122005,630412,6304,63,"Tamba Jaya",70553,,,null
6304122006,630412,6304,63,"Muara Pulau",70553,,,null
6304122007,630412,6304,63,"Karya Indah",70553,,,null
6304122008,630412,6304,63,"Bandar Karya",70553,,,null
6304122009,630412,6304,63,"Karya Makmur",70553,,,null
6304122010,630412,6304,63,"Karya Jadi",70553,,,null
6304122011,630412,6304,63,"Pantang Baru",70553,,,null
6304132001,630413,6304,63,Mekarsari,70568,,,null
6304132002,630413,6304,63,"Tamban Raya",70568,,,null
6304132003,630413,6304,63,"Tinggiran Tengah",70568,,,null
6304132004,630413,6304,63,"Tinggiran Darat",70568,,,null
6304132005,630413,6304,63,"Jelapat II",70568,,,null
6304132006,630413,6304,63,"Tamban Raya Baru",70568,,,null
6304132007,630413,6304,63,"Tinggiran Baru",70568,,,null
6304132008,630413,6304,63,"Karang Mekar",70568,,,null
6304132009,630413,6304,63,"Indah Sari",70568,,,null
6304142001,630414,6304,63,Barambai,70562,,,null
6304142002,630414,6304,63,"Sungai Kali",70562,,,null
6304142003,630414,6304,63,Pendalaman,70562,,,null
6304142004,630414,6304,63,"Handil Barabai",70562,,,null
6304142005,630414,6304,63,Bagagap,70562,,,null
6304142006,630414,6304,63,"Barambai Karya Tani",70562,,,null
6304142007,630414,6304,63,"Pendalaman Baru",70562,,,null
6304142008,630414,6304,63,"Karya Baru",70562,,,null
6304142009,630414,6304,63,"Barambai Kolam Kiri",70562,,,null
6304142010,630414,6304,63,"Barambai Kolam Kanan",70562,,,null
6304142011,630414,6304,63,"Barambai Kolam Kiri Dalam",70562,,,null
6304151001,630415,6304,63,"Marabahan Kota",70511,,,null
6304151002,630415,6304,63,"Ulu Benteng",70513,,,null
6304152003,630415,6304,63,Penghulu,70511,,,null
6304152004,630415,6304,63,Bagus,70511,,,null
6304152005,630415,6304,63,Baliuk,70511,,,null
6304152006,630415,6304,63,"Antar Baru",70511,,,null
6304152007,630415,6304,63,"Antar Jaya",70511,,,null
6304152008,630415,6304,63,"Antar Raya",70511,,,null
6304152009,630415,6304,63,"Sido Makmur",70511,,,null
6304152010,630415,6304,63,"Karya Maju",70513,,,null
6304162001,630416,6304,63,"Kolam Kiri",70560,,,null
6304162002,630416,6304,63,"Roham Raya",70560,,,null
6304162003,630416,6304,63,"Simpang Jaya",70560,,,null
6304162004,630416,6304,63,Tumih,70560,,,null
6304162005,630416,6304,63,"Pinang Habang",70560,,,null
6304162006,630416,6304,63,"Waringin Kencana",70560,,,null
6304162007,630416,6304,63,"Babat Raya",70560,,,null
6304162008,630416,6304,63,"Kolam Kanan",70560,,,null
6304162009,630416,6304,63,Sidomulyo,70560,,,null
6304162010,630416,6304,63,"Kolam Makmur",70560,,,null
6304162011,630416,6304,63,"Surya Kanta",70560,,,null
6304162012,630416,6304,63,"Sumber Rahayu",70560,,,null
6304162013,630416,6304,63,Dwipasari,70560,,,null
6304172001,630417,6304,63,Sampurna,70581,,,null
6304172002,630417,6304,63,"Jejangkit Barat",70581,,,null
6304172003,630417,6304,63,Bahandang,70581,,,null
6304172004,630417,6304,63,"Jejangkit Timur",70581,,,null
6304172005,630417,6304,63,"Cahaya Baru",70581,,,null
6304172006,630417,6304,63,"Jejangkit Pasar",70581,,,null
6304172007,630417,6304,63,"Jejangkit Muara",70581,,,null
6305011001,630501,6305,63,Binuang,71183,,,null
6305011017,630501,6305,63,"Karang Putih",71183,,,null
6305011018,630501,6305,63,"Raya Belanti",71183,,,null
6305012003,630501,6305,63,Tungkap,71183,,,null
6305012006,630501,6305,63,"A. Yani Pura",71183,,,null
6305012007,630501,6305,63,Pulaupinang,71183,,,null
6305012008,630501,6305,63,"Pualam Sari",71183,,,null
6305012009,630501,6305,63,Gunungbatu,71183,,,null
6305012012,630501,6305,63,"Pulaupinang Utara",71183,,,null
6305012016,630501,6305,63,"Padang Sari",71183,,,null
6305012019,630501,6305,63,Mekarsari,71183,,,null
6305021004,630502,6305,63,Tambarangan,71181,,,null
6305022001,630502,6305,63,Tatakan,71181,,,null
6305022002,630502,6305,63,"Suato Tatakan",71181,,,null
6305022005,630502,6305,63,Sawang,71181,,,null
6305022006,630502,6305,63,Lawahan,71181,,,null
6305022007,630502,6305,63,Timbaan,71181,,,null
6305022009,630502,6305,63,Rumintin,71181,,,null
6305022011,630502,6305,63,Cempaka,71181,,,null
6305022012,630502,6305,63,"Harapan Masa",71181,,,null
6305022016,630502,6305,63,Tandui,71181,,,null
6305022017,630502,6305,63,Hatiwin,71181,,,null
6305032001,630503,6305,63,Pandulangan,71161,,,null
6305032002,630503,6305,63,Labung,71161,,,null
6305032003,630503,6305,63,Mandurian,71161,,,null
6305032004,630503,6305,63,Serawi,71161,,,null
6305032005,630503,6305,63,"Pematang Karangan Hulu",71161,,,null
6305032006,630503,6305,63,"Pematang Karangan",71161,,,null
6305032007,630503,6305,63,Pandahan,71161,,,null
6305032008,630503,6305,63,"Pematang Karangan Hilir",71161,,,null
6305032009,630503,6305,63,Hiyung,71161,,,null
6305032010,630503,6305,63,Andhika,71161,,,null
6305032011,630503,6305,63,Sukaramai,71161,,,null
6305032012,630503,6305,63,Tirik,71161,,,null
6305032013,630503,6305,63,Kepayang,71161,,,null
6305032014,630503,6305,63,"Batang Lantik",71161,,,null
6305032015,630503,6305,63,"Mandurian Hilir",71161,,,null
6305032016,630503,6305,63,"Sungai Bahalang",71161,,,null
6305032017,630503,6305,63,"Papagan Makmur",71161,,,null
6305041001,630504,6305,63,"Rangda Malingkung",71114,,,null
6305041002,630504,6305,63,Kupang,71113,,,null
6305041003,630504,6305,63,"Rantau Kanan",71112,,,null
6305041004,630504,6305,63,"Rantau Kiwa",71111,,,null
6305042005,630504,6305,63,Keramat,71114,,,null
6305042006,630504,6305,63,Antasari,71114,,,null
6305042007,630504,6305,63,"Jingah Babaris",71114,,,null
6305042008,630504,6305,63,"Banua Hanyar",71114,,,null
6305042009,630504,6305,63,"Banua Halat Kiri",71114,,,null
6305042010,630504,6305,63,"Banua Halat Kanan",71114,,,null
6305042011,630504,6305,63,"Perintis Raya",71114,,,null
6305042012,630504,6305,63,Kakaran,71114,,,null
6305042013,630504,6305,63,"Antasan Hilir",71114,,,null
6305042014,630504,6305,63,"Lumbu Raya",71114,,,null
6305042015,630504,6305,63,"Banua Halar Hulu",71114,,,null
6305042016,630504,6305,63,Badaun,71114,,,null
6305052001,630505,6305,63,"Margasari Hulu",71162,,,null
6305052002,630505,6305,63,"Candi Laras",71162,,,null
6305052003,630505,6305,63,"Baringin A.",71162,,,null
6305052004,630505,6305,63,Marampiau,71162,,,null
6305052005,630505,6305,63,"Pabaungan Hilir",71162,,,null
6305052006,630505,6305,63,"Pabaungan Hulu",71162,,,null
6305052007,630505,6305,63,"Sungai Rutas",71162,,,null
6305052008,630505,6305,63,"Baringin B",71162,,,null
6305052009,630505,6305,63,"Marampiau Hilir",71162,,,null
6305052010,630505,6305,63,"Sungai Rutas Hulu",71162,,,null
6305052011,630505,6305,63,Baulin,71162,,,null
6305052012,630505,6305,63,"Pabaungan Pantai",71162,,,null
6305062001,630506,6305,63,Keladan,71171,,,null
6305062002,630506,6305,63,"Sungai Selai",71171,,,null
6305062003,630506,6305,63,Pariok,71171,,,null
6305062004,630506,6305,63,"Margasari Hilir",71171,,,null
6305062005,630506,6305,63,Batalas,71171,,,null
6305062006,630506,6305,63,Rawana,71171,,,null
6305062007,630506,6305,63,Buas-buas,71171,,,null
6305062008,630506,6305,63,"Teluk Haur",71171,,,null
6305062009,630506,6305,63,"Sungai Puting",71171,,,null
6305062010,630506,6305,63,Sawaja,71171,,,null
6305062011,630506,6305,63,"Sungai Selai Hilir",71171,,,null
6305062012,630506,6305,63,"Buas-buas Hilir",71171,,,null
6305062013,630506,6305,63,"Rawana Hulu",71171,,,null
6305072001,630507,6305,63,"Parigi Kecil",71152,,,null
6305072002,630507,6305,63,Bakarangan,71152,,,null
6305072003,630507,6305,63,Parigi,71152,,,null
6305072004,630507,6305,63,Paul,71152,,,null
6305072005,630507,6305,63,Gadung,71152,,,null
6305072006,630507,6305,63,Bundung,71152,,,null
6305072007,630507,6305,63,Tangkawang,71152,,,null
6305072008,630507,6305,63,Waringin,71152,,,null
6305072009,630507,6305,63,"Gadung Keramat",71152,,,null
6305072010,630507,6305,63,Masta,71152,,,null
6305072011,630507,6305,63,Ketapang,71152,,,null
6305072012,630507,6305,63,"Tangkawang Baru",71152,,,null
6305082001,630508,6305,63,"Pipitak Jaya",71191,,,null
6305082002,630508,6305,63,Miawa,71191,,,null
6305082003,630508,6305,63,"Batu Ampar",71191,,,null
6305082004,630508,6305,63,Harakit,71191,,,null
6305082005,630508,6305,63,Batung,71191,,,null
6305082006,630508,6305,63,Balawaian,71191,,,null
6305082007,630508,6305,63,Baramban,71191,,,null
6305082008,630508,6305,63,"Buniin Jaya",71191,,,null
6305092001,630509,6305,63,Kalumpang,71153,,,null
6305092002,630509,6305,63,"Banua Padang",71153,,,null
6305092003,630509,6305,63,Bungur,71153,,,null
6305092004,630509,6305,63,"Banua Padang Hilir",71153,,,null
6305092005,630509,6305,63,Shabah,71153,,,null
6305092006,630509,6305,63,Hangui,71153,,,null
6305092007,630509,6305,63,"Rantau Bujur",71153,,,null
6305092008,630509,6305,63,Purut,71153,,,null
6305092009,630509,6305,63,"Bungur Baru",71153,,,null
6305092010,630509,6305,63,Timbung,71153,,,null
6305092011,630509,6305,63,"Paring Guling",71153,,,null
6305092012,630509,6305,63,Linuh,71153,,,null
6305101007,630510,6305,63,Bitahan,71154,,,null
6305102001,630510,6305,63,Binderang,71154,,,null
6305102002,630510,6305,63,Parandakan,71154,,,null
6305102003,630510,6305,63,Lokpaikat,71154,,,null
6305102004,630510,6305,63,Bataratat,71154,,,null
6305102005,630510,6305,63,"Bitahan Baru",71154,,,null
6305102006,630510,6305,63,"Puncak Harapan",71154,,,null
6305102008,630510,6305,63,"Budi Mulya",71154,,,null
6305102009,630510,6305,63,"Ayunan Papan",71154,,,null
6305112001,630511,6305,63,"Salam Babaris",71185,,,null
6305112002,630511,6305,63,"Suato Lama",71185,,,null
6305112003,630511,6305,63,"Kambang Habang Lama",71185,,,null
6305112004,630511,6305,63,"Pantai Cabe",71185,,,null
6305112005,630511,6305,63,"Suato Baru",71185,,,null
6305112006,630511,6305,63,"Kambang Habang Baru",71185,,,null
6305122001,630512,6305,63,Tarungin,71184,,,null
6305122002,630512,6305,63,"Matang Batas",71184,,,null
6305122003,630512,6305,63,Hatungun,71184,,,null
6305122004,630512,6305,63,Burakai,71184,,,null
6305122005,630512,6305,63,"Batu Hapu",71184,,,null
6305122006,630512,6305,63,"Kambang Kuning",71184,,,null
6305122007,630512,6305,63,"Asam Randah",71184,,,null
6305122008,630512,6305,63,Bagak,71184,,,null
6306012001,630601,6306,63,Hamalau,71271,,,null
6306012002,630601,6306,63,"Telaga Bidadari",71271,,,null
6306012003,630601,6306,63,Karasikan,71271,,,null
6306012004,630601,6306,63,"Sungai Raya Utara",71271,,,null
6306012005,630601,6306,63,"Sungai Raya Selatan",71271,,,null
6306012006,630601,6306,63,Hariti,71271,,,null
6306012007,630601,6306,63,"Ida Manggala",71271,,,null
6306012008,630601,6306,63,"Bumi Berkat",71271,,,null
6306012009,630601,6306,63,"Batang Kulur Kiri",71271,,,null
6306012010,630601,6306,63,"Batang Kulur Tengah",71271,,,null
6306012011,630601,6306,63,"Batang Kulur Kanan",71271,,,null
6306012012,630601,6306,63,Baru,71271,,,null
6306012013,630601,6306,63,Tamiyang,71271,,,null
6306012014,630601,6306,63,Asam,71271,,,null
6306012015,630601,6306,63,"Sungai Kali",71271,,,null
6306012016,630601,6306,63,"Sarang Halang",71271,,,null
6306012017,630601,6306,63,"Paring Agung",71271,,,null
6306012018,630601,6306,63,"Tanah Bangkang",71271,,,null
6306022001,630602,6306,63,"Karang Jawa Muka",71281,,,null
6306022002,630602,6306,63,"Karang Jawa",71281,,,null
6306022003,630602,6306,63,Tabihi,71281,,,null
6306022004,630602,6306,63,Pandulangan,71281,,,null
6306022005,630602,6306,63,Kaliring,71281,,,null
6306022006,630602,6306,63,"Jambu Hulu",71281,,,null
6306022007,630602,6306,63,Pahampangan,71281,,,null
6306022008,630602,6306,63,"Padang Batung",71281,,,null
6306022009,630602,6306,63,"Jembatan Merah",71281,,,null
6306022010,630602,6306,63,"Batu Bini",71281,,,null
6306022011,630602,6306,63,Mawangi,71281,,,null
6306022012,630602,6306,63,Madang,71281,,,null
6306022013,630602,6306,63,"Durian Rabung",71281,,,null
6306022014,630602,6306,63,Jelatang,71281,,,null
6306022015,630602,6306,63,"Batu Laki",71281,,,null
6306022016,630602,6306,63,Malutu,71281,,,null
6306022017,630602,6306,63,Malilingin,71281,,,null
6306032001,630603,6306,63,"Lok Binuang",71292,,,null
6306032002,630603,6306,63,"Telaga Langsat",71292,,,null
6306032003,630603,6306,63,Mandala,71292,,,null
6306032004,630603,6306,63,Ambutun,71292,,,null
6306032005,630603,6306,63,Hamak,71292,,,null
6306032006,630603,6306,63,"Hamak Timur",71292,,,null
6306032007,630603,6306,63,"Hamak Utara",71292,,,null
6306032008,630603,6306,63,"Pakuan Timur",71292,,,null
6306032009,630603,6306,63,Gumbil,71292,,,null
6306032010,630603,6306,63,Longawang,71292,,,null
6306032011,630603,6306,63,Pandulangan,71292,,,null
6306042001,630604,6306,63,"Bamban Utara",71291,,,null
6306042002,630604,6306,63,Bamban,71291,,,null
6306042003,630604,6306,63,"Bamban Selatan",71291,,,null
6306042004,630604,6306,63,"Kayu Abang",71291,,,null
6306042005,630604,6306,63,Angkinang,71291,,,null
6306042006,630604,6306,63,"Telaga Sili-Sili",71291,,,null
6306042007,630604,6306,63,"Angkinang Selatan",71291,,,null
6306042008,630604,6306,63,Tawia,71291,,,null
6306042009,630604,6306,63,"Taniran Kubah",71291,,,null
6306042010,630604,6306,63,"Taniran Selatan",71291,,,null
6306042011,630604,6306,63,Bakarung,71291,,,null
6306051001,630605,6306,63,"Kandangan Kota",71211,,,null
6306051002,630605,6306,63,"Kandangan Utara",71214,,,null
6306051003,630605,6306,63,"Kandangan Barat",71213,,,null
6306051004,630605,6306,63,"Jambu Hilir",71214,,,null
6306052005,630605,6306,63,"Gambah Luar",71216,,,null
6306052006,630605,6306,63,"Gambah Luar Muka",71216,,,null
6306052007,630605,6306,63,"Gambah Dalam",71215,,,null
6306052008,630605,6306,63,"Gambah Dalam Barat",71215,,,null
6306052009,630605,6306,63,"Sungai Kupang",71217,,,null
6306052010,630605,6306,63,Bangkau,71217,,,null
6306052011,630605,6306,63,Lungau,71213,,,null
6306052012,630605,6306,63,"Sungai Paring",71213,,,null
6306052013,630605,6306,63,Bariang,71213,,,null
6306052014,630605,6306,63,"Amawang Kiri",71213,,,null
6306052015,630605,6306,63,"Amawang Kiri Muka",71213,,,null
6306052016,630605,6306,63,"Amawang Kanan",71213,,,null
6306052017,630605,6306,63,"Tibung Raya",71214,,,null
6306052018,630605,6306,63,Baluti,71217,,,null
6306062001,630606,6306,63,"Tebing Tinggi",71261,,,null
6306062002,630606,6306,63,Simpur,71261,,,null
6306062003,630606,6306,63,Garunggang,71261,,,null
6306062004,630606,6306,63,Amparaya,71261,,,null
6306062005,630606,6306,63,"Panjampang Bahagia",71261,,,null
6306062006,630606,6306,63,Ulin,71261,,,null
6306062007,630606,6306,63,"Pantai Ulin",71261,,,null
6306062008,630606,6306,63,"Wasah Hulu",71261,,,null
6306062009,630606,6306,63,"Wasah Tengah",71261,,,null
6306062010,630606,6306,63,"Wasah Hilir",71261,,,null
6306062011,630606,6306,63,Kapuh,71261,,,null
6306072001,630607,6306,63,"Muning Baru",71251,,,null
6306072002,630607,6306,63,"Muning Dalam",71251,,,null
6306072003,630607,6306,63,"Muning Tengah",71251,,,null
6306072004,630607,6306,63,Banjarbaru,71251,,,null
6306072005,630607,6306,63,Bayanan,71251,,,null
6306072006,630607,6306,63,"Pandan Sari",71251,,,null
6306072007,630607,6306,63,"Pihanin Raya",71251,,,null
6306072008,630607,6306,63,"Tumbukan Banyu",71251,,,null
6306072009,630607,6306,63,"Sungai Pinang",71251,,,null
6306072010,630607,6306,63,Habirau,71251,,,null
6306072011,630607,6306,63,"Habirau Tengah",71251,,,null
6306072012,630607,6306,63,Parigi,71251,,,null
6306072013,630607,6306,63,"Banua Hanyar",71251,,,null
6306072014,630607,6306,63,Tambangan,71251,,,null
6306072015,630607,6306,63,"Baruh Jaya",71251,,,null
6306072016,630607,6306,63,Samuda,71251,,,null
6306082001,630608,6306,63,"Pakapuran Kecil",71253,,,null
6306082002,630608,6306,63,Panggandingan,71253,,,null
6306082003,630608,6306,63,"Tambak Bitin",71253,,,null
6306082004,630608,6306,63,"Pakan Dalam",71253,,,null
6306082005,630608,6306,63,Paramaian,71253,,,null
6306082006,630608,6306,63,"Pandak Daun",71253,,,null
6306082007,630608,6306,63,"Murung Raya",71253,,,null
6306082008,630608,6306,63,"Balah Paikat",71253,,,null
6306082009,630608,6306,63,"Sungai Garuda",71253,,,null
6306082010,630608,6306,63,"Sungai Mandala",71253,,,null
6306082011,630608,6306,63,"Mdl. Murung Mesjid",71253,,,null
6306082012,630608,6306,63,"Baruh Kembang",71253,,,null
6306082013,630608,6306,63,"Teluk Haur",71253,,,null
6306082014,630608,6306,63,Pasungkan,71253,,,null
6306082015,630608,6306,63,"Teluk Kabak",71253,,,null
6306082016,630608,6306,63,Hamayung,71253,,,null
6306082017,630608,6306,63,"Hamayung Utara",71253,,,null
6306082018,630608,6306,63,Paharangan,71253,,,null
6306082019,630608,6306,63,Hakurung,71253,,,null
6306092001,630609,6306,63,Balimau,71262,,,null
6306092002,630609,6306,63,"Karang Paci",71262,,,null
6306092003,630609,6306,63,"Bago Tanggul",71262,,,null
6306092004,630609,6306,63,"Karang Bulan",71262,,,null
6306092005,630609,6306,63,Balanti,71262,,,null
6306092006,630609,6306,63,Kalumpang,71262,,,null
6306092007,630609,6306,63,Tambingkar,71262,,,null
6306092008,630609,6306,63,Sirih,71262,,,null
6306092009,630609,6306,63,"Sirih Hulu",71262,,,null
6306102001,630610,6306,63,Halunuk,71282,,,null
6306102002,630610,6306,63,Panggungan,71282,,,null
6306102003,630610,6306,63,Lumpangi,71282,,,null
6306102004,630610,6306,63,Malinau,71282,,,null
6306102005,630610,6306,63,"Hulu Banyu",71282,,,null
6306102006,630610,6306,63,Tumingki,71282,,,null
6306102007,630610,6306,63,Kamawakan,71282,,,null
6306102008,630610,6306,63,"Lok Lahung",71282,,,null
6306102009,630610,6306,63,Loksado,71282,,,null
6306102010,630610,6306,63,Haratai,71282,,,null
6306102011,630610,6306,63,Ulang,71282,,,null
6306112001,630611,6306,63,"Siang Gantung",71252,,,null
6306112002,630611,6306,63,Baru,71252,,,null
6306112003,630611,6306,63,"Tanjung Selor",71252,,,null
6306112004,630611,6306,63,Badaun,71252,,,null
6306112005,630611,6306,63,Bajayau,71252,,,null
6306112006,630611,6306,63,"Bajayau Tengah",71252,,,null
6306112007,630611,6306,63,"Bajayau Lama",71252,,,null
6307012001,630701,6307,63,"Pengambau Hilir Luar",71363,,,null
6307012002,630701,6307,63,Panggung,71363,,,null
6307012003,630701,6307,63,Barikin,71363,,,null
6307012004,630701,6307,63,Andang,71363,,,null
6307012005,630701,6307,63,"Pengambau Hilir Dalam",71363,,,null
6307012006,630701,6307,63,Haruyan,71363,,,null
6307012007,630701,6307,63,"Haruyan Seberang",71363,,,null
6307012008,630701,6307,63,"Pengambau Hulu",71363,,,null
6307012009,630701,6307,63,"Sungai Harang",71363,,,null
6307012010,630701,6307,63,"Batu Panggung",71363,,,null
6307012011,630701,6307,63,Mangunang,71363,,,null
6307012012,630701,6307,63,Hapulang,71363,,,null
6307012013,630701,6307,63,"Lok Buntar",71363,,,null
6307012014,630701,6307,63,"Tabat Padang",71363,,,null
6307012015,630701,6307,63,"Mangunang Seberang",71363,,,null
6307012016,630701,6307,63,Pandanu,71363,,,null
6307012017,630701,6307,63,"Teluk Mesjid",71363,,,null
6307022001,630702,6307,63,"Murung A.",71371,,,null
6307022002,630702,6307,63,Pagat,71371,,,null
6307022003,630702,6307,63,Kalibaru,71371,,,null
6307022004,630702,6307,63,Kahakan,71371,,,null
6307022005,630702,6307,63,"Aluan Sumur",71371,,,null
6307022006,630702,6307,63,"Aluan Besar",71371,,,null
6307022007,630702,6307,63,"Paya Besar",71371,,,null
6307022008,630702,6307,63,Bakti,71371,,,null
6307022009,630702,6307,63,Aluan,71371,,,null
6307022010,630702,6307,63,"Aluan Mati",71371,,,null
6307022011,630702,6307,63,Baru,71371,,,null
6307022013,630702,6307,63,"Pantai Batung",71371,,,null
6307022014,630702,6307,63,Layuh,71371,,,null
6307022015,630702,6307,63,Haliau,71371,,,null
6307031001,630703,6307,63,"Pantai Hambawang Barat",71361,,,null
6307032002,630703,6307,63,"Mahang Baru",71361,,,null
6307032003,630703,6307,63,Mundar,71361,,,null
6307032004,630703,6307,63,"Tabudarat Hilir",71361,,,null
6307032005,630703,6307,63,"Tabudarat Hulu",71361,,,null
6307032006,630703,6307,63,"Pantai Hambawang Timur",71361,,,null
6307032007,630703,6307,63,"Banua Kepayang",71361,,,null
6307032008,630703,6307,63,Ta'al,71361,,,null
6307032009,630703,6307,63,"Durian Gantang",71361,,,null
6307032010,630703,6307,63,Guha,71361,,,null
6307032011,630703,6307,63,Bangkal,71361,,,null
6307032012,630703,6307,63,"Panggang Marak",71361,,,null
6307032013,630703,6307,63,Jamil,71361,,,null
6307032014,630703,6307,63,"Taras Padang",71361,,,null
6307032015,630703,6307,63,"Murung Ta'al",71361,,,null
6307032016,630703,6307,63,"Sungai Rangas",71361,,,null
6307032017,630703,6307,63,"Batang Bahalang",71361,,,null
6307032018,630703,6307,63,"Sungai Jaranih",71361,,,null
6307042001,630704,6307,63,Parumahan,71362,,,null
6307042002,630704,6307,63,Kasarangan,71362,,,null
6307042003,630704,6307,63,"Banua Kupang",71362,,,null
6307042004,630704,6307,63,"Rantau Keminting",71362,,,null
6307042005,630704,6307,63,Pemangkih,71362,,,null
6307042006,630704,6307,63,"Pemangkih Seberang",71362,,,null
6307042007,630704,6307,63,"Binjai Pemangkih",71362,,,null
6307042008,630704,6307,63,Samhurang,71362,,,null
6307042009,630704,6307,63,Pahalatan,71362,,,null
6307042010,630704,6307,63,Mantaas,71362,,,null
6307042011,630704,6307,63,"Sungai Buluh",71362,,,null
6307042012,630704,6307,63,Kadundung,71362,,,null
6307042013,630704,6307,63,Tungkup,71362,,,null
6307042014,630704,6307,63,Tabat,71362,,,null
6307042015,630704,6307,63,"Rantau Bujur",71362,,,null
6307042016,630704,6307,63,"Binjai Pirua",71362,,,null
6307052001,630705,6307,63,Jaranih,71352,,,null
6307052002,630705,6307,63,"Banua Hanyar",71352,,,null
6307052003,630705,6307,63,Palajau,71352,,,null
6307052004,630705,6307,63,"Banua Batung",71352,,,null
6307052005,630705,6307,63,Jatuh,71352,,,null
6307052006,630705,6307,63,Pandawan,71352,,,null
6307052007,630705,6307,63,"Mahang Matang Landung",71352,,,null
6307052008,630705,6307,63,"Kambat Selatan",71352,,,null
6307052009,630705,6307,63,"Kayu Rabah",71352,,,null
6307052010,630705,6307,63,Setiap,71352,,,null
6307052011,630705,6307,63,"Kambat Utara",71352,,,null
6307052012,630705,6307,63,"Banua Supanggal",71352,,,null
6307052013,630705,6307,63,"Hulu Rasau",71352,,,null
6307052014,630705,6307,63,"Banua Asam",71352,,,null
6307052015,630705,6307,63,Masiraan,71352,,,null
6307052016,630705,6307,63,"Mahang Putat",71352,,,null
6307052017,630705,6307,63,"Mahang Sungai Hanyar",71352,,,null
6307052018,630705,6307,63,"Hilir Banua",71352,,,null
6307052019,630705,6307,63,Buluan,71352,,,null
6307052020,630705,6307,63,"Matang Ginalun",71352,,,null
6307052021,630705,6307,63,Walatung,71352,,,null
6307061001,630706,6307,63,"Barabai Darat",71315,,,null
6307061002,630706,6307,63,"Barabai Timur",71312,,,null
6307061003,630706,6307,63,"Barabai Selatan",71311,,,null
6307061004,630706,6307,63,"Barabai Utara",71313,,,null
6307061005,630706,6307,63,"Barabai Barat",71314,,,null
6307061006,630706,6307,63,Bukat,71315,,,null
6307062007,630706,6307,63,Gambah,71315,,,null
6307062008,630706,6307,63,"Kayu Bawang",71315,,,null
6307062009,630706,6307,63,"Benawa Tengah",71315,,,null
6307062010,630706,6307,63,Mandingin,71315,,,null
6307062011,630706,6307,63,Pajukungan,71315,,,null
6307062012,630706,6307,63,"Banua Budi",71315,,,null
6307062013,630706,6307,63,"Banua Binjai",71315,,,null
6307062014,630706,6307,63,"Banua Jingah",71315,,,null
6307062015,630706,6307,63,Ayuang,71315,,,null
6307062016,630706,6307,63,Babai,71315,,,null
6307062017,630706,6307,63,"Awang Besar",71315,,,null
6307062018,630706,6307,63,Bakapas,71315,,,null
6307071001,630707,6307,63,Birayang,71381,,,null
6307072002,630707,6307,63,Kias,71381,,,null
6307072003,630707,6307,63,Kapar,71381,,,null
6307072004,630707,6307,63,"Tembok Bahalang",71381,,,null
6307072005,630707,6307,63,Limbar,71381,,,null
6307072006,630707,6307,63,"Lok Basar",71381,,,null
6307072007,630707,6307,63,Paya,71381,,,null
6307072008,630707,6307,63,"Cukan Lipai",71381,,,null
6307072009,630707,6307,63,"Birayang Surapati",71381,,,null
6307072010,630707,6307,63,Mahela,71381,,,null
6307072011,630707,6307,63,Rangas,71381,,,null
6307072012,630707,6307,63,"Wawai Gardu",71381,,,null
6307072013,630707,6307,63,Labuhan,71381,,,null
6307072014,630707,6307,63,"Birayang Timur",71381,,,null
6307072015,630707,6307,63,"Tanah Habang",71381,,,null
6307072016,630707,6307,63,"Banua Rantau",71381,,,null
6307072017,630707,6307,63,Anduhum,71381,,,null
6307072018,630707,6307,63,Wawai,71381,,,null
6307072019,630707,6307,63,Lunjuk,71381,,,null
6307082001,630708,6307,63,"Sumanggi Seberang",71391,,,null
6307082002,630708,6307,63,Sumanggi,71391,,,null
6307082003,630708,6307,63,Ilung,71391,,,null
6307082004,630708,6307,63,Maringgit,71391,,,null
6307082005,630708,6307,63,Telang,71391,,,null
6307082008,630708,6307,63,Labunganak,71391,,,null
6307082009,630708,6307,63,Hapingin,71391,,,null
6307082010,630708,6307,63,Dangu,71391,,,null
6307082013,630708,6307,63,"Ilung Tengah",71391,,,null
6307082014,630708,6307,63,"Haur Gading",71391,,,null
6307082018,630708,6307,63,Awang,71391,,,null
6307082019,630708,6307,63,"Awang Baru",71391,,,null
6307082020,630708,6307,63,"Muara Rintis",71391,,,null
6307082021,630708,6307,63,"Ilung Pasar Lama",71391,,,null
6307092001,630709,6307,63,Hantakan,71372,,,null
6307092002,630709,6307,63,Alat,71372,,,null
6307092003,630709,6307,63,"Murung B",71372,,,null
6307092004,630709,6307,63,Bulayak,71372,,,null
6307092005,630709,6307,63,"Batu Tunggal",71372,,,null
6307092006,630709,6307,63,Pasting,71372,,,null
6307092007,630709,6307,63,Tilahan,71372,,,null
6307092008,630709,6307,63,"Haruyan Dayak",71372,,,null
6307092009,630709,6307,63,Kindingan,71372,,,null
6307092010,630709,6307,63,"Datar Ajab",71372,,,null
6307092011,630709,6307,63,"Hinas Kanan",71372,,,null
6307092012,630709,6307,63,Patikalain,71372,,,null
6307102001,630710,6307,63,"Batu Tangga",71382,,,null
6307102002,630710,6307,63,"Hinas Kiri",71382,,,null
6307102003,630710,6307,63,Pembakulan,71382,,,null
6307102004,630710,6307,63,Nateh,71382,,,null
6307102005,630710,6307,63,Tandilang,71382,,,null
6307102006,630710,6307,63,"Muara Hungi",71382,,,null
6307102007,630710,6307,63,Atiran,71382,,,null
6307102008,630710,6307,63,"Batu Perahu",71382,,,null
6307102009,630710,6307,63,"Aing Bantai",71382,,,null
6307102010,630710,6307,63,Juhu,71382,,,null
6307102011,630710,6307,63,"Datar Batung",71382,,,null
6307112001,630711,6307,63,Tapuk,71392,,,null
6307112002,630711,6307,63,Karau,71392,,,null
6307112003,630711,6307,63,Limpasu,71392,,,null
6307112004,630711,6307,63,Kabang,71392,,,null
6307112005,630711,6307,63,"Abung Surapati",71392,,,null
6307112006,630711,6307,63,Karatungan,71392,,,null
6307112007,630711,6307,63,Pauh,71392,,,null
6307112008,630711,6307,63,Abung,71392,,,null
6307112009,630711,6307,63,Hawang,71392,,,null
6308012003,630801,6308,63,"Sungai Namang",71453,,,null
6308012004,630801,6308,63,"Danau Panggang",71453,,,null
6308012008,630801,6308,63,Pandamaan,71453,,,null
6308012009,630801,6308,63,Baru,71453,,,null
6308012010,630801,6308,63,Bitin,71453,,,null
6308012011,630801,6308,63,Manarap,71453,,,null
6308012012,630801,6308,63,Pararain,71453,,,null
6308012013,630801,6308,63,"Telaga Mas",71453,,,null
6308012015,630801,6308,63,Darussalam,71453,,,null
6308012016,630801,6308,63,"Sarang Burung",71453,,,null
6308012017,630801,6308,63,Longkong,71453,,,null
6308012019,630801,6308,63,Rintisan,71453,,,null
6308012020,630801,6308,63,Palukahan,71453,,,null
6308012021,630801,6308,63,"Teluk Mesjid",71453,,,null
6308012022,630801,6308,63,"Sungai Panangah",71453,,,null
6308012023,630801,6308,63,"Manarap Hulu",71453,,,null
6308022001,630802,6308,63,"Babirik Hilir",71454,,,null
6308022002,630802,6308,63,"Babirik Hulu",71454,,,null
6308022003,630802,6308,63,"Sungai Durait Hilir",71454,,,null
6308022004,630802,6308,63,"Hambuku Hilir",71454,,,null
6308022005,630802,6308,63,"Murung Panti Hulu",71454,,,null
6308022006,630802,6308,63,"Murung Panti Hilir",71454,,,null
6308022007,630802,6308,63,"Murung Kupang",71454,,,null
6308022008,630802,6308,63,"Sungai Luang Hilir",71454,,,null
6308022009,630802,6308,63,"Pajukungan Hilir",71454,,,null
6308022010,630802,6308,63,"Kalumpang Dalam",71454,,,null
6308022011,630802,6308,63,Parupukan,71454,,,null
6308022012,630802,6308,63,"Sungai Luang Hulu",71454,,,null
6308022013,630802,6308,63,"Sungai Durait Hulu",71454,,,null
6308022014,630802,6308,63,"Sungai Dalam",71454,,,null
6308022015,630802,6308,63,"Hambuku Baru",71454,,,null
6308022016,630802,6308,63,"Hambuku Lima",71454,,,null
6308022017,630802,6308,63,"Sungai Janjam",71454,,,null
6308022018,630802,6308,63,"Kalumpang Luar",71454,,,null
6308022019,630802,6308,63,"Teluk Limbung",71454,,,null
6308022020,630802,6308,63,"Sungai Durait Tengah",71454,,,null
6308022021,630802,6308,63,"Pajukungan Hulu",71454,,,null
6308022022,630802,6308,63,"Sungai Papuyu",71454,,,null
6308022023,630802,6308,63,"Sungai Nyiur",71454,,,null
6308032001,630803,6308,63,"Rantau Karau Hilir",71455,,,null
6308032002,630803,6308,63,"Rantau Karau Hulu",71455,,,null
6308032003,630803,6308,63,"Banyu Tajun Hilir",71455,,,null
6308032004,630803,6308,63,"Banyu Tajun Hulu",71455,,,null
6308032005,630803,6308,63,"Banyu Tajun Pangkalan",71455,,,null
6308032006,630803,6308,63,"Sungai Sandung",71455,,,null
6308032007,630803,6308,63,"Sungai Pandan Hilir",71455,,,null
6308032008,630803,6308,63,"Teluk Betung",71455,,,null
6308032009,630803,6308,63,Tambalang,71455,,,null
6308032010,630803,6308,63,"Hambuku Hulu",71455,,,null
6308032011,630803,6308,63,"Hambuku Tengah",71455,,,null
6308032014,630803,6308,63,Pandulangan,71455,,,null
6308032015,630803,6308,63,"Sungai Pandan Hulu",71455,,,null
6308032021,630803,6308,63,"Pondok Babaris",71455,,,null
6308032024,630803,6308,63,"Sungai Pinang",71455,,,null
6308032025,630803,6308,63,"Tambalang Kecil",71455,,,null
6308032026,630803,6308,63,"Putat Atas",71455,,,null
6308032029,630803,6308,63,"Banyu Tajun Dalam",71455,,,null
6308032031,630803,6308,63,"Sungai Pandan Tengah",71455,,,null
6308032032,630803,6308,63,"Hambuku Raya",71455,,,null
6308032033,630803,6308,63,"Sungai Kuini",71455,,,null
6308032034,630803,6308,63,"Tapus Dalam",71455,,,null
6308032035,630803,6308,63,"Rantau KarauTengah",71455,,,null
6308032037,630803,6308,63,"Tambalang Tengah",71455,,,null
6308032038,630803,6308,63,"Teluk Mesjid",71455,,,null
6308032039,630803,6308,63,"Murung Asam",71455,,,null
6308032040,630803,6308,63,"Tatah Laban",71455,,,null
6308032041,630803,6308,63,"Jalan Lurus",71455,,,null
6308032042,630803,6308,63,"Teluk Sinar",71455,,,null
6308032043,630803,6308,63,"Padang Bangkal",71455,,,null
6308032044,630803,6308,63,"Hambuku Pasar",71455,,,null
6308032045,630803,6308,63,"Pangkalan Sari",71455,,,null
6308032046,630803,6308,63,"Rantau Karau Raya",71455,,,null
6308042001,630804,6308,63,Panyiuran,71452,,,null
6308042002,630804,6308,63,"Simpang Empat",71452,,,null
6308042003,630804,6308,63,"Padang Darat",71452,,,null
6308042004,630804,6308,63,"Teluk Baru",71452,,,null
6308042005,630804,6308,63,"Ilir Mesjid",71452,,,null
6308042006,630804,6308,63,"Jarang Kuantan",71452,,,null
6308042007,630804,6308,63,Jumba,71452,,,null
6308042008,630804,6308,63,"Telaga Sari",71452,,,null
6308042009,630804,6308,63,"Telaga Silaba",71452,,,null
6308042010,630804,6308,63,"Banyu Hirang",71452,,,null
6308042011,630804,6308,63,Kayakah,71452,,,null
6308042012,630804,6308,63,Bajawit,71452,,,null
6308042013,630804,6308,63,"Padang Tanggul",71452,,,null
6308042014,630804,6308,63,"Teluk Paring",71452,,,null
6308042015,630804,6308,63,"Rukam Hilir",71452,,,null
6308042016,630804,6308,63,Mamar,71452,,,null
6308042017,630804,6308,63,Cempaka,71452,,,null
6308042018,630804,6308,63,Keramat,71452,,,null
6308042019,630804,6308,63,"Ujung Murung",71452,,,null
6308042020,630804,6308,63,"Kota Raja",71452,,,null
6308042021,630804,6308,63,"Pulau Tambak",71452,,,null
6308042022,630804,6308,63,"Harusan Telaga",71452,,,null
6308042023,630804,6308,63,"Simpang Tiga",71452,,,null
6308042024,630804,6308,63,Cangkering,71452,,,null
6308042025,630804,6308,63,"Kutai Kecil",71452,,,null
6308042026,630804,6308,63,"Teluk Sari",71452,,,null
6308042027,630804,6308,63,"Murung Panggang",71452,,,null
6308042028,630804,6308,63,"Telaga Hanyar",71452,,,null
6308042029,630804,6308,63,"Rukam Hulu",71452,,,null
6308042030,630804,6308,63,"Murung Sari",71452,,,null
6308051001,630805,6308,63,Antasari,71419,,,null
6308051002,630805,6308,63,"Murung Sari",71414,,,null
6308051003,630805,6308,63,"Kebun Sari",71419,,,null
6308051004,630805,6308,63,Paliwara,71418,,,null
6308051005,630805,6308,63,"Sungai Malang",71418,,,null
6308052006,630805,6308,63,Tapus,71419,,,null
6308052007,630805,6308,63,"Kandang Halang",71419,,,null
6308052008,630805,6308,63,"Pasar Senin",71419,,,null
6308052009,630805,6308,63,"Kota Raden Hulu",71419,,,null
6308052010,630805,6308,63,"Tangga Ulin Hilir",71417,,,null
6308052011,630805,6308,63,Tambalangan,71413,,,null
6308052012,630805,6308,63,"Palampitan Hulu",71419,,,null
6308052013,630805,6308,63,Harus,71419,,,null
6308052014,630805,6308,63,Pinangkara,71419,,,null
6308052015,630805,6308,63,"Sungai Karias",71419,,,null
6308052016,630805,6308,63,Tigarun,71419,,,null
6308052017,630805,6308,63,"Pinang Habang",71419,,,null
6308052018,630805,6308,63,"Hulu Pasar",71412,,,null
6308052019,630805,6308,63,"Kota Raden Hilir",71419,,,null
6308052020,630805,6308,63,Rantawan,71419,,,null
6308052021,630805,6308,63,"Muara Tapus",71419,,,null
6308052022,630805,6308,63,"Palampitan Hilir",71419,,,null
6308052023,630805,6308,63,Harusan,71419,,,null
6308052024,630805,6308,63,"Sungai Baring",71419,,,null
6308052025,630805,6308,63,"Kembang Kuning",71419,,,null
6308052026,630805,6308,63,"Datu Kuning",71419,,,null
6308052027,630805,6308,63,"Tangga Ulin Hulu",71417,,,null
6308052028,630805,6308,63,"Mawar Sari",71419,,,null
6308052029,630805,6308,63,"Danau Cermin",71419,,,null
6308062003,630806,6308,63,Pakapuran,71471,,,null
6308062004,630806,6308,63,Pakacangan,71471,,,null
6308062005,630806,6308,63,Panangkalaan,71471,,,null
6308062006,630806,6308,63,"Padang Basar",71471,,,null
6308062007,630806,6308,63,"Murung Karangan",71471,,,null
6308062008,630806,6308,63,Kamayahan,71471,,,null
6308062009,630806,6308,63,Guntung,71471,,,null
6308062010,630806,6308,63,"Muara Baruh",71471,,,null
6308062011,630806,6308,63,"Teluk Daun",71471,,,null
6308062012,630806,6308,63,"Sungai Turak",71471,,,null
6308062013,630806,6308,63,"Tabalong Mati",71471,,,null
6308062020,630806,6308,63,Pimping,71471,,,null
6308062021,630806,6308,63,"Padang Luar",71471,,,null
6308062023,630806,6308,63,Tayur,71471,,,null
6308062026,630806,6308,63,"Panangkalaan Hulu",71471,,,null
6308062027,630806,6308,63,Cakeru,71471,,,null
6308062028,630806,6308,63,"Sungai Turak Dalam",71471,,,null
6308062029,630806,6308,63,Panyaungan,71471,,,null
6308062030,630806,6308,63,Kuangan,71471,,,null
6308062032,630806,6308,63,"Tabing Liring",71471,,,null
6308062033,630806,6308,63,"Padang Basar Hilir",71471,,,null
6308062034,630806,6308,63,"Telaga Bamban",71471,,,null
6308062035,630806,6308,63,"Air Tawar",71471,,,null
6308062037,630806,6308,63,Panangian,71471,,,null
6308062041,630806,6308,63,Pamintangan,71471,,,null
6308062044,630806,6308,63,Pandawanan,71471,,,null
6308072001,630807,6308,63,Banjang,71416,,,null
6308072002,630807,6308,63,Patarikan,71416,,,null
6308072003,630807,6308,63,"Teluk Buluh",71416,,,null
6308072004,630807,6308,63,Pandulangan,71416,,,null
6308072005,630807,6308,63,"Danau Terati",71416,,,null
6308072006,630807,6308,63,Garunggang,71416,,,null
6308072007,630807,6308,63,"Baruh Tabing",71416,,,null
6308072008,630807,6308,63,"Murung Padang",71416,,,null
6308072009,630807,6308,63,"Teluk Sarikat",71416,,,null
6308072010,630807,6308,63,Beringin,71416,,,null
6308072011,630807,6308,63,Kalintamui,71416,,,null
6308072012,630807,6308,63,"Pelanjungan Sari",71416,,,null
6308072013,630807,6308,63,"Lok Bangkai",71416,,,null
6308072014,630807,6308,63,"Sungai Bahadangan",71416,,,null
6308072015,630807,6308,63,"Karias Dalam",71416,,,null
6308072016,630807,6308,63,"Rantau Bujur",71416,,,null
6308072017,630807,6308,63,"Kaludan Kecil",71416,,,null
6308072018,630807,6308,63,"Kaludan Besar",71416,,,null
6308072019,630807,6308,63,Pawalutan,71416,,,null
6308072020,630807,6308,63,"Pulau Damar",71416,,,null
6308082001,630808,6308,63,Palimbangan,71472,,,null
6308082002,630808,6308,63,"Palimbangan Gusti",71472,,,null
6308082003,630808,6308,63,"Palimbang Sari",71472,,,null
6308082004,630808,6308,63,Bayur,71472,,,null
6308082005,630808,6308,63,"Lok Suga",71472,,,null
6308082006,630808,6308,63,"Sungai Limas",71472,,,null
6308082007,630808,6308,63,Pihaung,71472,,,null
6308082008,630808,6308,63,"Sungai Binuang",71472,,,null
6308082009,630808,6308,63,"Jingah Bujur",71472,,,null
6308082010,630808,6308,63,"Haur Gading",71472,,,null
6308082011,630808,6308,63,Keramat,71472,,,null
6308082012,630808,6308,63,"Tambak Sari panji",71472,,,null
6308082013,630808,6308,63,Pulantani,71472,,,null
6308082014,630808,6308,63,Waringin,71472,,,null
6308082015,630808,6308,63,Tangkawang,71472,,,null
6308082016,630808,6308,63,Tuhuran,71472,,,null
6308082017,630808,6308,63,"Teluk Haur",71472,,,null
6308082018,630808,6308,63,Panawakan,71472,,,null
6308092001,630809,6308,63,Paminggir,71451,,,null
6308092002,630809,6308,63,"Paminggir Seberang",71451,,,null
6308092003,630809,6308,63,Ambahai,71451,,,null
6308092004,630809,6308,63,Sapala,71451,,,null
6308092005,630809,6308,63,Bararawa,71451,,,null
6308092006,630809,6308,63,"Pal Batu",71451,,,null
6308092007,630809,6308,63,Tampakang,71451,,,null
6308102001,630810,6308,63,"Sungai Tabukan",71456,,,null
6308102002,630810,6308,63,Nelayan,71456,,,null
6308102003,630810,6308,63,"Galagah Hulu",71456,,,null
6308102004,630810,6308,63,Galagah,71456,,,null
6308102005,630810,6308,63,"Teluk Cati",71456,,,null
6308102006,630810,6308,63,"Pematang Benteng",71456,,,null
6308102007,630810,6308,63,"Pematang Benteng Hilir",71456,,,null
6308102008,630810,6308,63,"Pasar Sabtu",71456,,,null
6308102009,630810,6308,63,"Sungai Haji",71456,,,null
6308102010,630810,6308,63,"Hilir Mesjid",71456,,,null
6308102011,630810,6308,63,"Gampa Raya",71456,,,null
6308102012,630810,6308,63,"Banua Hanyar",71456,,,null
6308102013,630810,6308,63,"Rantau Bujur Hulu",71456,,,null
6308102014,630810,6308,63,"Rantau Bujur Tengah",71456,,,null
6308102015,630810,6308,63,"Rantau Bujur Hilir",71456,,,null
6308102016,630810,6308,63,"Rantau Bujur Darat",71456,,,null
6308102017,630810,6308,63,"Tambalang Raya",71456,,,null
6309012001,630901,6309,63,Hapalah,71553,,,null
6309012002,630901,6309,63,Bangkiling,71553,,,null
6309012003,630901,6309,63,"Sungai Durian",72167,,,null
6309012004,630901,6309,63,Pematang,71553,,,null
6309012005,630901,6309,63,Hariang,71553,,,null
6309012006,630901,6309,63,"Banua Lawas",71553,,,null
6309012007,630901,6309,63,Habau,71553,,,null
6309012008,630901,6309,63,"Banua Rantau",71553,,,null
6309012009,630901,6309,63,Purai,71553,,,null
6309012010,630901,6309,63,"Batang Banyu",71553,,,null
6309012011,630901,6309,63,"Habau Hulu",71553,,,null
6309012012,630901,6309,63,Bungin,71553,,,null
6309012013,630901,6309,63,"Bangkiling Raya",71553,,,null
6309012014,630901,6309,63,Talan,71553,,,null
6309012015,630901,6309,63,"Sungai Anyar",71553,,,null
6309021001,630902,6309,63,Pulau,71552,,,null
6309022002,630902,6309,63,Ampukung,71552,,,null
6309022003,630902,6309,63,"Telaga Itar",71552,,,null
6309022004,630902,6309,63,"Sungai Buluh",71552,,,null
6309022005,630902,6309,63,Binturu,71552,,,null
6309022006,630902,6309,63,"Pudak Setegal",71552,,,null
6309022007,630902,6309,63,"Pasar Panas",71552,,,null
6309022008,630902,6309,63,Masintan,71552,,,null
6309022009,630902,6309,63,Takulat,71552,,,null
6309022010,630902,6309,63,Paliat,71552,,,null
6309022011,630902,6309,63,"Karangan Putih",71552,,,null
6309022012,630902,6309,63,Bahungin,71552,,,null
6309032001,630903,6309,63,"Murung Baru",71561,,,null
6309032002,630903,6309,63,Lukbayur,71561,,,null
6309032003,630903,6309,63,Walangkir,71561,,,null
6309032004,630903,6309,63,Warukin,71561,,,null
6309032005,630903,6309,63,Barimbun,71561,,,null
6309032006,630903,6309,63,Mangkusip,71561,,,null
6309032007,630903,6309,63,"Pamarangan Kanan",71561,,,null
6309032008,630903,6309,63,"Pulau Kuu",71561,,,null
6309032009,630903,6309,63,Tanta,71561,,,null
6309032010,630903,6309,63,"Padang Panjang",71561,,,null
6309032011,630903,6309,63,"Puain Kanan",71561,,,null
6309032012,630903,6309,63,Padangin,71561,,,null
6309032013,630903,6309,63,Tamiyang,71561,,,null
6309032014,630903,6309,63,"Tanta Hulu",71561,,,null
6309041001,630904,6309,63,Jangkung,71512,,,null
6309041002,630904,6309,63,Tanjung,71513,,,null
6309041003,630904,6309,63,Agung,71514,,,null
6309041004,630904,6309,63,Hikun,71515,,,null
6309042005,630904,6309,63,"Banyu Tajun",71515,,,null
6309042006,630904,6309,63,"Pamarangan Kiwa",71515,,,null
6309042007,630904,6309,63,"Puain Kiwa",71515,,,null
6309042008,630904,6309,63,Juai,71515,,,null
6309042009,630904,6309,63,"Mahe Seberang",71515,,,null
6309042010,630904,6309,63,Kambitin,71515,,,null
6309042011,630904,6309,63,Wayau,71515,,,null
6309042012,630904,6309,63,Garunggung,71515,,,null
6309042013,630904,6309,63,Kitang,71515,,,null
6309042014,630904,6309,63,"Sungai Pimping",71515,,,null
6309042015,630904,6309,63,"Kambitin Raya",71515,,,null
6309052001,630905,6309,63,Marindi,71570,,,null
6309052002,630905,6309,63,Wirang,71570,,,null
6309052003,630905,6309,63,Bongkang,71570,,,null
6309052004,630905,6309,63,Nawin,71570,,,null
6309052005,630905,6309,63,Halong,71570,,,null
6309052007,630905,6309,63,Hayup,71570,,,null
6309052011,630905,6309,63,"Kembang Kuning",71570,,,null
6309052012,630905,6309,63,Seradang,71570,,,null
6309052013,630905,6309,63,"Mahe Pasar",71570,,,null
6309052014,630905,6309,63,"Lok Batu",71570,,,null
6309052015,630905,6309,63,Suput,71570,,,null
6309052018,630905,6309,63,Surian,71570,,,null
6309052021,630905,6309,63,"Catur Karya",71570,,,null
6309061001,630906,6309,63,"Belimbing Raya",71571,,,null
6309061002,630906,6309,63,Belimbing,71571,,,null
6309061003,630906,6309,63,Sulingan,71571,,,null
6309061006,630906,6309,63,Mabu'un,71571,,,null
6309061009,630906,6309,63,Pembataan,71571,,,null
6309062004,630906,6309,63,Maburai,71571,,,null
6309062005,630906,6309,63,Kasiau,71571,,,null
6309062007,630906,6309,63,Kapar,71571,,,null
6309062008,630906,6309,63,Masukau,71571,,,null
6309062010,630906,6309,63,"Kasiau Raya",71571,,,null
6309072001,630907,6309,63,"Kupang Nunding",71573,,,null
6309072002,630907,6309,63,Mangkupum,71573,,,null
6309072003,630907,6309,63,"Pasar Batu",71573,,,null
6309072004,630907,6309,63,Uwie,71573,,,null
6309072005,630907,6309,63,"Muara Uya",71573,,,null
6309072006,630907,6309,63,Lumbang,71573,,,null
6309072007,630907,6309,63,Santuun,71573,,,null
6309072008,630907,6309,63,"Simpung Layung",71573,,,null
6309072009,630907,6309,63,Binjai,71573,,,null
6309072010,630907,6309,63,Palapi,71573,,,null
6309072011,630907,6309,63,"Kampung Baru",71573,,,null
6309072012,630907,6309,63,Salikung,71573,,,null
6309072013,630907,6309,63,Ribang,71573,,,null
6309072014,630907,6309,63,"Sungai Kumap",71573,,,null
6309082001,630908,6309,63,Madang,71555,,,null
6309082002,630908,6309,63,Tantaringin,71555,,,null
6309082003,630908,6309,63,"Murung Karangan",71555,,,null
6309082004,630908,6309,63,Padangin,71555,,,null
6309082005,630908,6309,63,Manduin,71555,,,null
6309082006,630908,6309,63,Mantuil,71555,,,null
6309082007,630908,6309,63,Harus,71555,,,null
6309092001,630909,6309,63,Pugaan,71554,,,null
6309092002,630909,6309,63,Pampanan,71554,,,null
6309092003,630909,6309,63,"Sungai Rukam II",71554,,,null
6309092004,630909,6309,63,"Sungai Rukam I",71554,,,null
6309092005,630909,6309,63,Jirak,71554,,,null
6309092006,630909,6309,63,Halangan,71554,,,null
6309092007,630909,6309,63,Tamunti,71554,,,null
6309102001,630910,6309,63,Bilas,71575,,,null
6309102002,630910,6309,63,Kaong,71575,,,null
6309102003,630910,6309,63,Pangelak,71575,,,null
6309102004,630910,6309,63,Kinarum,71575,,,null
6309102005,630910,6309,63,"Masingai II",71575,,,null
6309102006,630910,6309,63,"Masingai I",71575,,,null
6309112001,630911,6309,63,Teratau,71574,,,null
6309112002,630911,6309,63,Namun,71574,,,null
6309112003,630911,6309,63,Jaro,71574,,,null
6309112004,630911,6309,63,Solan,71574,,,null
6309112005,630911,6309,63,Muang,71574,,,null
6309112006,630911,6309,63,Lano,71574,,,null
6309112007,630911,6309,63,Purui,71574,,,null
6309112008,630911,6309,63,Garagata,71574,,,null
6309112009,630911,6309,63,Nalui,71574,,,null
6309122001,630912,6309,63,Waling,71572,,,null
6309122002,630912,6309,63,Usih,71572,,,null
6309122003,630912,6309,63,"Bintang Ara",71572,,,null
6309122004,630912,6309,63,Burum,71572,,,null
6309122005,630912,6309,63,Panaan,71572,,,null
6309122006,630912,6309,63,"Dambung Raya",71572,,,null
6309122007,630912,6309,63,"Argo Mulyo",71572,,,null
6309122008,630912,6309,63,"Bumi Makmur",71572,,,null
6309122009,630912,6309,63,Hegarmanah,71572,,,null
6310011007,631001,6310,63,Batulicin,72271,,,null
6310011028,631001,6310,63,Gunungtinggi,72214,,,null
6310012005,631001,6310,63,Segumbang,72211,,,null
6310012006,631001,6310,63,"Kersik Putih",72215,,,null
6310012029,631001,6310,63,"Maju Makmur",72211,,,null
6310012030,631001,6310,63,"Maju Bersama",72216,,,null
6310012031,631001,6310,63,Sukamaju,72217,,,null
6310012032,631001,6310,63,"Polewali Marajae",72218,,,null
6310012033,631001,6310,63,Danauindah,72273,,,null
6310021001,631002,6310,63,"Kota Pagatan",72273,,,null
6310022002,631002,6310,63,Betung,72273,,,null
6310022003,631002,6310,63,"Sungai Lembu",72273,,,null
6310022004,631002,6310,63,Wiritasi,72273,,,null
6310022005,631002,6310,63,Pejala,72273,,,null
6310022006,631002,6310,63,Pagaruyung,72273,,,null
6310022007,631002,6310,63,"Muara Pagatan Tengah",72273,,,null
6310022008,631002,6310,63,"Kampung Baru",72273,,,null
6310022009,631002,6310,63,"Pasar Baru",72273,,,null
6310022010,631002,6310,63,Batuah,72273,,,null
6310022011,631002,6310,63,"Baru Gelang",72273,,,null
6310022012,631002,6310,63,"Pulau Salak",72273,,,null
6310022019,631002,6310,63,Mudalang,72273,,,null
6310022020,631002,6310,63,Tanette,72273,,,null
6310022021,631002,6310,63,"Muara Pagatan",72273,,,null
6310022022,631002,6310,63,"Pulau Satu",72273,,,null
6310022027,631002,6310,63,"Juku Eja",72273,,,null
6310022029,631002,6310,63,Gusunge,72273,,,null
6310022030,631002,6310,63,"Rantau Panjang Hulu",72273,,,null
6310022031,631002,6310,63,Penyolongan,72273,,,null
6310022032,631002,6310,63,Beringin,72273,,,null
6310022034,631002,6310,63,"Rantau Panjang Hilir",72273,,,null
6310032001,631003,6310,63,"Sari Mulya",72274,,,null
6310032002,631003,6310,63,Sungailoban,72274,,,null
6310032003,631003,6310,63,"Sebamban Lama",72274,,,null
6310032004,631003,6310,63,"Sebamban Baru",72274,,,null
6310032005,631003,6310,63,"Sungaidua Laut",72274,,,null
6310032006,631003,6310,63,"Marga Mulya",72274,,,null
6310032007,631003,6310,63,"Sari Utama",72274,,,null
6310032008,631003,6310,63,"Tri Mulya",72274,,,null
6310032010,631003,6310,63,"Dwi Marga Utama",72274,,,null
6310032011,631003,6310,63,"Kerta Buana",72274,,,null
6310032012,631003,6310,63,"Batu Meranti",72274,,,null
6310032014,631003,6310,63,"Tri Martani",72274,,,null
6310032015,631003,6310,63,"Sumber makmur",72274,,,null
6310032016,631003,6310,63,"Biduri Bersujud",72274,,,null
6310032017,631003,6310,63,"Sumber Sari",72274,,,null
6310032018,631003,6310,63,Wanasari,72274,,,null
6310032019,631003,6310,63,"Damar Indah",72274,,,null
6310042003,631004,6310,63,Setarap,72276,,,null
6310042004,631004,6310,63,"Satui Timur",72276,,,null
6310042005,631004,6310,63,Sungaicuka,72276,,,null
6310042006,631004,6310,63,Jombang,72276,,,null
6310042008,631004,6310,63,"Satui Barat",72276,,,null
6310042009,631004,6310,63,Sekapuk,72276,,,null
6310042010,631004,6310,63,Sungaidanau,72276,,,null
6310042011,631004,6310,63,Wonorejo,72276,,,null
6310042012,631004,6310,63,"Sumber Makmur",72276,,,null
6310042013,631004,6310,63,"Tegal Sari",72276,,,null
6310042019,631004,6310,63,"Sumber Arum",72276,,,null
6310042022,631004,6310,63,"Sejahtera Mulia",72276,,,null
6310042023,631004,6310,63,"Al Kautsar",72276,,,null
6310042024,631004,6310,63,"Makmur Mulia",72276,,,null
6310042025,631004,6310,63,"Sinar Bulan",72276,,,null
6310042026,631004,6310,63,"Pandamaran Jaya",72276,,,null
6310052001,631005,6310,63,Lasung,72270,,,null
6310052002,631005,6310,63,Manuntung,72270,,,null
6310052003,631005,6310,63,"Anjir Baru",72270,,,null
6310052004,631005,6310,63,Binawara,72270,,,null
6310052005,631005,6310,63,Pacakan,72270,,,null
6310052012,631005,6310,63,"Sungai Rukam",72270,,,null
6310052015,631005,6310,63,Bakarangan,72270,,,null
6310052019,631005,6310,63,"Karang Mulya",72270,,,null
6310052020,631005,6310,63,"Harapan Jaya",72270,,,null
6310052021,631005,6310,63,Wonorejo,72270,,,null
6310052022,631005,6310,63,"Karang Sari",72270,,,null
6310061001,631006,6310,63,"Kampung Baru",72212,,,null
6310061002,631006,6310,63,"Tungkaran Pangeran",72213,,,null
6310062003,631006,6310,63,"Sari Gadung",72211,,,null
6310062004,631006,6310,63,"Mekar Sari",72211,,,null
6310062005,631006,6310,63,Sungaidua,72211,,,null
6310062006,631006,6310,63,"Batu Ampar",72213,,,null
6310062007,631006,6310,63,Gunungbesar,72213,,,null
6310062008,631006,6310,63,"Pulau Burung",72213,,,null
6310062009,631006,6310,63,Baroqah,72213,,,null
6310062010,631006,6310,63,Bersujud,72213,,,null
6310062011,631006,6310,63,Sejahtera,72213,,,null
6310062012,631006,6310,63,Gunungantasari,72213,,,null
6310072001,631007,6310,63,"Karang Bintang",72211,,,null
6310072002,631007,6310,63,"Pandan Sari",72211,,,null
6310072003,631007,6310,63,"Rejo Winangun",72211,,,null
6310072004,631007,6310,63,Selaselilau,72211,,,null
6310072005,631007,6310,63,"Pematang Ulin",72211,,,null
6310072006,631007,6310,63,"Batu Licin Irigasi",72211,,,null
6310072007,631007,6310,63,Manunggal,72211,,,null
6310072009,631007,6310,63,"Sumber Wangi",72211,,,null
6310072010,631007,6310,63,"Madu Retno",72211,,,null
6310072011,631007,6310,63,"Maju Sejahtera",72211,,,null
6310072012,631007,6310,63,"Karang Rejo",72211,,,null
6310082001,631008,6310,63,Mantewe,72211,,,null
6310082002,631008,6310,63,"Dukuh Rejo",72211,,,null
6310082003,631008,6310,63,Rejosari,72211,,,null
6310082004,631008,6310,63,"Suka Damai",72211,,,null
6310082005,631008,6310,63,"Bulu Rejo",72211,,,null
6310082006,631008,6310,63,"Sido Mulyo",72211,,,null
6310082008,631008,6310,63,Sepakat,72211,,,null
6310082009,631008,6310,63,"Sari Mulya",72211,,,null
6310082010,631008,6310,63,"Emil Baru",72211,,,null
6310082011,631008,6310,63,"Mentawakan Mulia",72211,,,null
6310082012,631008,6310,63,"Maju Mulyo",72211,,,null
6310082014,631008,6310,63,Gunungraya,72211,,,null
6310092001,631009,6310,63,Bunati,72275,,,null
6310092002,631009,6310,63,Purwodadi,72275,,,null
6310092003,631009,6310,63,"Sumber Baru",72275,,,null
6310092004,631009,6310,63,"Karang Indah",72275,,,null
6310092005,631009,6310,63,Angsana,72275,,,null
6310092006,631009,6310,63,"Banjar Sari",72275,,,null
6310092007,631009,6310,63,"Bayan Sari",72275,,,null
6310092008,631009,6310,63,Makmur,72275,,,null
6310092009,631009,6310,63,"Mekar Jaya",72275,,,null
6310102001,631010,6310,63,"Giri Mulya",72272,,,null
6310102002,631010,6310,63,Kuranji,72272,,,null
6310102003,631010,6310,63,"Waringin Tunggal",72272,,,null
6310102004,631010,6310,63,Mustika,72272,,,null
6310102005,631010,6310,63,"Indra Lokajaya",72274,,,null
6310102006,631010,6310,63,"Karang Intan",72274,,,null
6310102007,631010,6310,63,Ringkit,72272,,,null
6310112001,631011,6310,63,"Saring Sungai Bubu",72273,,,null
6310112002,631011,6310,63,"Saring Sungai Binjai",72273,,,null
6310112003,631011,6310,63,Sepunggur,72273,,,null
6310112004,631011,6310,63,Serdangan,72273,,,null
6310112005,631011,6310,63,Satiung,72273,,,null
6310112006,631011,6310,63,Api-Api,72273,,,null
6310112007,631011,6310,63,Pakatellu,72273,,,null
6310112008,631011,6310,63,Manurung,72273,,,null
6310112009,631011,6310,63,Batarang,72273,,,null
6310112010,631011,6310,63,"Mekar Jaya",72273,,,null
6310112011,631011,6310,63,"Pulau Tanjung",72273,,,null
6310112012,631011,6310,63,"UPT Karya Bakti",72273,,,null
6310112013,631011,6310,63,Salimuran,72273,,,null
6310122001,631012,6310,63,"Teluk Kepayang",72270,,,null
6310122002,631012,6310,63,Guntung,72270,,,null
6310122003,631012,6310,63,Mangkalapi,72270,,,null
6310122004,631012,6310,63,"Timbarau Panjang",72270,,,null
6310122005,631012,6310,63,"Darasan Binjai",72270,,,null
6310122006,631012,6310,63,Tapus,72270,,,null
6310122007,631012,6310,63,Hati'if,72270,,,null
6310122008,631012,6310,63,"Batu Bulan",72270,,,null
6310122009,631012,6310,63,Tamunih,72270,,,null
6310122010,631012,6310,63,"Dadap Kusan Raya",72270,,,null
6311012001,631101,6311,63,"Muara Ninian",71665,,,null
6311012002,631101,6311,63,Hamarung,71665,,,null
6311012003,631101,6311,63,Juai,71665,,,null
6311012004,631101,6311,63,"Buntu Karau",71665,,,null
6311012005,631101,6311,63,Bata,71665,,,null
6311012006,631101,6311,63,Galumbang,71665,,,null
6311012007,631101,6311,63,"Sungai Batung",71665,,,null
6311012008,631101,6311,63,Sirap,71665,,,null
6311012009,631101,6311,63,Tigarun,71665,,,null
6311012010,631101,6311,63,"Teluk Bayur",71665,,,null
6311012011,631101,6311,63,Pamurus,71665,,,null
6311012012,631101,6311,63,Marias,71665,,,null
6311012013,631101,6311,63,Lalayau,71665,,,null
6311012014,631101,6311,63,Mihu,71665,,,null
6311012015,631101,6311,63,Hukai,71665,,,null
6311012016,631101,6311,63,Tawahan,71665,,,null
6311012017,631101,6311,63,Gulinggang,71665,,,null
6311012018,631101,6311,63,"Mungkur Uyam",71665,,,null
6311012019,631101,6311,63,Panimbaan,71665,,,null
6311012020,631101,6311,63,Wonorejo,71665,,,null
6311012021,631101,6311,63,"Sumber Rejeki",71665,,,null
6311022001,631102,6311,63,Hauwai,71666,,,null
6311022002,631102,6311,63,Bangkal,71666,,,null
6311022003,631102,6311,63,Mantuyan,71666,,,null
6311022004,631102,6311,63,Tabuan,71666,,,null
6311022005,631102,6311,63,Halong,71666,,,null
6311022008,631102,6311,63,Puyun,71666,,,null
6311022009,631102,6311,63,"Buntu Pilanduk",71666,,,null
6311022010,631102,6311,63,"Gunung Riut",71666,,,null
6311022011,631102,6311,63,Kapul,71666,,,null
6311022012,631102,6311,63,Mamantang,71666,,,null
6311022013,631102,6311,63,"Binjai Punggal",71666,,,null
6311022014,631102,6311,63,Liyu,71666,,,null
6311022015,631102,6311,63,"Binuang Santang",71666,,,null
6311022016,631102,6311,63,Aniungan,71666,,,null
6311022017,631102,6311,63,Binju,71666,,,null
6311022018,631102,6311,63,Karya,71666,,,null
6311022019,631102,6311,63,Uren,71666,,,null
6311022020,631102,6311,63,Marajai,71666,,,null
6311022021,631102,6311,63,Suryatama,71666,,,null
6311022022,631102,6311,63,"Baruh Panyambaran",71666,,,null
6311022023,631102,6311,63,Mauya,71666,,,null
6311022024,631102,6311,63,"Padang Raya",71666,,,null
6311022025,631102,6311,63,"Sumber Agung",71666,,,null
6311022026,631102,6311,63,Mamigang,71666,,,null
6311032004,631103,6311,63,Bihara,71664,,,null
6311032005,631103,6311,63,Pematang,71664,,,null
6311032006,631103,6311,63,Merah,71664,,,null
6311032007,631103,6311,63,Awayan,71664,,,null
6311032008,631103,6311,63,Pudak,71664,,,null
6311032009,631103,6311,63,Badalungga,71664,,,null
6311032010,631103,6311,63,Tundakan,71664,,,null
6311032011,631103,6311,63,Sikontan,71664,,,null
6311032012,631103,6311,63,Pulantan,71664,,,null
6311032013,631103,6311,63,Tundi,71664,,,null
6311032014,631103,6311,63,"Muara Jaya",71664,,,null
6311032016,631103,6311,63,"Bihara Hilir",71664,,,null
6311032018,631103,6311,63,Baru,71664,,,null
6311032020,631103,6311,63,"Awayan Hilir",71664,,,null
6311032021,631103,6311,63,"Putat Basiun",71664,,,null
6311032022,631103,6311,63,"Sei Pumpung",71664,,,null
6311032024,631103,6311,63,"Badalungga Hilir",71664,,,null
6311032025,631103,6311,63,Nungka,71664,,,null
6311032026,631103,6311,63,Tangalin,71664,,,null
6311032027,631103,6311,63,Kedondong,71664,,,null
6311032029,631103,6311,63,Baramban,71664,,,null
6311032031,631103,6311,63,Ambakiang,71664,,,null
6311032032,631103,6311,63,Piyait,71664,,,null
6311042001,631104,6311,63,Tariwin,71663,,,null
6311042002,631104,6311,63,"Lok Batu",71663,,,null
6311042003,631104,6311,63,Munjung,71663,,,null
6311042004,631104,6311,63,Pelajau,71663,,,null
6311042005,631104,6311,63,Batumandi,71663,,,null
6311042006,631104,6311,63,Riwa,71663,,,null
6311042007,631104,6311,63,Mantimin,71663,,,null
6311042008,631104,6311,63,Mampari,71663,,,null
6311042009,631104,6311,63,Bungur,71663,,,null
6311042010,631104,6311,63,"Teluk Mesjid",71663,,,null
6311042011,631104,6311,63,"Timbun Tulang",71663,,,null
6311042012,631104,6311,63,"Banua Hanyar",71663,,,null
6311042013,631104,6311,63,Bakung,71663,,,null
6311042014,631104,6311,63,Karuh,71663,,,null
6311042015,631104,6311,63,Guha,71663,,,null
6311042016,631104,6311,63,"Gunung Manau",71663,,,null
6311042017,631104,6311,63,"Hampa Raya",71663,,,null
6311042018,631104,6311,63,Kasai,71663,,,null
6311052001,631105,6311,63,"Tanah Habang Kiri",71661,,,null
6311052002,631105,6311,63,Panaitan,71661,,,null
6311052003,631105,6311,63,"Tanah Habang Kanan",71661,,,null
6311052004,631105,6311,63,"Batu Merah",71661,,,null
6311052005,631105,6311,63,"Lampihong Kanan",71661,,,null
6311052006,631105,6311,63,"Lampihong Selatan",71661,,,null
6311052007,631105,6311,63,"Lampihong Kiri",71661,,,null
6311052008,631105,6311,63,Lajar,71661,,,null
6311052009,631105,6311,63,"Kusambi Hulu",71661,,,null
6311052010,631105,6311,63,"Kusambi Hilir",71661,,,null
6311052011,631105,6311,63,"Simpang Tiga",71661,,,null
6311052012,631105,6311,63,"Matang Lurus",71661,,,null
6311052013,631105,6311,63,"Lok Hamawang",71661,,,null
6311052014,631105,6311,63,Kupang,71661,,,null
6311052015,631105,6311,63,Tampang,71661,,,null
6311052016,631105,6311,63,"Matang Hanau",71661,,,null
6311052017,631105,6311,63,"Lok Panginangan",71661,,,null
6311052018,631105,6311,63,Jungkal,71661,,,null
6311052019,631105,6311,63,"Sungai Tabuk",71661,,,null
6311052020,631105,6311,63,Jimamun,71661,,,null
6311052021,631105,6311,63,Pimping,71661,,,null
6311052022,631105,6311,63,"Hilir Pasar",71661,,,null
6311052023,631105,6311,63,"Teluk Karya",71661,,,null
6311052024,631105,6311,63,Pupuyuan,71661,,,null
6311052025,631105,6311,63,"Sungai Awang",71661,,,null
6311052026,631105,6311,63,"Kandang Jaya",71661,,,null
6311052027,631105,6311,63,Mundar,71661,,,null
6311061019,631106,6311,63,"Paringin Timur",71662,,,null
6311061023,631106,6311,63,"Paringin Kota",71662,,,null
6311062005,631106,6311,63,Balang,71662,,,null
6311062006,631106,6311,63,Kalahiang,71662,,,null
6311062007,631106,6311,63,"Lasung Batu",71662,,,null
6311062008,631106,6311,63,Paran,71662,,,null
6311062009,631106,6311,63,Layap,71616,,,null
6311062012,631106,6311,63,"Murung Ilung",71662,,,null
6311062013,631106,6311,63,Mangkayahu,71614,,,null
6311062014,631106,6311,63,"Lok Batung",71662,,,null
6311062015,631106,6311,63,"Lamida Bawah",71662,,,null
6311062017,631106,6311,63,Dahai,71662,,,null
6311062022,631106,6311,63,"Hujan Mas",71662,,,null
6311062024,631106,6311,63,Babayau,71662,,,null
6311062034,631106,6311,63,Balida,71662,,,null
6311062038,631106,6311,63,"Sungai Ketapi",71662,,,null
6311071001,631107,6311,63,"Batu Piring",71618,,,null
6311072002,631107,6311,63,"Baruh Bahinu Luar",71662,,,null
6311072003,631107,6311,63,Inan,71662,,,null
6311072004,631107,6311,63,"Baruh Bahinu Dalam",71662,,,null
6311072005,631107,6311,63,Panggung,71662,,,null
6311072006,631107,6311,63,Galumbang,71662,,,null
6311072007,631107,6311,63,Halubau,71662,,,null
6311072008,631107,6311,63,Binjai,71662,,,null
6311072009,631107,6311,63,"Murung Abuin",71662,,,null
6311072010,631107,6311,63,Bungin,71617,,,null
6311072011,631107,6311,63,Maradap,71662,,,null
6311072012,631107,6311,63,"Halubau Utara",71662,,,null
6311072013,631107,6311,63,"Murung Jambu",71662,,,null
6311072014,631107,6311,63,"Telaga Purun",71662,,,null
6311072015,631107,6311,63,Lingsir,71662,,,null
6311072016,631107,6311,63,Tarangan,71662,,,null
6311082001,631108,6311,63,"Dayak Pitap",71667,,,null
6311082002,631108,6311,63,"Tebing Tinggi",71667,,,null
6311082003,631108,6311,63,Sungsum,71667,,,null
6311082004,631108,6311,63,Ju'uh,71667,,,null
6311082005,631108,6311,63,Mayanau,71667,,,null
6311082006,631108,6311,63,"Simpang Bumbuan",71667,,,null
6311082007,631108,6311,63,Auh,71667,,,null
6311082008,631108,6311,63,"Gunung Batu",71667,,,null
6311082009,631108,6311,63,Langkap,71667,,,null
6311082010,631108,6311,63,"Simpang Nadong",71667,,,null
6311082011,631108,6311,63,Ajung,71667,,,null
6311082012,631108,6311,63,Kambiyain,71667,,,null
6371011001,637101,6371,63,Mantuil,70244,,,null
6371011002,637101,6371,63,"Kelayan Selatan",70246,,,null
6371011003,637101,6371,63,Pekauman,70243,,,null
6371011004,637101,6371,63,"Kelayan Barat",70241,,,null
6371011005,637101,6371,63,"Kelayan Tengah",70242,,,null
6371011006,637101,6371,63,"Kelayan Dalam",70242,,,null
6371011007,637101,6371,63,"Murung Raya",70247,,,null
6371011008,637101,6371,63,"Kelayan Timur",70247,,,null
6371011009,637101,6371,63,"Tanjung Pagar",70247,,,null
6371011010,637101,6371,63,"Pemurus Dalam",70248,,,null
6371011011,637101,6371,63,"Pemurus Baru",70249,,,null
6371011012,637101,6371,63,"Basirih Selatan",70245,,,null
6371021001,637102,6371,63,Kuripan,70236,,,null
6371021002,637102,6371,63,"Kebun Bunga",70235,,,null
6371021003,637102,6371,63,"Karang Mekar",70234,,,null
6371021004,637102,6371,63,"Sungai Bilu",70236,,,null
6371021005,637102,6371,63,"Sungai Lulut",70238,,,null
6371021006,637102,6371,63,"Banua Anyar",70239,,,null
6371021007,637102,6371,63,Pengambangan,70237,,,null
6371021008,637102,6371,63,"Pekapuran Raya",70234,,,null
6371021009,637102,6371,63,"Pemurus Luar",70236,,,null
6371031001,637103,6371,63,"Belitung Utara",70116,,,null
6371031002,637103,6371,63,"Belitung Selatan",70116,,,null
6371031003,637103,6371,63,Pelambuan,70118,,,null
6371031004,637103,6371,63,"Telaga Biru",70119,,,null
6371031005,637103,6371,63,Telawang,70112,,,null
6371031006,637103,6371,63,"Teluk Tiram",70113,,,null
6371031007,637103,6371,63,"Kuin Selatan",70128,,,null
6371031008,637103,6371,63,"Kuin Cerucuk",70129,,,null
6371031009,637103,6371,63,Basirih,70245,,,null
6371041001,637104,6371,63,"Alalak Tengah",70126,,,null
6371041002,637104,6371,63,"Alalak Utara",70125,,,null
6371041003,637104,6371,63,"Alalak Selatan",70126,,,null
6371041004,637104,6371,63,"Sungai Jingah",70121,,,null
6371041005,637104,6371,63,"Sungai Miai",70123,,,null
6371041006,637104,6371,63,"Surgi Mufti",70122,,,null
6371041007,637104,6371,63,Pangeran,70124,,,null
6371041008,637104,6371,63,"Antasan Kecil Timur",70123,,,null
6371041009,637104,6371,63,"Kuin Utara",70127,,,null
6371041010,637104,6371,63,"Sungai Andai",70122,,,null
6371051001,637105,6371,63,"Kertak Baru Ilir",70111,,,null
6371051002,637105,6371,63,"Kertak Baru Ulu",70111,,,null
6371051003,637105,6371,63,Mawar,70112,,,null
6371051004,637105,6371,63,"Teluk Dalam",70117,,,null
6371051005,637105,6371,63,"Antasan Besar",70114,,,null
6371051006,637105,6371,63,"Pasar Lama",70115,,,null
6371051007,637105,6371,63,"Seberang Mesjid",70231,,,null
6371051008,637105,6371,63,Gadang,70231,,,null
6371051009,637105,6371,63,Melayu,70234,,,null
6371051010,637105,6371,63,"Sungai Baru",70233,,,null
6371051011,637105,6371,63,"Pekapuran Laut",70235,,,null
6371051012,637105,6371,63,"Kelayan Luar",70241,,,null
6372021003,637202,6372,63,"Landasan Ulin Timur",70724,,,null
6372021004,637202,6372,63,"Guntung Payung",70721,,,null
6372021005,637202,6372,63,"Guntung Manggis",70724,,,null
6372021006,637202,6372,63,"Syamsudin Noor",70724,,,null
6372031001,637203,6372,63,Palam,70731,,,null
6372031002,637203,6372,63,Bangkal,70732,,,null
6372031003,637203,6372,63,"Sungai Tiung",70734,,,null
6372031004,637203,6372,63,Cempaka,70733,,,null
6372041001,637204,6372,63,"Loktabat Utara",70714,,,null
6372041002,637204,6372,63,Mentaos,70714,,,null
6372041003,637204,6372,63,Komet,70714,,,null
6372041004,637204,6372,63,"Sungai Ulin",70714,,,null
6372051001,637205,6372,63,"Sungai Besar",70714,,,null
6372051002,637205,6372,63,"Laktabat Selatan",70714,,,null
6372051003,637205,6372,63,Kemuning,70714,,,null
6372051004,637205,6372,63,"Guntung Paikat",70713,,,null
6372061001,637206,6372,63,"Landasan Ulin Barat",70722,,,null
6372061002,637206,6372,63,"Landasan Ulin Tengah",70723,,,null
6372061003,637206,6372,63,"Landasan Ulin Utara",70724,,,null
6372061004,637206,6372,63,"Landasan Ulin Selatan",70724,,,null
