[
    {
        "code": 7601011006,
        "district_code": 760101,
        "regency_code": 7601,
        "province_code": 76,
        "name": "Bambalamotu",
        "postal_code": "91575",
        "latitude": -1.1128100531017062,
        "longitude": 119.46359684532553
    },
    {
        "code": 7601012003,
        "district_code": 760101,
        "regency_code": 7601,
        "province_code": 76,
        "name": "Polewali",
        "postal_code": "91575",
        "latitude": -1.143527763868761,
        "longitude": 119.4645651771272
    },
    {
        "code": 7601012004,
        "district_code": 760101,
        "regency_code": 7601,
        "province_code": 76,
        "name": "Randomayang",
        "postal_code": "91575",
        "latitude": -1.0508157039439854,
        "longitude": 119.48549065296902
    },
    {
        "code": 7601012007,
        "district_code": 760101,
        "regency_code": 7601,
        "province_code": 76,
        "name": "Pangiang",
        "postal_code": "91575",
        "latitude": -1.1344579464174225,
        "longitude": 119.42414632334099
    },
    {
        "code": 7601012008,
        "district_code": 760101,
        "regency_code": 7601,
        "province_code": 76,
        "name": "Kalola",
        "postal_code": "91575",
        "latitude": -1.105118218666701,
        "longitude": 119.52089732485517
    },
    {
        "code": 7601012009,
        "district_code": 760101,
        "regency_code": 7601,
        "province_code": 76,
        "name": "Wulai",
        "postal_code": "91575",
        "latitude": -1.059052621575796,
        "longitude": 119.5432671435458
    },
    {
        "code": 7601021001,
        "district_code": 760102,
        "regency_code": 7601,
        "province_code": 76,
        "name": "Pasangkayu",
        "postal_code": "91571",
        "latitude": -1.2089701469168765,
        "longitude": 119.37741822070643
    },
    {
        "code": 7601021002,
        "district_code": 760102,
        "regency_code": 7601,
        "province_code": 76,
        "name": "Martajaya",
        "postal_code": "91571",
        "latitude": -1.1790042693126297,
        "longitude": 119.42862279305987
    },
    {
        "code": 7601022010,
        "district_code": 760102,
        "regency_code": 7601,
        "province_code": 76,
        "name": "Pakava",
        "postal_code": "91571",
        "latitude": -1.1771439569181796,
        "longitude": 119.5286961781261
    },
    {
        "code": 7601022014,
        "district_code": 760102,
        "regency_code": 7601,
        "province_code": 76,
        "name": "Karya Bersama",
        "postal_code": "91571",
        "latitude": -1.2218825102292477,
        "longitude": 119.34148407369763
    },
    {
        "code": 7601022015,
        "district_code": 760102,
        "regency_code": 7601,
        "province_code": 76,
        "name": "Ako",
        "postal_code": "91571",
        "latitude": -1.1808329102108257,
        "longitude": 119.40160506544419
    },
    {
        "code": 7601022016,
        "district_code": 760102,
        "regency_code": 7601,
        "province_code": 76,
        "name": "Gunung Sari",
        "postal_code": "91571",
        "latitude": -1.2180138440476753,
        "longitude": 119.45996209888209
    },
    {
        "code": 7601031001,
        "district_code": 760103,
        "regency_code": 7601,
        "province_code": 76,
        "name": "Baras",
        "postal_code": "91572",
        "latitude": -1.584734829403985,
        "longitude": 119.33921546551726
    },
    {
        "code": 7601032002,
        "district_code": 760103,
        "regency_code": 7601,
        "province_code": 76,
        "name": "Balanti",
        "postal_code": "91572",
        "latitude": -1.5868684746559585,
        "longitude": 119.45008587370805
    },
    {
        "code": 7601032003,
        "district_code": 760103,
        "regency_code": 7601,
        "province_code": 76,
        "name": "Motu",
        "postal_code": "91572",
        "latitude": -1.5355376623485668,
        "longitude": 119.44545562538106
    },
    {
        "code": 7601032012,
        "district_code": 760103,
        "regency_code": 7601,
        "province_code": 76,
        "name": "Bulu Parigi",
        "postal_code": "91572",
        "latitude": -1.6095575123157755,
        "longitude": 119.34128702028177
    },
    {
        "code": 7601032013,
        "district_code": 760103,
        "regency_code": 7601,
        "province_code": 76,
        "name": "Towoni",
        "postal_code": "91572",
        "latitude": -1.6070035006664203,
        "longitude": 119.38826967279344
    },
    {
        "code": 7601032016,
        "district_code": 760103,
        "regency_code": 7601,
        "province_code": 76,
        "name": "Kasano",
        "postal_code": "91572",
        "latitude": -1.5393052019229065,
        "longitude": 119.34077892127635
    },
    {
        "code": 7601042001,
        "district_code": 760104,
        "regency_code": 7601,
        "province_code": 76,
        "name": "Sarudu",
        "postal_code": "91576",
        "latitude": -1.6865894035929776,
        "longitude": 119.3121905739709
    },
    {
        "code": 7601042003,
        "district_code": 760104,
        "regency_code": 7601,
        "province_code": 76,
        "name": "Bulu Mario",
        "postal_code": "91576",
        "latitude": -1.6743505543769452,
        "longitude": 119.35539179115503
    },
    {
        "code": 7601042005,
        "district_code": 760104,
        "regency_code": 7601,
        "province_code": 76,
        "name": "Kumasari",
        "postal_code": "91576",
        "latitude": -1.7103679293306933,
        "longitude": 119.35371217648223
    },
    {
        "code": 7601042011,
        "district_code": 760104,
        "regency_code": 7601,
        "province_code": 76,
        "name": "Patika",
        "postal_code": "91576",
        "latitude": -1.6431102677269391,
        "longitude": 119.34706518183398
    },
    {
        "code": 7601042012,
        "district_code": 760104,
        "regency_code": 7601,
        "province_code": 76,
        "name": "Doda",
        "postal_code": "91576",
        "latitude": -1.6372224752557858,
        "longitude": 119.31512241607693
    },
    {
        "code": 7601052001,
        "district_code": 760105,
        "regency_code": 7601,
        "province_code": 76,
        "name": "Dapurang",
        "postal_code": "91581",
        "latitude": -1.7327820931599713,
        "longitude": 119.35820198176157
    },
    {
        "code": 7601052002,
        "district_code": 760105,
        "regency_code": 7601,
        "province_code": 76,
        "name": "Benggaulu",
        "postal_code": "91581",
        "latitude": -1.727437830330257,
        "longitude": 119.63839575511363
    },
    {
        "code": 7601052003,
        "district_code": 760105,
        "regency_code": 7601,
        "province_code": 76,
        "name": "Tirtabuana",
        "postal_code": "91581",
        "latitude": -1.7520075069507222,
        "longitude": 119.36052728223333
    },
    {
        "code": 7601052004,
        "district_code": 760105,
        "regency_code": 7601,
        "province_code": 76,
        "name": "Bulu Bonggu",
        "postal_code": "91581",
        "latitude": -1.6655973090919736,
        "longitude": 119.5003599147318
    },
    {
        "code": 7601052005,
        "district_code": 760105,
        "regency_code": 7601,
        "province_code": 76,
        "name": "Sarasa",
        "postal_code": "91581",
        "latitude": -1.7797775270656477,
        "longitude": 119.33440923453195
    },
    {
        "code": 7601062001,
        "district_code": 760106,
        "regency_code": 7601,
        "province_code": 76,
        "name": "Tammarunang",
        "postal_code": "91573",
        "latitude": -1.657234064508841,
        "longitude": 119.41998573285744
    },
    {
        "code": 7601062002,
        "district_code": 760106,
        "regency_code": 7601,
        "province_code": 76,
        "name": "Saptanajaya",
        "postal_code": "91573",
        "latitude": -1.6444441881697403,
        "longitude": 119.37282418598562
    },
    {
        "code": 7601062003,
        "district_code": 760106,
        "regency_code": 7601,
        "province_code": 76,
        "name": "Taranggi",
        "postal_code": "91573",
        "latitude": -1.6598669247976612,
        "longitude": 119.39587891471686
    },
    {
        "code": 7601062004,
        "district_code": 760106,
        "regency_code": 7601,
        "province_code": 76,
        "name": "Sipakainga",
        "postal_code": "91573",
        "latitude": -1.5978909675653596,
        "longitude": 119.57973044094625
    },
    {
        "code": 7601072001,
        "district_code": 760107,
        "regency_code": 7601,
        "province_code": 76,
        "name": "Lilimori",
        "postal_code": "91578",
        "latitude": -1.4660272055540766,
        "longitude": 119.42571749351124
    },
    {
        "code": 7601072002,
        "district_code": 760107,
        "regency_code": 7601,
        "province_code": 76,
        "name": "Karave",
        "postal_code": "91578",
        "latitude": -1.4953749671560812,
        "longitude": 119.39884292312613
    },
    {
        "code": 7601072003,
        "district_code": 760107,
        "regency_code": 7601,
        "province_code": 76,
        "name": "Bukit Harapan",
        "postal_code": "91578",
        "latitude": -1.4920803993105907,
        "longitude": 119.59291139341876
    },
    {
        "code": 7601072004,
        "district_code": 760107,
        "regency_code": 7601,
        "province_code": 76,
        "name": "Kastabuana",
        "postal_code": "91578",
        "latitude": -1.4275741804450635,
        "longitude": 119.45694308834717
    },
    {
        "code": 7601072005,
        "district_code": 760107,
        "regency_code": 7601,
        "province_code": 76,
        "name": "Sumber Sari",
        "postal_code": "91578",
        "latitude": -1.4366743656004812,
        "longitude": 119.42110868557137
    },
    {
        "code": 7601072006,
        "district_code": 760107,
        "regency_code": 7601,
        "province_code": 76,
        "name": "Lelejae",
        "postal_code": "91578",
        "latitude": -1.4353732806253043,
        "longitude": 119.41241231017545
    },
    {
        "code": 7601072007,
        "district_code": 760107,
        "regency_code": 7601,
        "province_code": 76,
        "name": "Ompi",
        "postal_code": "91578",
        "latitude": -1.4415618012325384,
        "longitude": 119.50017815034401
    },
    {
        "code": 7601082001,
        "district_code": 760108,
        "regency_code": 7601,
        "province_code": 76,
        "name": "Tikke",
        "postal_code": "91579",
        "latitude": -1.3330357508633341,
        "longitude": 119.34929637960637
    },
    {
        "code": 7601082002,
        "district_code": 760108,
        "regency_code": 7601,
        "province_code": 76,
        "name": "Makmur Jaya",
        "postal_code": "91579",
        "latitude": -1.3561489035343823,
        "longitude": 119.40940862895849
    },
    {
        "code": 7601082003,
        "district_code": 760108,
        "regency_code": 7601,
        "province_code": 76,
        "name": "Lariang",
        "postal_code": "91579",
        "latitude": -1.406906302113349,
        "longitude": 119.37149292457326
    },
    {
        "code": 7601082004,
        "district_code": 760108,
        "regency_code": 7601,
        "province_code": 76,
        "name": "Pajalele",
        "postal_code": "91579",
        "latitude": -1.3092656926239112,
        "longitude": 119.41613122366695
    },
    {
        "code": 7601082005,
        "district_code": 760108,
        "regency_code": 7601,
        "province_code": 76,
        "name": "Jengeng Raya",
        "postal_code": "91579",
        "latitude": -1.367948589305255,
        "longitude": 119.35758559714225
    },
    {
        "code": 7601092001,
        "district_code": 760109,
        "regency_code": 7601,
        "province_code": 76,
        "name": "Malei",
        "postal_code": "91570",
        "latitude": -1.2732000821913854,
        "longitude": 119.3323726277404
    },
    {
        "code": 7601092002,
        "district_code": 760109,
        "regency_code": 7601,
        "province_code": 76,
        "name": "Pedanda",
        "postal_code": "91570",
        "latitude": -1.254368003323346,
        "longitude": 119.35705034542234
    },
    {
        "code": 7601092003,
        "district_code": 760109,
        "regency_code": 7601,
        "province_code": 76,
        "name": "Batu Oge",
        "postal_code": "91570",
        "latitude": -1.2669311795770415,
        "longitude": 119.31450762328562
    },
    {
        "code": 7601092004,
        "district_code": 760109,
        "regency_code": 7601,
        "province_code": 76,
        "name": "Martasari",
        "postal_code": "91570",
        "latitude": -1.2714510445988456,
        "longitude": 119.41578146574967
    },
    {
        "code": 7601102001,
        "district_code": 760110,
        "regency_code": 7601,
        "province_code": 76,
        "name": "Bambaira",
        "postal_code": "91574",
        "latitude": -0.9783357091709539,
        "longitude": 119.5205573647897
    },
    {
        "code": 7601102002,
        "district_code": 760110,
        "regency_code": 7601,
        "province_code": 76,
        "name": "Kasoloang",
        "postal_code": "91574",
        "latitude": -1.0158369676094936,
        "longitude": 119.49899377004286
    },
    {
        "code": 7601102003,
        "district_code": 760110,
        "regency_code": 7601,
        "province_code": 76,
        "name": "Tampaure",
        "postal_code": "91574",
        "latitude": -0.9578574943153073,
        "longitude": 119.53354607285563
    },
    {
        "code": 7601102004,
        "district_code": 760110,
        "regency_code": 7601,
        "province_code": 76,
        "name": "Kaluku Nangka",
        "postal_code": "91574",
        "latitude": -1.0007864565825386,
        "longitude": 119.53840116401173
    },
    {
        "code": 7601112001,
        "district_code": 760111,
        "regency_code": 7601,
        "province_code": 76,
        "name": "Sarjo",
        "postal_code": "91591",
        "latitude": -0.8780243688432993,
        "longitude": 119.5510279972851
    },
    {
        "code": 7601112002,
        "district_code": 760111,
        "regency_code": 7601,
        "province_code": 76,
        "name": "Maponu",
        "postal_code": "91591",
        "latitude": -0.9311965558999523,
        "longitude": 119.53694627338484
    },
    {
        "code": 7601112003,
        "district_code": 760111,
        "regency_code": 7601,
        "province_code": 76,
        "name": "Letawa",
        "postal_code": "91591",
        "latitude": -0.9034168308666882,
        "longitude": 119.5480663005736
    },
    {
        "code": 7601112004,
        "district_code": 760111,
        "regency_code": 7601,
        "province_code": 76,
        "name": "Sarude",
        "postal_code": "91591",
        "latitude": -0.8706534813842782,
        "longitude": 119.56305551700217
    },
    {
        "code": 7601122001,
        "district_code": 760112,
        "regency_code": 7601,
        "province_code": 76,
        "name": "Parabu",
        "postal_code": "91577",
        "latitude": -1.4743787037353353,
        "longitude": 119.37507946026291
    },
    {
        "code": 7601122002,
        "district_code": 760112,
        "regency_code": 7601,
        "province_code": 76,
        "name": "Kenangan",
        "postal_code": "91577",
        "latitude": -1.4687656818393262,
        "longitude": 119.35688801242715
    },
    {
        "code": 7601122003,
        "district_code": 760112,
        "regency_code": 7601,
        "province_code": 76,
        "name": "Bajawali",
        "postal_code": "91577",
        "latitude": -1.4924049255733176,
        "longitude": 119.36315641218066
    },
    {
        "code": 7601122004,
        "district_code": 760112,
        "regency_code": 7601,
        "province_code": 76,
        "name": "Singgani",
        "postal_code": "91577",
        "latitude": -1.4794610462770286,
        "longitude": 119.32451681034797
    },
    {
        "code": 7601122005,
        "district_code": 760112,
        "regency_code": 7601,
        "province_code": 76,
        "name": "Kulu",
        "postal_code": "91577",
        "latitude": -1.4584845698210596,
        "longitude": 119.38262522781191
    },
    {
        "code": 7601122006,
        "district_code": 760112,
        "regency_code": 7601,
        "province_code": 76,
        "name": "Batu Matoru",
        "postal_code": "91577",
        "latitude": -1.4422750364605024,
        "longitude": 119.33509325462163
    },
    {
        "code": 7601122007,
        "district_code": 760112,
        "regency_code": 7601,
        "province_code": 76,
        "name": "Bambakoro",
        "postal_code": "91577",
        "latitude": -1.4417050148440111,
        "longitude": 119.30605028375928
    },
    {
        "code": 7602011002,
        "district_code": 760201,
        "regency_code": 7602,
        "province_code": 76,
        "name": "Binanga",
        "postal_code": "91511",
        "latitude": -2.7491916511389474,
        "longitude": 118.96734515430148
    },
    {
        "code": 7602011003,
        "district_code": 760201,
        "regency_code": 7602,
        "province_code": 76,
        "name": "Mamunyu",
        "postal_code": "91511",
        "latitude": -2.7144372218778448,
        "longitude": 118.95994010175843
    },
    {
        "code": 7602011012,
        "district_code": 760201,
        "regency_code": 7602,
        "province_code": 76,
        "name": "Karema",
        "postal_code": "91515",
        "latitude": -2.7491780535013124,
        "longitude": 118.91318171601706
    },
    {
        "code": 7602011013,
        "district_code": 760201,
        "regency_code": 7602,
        "province_code": 76,
        "name": "Rimuku",
        "postal_code": "91515",
        "latitude": -2.691547356483786,
        "longitude": 118.89635262059382
    },
    {
        "code": 7602012005,
        "district_code": 760201,
        "regency_code": 7602,
        "province_code": 76,
        "name": "Bambu",
        "postal_code": "91514",
        "latitude": -2.697182011404007,
        "longitude": 118.97000580978833
    },
    {
        "code": 7602012006,
        "district_code": 760201,
        "regency_code": 7602,
        "province_code": 76,
        "name": "Karampuang",
        "postal_code": "91515",
        "latitude": -2.6326647658663336,
        "longitude": 118.88725179968658
    },
    {
        "code": 7602012010,
        "district_code": 760201,
        "regency_code": 7602,
        "province_code": 76,
        "name": "Tadui",
        "postal_code": "91511",
        "latitude": -2.6680028240475693,
        "longitude": 118.97913826627006
    },
    {
        "code": 7602012014,
        "district_code": 760201,
        "regency_code": 7602,
        "province_code": 76,
        "name": "Batu Pannu",
        "postal_code": "91511",
        "latitude": -2.6887789539433062,
        "longitude": 118.97223312190056
    },
    {
        "code": 7602021001,
        "district_code": 760202,
        "regency_code": 7602,
        "province_code": 76,
        "name": "Galung",
        "postal_code": "91551",
        "latitude": -2.8245674798919658,
        "longitude": 118.91682756222086
    },
    {
        "code": 7602021002,
        "district_code": 760202,
        "regency_code": 7602,
        "province_code": 76,
        "name": "Kasambang",
        "postal_code": "91551",
        "latitude": -2.877061779453347,
        "longitude": 118.91169212575389
    },
    {
        "code": 7602021014,
        "district_code": 760202,
        "regency_code": 7602,
        "province_code": 76,
        "name": "Dayanginna",
        "postal_code": "91551",
        "latitude": -2.8646639802729097,
        "longitude": 118.87409296617895
    },
    {
        "code": 7602022003,
        "district_code": 760202,
        "regency_code": 7602,
        "province_code": 76,
        "name": "Orobatu",
        "postal_code": "91551",
        "latitude": -2.8329321358546475,
        "longitude": 118.84811444432007
    },
    {
        "code": 7602022006,
        "district_code": 760202,
        "regency_code": 7602,
        "province_code": 76,
        "name": "Takandeang",
        "postal_code": "91551",
        "latitude": -2.8121113101511095,
        "longitude": 118.87039385832189
    },
    {
        "code": 7602022009,
        "district_code": 760202,
        "regency_code": 7602,
        "province_code": 76,
        "name": "Bela",
        "postal_code": "91551",
        "latitude": -2.908522485702229,
        "longitude": 118.99470258658978
    },
    {
        "code": 7602022010,
        "district_code": 760202,
        "regency_code": 7602,
        "province_code": 76,
        "name": "Taan",
        "postal_code": "91551",
        "latitude": -2.9094280893001074,
        "longitude": 118.91446018630982
    },
    {
        "code": 7602022011,
        "district_code": 760202,
        "regency_code": 7602,
        "province_code": 76,
        "name": "Tampalang",
        "postal_code": "91551",
        "latitude": -2.8085409147966773,
        "longitude": 118.91243673078895
    },
    {
        "code": 7602022012,
        "district_code": 760202,
        "regency_code": 7602,
        "province_code": 76,
        "name": "Rantedoda",
        "postal_code": "91551",
        "latitude": -2.8277005279517575,
        "longitude": 118.95809825075575
    },
    {
        "code": 7602022013,
        "district_code": 760202,
        "regency_code": 7602,
        "province_code": 76,
        "name": "Kopeang",
        "postal_code": "91551",
        "latitude": -2.8508371736666027,
        "longitude": 118.98007633993916
    },
    {
        "code": 7602031001,
        "district_code": 760203,
        "regency_code": 7602,
        "province_code": 76,
        "name": "Sinyonyoi",
        "postal_code": "91561",
        "latitude": -2.566950124330506,
        "longitude": 119.05163211802807
    },
    {
        "code": 7602031002,
        "district_code": 760203,
        "regency_code": 7602,
        "province_code": 76,
        "name": "Bebanga",
        "postal_code": "91561",
        "latitude": -2.6477469085922913,
        "longitude": 119.01656020193303
    },
    {
        "code": 7602031003,
        "district_code": 760203,
        "regency_code": 7602,
        "province_code": 76,
        "name": "Kalukku ",
        "postal_code": "91561",
        "latitude": -2.553435587202771,
        "longitude": 119.07067192590706
    },
    {
        "code": 7602031014,
        "district_code": 760203,
        "regency_code": 7602,
        "province_code": 76,
        "name": "Sinyonyoi Selatan",
        "postal_code": "91561",
        "latitude": -2.617413545105051,
        "longitude": 119.05212134989031
    },
    {
        "code": 7602032004,
        "district_code": 760203,
        "regency_code": 7602,
        "province_code": 76,
        "name": "Sondoang",
        "postal_code": "91561",
        "latitude": -2.594770577092192,
        "longitude": 119.12510519590438
    },
    {
        "code": 7602032005,
        "district_code": 760203,
        "regency_code": 7602,
        "province_code": 76,
        "name": "Beru-Beru",
        "postal_code": "91561",
        "latitude": -2.516065549928763,
        "longitude": 119.07056154568143
    },
    {
        "code": 7602032006,
        "district_code": 760203,
        "regency_code": 7602,
        "province_code": 76,
        "name": "Belang Belang",
        "postal_code": "91561",
        "latitude": -2.516908947642778,
        "longitude": 119.17560779301753
    },
    {
        "code": 7602032007,
        "district_code": 760203,
        "regency_code": 7602,
        "province_code": 76,
        "name": "Kabuloang",
        "postal_code": "91561",
        "latitude": -2.510009228275208,
        "longitude": 119.11420412680097
    },
    {
        "code": 7602032008,
        "district_code": 760203,
        "regency_code": 7602,
        "province_code": 76,
        "name": "Keang",
        "postal_code": "91561",
        "latitude": -2.655713914601143,
        "longitude": 119.13177096506483
    },
    {
        "code": 7602032009,
        "district_code": 760203,
        "regency_code": 7602,
        "province_code": 76,
        "name": "Pokkang",
        "postal_code": "91561",
        "latitude": -2.5373329902411847,
        "longitude": 119.10555564393819
    },
    {
        "code": 7602032010,
        "district_code": 760203,
        "regency_code": 7602,
        "province_code": 76,
        "name": "Guliling",
        "postal_code": "91561",
        "latitude": -2.568910195002037,
        "longitude": 119.1491079733903
    },
    {
        "code": 7602032011,
        "district_code": 760203,
        "regency_code": 7602,
        "province_code": 76,
        "name": "Uhaimate",
        "postal_code": "91561",
        "latitude": -2.6485450321146353,
        "longitude": 119.09628584972255
    },
    {
        "code": 7602032012,
        "district_code": 760203,
        "regency_code": 7602,
        "province_code": 76,
        "name": "Kalukku Barat",
        "postal_code": "91561",
        "latitude": -2.532830725803179,
        "longitude": 119.04604568154305
    },
    {
        "code": 7602032013,
        "district_code": 760203,
        "regency_code": 7602,
        "province_code": 76,
        "name": "Pammulukang",
        "postal_code": "91561",
        "latitude": -2.6516236515540488,
        "longitude": 119.06330079211995
    },
    {
        "code": 7602042001,
        "district_code": 760204,
        "regency_code": 7602,
        "province_code": 76,
        "name": "Kalumpang",
        "postal_code": "91560",
        "latitude": -2.4175978256290187,
        "longitude": 119.45302078157172
    },
    {
        "code": 7602042003,
        "district_code": 760204,
        "regency_code": 7602,
        "province_code": 76,
        "name": "Karataun",
        "postal_code": "91560",
        "latitude": -2.619996928176002,
        "longitude": 119.5490419619791
    },
    {
        "code": 7602042004,
        "district_code": 760204,
        "regency_code": 7602,
        "province_code": 76,
        "name": "Karama",
        "postal_code": "91560",
        "latitude": -2.325543200707043,
        "longitude": 119.65388122382193
    },
    {
        "code": 7602042006,
        "district_code": 760204,
        "regency_code": 7602,
        "province_code": 76,
        "name": "Siraun",
        "postal_code": "91560",
        "latitude": -2.6004475083215888,
        "longitude": 119.65542336476362
    },
    {
        "code": 7602042007,
        "district_code": 760204,
        "regency_code": 7602,
        "province_code": 76,
        "name": "Tumoga",
        "postal_code": "91560",
        "latitude": -2.4398442856582476,
        "longitude": 119.63308636391884
    },
    {
        "code": 7602042010,
        "district_code": 760204,
        "regency_code": 7602,
        "province_code": 76,
        "name": "Salumakki",
        "postal_code": "91560",
        "latitude": -2.5614433758378947,
        "longitude": 119.70084721257021
    },
    {
        "code": 7602042011,
        "district_code": 760204,
        "regency_code": 7602,
        "province_code": 76,
        "name": "Polio",
        "postal_code": "91560",
        "latitude": -2.3978628643906896,
        "longitude": 119.65858513591573
    },
    {
        "code": 7602042012,
        "district_code": 760204,
        "regency_code": 7602,
        "province_code": 76,
        "name": "Limbong",
        "postal_code": "91560",
        "latitude": -2.4685917571258322,
        "longitude": 119.59629176307293
    },
    {
        "code": 7602042013,
        "district_code": 760204,
        "regency_code": 7602,
        "province_code": 76,
        "name": "Sandapang",
        "postal_code": "91560",
        "latitude": -2.3480865560888313,
        "longitude": 119.5712645775102
    },
    {
        "code": 7602042014,
        "district_code": 760204,
        "regency_code": 7602,
        "province_code": 76,
        "name": "Kondo Bulo",
        "postal_code": "91560",
        "latitude": -2.630877684856845,
        "longitude": 119.48192193933497
    },
    {
        "code": 7602042015,
        "district_code": 760204,
        "regency_code": 7602,
        "province_code": 76,
        "name": "Makkaliki",
        "postal_code": "91560",
        "latitude": -2.512125050521226,
        "longitude": 119.5646180500768
    },
    {
        "code": 7602042016,
        "district_code": 760204,
        "regency_code": 7602,
        "province_code": 76,
        "name": "Batu Makkada",
        "postal_code": "91560",
        "latitude": -2.4360547467215756,
        "longitude": 119.69632500719487
    },
    {
        "code": 7602042017,
        "district_code": 760204,
        "regency_code": 7602,
        "province_code": 76,
        "name": "Lasa'",
        "postal_code": "91560",
        "latitude": -2.685891035742636,
        "longitude": 119.65611470923064
    },
    {
        "code": 7602072001,
        "district_code": 760207,
        "regency_code": 7602,
        "province_code": 76,
        "name": "Toabo",
        "postal_code": "91565",
        "latitude": -2.382641241579979,
        "longitude": 119.17898670503854
    },
    {
        "code": 7602072002,
        "district_code": 760207,
        "regency_code": 7602,
        "province_code": 76,
        "name": "Papalang",
        "postal_code": "91565",
        "latitude": -2.4651792746542247,
        "longitude": 119.18394622412362
    },
    {
        "code": 7602072003,
        "district_code": 760207,
        "regency_code": 7602,
        "province_code": 76,
        "name": "Bonda",
        "postal_code": "91565",
        "latitude": -2.3736483392160963,
        "longitude": 119.14840539367958
    },
    {
        "code": 7602072004,
        "district_code": 760207,
        "regency_code": 7602,
        "province_code": 76,
        "name": "Topore",
        "postal_code": "91565",
        "latitude": -2.4459638641292916,
        "longitude": 119.21231308475203
    },
    {
        "code": 7602072005,
        "district_code": 760207,
        "regency_code": 7602,
        "province_code": 76,
        "name": "Salukayu",
        "postal_code": "91565",
        "latitude": -2.4002680235717,
        "longitude": 119.22396332843196
    },
    {
        "code": 7602072006,
        "district_code": 760207,
        "regency_code": 7602,
        "province_code": 76,
        "name": "Sukadamai",
        "postal_code": "91565",
        "latitude": -2.3703893356931847,
        "longitude": 119.21887247301851
    },
    {
        "code": 7602072007,
        "district_code": 760207,
        "regency_code": 7602,
        "province_code": 76,
        "name": "Boda-Boda",
        "postal_code": "91565",
        "latitude": -2.426036551744842,
        "longitude": 119.2449591249039
    },
    {
        "code": 7602072008,
        "district_code": 760207,
        "regency_code": 7602,
        "province_code": 76,
        "name": "Sisango",
        "postal_code": "91565",
        "latitude": -2.436951540366695,
        "longitude": 119.23000757525604
    },
    {
        "code": 7602072009,
        "district_code": 760207,
        "regency_code": 7602,
        "province_code": 76,
        "name": "Batu Ampa",
        "postal_code": "91565",
        "latitude": -2.480818170085295,
        "longitude": 119.22408075751937
    },
    {
        "code": 7602082001,
        "district_code": 760208,
        "regency_code": 7602,
        "province_code": 76,
        "name": "Bunde",
        "postal_code": "91563",
        "latitude": -2.346609036876444,
        "longitude": 119.17911029734672
    },
    {
        "code": 7602082002,
        "district_code": 760208,
        "regency_code": 7602,
        "province_code": 76,
        "name": "Kalonding",
        "postal_code": "91563",
        "latitude": -2.380759165096089,
        "longitude": 119.270711398326
    },
    {
        "code": 7602082003,
        "district_code": 760208,
        "regency_code": 7602,
        "province_code": 76,
        "name": "Tarailu",
        "postal_code": "91563",
        "latitude": -2.3172930120967643,
        "longitude": 119.17512303250258
    },
    {
        "code": 7602082004,
        "district_code": 760208,
        "regency_code": 7602,
        "province_code": 76,
        "name": "Sampaga",
        "postal_code": "91563",
        "latitude": -2.315435399276695,
        "longitude": 119.13913776004492
    },
    {
        "code": 7602082005,
        "district_code": 760208,
        "regency_code": 7602,
        "province_code": 76,
        "name": "Tanambuah",
        "postal_code": "91563",
        "latitude": -2.3481138928423415,
        "longitude": 119.21655285050802
    },
    {
        "code": 7602082006,
        "district_code": 760208,
        "regency_code": 7602,
        "province_code": 76,
        "name": "Salubarana",
        "postal_code": "91563",
        "latitude": -2.385073918367214,
        "longitude": 119.24442291488306
    },
    {
        "code": 7602082007,
        "district_code": 760208,
        "regency_code": 7602,
        "province_code": 76,
        "name": "Losso",
        "postal_code": "91563",
        "latitude": -2.3265198528630364,
        "longitude": 119.20910852621867
    },
    {
        "code": 7602112001,
        "district_code": 760211,
        "regency_code": 7602,
        "province_code": 76,
        "name": "Tommo",
        "postal_code": "91564",
        "latitude": -2.2807659903943063,
        "longitude": 119.2510260951715
    },
    {
        "code": 7602112002,
        "district_code": 760211,
        "regency_code": 7602,
        "province_code": 76,
        "name": "Campaloga",
        "postal_code": "91564",
        "latitude": -2.3297321894869873,
        "longitude": 119.33835994003842
    },
    {
        "code": 7602112003,
        "district_code": 760211,
        "regency_code": 7602,
        "province_code": 76,
        "name": "Buana Sakti",
        "postal_code": "91564",
        "latitude": -2.273697583161768,
        "longitude": 119.27478936369789
    },
    {
        "code": 7602112004,
        "district_code": 760211,
        "regency_code": 7602,
        "province_code": 76,
        "name": "Tamemongga",
        "postal_code": "91564",
        "latitude": -2.323350835667227,
        "longitude": 119.26236548650283
    },
    {
        "code": 7602112005,
        "district_code": 760211,
        "regency_code": 7602,
        "province_code": 76,
        "name": "Tamejarra",
        "postal_code": "91564",
        "latitude": -2.270859352663975,
        "longitude": 119.30761598040895
    },
    {
        "code": 7602112006,
        "district_code": 760211,
        "regency_code": 7602,
        "province_code": 76,
        "name": "Rantemario",
        "postal_code": "91564",
        "latitude": -2.3021087420498634,
        "longitude": 119.3390340578451
    },
    {
        "code": 7602112007,
        "district_code": 760211,
        "regency_code": 7602,
        "province_code": 76,
        "name": "Malino",
        "postal_code": "91564",
        "latitude": -2.2479055383274704,
        "longitude": 119.29452713054737
    },
    {
        "code": 7602112008,
        "district_code": 760211,
        "regency_code": 7602,
        "province_code": 76,
        "name": "Kakullasang",
        "postal_code": "91564",
        "latitude": -2.2526344327371337,
        "longitude": 119.34915357448678
    },
    {
        "code": 7602112009,
        "district_code": 760211,
        "regency_code": 7602,
        "province_code": 76,
        "name": "Leling",
        "postal_code": "91564",
        "latitude": -2.281869337162523,
        "longitude": 119.50809782645307
    },
    {
        "code": 7602112010,
        "district_code": 760211,
        "regency_code": 7602,
        "province_code": 76,
        "name": "Kalepu",
        "postal_code": "91564",
        "latitude": -2.3026967958453524,
        "longitude": 119.22020081616954
    },
    {
        "code": 7602112011,
        "district_code": 760211,
        "regency_code": 7602,
        "province_code": 76,
        "name": "Sandana",
        "postal_code": "91564",
        "latitude": -2.2547041440021225,
        "longitude": 119.38230197321683
    },
    {
        "code": 7602112012,
        "district_code": 760211,
        "regency_code": 7602,
        "province_code": 76,
        "name": "Leling Barat",
        "postal_code": "91564",
        "latitude": -2.2139174445551286,
        "longitude": 119.39877516612185
    },
    {
        "code": 7602112013,
        "district_code": 760211,
        "regency_code": 7602,
        "province_code": 76,
        "name": "Leling Utara",
        "postal_code": "91564",
        "latitude": -2.1869105580626016,
        "longitude": 119.59056277701113
    },
    {
        "code": 7602112014,
        "district_code": 760211,
        "regency_code": 7602,
        "province_code": 76,
        "name": "Saludengen",
        "postal_code": "91564",
        "latitude": -2.364140150322776,
        "longitude": 119.32099051982844
    },
    {
        "code": 7602121001,
        "district_code": 760212,
        "regency_code": 7602,
        "province_code": 76,
        "name": "Simboro",
        "postal_code": "91512",
        "latitude": -2.6955698933148513,
        "longitude": 118.85136508856975
    },
    {
        "code": 7602121002,
        "district_code": 760212,
        "regency_code": 7602,
        "province_code": 76,
        "name": "Rangas",
        "postal_code": "91512",
        "latitude": -2.6760128162670944,
        "longitude": 118.83173435694131
    },
    {
        "code": 7602122003,
        "district_code": 760212,
        "regency_code": 7602,
        "province_code": 76,
        "name": "Botteng",
        "postal_code": "91512",
        "latitude": -2.7785272414527156,
        "longitude": 118.87265299208057
    },
    {
        "code": 7602122004,
        "district_code": 760212,
        "regency_code": 7602,
        "province_code": 76,
        "name": "Saletto",
        "postal_code": "91512",
        "latitude": -2.730207037345126,
        "longitude": 118.84093562818346
    },
    {
        "code": 7602122005,
        "district_code": 760212,
        "regency_code": 7602,
        "province_code": 76,
        "name": "Sumare",
        "postal_code": "91513",
        "latitude": -2.663413580981067,
        "longitude": 118.80971902531824
    },
    {
        "code": 7602122007,
        "district_code": 760212,
        "regency_code": 7602,
        "province_code": 76,
        "name": "Botteng Utara",
        "postal_code": "91512",
        "latitude": -2.7547864001304108,
        "longitude": 118.83729715323935
    },
    {
        "code": 7602122008,
        "district_code": 760212,
        "regency_code": 7602,
        "province_code": 76,
        "name": "Tapandullu",
        "postal_code": "91512",
        "latitude": -2.6969347356494877,
        "longitude": 118.79447278242866
    },
    {
        "code": 7602122009,
        "district_code": 760212,
        "regency_code": 7602,
        "province_code": 76,
        "name": "Pati'di",
        "postal_code": "91512",
        "latitude": -2.7250126606312537,
        "longitude": 118.87723063750795
    },
    {
        "code": 7602132001,
        "district_code": 760213,
        "regency_code": 7602,
        "province_code": 76,
        "name": "Dungkait",
        "postal_code": "91552",
        "latitude": -2.830011554103861,
        "longitude": 118.78945597615211
    },
    {
        "code": 7602132002,
        "district_code": 760213,
        "regency_code": 7602,
        "province_code": 76,
        "name": "Lebani",
        "postal_code": "91552",
        "latitude": -2.7397121549359644,
        "longitude": 118.79321779795657
    },
    {
        "code": 7602132003,
        "district_code": 760213,
        "regency_code": 7602,
        "province_code": 76,
        "name": "Labuang Rano",
        "postal_code": "91552",
        "latitude": -2.7893644817269236,
        "longitude": 118.77523637104834
    },
    {
        "code": 7602132004,
        "district_code": 760213,
        "regency_code": 7602,
        "province_code": 76,
        "name": "Pasabu",
        "postal_code": "91552",
        "latitude": -2.8164434226722688,
        "longitude": 118.83692539969651
    },
    {
        "code": 7602132005,
        "district_code": 760213,
        "regency_code": 7602,
        "province_code": 76,
        "name": "Tanete Pao",
        "postal_code": "91552",
        "latitude": -2.781376647605955,
        "longitude": 118.82185850484568
    },
    {
        "code": 7602132006,
        "district_code": 760213,
        "regency_code": 7602,
        "province_code": 76,
        "name": "Pangasaan",
        "postal_code": "91552",
        "latitude": -2.7724025024305208,
        "longitude": 118.80529092951556
    },
    {
        "code": 7602132007,
        "district_code": 760213,
        "regency_code": 7602,
        "province_code": 76,
        "name": "Ahu",
        "postal_code": "91552",
        "latitude": -2.819242190938164,
        "longitude": 118.81646639112448
    },
    {
        "code": 7602152001,
        "district_code": 760215,
        "regency_code": 7602,
        "province_code": 76,
        "name": "Bonehau",
        "postal_code": "91562",
        "latitude": -2.515357695082394,
        "longitude": 119.34355707198078
    },
    {
        "code": 7602152002,
        "district_code": 760215,
        "regency_code": 7602,
        "province_code": 76,
        "name": "Salutiwo",
        "postal_code": "91562",
        "latitude": -2.5354017315526716,
        "longitude": 119.36465906248053
    },
    {
        "code": 7602152003,
        "district_code": 760215,
        "regency_code": 7602,
        "province_code": 76,
        "name": "Buttuada",
        "postal_code": "91562",
        "latitude": -2.6773950641831905,
        "longitude": 119.30080772030317
    },
    {
        "code": 7602152004,
        "district_code": 760215,
        "regency_code": 7602,
        "province_code": 76,
        "name": "Tamalea",
        "postal_code": "91562",
        "latitude": -2.476227456062529,
        "longitude": 119.3276818595109
    },
    {
        "code": 7602152005,
        "district_code": 760215,
        "regency_code": 7602,
        "province_code": 76,
        "name": "Lumika",
        "postal_code": "91562",
        "latitude": -2.4957817151010167,
        "longitude": 119.37523764319229
    },
    {
        "code": 7602152006,
        "district_code": 760215,
        "regency_code": 7602,
        "province_code": 76,
        "name": "Mappu",
        "postal_code": "91562",
        "latitude": -2.464191142839888,
        "longitude": 119.39974518033378
    },
    {
        "code": 7602152009,
        "district_code": 760215,
        "regency_code": 7602,
        "province_code": 76,
        "name": "Banuada",
        "postal_code": "91562",
        "latitude": -2.614448067663826,
        "longitude": 119.27905028001764
    },
    {
        "code": 7602152010,
        "district_code": 760215,
        "regency_code": 7602,
        "province_code": 76,
        "name": "Hinua",
        "postal_code": "91562",
        "latitude": -2.572356085264074,
        "longitude": 119.25538369609123
    },
    {
        "code": 7602152011,
        "district_code": 760215,
        "regency_code": 7602,
        "province_code": 76,
        "name": "Kinatang",
        "postal_code": "91562",
        "latitude": -2.626850940360307,
        "longitude": 119.37861233209598
    },
    {
        "code": 7602162001,
        "district_code": 760216,
        "regency_code": 7602,
        "province_code": 76,
        "name": "Bala Balakang",
        "postal_code": "91512",
        "latitude": -2.3105988364476295,
        "longitude": 117.21040013824485
    },
    {
        "code": 7602162002,
        "district_code": 760216,
        "regency_code": 7602,
        "province_code": 76,
        "name": "Bala-Balakang Timur",
        "postal_code": "91512",
        "latitude": -2.869087148131448,
        "longitude": 117.57529803011609
    },
    {
        "code": 7603011001,
        "district_code": 760301,
        "regency_code": 7603,
        "province_code": 76,
        "name": "Mambi",
        "postal_code": "91370",
        "latitude": -2.950401292358102,
        "longitude": 119.16791088942746
    },
    {
        "code": 7603011002,
        "district_code": 760301,
        "regency_code": 7603,
        "province_code": 76,
        "name": "Talipukki",
        "postal_code": "91370",
        "latitude": -2.947195416042515,
        "longitude": 119.1375078320757
    },
    {
        "code": 7603012004,
        "district_code": 760301,
        "regency_code": 7603,
        "province_code": 76,
        "name": "Rantebulahan",
        "postal_code": "91370",
        "latitude": -2.979021977657322,
        "longitude": 119.18618125430463
    },
    {
        "code": 7603012008,
        "district_code": 760301,
        "regency_code": 7603,
        "province_code": 76,
        "name": "Sondonglayu",
        "postal_code": "91370",
        "latitude": -2.939151515436187,
        "longitude": 119.18198576951673
    },
    {
        "code": 7603012016,
        "district_code": 760301,
        "regency_code": 7603,
        "province_code": 76,
        "name": "Salubanua",
        "postal_code": "91370",
        "latitude": -3.049828638700276,
        "longitude": 119.10940808017958
    },
    {
        "code": 7603012017,
        "district_code": 760301,
        "regency_code": 7603,
        "province_code": 76,
        "name": "Tapalina",
        "postal_code": "91370",
        "latitude": -2.9195190809067286,
        "longitude": 119.16322099726455
    },
    {
        "code": 7603012019,
        "district_code": 760301,
        "regency_code": 7603,
        "province_code": 76,
        "name": "Sendana",
        "postal_code": "91370",
        "latitude": -2.958770950228747,
        "longitude": 119.18101410938174
    },
    {
        "code": 7603012024,
        "district_code": 760301,
        "regency_code": 7603,
        "province_code": 76,
        "name": "Pamosean",
        "postal_code": "91370",
        "latitude": -2.9919806399092006,
        "longitude": 119.10706896988214
    },
    {
        "code": 7603012025,
        "district_code": 760301,
        "regency_code": 7603,
        "province_code": 76,
        "name": "Selumaka",
        "postal_code": "91370",
        "latitude": -3.0095609050633305,
        "longitude": 119.143581408204
    },
    {
        "code": 7603012026,
        "district_code": 760301,
        "regency_code": 7603,
        "province_code": 76,
        "name": "Bujung Manurung",
        "postal_code": "91370",
        "latitude": -2.930648504933986,
        "longitude": 119.17285487446796
    },
    {
        "code": 7603012027,
        "district_code": 760301,
        "regency_code": 7603,
        "province_code": 76,
        "name": "Salu Alo",
        "postal_code": "91370",
        "latitude": -2.99669894405451,
        "longitude": 119.17630473023358
    },
    {
        "code": 7603012029,
        "district_code": 760301,
        "regency_code": 7603,
        "province_code": 76,
        "name": "Indobanua",
        "postal_code": "91370",
        "latitude": -2.960694949899312,
        "longitude": 119.07203687298916
    },
    {
        "code": 7603012030,
        "district_code": 760301,
        "regency_code": 7603,
        "province_code": 76,
        "name": "Saludurian",
        "postal_code": "91370",
        "latitude": -2.9722925465035384,
        "longitude": 119.15815733502298
    },
    {
        "code": 7603021001,
        "district_code": 760302,
        "regency_code": 7603,
        "province_code": 76,
        "name": "Aralle",
        "postal_code": "91373",
        "latitude": -2.8820722146702877,
        "longitude": 119.1507603251536
    },
    {
        "code": 7603022003,
        "district_code": 760302,
        "regency_code": 7603,
        "province_code": 76,
        "name": "Ralle Anak",
        "postal_code": "91373",
        "latitude": -2.8966513504523665,
        "longitude": 119.09344623170323
    },
    {
        "code": 7603022004,
        "district_code": 760302,
        "regency_code": 7603,
        "province_code": 76,
        "name": "Panetean",
        "postal_code": "91373",
        "latitude": -2.850953590854199,
        "longitude": 119.10505097439828
    },
    {
        "code": 7603022005,
        "district_code": 760302,
        "regency_code": 7603,
        "province_code": 76,
        "name": "Uhailanu",
        "postal_code": "91373",
        "latitude": -2.9124667109683995,
        "longitude": 119.14497152169314
    },
    {
        "code": 7603022007,
        "district_code": 760302,
        "regency_code": 7603,
        "province_code": 76,
        "name": "Aralle Utara",
        "postal_code": "91373",
        "latitude": -2.873749006533399,
        "longitude": 119.14988574903616
    },
    {
        "code": 7603022009,
        "district_code": 760302,
        "regency_code": 7603,
        "province_code": 76,
        "name": "Uhaidaho",
        "postal_code": "91373",
        "latitude": -2.9079250032492423,
        "longitude": 119.07359116823872
    },
    {
        "code": 7603022010,
        "district_code": 760302,
        "regency_code": 7603,
        "province_code": 76,
        "name": "Baruru",
        "postal_code": "91373",
        "latitude": -2.831528146417592,
        "longitude": 119.06390725825796
    },
    {
        "code": 7603022015,
        "district_code": 760302,
        "regency_code": 7603,
        "province_code": 76,
        "name": "Ralleanak Utara",
        "postal_code": "91373",
        "latitude": -2.8819687133122898,
        "longitude": 119.10610823664679
    },
    {
        "code": 7603022016,
        "district_code": 760302,
        "regency_code": 7603,
        "province_code": 76,
        "name": "Pamoseang Pangga",
        "postal_code": "91373",
        "latitude": -2.9356022515718294,
        "longitude": 119.06836868277895
    },
    {
        "code": 7603022017,
        "district_code": 760302,
        "regency_code": 7603,
        "province_code": 76,
        "name": "Kalabe",
        "postal_code": "91373",
        "latitude": -2.871972232769577,
        "longitude": 119.118773631997
    },
    {
        "code": 7603022018,
        "district_code": 760302,
        "regency_code": 7603,
        "province_code": 76,
        "name": "Aralle Selatan",
        "postal_code": "91373",
        "latitude": -2.8927914934829846,
        "longitude": 119.14808528625488
    },
    {
        "code": 7603022019,
        "district_code": 760302,
        "regency_code": 7603,
        "province_code": 76,
        "name": "Hahangan",
        "postal_code": "91373",
        "latitude": -2.8987355973621343,
        "longitude": 119.1785583821656
    },
    {
        "code": 7603031001,
        "district_code": 760303,
        "regency_code": 7603,
        "province_code": 76,
        "name": "Mamasa",
        "postal_code": "91362",
        "latitude": -2.9461369041534966,
        "longitude": 119.38177445135842
    },
    {
        "code": 7603032002,
        "district_code": 760303,
        "regency_code": 7603,
        "province_code": 76,
        "name": "Rambusaratu",
        "postal_code": "91362",
        "latitude": -2.8280507061122737,
        "longitude": 119.40913375356914
    },
    {
        "code": 7603032003,
        "district_code": 760303,
        "regency_code": 7603,
        "province_code": 76,
        "name": "Osango",
        "postal_code": "91362",
        "latitude": -2.95166101365045,
        "longitude": 119.35982702828107
    },
    {
        "code": 7603032004,
        "district_code": 760303,
        "regency_code": 7603,
        "province_code": 76,
        "name": "Lambanan",
        "postal_code": "91362",
        "latitude": -2.830344277182977,
        "longitude": 119.49439102505492
    },
    {
        "code": 7603032005,
        "district_code": 760303,
        "regency_code": 7603,
        "province_code": 76,
        "name": "Lembana Salulo",
        "postal_code": "91362",
        "latitude": -2.9415297279252646,
        "longitude": 119.33125987652404
    },
    {
        "code": 7603032006,
        "district_code": 760303,
        "regency_code": 7603,
        "province_code": 76,
        "name": "Taupe",
        "postal_code": "91362",
        "latitude": -2.9187549283678997,
        "longitude": 119.35127006747814
    },
    {
        "code": 7603032007,
        "district_code": 760303,
        "regency_code": 7603,
        "province_code": 76,
        "name": "Buntu Buda",
        "postal_code": "91362",
        "latitude": -2.936051343815743,
        "longitude": 119.37153498215898
    },
    {
        "code": 7603032008,
        "district_code": 760303,
        "regency_code": 7603,
        "province_code": 76,
        "name": "Tondok Bakaru",
        "postal_code": "91362",
        "latitude": -2.8518055179590416,
        "longitude": 119.37815541985252
    },
    {
        "code": 7603032009,
        "district_code": 760303,
        "regency_code": 7603,
        "province_code": 76,
        "name": "Pebassian",
        "postal_code": "91362",
        "latitude": -2.954468736089321,
        "longitude": 119.32056680544936
    },
    {
        "code": 7603032010,
        "district_code": 760303,
        "regency_code": 7603,
        "province_code": 76,
        "name": "Mambuliling",
        "postal_code": "91362",
        "latitude": -2.8543475033086474,
        "longitude": 119.34735468479624
    },
    {
        "code": 7603032011,
        "district_code": 760303,
        "regency_code": 7603,
        "province_code": 76,
        "name": "Bombong Lambe",
        "postal_code": "91362",
        "latitude": -2.968268366573201,
        "longitude": 119.35789254905983
    },
    {
        "code": 7603032012,
        "district_code": 760303,
        "regency_code": 7603,
        "province_code": 76,
        "name": "Bubun Batu",
        "postal_code": "91362",
        "latitude": -2.933174189395114,
        "longitude": 119.33779252704741
    },
    {
        "code": 7603041001,
        "district_code": 760304,
        "regency_code": 7603,
        "province_code": 76,
        "name": "Pana",
        "postal_code": "91369",
        "latitude": -3.063181129669317,
        "longitude": 119.56318030940386
    },
    {
        "code": 7603042003,
        "district_code": 760304,
        "regency_code": 7603,
        "province_code": 76,
        "name": "Manipi",
        "postal_code": "91369",
        "latitude": -3.1021468178744898,
        "longitude": 119.60589600069086
    },
    {
        "code": 7603042005,
        "district_code": 760304,
        "regency_code": 7603,
        "province_code": 76,
        "name": "Mamullu",
        "postal_code": "91369",
        "latitude": -3.077940426962593,
        "longitude": 119.58673541989259
    },
    {
        "code": 7603042006,
        "district_code": 760304,
        "regency_code": 7603,
        "province_code": 76,
        "name": "Sapan",
        "postal_code": "91369",
        "latitude": -3.0329998461438183,
        "longitude": 119.55752298737528
    },
    {
        "code": 7603042009,
        "district_code": 760304,
        "regency_code": 7603,
        "province_code": 76,
        "name": "Datubaringan",
        "postal_code": "91369",
        "latitude": -3.1221951809556585,
        "longitude": 119.56064176006784
    },
    {
        "code": 7603042010,
        "district_code": 760304,
        "regency_code": 7603,
        "province_code": 76,
        "name": "Panura",
        "postal_code": "91369",
        "latitude": -3.093590963938114,
        "longitude": 119.54360290793052
    },
    {
        "code": 7603042011,
        "district_code": 760304,
        "regency_code": 7603,
        "province_code": 76,
        "name": "Tallang Bulawan",
        "postal_code": "91369",
        "latitude": -3.0781052818709327,
        "longitude": 119.57063992044428
    },
    {
        "code": 7603042012,
        "district_code": 760304,
        "regency_code": 7603,
        "province_code": 76,
        "name": "Karaka",
        "postal_code": "91369",
        "latitude": -3.0487589534067006,
        "longitude": 119.57956753931744
    },
    {
        "code": 7603042013,
        "district_code": 760304,
        "regency_code": 7603,
        "province_code": 76,
        "name": "Ulusalu",
        "postal_code": "91369",
        "latitude": -3.0499151451643716,
        "longitude": 119.52299587811738
    },
    {
        "code": 7603042014,
        "district_code": 760304,
        "regency_code": 7603,
        "province_code": 76,
        "name": "Weri",
        "postal_code": "91369",
        "latitude": -3.066884414866357,
        "longitude": 119.54062767942503
    },
    {
        "code": 7603042015,
        "district_code": 760304,
        "regency_code": 7603,
        "province_code": 76,
        "name": "Salutambun",
        "postal_code": "91369",
        "latitude": -3.057732379978958,
        "longitude": 119.53144763610719
    },
    {
        "code": 7603042016,
        "district_code": 760304,
        "regency_code": 7603,
        "province_code": 76,
        "name": "Saloan",
        "postal_code": "91369",
        "latitude": -3.007024871528249,
        "longitude": 119.50816506282774
    },
    {
        "code": 7603042017,
        "district_code": 760304,
        "regency_code": 7603,
        "province_code": 76,
        "name": "Ulusalu Indah",
        "postal_code": "91369",
        "latitude": -3.0443444876530803,
        "longitude": 119.48890953012797
    },
    {
        "code": 7603051001,
        "district_code": 760305,
        "regency_code": 7603,
        "province_code": 76,
        "name": "Lakahang ",
        "postal_code": "91372",
        "latitude": -2.679923291598813,
        "longitude": 119.17250629805814
    },
    {
        "code": 7603052002,
        "district_code": 760305,
        "regency_code": 7603,
        "province_code": 76,
        "name": "Periangan",
        "postal_code": "91372",
        "latitude": -2.7264811802444915,
        "longitude": 119.214238796843
    },
    {
        "code": 7603052003,
        "district_code": 760305,
        "regency_code": 7603,
        "province_code": 76,
        "name": "Malatiro",
        "postal_code": "91372",
        "latitude": -2.7835083152525524,
        "longitude": 119.13176070142288
    },
    {
        "code": 7603052004,
        "district_code": 760305,
        "regency_code": 7603,
        "province_code": 76,
        "name": "Tabulahan",
        "postal_code": "91372",
        "latitude": -2.7722412202494042,
        "longitude": 119.21875984728635
    },
    {
        "code": 7603052005,
        "district_code": 760305,
        "regency_code": 7603,
        "province_code": 76,
        "name": "Saluleang",
        "postal_code": "91372",
        "latitude": -2.764699136562524,
        "longitude": 119.28580726503517
    },
    {
        "code": 7603052007,
        "district_code": 760305,
        "regency_code": 7603,
        "province_code": 76,
        "name": "Tampak Kurra",
        "postal_code": "91372",
        "latitude": -2.7441599894737596,
        "longitude": 119.17391409350462
    },
    {
        "code": 7603052008,
        "district_code": 760305,
        "regency_code": 7603,
        "province_code": 76,
        "name": "Gandang Dewata",
        "postal_code": "91372",
        "latitude": -2.740838849768449,
        "longitude": 119.33171486233266
    },
    {
        "code": 7603052009,
        "district_code": 760305,
        "regency_code": 7603,
        "province_code": 76,
        "name": "Burana",
        "postal_code": "91372",
        "latitude": -2.7086322008144887,
        "longitude": 119.12160503468975
    },
    {
        "code": 7603052010,
        "district_code": 760305,
        "regency_code": 7603,
        "province_code": 76,
        "name": "Salubakka",
        "postal_code": "91372",
        "latitude": -2.7636133680236625,
        "longitude": 119.19148306351758
    },
    {
        "code": 7603052011,
        "district_code": 760305,
        "regency_code": 7603,
        "province_code": 76,
        "name": "Pangandaran",
        "postal_code": "91372",
        "latitude": -2.7602421695498407,
        "longitude": 119.0654325107073
    },
    {
        "code": 7603052012,
        "district_code": 760305,
        "regency_code": 7603,
        "province_code": 76,
        "name": "Talopak",
        "postal_code": "91372",
        "latitude": -2.6982277831052692,
        "longitude": 119.20030636476056
    },
    {
        "code": 7603052013,
        "district_code": 760305,
        "regency_code": 7603,
        "province_code": 76,
        "name": "Peu'",
        "postal_code": "91372",
        "latitude": -2.8108682144849757,
        "longitude": 119.27734863585658
    },
    {
        "code": 7603052014,
        "district_code": 760305,
        "regency_code": 7603,
        "province_code": 76,
        "name": "Timoro",
        "postal_code": "91372",
        "latitude": -2.663694138568875,
        "longitude": 119.18398033047833
    },
    {
        "code": 7603052015,
        "district_code": 760305,
        "regency_code": 7603,
        "province_code": 76,
        "name": "Lakahang Utama",
        "postal_code": "91372",
        "latitude": -2.699595412987687,
        "longitude": 119.17992986112537
    },
    {
        "code": 7603061001,
        "district_code": 760306,
        "regency_code": 7603,
        "province_code": 76,
        "name": "Sumarorong",
        "postal_code": "91360",
        "latitude": -3.142421519935363,
        "longitude": 119.31121742452439
    },
    {
        "code": 7603061002,
        "district_code": 760306,
        "regency_code": 7603,
        "province_code": 76,
        "name": "Tabone",
        "postal_code": "91360",
        "latitude": -3.175720076899012,
        "longitude": 119.33138232455917
    },
    {
        "code": 7603062003,
        "district_code": 760306,
        "regency_code": 7603,
        "province_code": 76,
        "name": "Batang Uru",
        "postal_code": "91360",
        "latitude": -3.179505603746029,
        "longitude": 119.37554683903093
    },
    {
        "code": 7603062004,
        "district_code": 760306,
        "regency_code": 7603,
        "province_code": 76,
        "name": "Sasakan",
        "postal_code": "91360",
        "latitude": -3.1663665362571805,
        "longitude": 119.28685349243777
    },
    {
        "code": 7603062005,
        "district_code": 760306,
        "regency_code": 7603,
        "province_code": 76,
        "name": "Tadisi",
        "postal_code": "91360",
        "latitude": -3.145100863801103,
        "longitude": 119.33224179401614
    },
    {
        "code": 7603062006,
        "district_code": 760306,
        "regency_code": 7603,
        "province_code": 76,
        "name": "Sibanawa",
        "postal_code": "91360",
        "latitude": -3.1975233074352194,
        "longitude": 119.3420980522159
    },
    {
        "code": 7603062007,
        "district_code": 760306,
        "regency_code": 7603,
        "province_code": 76,
        "name": "Batangnguru Timur",
        "postal_code": "91360",
        "latitude": -3.1615483793691386,
        "longitude": 119.40097211481218
    },
    {
        "code": 7603062008,
        "district_code": 760306,
        "regency_code": 7603,
        "province_code": 76,
        "name": "Salubalo",
        "postal_code": "91360",
        "latitude": -3.1173026404675728,
        "longitude": 119.2821266155286
    },
    {
        "code": 7603062009,
        "district_code": 760306,
        "regency_code": 7603,
        "province_code": 76,
        "name": "Banea",
        "postal_code": "91360",
        "latitude": -3.1227939029565377,
        "longitude": 119.387653062786
    },
    {
        "code": 7603062010,
        "district_code": 760306,
        "regency_code": 7603,
        "province_code": 76,
        "name": "Rante Kamase",
        "postal_code": "91360",
        "latitude": -3.12443129771062,
        "longitude": 119.3158122881548
    },
    {
        "code": 7603071001,
        "district_code": 760307,
        "regency_code": 7603,
        "province_code": 76,
        "name": "Messawa",
        "postal_code": "91361",
        "latitude": -3.2639314698245587,
        "longitude": 119.34428598493847
    },
    {
        "code": 7603072002,
        "district_code": 760307,
        "regency_code": 7603,
        "province_code": 76,
        "name": "Rippung",
        "postal_code": "91361",
        "latitude": -3.2274067453948,
        "longitude": 119.3436496611114
    },
    {
        "code": 7603072003,
        "district_code": 760307,
        "regency_code": 7603,
        "province_code": 76,
        "name": "Makuang",
        "postal_code": "91361",
        "latitude": -3.284396405486458,
        "longitude": 119.36007033300277
    },
    {
        "code": 7603072004,
        "district_code": 760307,
        "regency_code": 7603,
        "province_code": 76,
        "name": "Sepang",
        "postal_code": "91361",
        "latitude": -3.3200044829421684,
        "longitude": 119.42962898672893
    },
    {
        "code": 7603072005,
        "district_code": 760307,
        "regency_code": 7603,
        "province_code": 76,
        "name": "Malimbong",
        "postal_code": "91361",
        "latitude": -3.252826811090223,
        "longitude": 119.38263473689722
    },
    {
        "code": 7603072006,
        "district_code": 760307,
        "regency_code": 7603,
        "province_code": 76,
        "name": "Matande",
        "postal_code": "91361",
        "latitude": -3.2843161659564695,
        "longitude": 119.38894555546148
    },
    {
        "code": 7603072007,
        "district_code": 760307,
        "regency_code": 7603,
        "province_code": 76,
        "name": "Sipai",
        "postal_code": "91361",
        "latitude": -3.2798361947851835,
        "longitude": 119.41207569052729
    },
    {
        "code": 7603072008,
        "district_code": 760307,
        "regency_code": 7603,
        "province_code": 76,
        "name": "Pasma Mambu",
        "postal_code": "91361",
        "latitude": -3.2449607633950825,
        "longitude": 119.31196692031173
    },
    {
        "code": 7603072009,
        "district_code": 760307,
        "regency_code": 7603,
        "province_code": 76,
        "name": "Tanete Batu",
        "postal_code": "91361",
        "latitude": -3.2988435138835213,
        "longitude": 119.41785438758815
    },
    {
        "code": 7603082002,
        "district_code": 760308,
        "regency_code": 7603,
        "province_code": 76,
        "name": "Orobua",
        "postal_code": "91365",
        "latitude": -2.982744986015416,
        "longitude": 119.40057877105616
    },
    {
        "code": 7603082003,
        "district_code": 760308,
        "regency_code": 7603,
        "province_code": 76,
        "name": "Paladan",
        "postal_code": "91365",
        "latitude": -2.992082630863554,
        "longitude": 119.382071151131
    },
    {
        "code": 7603082004,
        "district_code": 760308,
        "regency_code": 7603,
        "province_code": 76,
        "name": "Orobua Timur",
        "postal_code": "91365",
        "latitude": -2.9976359675346624,
        "longitude": 119.44280941730571
    },
    {
        "code": 7603082006,
        "district_code": 760308,
        "regency_code": 7603,
        "province_code": 76,
        "name": "Rante Puang",
        "postal_code": "91365",
        "latitude": -2.992515482039917,
        "longitude": 119.36250428648995
    },
    {
        "code": 7603082007,
        "district_code": 760308,
        "regency_code": 7603,
        "province_code": 76,
        "name": "Satenetean",
        "postal_code": "91365",
        "latitude": -3.025970241704147,
        "longitude": 119.41825563620817
    },
    {
        "code": 7603082008,
        "district_code": 760308,
        "regency_code": 7603,
        "province_code": 76,
        "name": "Lisuan Ada",
        "postal_code": "91365",
        "latitude": -2.978207345540194,
        "longitude": 119.44157871051665
    },
    {
        "code": 7603082010,
        "district_code": 760308,
        "regency_code": 7603,
        "province_code": 76,
        "name": "Orobua Selatan",
        "postal_code": "91365",
        "latitude": -3.0175595756379323,
        "longitude": 119.43354930660455
    },
    {
        "code": 7603082012,
        "district_code": 760308,
        "regency_code": 7603,
        "province_code": 76,
        "name": "Malangkena Padang",
        "postal_code": "91365",
        "latitude": -3.0422141349988654,
        "longitude": 119.3765463649072
    },
    {
        "code": 7603082013,
        "district_code": 760308,
        "regency_code": 7603,
        "province_code": 76,
        "name": "Malimbong",
        "postal_code": "91365",
        "latitude": -3.0346192662821134,
        "longitude": 119.40472359462538
    },
    {
        "code": 7603082014,
        "district_code": 760308,
        "regency_code": 7603,
        "province_code": 76,
        "name": "Marampan Orobua",
        "postal_code": "91365",
        "latitude": -3.0061545989272207,
        "longitude": 119.42733636578025
    },
    {
        "code": 7603091011,
        "district_code": 760309,
        "regency_code": 7603,
        "province_code": 76,
        "name": "Minake",
        "postal_code": "91367",
        "latitude": -3.062002346496597,
        "longitude": 119.28019565440438
    },
    {
        "code": 7603092001,
        "district_code": 760309,
        "regency_code": 7603,
        "province_code": 76,
        "name": "Malabo",
        "postal_code": "91367",
        "latitude": -3.02440906080685,
        "longitude": 119.30543200934792
    },
    {
        "code": 7603092005,
        "district_code": 760309,
        "regency_code": 7603,
        "province_code": 76,
        "name": "Sindagamanik",
        "postal_code": "91367",
        "latitude": -3.0250790153526816,
        "longitude": 119.2666145534573
    },
    {
        "code": 7603092006,
        "district_code": 760309,
        "regency_code": 7603,
        "province_code": 76,
        "name": "Parondobulawan",
        "postal_code": "91367",
        "latitude": -3.010567442896297,
        "longitude": 119.28244946408341
    },
    {
        "code": 7603092007,
        "district_code": 760309,
        "regency_code": 7603,
        "province_code": 76,
        "name": "Tamalantik",
        "postal_code": "91367",
        "latitude": -3.071106218109893,
        "longitude": 119.33327957006249
    },
    {
        "code": 7603092008,
        "district_code": 760309,
        "regency_code": 7603,
        "province_code": 76,
        "name": "Mannababa",
        "postal_code": "91367",
        "latitude": -2.9994062514726565,
        "longitude": 119.26279940258323
    },
    {
        "code": 7603092009,
        "district_code": 760309,
        "regency_code": 7603,
        "province_code": 76,
        "name": "Mesakada",
        "postal_code": "91367",
        "latitude": -3.098097457059312,
        "longitude": 119.3166479452743
    },
    {
        "code": 7603092010,
        "district_code": 760309,
        "regency_code": 7603,
        "province_code": 76,
        "name": "Ballabatu",
        "postal_code": "91367",
        "latitude": -3.0493980815658612,
        "longitude": 119.30619330603575
    },
    {
        "code": 7603092012,
        "district_code": 760309,
        "regency_code": 7603,
        "province_code": 76,
        "name": "Pambe",
        "postal_code": "91367",
        "latitude": -3.0169621461168252,
        "longitude": 119.30678175519633
    },
    {
        "code": 7603092013,
        "district_code": 760309,
        "regency_code": 7603,
        "province_code": 76,
        "name": "Salurano",
        "postal_code": "91367",
        "latitude": -3.057810707941573,
        "longitude": 119.35021819719817
    },
    {
        "code": 7603092014,
        "district_code": 760309,
        "regency_code": 7603,
        "province_code": 76,
        "name": "Talimbung",
        "postal_code": "91367",
        "latitude": -3.0120845374250496,
        "longitude": 119.2959443068942
    },
    {
        "code": 7603092015,
        "district_code": 760309,
        "regency_code": 7603,
        "province_code": 76,
        "name": "Kanan",
        "postal_code": "91367",
        "latitude": -3.091085963623265,
        "longitude": 119.34130070243677
    },
    {
        "code": 7603101001,
        "district_code": 760310,
        "regency_code": 7603,
        "province_code": 76,
        "name": "Tabang",
        "postal_code": "91364",
        "latitude": -2.9676216253332655,
        "longitude": 119.56488187440875
    },
    {
        "code": 7603102003,
        "district_code": 760310,
        "regency_code": 7603,
        "province_code": 76,
        "name": "Tadokalua",
        "postal_code": "91364",
        "latitude": -2.9403862165096895,
        "longitude": 119.5037538033161
    },
    {
        "code": 7603102004,
        "district_code": 760310,
        "regency_code": 7603,
        "province_code": 76,
        "name": "Tabang Barat",
        "postal_code": "91364",
        "latitude": -2.994164147532496,
        "longitude": 119.54855106293128
    },
    {
        "code": 7603102005,
        "district_code": 760310,
        "regency_code": 7603,
        "province_code": 76,
        "name": "Masupu",
        "postal_code": "91364",
        "latitude": -3.0197586083665167,
        "longitude": 119.56346134948846
    },
    {
        "code": 7603102006,
        "district_code": 760310,
        "regency_code": 7603,
        "province_code": 76,
        "name": "Kalama",
        "postal_code": "91364",
        "latitude": -2.9827799952304193,
        "longitude": 119.48409678224186
    },
    {
        "code": 7603102007,
        "district_code": 760310,
        "regency_code": 7603,
        "province_code": 76,
        "name": "Bakadisura",
        "postal_code": "91364",
        "latitude": -2.9492957797288577,
        "longitude": 119.53337714104958
    },
    {
        "code": 7603102008,
        "district_code": 760310,
        "regency_code": 7603,
        "province_code": 76,
        "name": "Salukona",
        "postal_code": "91364",
        "latitude": -2.9184220905704645,
        "longitude": 119.54737441482679
    },
    {
        "code": 7603112001,
        "district_code": 760311,
        "regency_code": 7603,
        "province_code": 76,
        "name": "Mokallang",
        "postal_code": "91371",
        "latitude": -2.897520233288839,
        "longitude": 119.2415595944548
    },
    {
        "code": 7603112002,
        "district_code": 760311,
        "regency_code": 7603,
        "province_code": 76,
        "name": "Masoso",
        "postal_code": "91371",
        "latitude": -2.9287951013301523,
        "longitude": 119.22100380971636
    },
    {
        "code": 7603112003,
        "district_code": 760311,
        "regency_code": 7603,
        "province_code": 76,
        "name": "Saluassing",
        "postal_code": "91371",
        "latitude": -2.9193052216165385,
        "longitude": 119.19506699127295
    },
    {
        "code": 7603112004,
        "district_code": 760311,
        "regency_code": 7603,
        "province_code": 76,
        "name": "Salubulo",
        "postal_code": "91371",
        "latitude": -2.963125219084537,
        "longitude": 119.21095439677838
    },
    {
        "code": 7603112005,
        "district_code": 760311,
        "regency_code": 7603,
        "province_code": 76,
        "name": "Salukadi",
        "postal_code": "91371",
        "latitude": -2.9389782444814694,
        "longitude": 119.22219190586642
    },
    {
        "code": 7603112006,
        "district_code": 760311,
        "regency_code": 7603,
        "province_code": 76,
        "name": "Salukepopok",
        "postal_code": "91371",
        "latitude": -2.9177864873881014,
        "longitude": 119.18191744352562
    },
    {
        "code": 7603112007,
        "district_code": 760311,
        "regency_code": 7603,
        "province_code": 76,
        "name": "Ulumambi Barat",
        "postal_code": "91371",
        "latitude": -2.882567591624611,
        "longitude": 119.27279573160139
    },
    {
        "code": 7603112008,
        "district_code": 760311,
        "regency_code": 7603,
        "province_code": 76,
        "name": "Limbadebata",
        "postal_code": "91371",
        "latitude": -2.957086159424615,
        "longitude": 119.2492771563369
    },
    {
        "code": 7603112009,
        "district_code": 760311,
        "regency_code": 7603,
        "province_code": 76,
        "name": "Tanete Tomba",
        "postal_code": "91371",
        "latitude": -2.962141076573573,
        "longitude": 119.22320076335937
    },
    {
        "code": 7603112010,
        "district_code": 760311,
        "regency_code": 7603,
        "province_code": 76,
        "name": "Bambang",
        "postal_code": "91371",
        "latitude": -2.9535558699532065,
        "longitude": 119.2020396433452
    },
    {
        "code": 7603112011,
        "district_code": 760311,
        "regency_code": 7603,
        "province_code": 76,
        "name": "Rantelemo",
        "postal_code": "91371",
        "latitude": -2.937708923249437,
        "longitude": 119.23183163832532
    },
    {
        "code": 7603112012,
        "district_code": 760311,
        "regency_code": 7603,
        "province_code": 76,
        "name": "Saludengen",
        "postal_code": "91371",
        "latitude": -2.8946967460050366,
        "longitude": 119.21315250847636
    },
    {
        "code": 7603112013,
        "district_code": 760311,
        "regency_code": 7603,
        "province_code": 76,
        "name": "Ulumambi",
        "postal_code": "91371",
        "latitude": -2.9369927436214724,
        "longitude": 119.27388752138441
    },
    {
        "code": 7603112014,
        "district_code": 760311,
        "regency_code": 7603,
        "province_code": 76,
        "name": "Bambang Timur",
        "postal_code": "91371",
        "latitude": -2.9481598367054414,
        "longitude": 119.2151883248865
    },
    {
        "code": 7603112015,
        "district_code": 760311,
        "regency_code": 7603,
        "province_code": 76,
        "name": "Minanga",
        "postal_code": "91371",
        "latitude": -2.9456377355565895,
        "longitude": 119.1943147957391
    },
    {
        "code": 7603112016,
        "district_code": 760311,
        "regency_code": 7603,
        "province_code": 76,
        "name": "Sikamase",
        "postal_code": "91371",
        "latitude": -2.8943153831284283,
        "longitude": 119.3090013325861
    },
    {
        "code": 7603112017,
        "district_code": 760311,
        "regency_code": 7603,
        "province_code": 76,
        "name": "Rantetarima",
        "postal_code": "91371",
        "latitude": -2.889467519029788,
        "longitude": 119.2285664820108
    },
    {
        "code": 7603112018,
        "district_code": 760311,
        "regency_code": 7603,
        "province_code": 76,
        "name": "Salururu",
        "postal_code": "91371",
        "latitude": -2.943854382759753,
        "longitude": 119.24735575168187
    },
    {
        "code": 7603112019,
        "district_code": 760311,
        "regency_code": 7603,
        "province_code": 76,
        "name": "Salutabang",
        "postal_code": "91371",
        "latitude": -2.928939531854172,
        "longitude": 119.23585551724454
    },
    {
        "code": 7603112020,
        "district_code": 760311,
        "regency_code": 7603,
        "province_code": 76,
        "name": "Balatana",
        "postal_code": "91371",
        "latitude": -2.9517441172098122,
        "longitude": 119.22659770577684
    },
    {
        "code": 7603122001,
        "district_code": 760312,
        "regency_code": 7603,
        "province_code": 76,
        "name": "Balla",
        "postal_code": "91366",
        "latitude": -2.9924856524687242,
        "longitude": 119.33971909576785
    },
    {
        "code": 7603122002,
        "district_code": 760312,
        "regency_code": 7603,
        "province_code": 76,
        "name": "Balla Barat",
        "postal_code": "91366",
        "latitude": -2.9859915886893313,
        "longitude": 119.31521093728786
    },
    {
        "code": 7603122003,
        "district_code": 760312,
        "regency_code": 7603,
        "province_code": 76,
        "name": "Balla Satanetean",
        "postal_code": "91366",
        "latitude": -2.9810143157871973,
        "longitude": 119.3256902267863
    },
    {
        "code": 7603122004,
        "district_code": 760312,
        "regency_code": 7603,
        "province_code": 76,
        "name": "Balla Tumuka",
        "postal_code": "91366",
        "latitude": -2.977323956443362,
        "longitude": 119.28605790084056
    },
    {
        "code": 7603122005,
        "district_code": 760312,
        "regency_code": 7603,
        "province_code": 76,
        "name": "Sepakuan",
        "postal_code": "91366",
        "latitude": -3.0154946096662147,
        "longitude": 119.32768819324109
    },
    {
        "code": 7603122006,
        "district_code": 760312,
        "regency_code": 7603,
        "province_code": 76,
        "name": "Pidara",
        "postal_code": "91366",
        "latitude": -2.9723852748077397,
        "longitude": 119.30173096446187
    },
    {
        "code": 7603122007,
        "district_code": 760312,
        "regency_code": 7603,
        "province_code": 76,
        "name": "Bambapuang",
        "postal_code": "91366",
        "latitude": -3.0303020877876907,
        "longitude": 119.35251315628689
    },
    {
        "code": 7603122008,
        "district_code": 760312,
        "regency_code": 7603,
        "province_code": 76,
        "name": "Balla Timur",
        "postal_code": "91366",
        "latitude": -3.0042622954371745,
        "longitude": 119.34924869799119
    },
    {
        "code": 7603131001,
        "district_code": 760313,
        "regency_code": 7603,
        "province_code": 76,
        "name": "Nosu ",
        "postal_code": "91363",
        "latitude": -3.123515391751852,
        "longitude": 119.47823947341057
    },
    {
        "code": 7603132002,
        "district_code": 760313,
        "regency_code": 7603,
        "province_code": 76,
        "name": "Minanga",
        "postal_code": "91363",
        "latitude": -3.0814625946342744,
        "longitude": 119.43648606572337
    },
    {
        "code": 7603132003,
        "district_code": 760313,
        "regency_code": 7603,
        "province_code": 76,
        "name": "Batupapan",
        "postal_code": "91363",
        "latitude": -3.1499348753498007,
        "longitude": 119.47208960595233
    },
    {
        "code": 7603132004,
        "district_code": 760313,
        "regency_code": 7603,
        "province_code": 76,
        "name": "Masewwe",
        "postal_code": "91363",
        "latitude": -3.1752953276058324,
        "longitude": 119.4765116437796
    },
    {
        "code": 7603132005,
        "district_code": 760313,
        "regency_code": 7603,
        "province_code": 76,
        "name": "Siwi",
        "postal_code": "91363",
        "latitude": -3.1057944552691943,
        "longitude": 119.50112546253484
    },
    {
        "code": 7603132006,
        "district_code": 760313,
        "regency_code": 7603,
        "province_code": 76,
        "name": "Minanga Timur",
        "postal_code": "91363",
        "latitude": -3.0922482074539603,
        "longitude": 119.48730621993053
    },
    {
        "code": 7603132007,
        "district_code": 760313,
        "regency_code": 7603,
        "province_code": 76,
        "name": "Parinding",
        "postal_code": "91363",
        "latitude": -3.0776427752673543,
        "longitude": 119.4741267280417
    },
    {
        "code": 7603141001,
        "district_code": 760314,
        "regency_code": 7603,
        "province_code": 76,
        "name": "Tawalian",
        "postal_code": "91368",
        "latitude": -2.959879999634739,
        "longitude": 119.39507921055892
    },
    {
        "code": 7603142002,
        "district_code": 760314,
        "regency_code": 7603,
        "province_code": 76,
        "name": "Tawalian Timur",
        "postal_code": "91368",
        "latitude": -2.9544556757897973,
        "longitude": 119.44397220266649
    },
    {
        "code": 7603142003,
        "district_code": 760314,
        "regency_code": 7603,
        "province_code": 76,
        "name": "Kariango",
        "postal_code": "91368",
        "latitude": -2.938682308869833,
        "longitude": 119.42689175221646
    },
    {
        "code": 7603142004,
        "district_code": 760314,
        "regency_code": 7603,
        "province_code": 76,
        "name": "Rantetangnga",
        "postal_code": "91368",
        "latitude": -2.9658653276628892,
        "longitude": 119.37331107619065
    },
    {
        "code": 7603152001,
        "district_code": 760315,
        "regency_code": 7603,
        "province_code": 76,
        "name": "Salumokanan",
        "postal_code": "91376",
        "latitude": -2.9970726880098484,
        "longitude": 119.23333954655732
    },
    {
        "code": 7603152003,
        "district_code": 760315,
        "regency_code": 7603,
        "province_code": 76,
        "name": "Salumokanan Barat",
        "postal_code": "91376",
        "latitude": -2.980660994521142,
        "longitude": 119.21234666581134
    },
    {
        "code": 7603152004,
        "district_code": 760315,
        "regency_code": 7603,
        "province_code": 76,
        "name": "Buangin",
        "postal_code": "91376",
        "latitude": -2.977421992199195,
        "longitude": 119.2511452114818
    },
    {
        "code": 7603152005,
        "district_code": 760315,
        "regency_code": 7603,
        "province_code": 76,
        "name": "Bambang Buda",
        "postal_code": "91376",
        "latitude": -2.9751261692088438,
        "longitude": 119.19740340154905
    },
    {
        "code": 7603152006,
        "district_code": 760315,
        "regency_code": 7603,
        "province_code": 76,
        "name": "Leko",
        "postal_code": "91376",
        "latitude": -3.007691475998612,
        "longitude": 119.23514400431819
    },
    {
        "code": 7603152007,
        "district_code": 760315,
        "regency_code": 7603,
        "province_code": 76,
        "name": "Kirak",
        "postal_code": "91376",
        "latitude": -2.995911492390043,
        "longitude": 119.21448784891598
    },
    {
        "code": 7603152008,
        "district_code": 760315,
        "regency_code": 7603,
        "province_code": 76,
        "name": "Salumokanan Utara",
        "postal_code": "91376",
        "latitude": -2.9790910678780858,
        "longitude": 119.23062582762384
    },
    {
        "code": 7603152009,
        "district_code": 760315,
        "regency_code": 7603,
        "province_code": 76,
        "name": "Sampale",
        "postal_code": "91376",
        "latitude": -3.0068995696523366,
        "longitude": 119.22480776324532
    },
    {
        "code": 7603162001,
        "district_code": 760316,
        "regency_code": 7603,
        "province_code": 76,
        "name": "Buntumalangka",
        "postal_code": "91374",
        "latitude": -2.821606689274358,
        "longitude": 119.16911457017045
    },
    {
        "code": 7603162002,
        "district_code": 760316,
        "regency_code": 7603,
        "province_code": 76,
        "name": "Ranteberan",
        "postal_code": "91374",
        "latitude": -2.8298380511938537,
        "longitude": 119.22513753683579
    },
    {
        "code": 7603162003,
        "district_code": 760316,
        "regency_code": 7603,
        "province_code": 76,
        "name": "Kebanga",
        "postal_code": "91374",
        "latitude": -2.850181496052804,
        "longitude": 119.19784228468608
    },
    {
        "code": 7603162004,
        "district_code": 760316,
        "regency_code": 7603,
        "province_code": 76,
        "name": "Salurindu",
        "postal_code": "91374",
        "latitude": -2.843176540935736,
        "longitude": 119.15489087282995
    },
    {
        "code": 7603162005,
        "district_code": 760316,
        "regency_code": 7603,
        "province_code": 76,
        "name": "Taora",
        "postal_code": "91374",
        "latitude": -2.8017353978040345,
        "longitude": 119.1760018095581
    },
    {
        "code": 7603162006,
        "district_code": 760316,
        "regency_code": 7603,
        "province_code": 76,
        "name": "Kabae",
        "postal_code": "91374",
        "latitude": -2.853874812193782,
        "longitude": 119.16670173097643
    },
    {
        "code": 7603162007,
        "district_code": 760316,
        "regency_code": 7603,
        "province_code": 76,
        "name": "Salutambun Barat",
        "postal_code": "91374",
        "latitude": -2.866332109822408,
        "longitude": 119.16634992070604
    },
    {
        "code": 7603162008,
        "district_code": 760316,
        "regency_code": 7603,
        "province_code": 76,
        "name": "Penatangan",
        "postal_code": "91374",
        "latitude": -2.828977230053249,
        "longitude": 119.14248518512862
    },
    {
        "code": 7603162009,
        "district_code": 760316,
        "regency_code": 7603,
        "province_code": 76,
        "name": "Salutambun Timur",
        "postal_code": "91374",
        "latitude": -2.876745053188218,
        "longitude": 119.19700222386867
    },
    {
        "code": 7603162010,
        "district_code": 760316,
        "regency_code": 7603,
        "province_code": 76,
        "name": "Salutambun",
        "postal_code": "91374",
        "latitude": -2.8709208240273285,
        "longitude": 119.17941167398651
    },
    {
        "code": 7603162011,
        "district_code": 760316,
        "regency_code": 7603,
        "province_code": 76,
        "name": "Aralle Timur",
        "postal_code": "91374",
        "latitude": -2.887419459731166,
        "longitude": 119.18013505518365
    },
    {
        "code": 7603172001,
        "district_code": 760317,
        "regency_code": 7603,
        "province_code": 76,
        "name": "Mehalaan",
        "postal_code": "91375",
        "latitude": -3.023087236848526,
        "longitude": 119.19873900811064
    },
    {
        "code": 7603172002,
        "district_code": 760317,
        "regency_code": 7603,
        "province_code": 76,
        "name": "Botteng",
        "postal_code": "91375",
        "latitude": -3.0666042596410255,
        "longitude": 119.17987352599853
    },
    {
        "code": 7603172003,
        "district_code": 760317,
        "regency_code": 7603,
        "province_code": 76,
        "name": "Salukonta",
        "postal_code": "91375",
        "latitude": -3.02825505448307,
        "longitude": 119.24554995986546
    },
    {
        "code": 7603172004,
        "district_code": 760317,
        "regency_code": 7603,
        "province_code": 76,
        "name": "Mesakada",
        "postal_code": "91375",
        "latitude": -3.041823751771588,
        "longitude": 119.23295873033035
    },
    {
        "code": 7603172005,
        "district_code": 760317,
        "regency_code": 7603,
        "province_code": 76,
        "name": "Mehalaan Barat",
        "postal_code": "91375",
        "latitude": -3.0340092202737967,
        "longitude": 119.18750861558777
    },
    {
        "code": 7603172006,
        "district_code": 760317,
        "regency_code": 7603,
        "province_code": 76,
        "name": "Saluahok",
        "postal_code": "91375",
        "latitude": -3.002325169054994,
        "longitude": 119.19239743260107
    },
    {
        "code": 7603172007,
        "district_code": 760317,
        "regency_code": 7603,
        "province_code": 76,
        "name": "Salubalo",
        "postal_code": "91375",
        "latitude": -3.0011891760083698,
        "longitude": 119.20812504702812
    },
    {
        "code": 7603172008,
        "district_code": 760317,
        "regency_code": 7603,
        "province_code": 76,
        "name": "Passembuk",
        "postal_code": "91375",
        "latitude": -3.07703017930273,
        "longitude": 119.20742211516712
    },
    {
        "code": 7603172009,
        "district_code": 760317,
        "regency_code": 7603,
        "province_code": 76,
        "name": "Kondo",
        "postal_code": "91375",
        "latitude": -3.089406600072449,
        "longitude": 119.12168956657382
    },
    {
        "code": 7603172010,
        "district_code": 760317,
        "regency_code": 7603,
        "province_code": 76,
        "name": "Leko Sukamaju",
        "postal_code": "91375",
        "latitude": -3.01457420400523,
        "longitude": 119.23698254037515
    },
    {
        "code": 7603172011,
        "district_code": 760317,
        "regency_code": 7603,
        "province_code": 76,
        "name": "Ulumea",
        "postal_code": "91375",
        "latitude": -2.996653223783824,
        "longitude": 119.25106707195681
    },
    {
        "code": 7604011001,
        "district_code": 760401,
        "regency_code": 7604,
        "province_code": 76,
        "name": "Tinambung",
        "postal_code": "91356",
        "latitude": -3.5050600126156795,
        "longitude": 119.02193962710945
    },
    {
        "code": 7604012002,
        "district_code": 760401,
        "regency_code": 7604,
        "province_code": 76,
        "name": "Karama",
        "postal_code": "91356",
        "latitude": -3.5096422044240763,
        "longitude": 119.04282109776278
    },
    {
        "code": 7604012003,
        "district_code": 760401,
        "regency_code": 7604,
        "province_code": 76,
        "name": "Tangnga Tangnga",
        "postal_code": "91356",
        "latitude": -3.512031773095225,
        "longitude": 119.02816012912845
    },
    {
        "code": 7604012004,
        "district_code": 760401,
        "regency_code": 7604,
        "province_code": 76,
        "name": "Lekopadis",
        "postal_code": "91356",
        "latitude": -3.499516620854597,
        "longitude": 119.01144758109983
    },
    {
        "code": 7604012005,
        "district_code": 760401,
        "regency_code": 7604,
        "province_code": 76,
        "name": "Galung Lombok",
        "postal_code": "91356",
        "latitude": -3.494024579802714,
        "longitude": 118.98436294050794
    },
    {
        "code": 7604012006,
        "district_code": 760401,
        "regency_code": 7604,
        "province_code": 76,
        "name": "Tandung",
        "postal_code": "91356",
        "latitude": -3.516523899529328,
        "longitude": 119.00404781860252
    },
    {
        "code": 7604012007,
        "district_code": 760401,
        "regency_code": 7604,
        "province_code": 76,
        "name": "Batulaya",
        "postal_code": "91356",
        "latitude": -3.4986525869952114,
        "longitude": 119.02830288695557
    },
    {
        "code": 7604012008,
        "district_code": 760401,
        "regency_code": 7604,
        "province_code": 76,
        "name": "Sepabatu",
        "postal_code": "91356",
        "latitude": -3.510176899458928,
        "longitude": 119.01603943232715
    },
    {
        "code": 7604021001,
        "district_code": 760402,
        "regency_code": 7604,
        "province_code": 76,
        "name": "Pappang",
        "postal_code": "91357",
        "latitude": -3.4866353785234154,
        "longitude": 119.14302042549502
    },
    {
        "code": 7604022002,
        "district_code": 760402,
        "regency_code": 7604,
        "province_code": 76,
        "name": "Laliko",
        "postal_code": "91357",
        "latitude": -3.5035411823542675,
        "longitude": 119.1160813390938
    },
    {
        "code": 7604022003,
        "district_code": 760402,
        "regency_code": 7604,
        "province_code": 76,
        "name": "Bonde",
        "postal_code": "91357",
        "latitude": -3.4777466419226855,
        "longitude": 119.14106577331273
    },
    {
        "code": 7604022004,
        "district_code": 760402,
        "regency_code": 7604,
        "province_code": 76,
        "name": "Katumbangan Lemo",
        "postal_code": "91357",
        "latitude": -3.4699772106530937,
        "longitude": 119.18244239296708
    },
    {
        "code": 7604022005,
        "district_code": 760402,
        "regency_code": 7604,
        "province_code": 76,
        "name": "Panyampa",
        "postal_code": "91357",
        "latitude": -3.4832550086744636,
        "longitude": 119.16926234461734
    },
    {
        "code": 7604022006,
        "district_code": 760402,
        "regency_code": 7604,
        "province_code": 76,
        "name": "Suruang",
        "postal_code": "91357",
        "latitude": -3.482336181806188,
        "longitude": 119.10865709383559
    },
    {
        "code": 7604022007,
        "district_code": 760402,
        "regency_code": 7604,
        "province_code": 76,
        "name": "Lampoko",
        "postal_code": "91357",
        "latitude": -3.4468472830058214,
        "longitude": 119.14844957795259
    },
    {
        "code": 7604022008,
        "district_code": 760402,
        "regency_code": 7604,
        "province_code": 76,
        "name": "Katumbangan",
        "postal_code": "91357",
        "latitude": -3.449461379831469,
        "longitude": 119.17644535574301
    },
    {
        "code": 7604022009,
        "district_code": 760402,
        "regency_code": 7604,
        "province_code": 76,
        "name": "Lapeo",
        "postal_code": "91357",
        "latitude": -3.4888894250111564,
        "longitude": 119.12839817201484
    },
    {
        "code": 7604022010,
        "district_code": 760402,
        "regency_code": 7604,
        "province_code": 76,
        "name": "Parappe",
        "postal_code": "91357",
        "latitude": -3.47053231964534,
        "longitude": 119.15356225169397
    },
    {
        "code": 7604022011,
        "district_code": 760402,
        "regency_code": 7604,
        "province_code": 76,
        "name": "Ongko",
        "postal_code": "91357",
        "latitude": -3.4564415199900695,
        "longitude": 119.09264529914842
    },
    {
        "code": 7604022012,
        "district_code": 760402,
        "regency_code": 7604,
        "province_code": 76,
        "name": "Kenje",
        "postal_code": "91357",
        "latitude": -3.479542815469368,
        "longitude": 119.12933842689446
    },
    {
        "code": 7604022013,
        "district_code": 760402,
        "regency_code": 7604,
        "province_code": 76,
        "name": "Sumarrang",
        "postal_code": "91357",
        "latitude": -3.432825455332206,
        "longitude": 119.08819908742399
    },
    {
        "code": 7604022014,
        "district_code": 760402,
        "regency_code": 7604,
        "province_code": 76,
        "name": "Botto",
        "postal_code": "91357",
        "latitude": -3.430545802623472,
        "longitude": 119.16191560861692
    },
    {
        "code": 7604022015,
        "district_code": 760402,
        "regency_code": 7604,
        "province_code": 76,
        "name": "Gattungan",
        "postal_code": "91357",
        "latitude": -3.4238866919637077,
        "longitude": 119.13556550958091
    },
    {
        "code": 7604022016,
        "district_code": 760402,
        "regency_code": 7604,
        "province_code": 76,
        "name": "Padang Timur",
        "postal_code": "91357",
        "latitude": -3.4622395571754225,
        "longitude": 119.1221518624764
    },
    {
        "code": 7604022017,
        "district_code": 760402,
        "regency_code": 7604,
        "province_code": 76,
        "name": "Padang",
        "postal_code": "91357",
        "latitude": -3.4711242721885354,
        "longitude": 119.09120638470498
    },
    {
        "code": 7604022018,
        "district_code": 760402,
        "regency_code": 7604,
        "province_code": 76,
        "name": "Lagi-Agi",
        "postal_code": "91357",
        "latitude": -3.4601076896073084,
        "longitude": 119.14142055597512
    },
    {
        "code": 7604031001,
        "district_code": 760403,
        "regency_code": 7604,
        "province_code": 76,
        "name": "Sidodadi",
        "postal_code": "91342",
        "latitude": -3.39930164672357,
        "longitude": 119.21413016524662
    },
    {
        "code": 7604032002,
        "district_code": 760403,
        "regency_code": 7604,
        "province_code": 76,
        "name": "Sidorejo",
        "postal_code": "91342",
        "latitude": -3.4099670291347617,
        "longitude": 119.21744484262545
    },
    {
        "code": 7604032003,
        "district_code": 760403,
        "regency_code": 7604,
        "province_code": 76,
        "name": "Sumberjo",
        "postal_code": "91342",
        "latitude": -3.38788918856484,
        "longitude": 119.22891862348862
    },
    {
        "code": 7604032004,
        "district_code": 760403,
        "regency_code": 7604,
        "province_code": 76,
        "name": "Bumiayu",
        "postal_code": "91342",
        "latitude": -3.42236342099591,
        "longitude": 119.21359335341374
    },
    {
        "code": 7604032005,
        "district_code": 760403,
        "regency_code": 7604,
        "province_code": 76,
        "name": "Kebunsari",
        "postal_code": "91342",
        "latitude": -3.445089399730909,
        "longitude": 119.21831035411408
    },
    {
        "code": 7604032006,
        "district_code": 760403,
        "regency_code": 7604,
        "province_code": 76,
        "name": "Banua Baru",
        "postal_code": "91342",
        "latitude": -3.3902419221066493,
        "longitude": 119.20211342701492
    },
    {
        "code": 7604032007,
        "district_code": 760403,
        "regency_code": 7604,
        "province_code": 76,
        "name": "Nepo",
        "postal_code": "91342",
        "latitude": -3.4619220843063445,
        "longitude": 119.23295377430242
    },
    {
        "code": 7604032008,
        "district_code": 760403,
        "regency_code": 7604,
        "province_code": 76,
        "name": "Sugihwaras",
        "postal_code": "91342",
        "latitude": -3.3835092031551013,
        "longitude": 119.21376743951572
    },
    {
        "code": 7604032009,
        "district_code": 760403,
        "regency_code": 7604,
        "province_code": 76,
        "name": "Campurjo",
        "postal_code": "91342",
        "latitude": -3.4071202490016916,
        "longitude": 119.2308221720991
    },
    {
        "code": 7604032010,
        "district_code": 760403,
        "regency_code": 7604,
        "province_code": 76,
        "name": "Bumimulyo",
        "postal_code": "91342",
        "latitude": -3.4338487250093674,
        "longitude": 119.22895726515011
    },
    {
        "code": 7604032011,
        "district_code": 760403,
        "regency_code": 7604,
        "province_code": 76,
        "name": "Tumpiling",
        "postal_code": "91342",
        "latitude": -3.417827187254485,
        "longitude": 119.25989626223158
    },
    {
        "code": 7604032012,
        "district_code": 760403,
        "regency_code": 7604,
        "province_code": 76,
        "name": "Bakka-Bakka",
        "postal_code": "91342",
        "latitude": -3.3764779165516456,
        "longitude": 119.20159171933453
    },
    {
        "code": 7604032013,
        "district_code": 760403,
        "regency_code": 7604,
        "province_code": 76,
        "name": "Arjo Sari",
        "postal_code": "91342",
        "latitude": -3.434385293870531,
        "longitude": 119.20495006655699
    },
    {
        "code": 7604032014,
        "district_code": 760403,
        "regency_code": 7604,
        "province_code": 76,
        "name": "Galeso",
        "postal_code": "91342",
        "latitude": -3.4386843849120563,
        "longitude": 119.25174100111327
    },
    {
        "code": 7604041001,
        "district_code": 760404,
        "regency_code": 7604,
        "province_code": 76,
        "name": "Polewali",
        "postal_code": "91311",
        "latitude": -3.435233800384274,
        "longitude": 119.35185223424556
    },
    {
        "code": 7604041002,
        "district_code": 760404,
        "regency_code": 7604,
        "province_code": 76,
        "name": "Wattang",
        "postal_code": "91315",
        "latitude": -3.429928342282643,
        "longitude": 119.34572553049765
    },
    {
        "code": 7604041003,
        "district_code": 760404,
        "regency_code": 7604,
        "province_code": 76,
        "name": "Sulewatang",
        "postal_code": "91315",
        "latitude": -3.404440804631525,
        "longitude": 119.35751710981717
    },
    {
        "code": 7604041004,
        "district_code": 760404,
        "regency_code": 7604,
        "province_code": 76,
        "name": "Lantora",
        "postal_code": "91313",
        "latitude": -3.425363977788017,
        "longitude": 119.338187098833
    },
    {
        "code": 7604041005,
        "district_code": 760404,
        "regency_code": 7604,
        "province_code": 76,
        "name": "Takatidung",
        "postal_code": "91311",
        "latitude": -3.422081135503182,
        "longitude": 119.32602094768228
    },
    {
        "code": 7604041006,
        "district_code": 760404,
        "regency_code": 7604,
        "province_code": 76,
        "name": "Pekkabata",
        "postal_code": "91311",
        "latitude": -3.4137417731782835,
        "longitude": 119.31387071409372
    },
    {
        "code": 7604041007,
        "district_code": 760404,
        "regency_code": 7604,
        "province_code": 76,
        "name": "Madatte ",
        "postal_code": "91315",
        "latitude": -3.4039322563196195,
        "longitude": 119.30593791558884
    },
    {
        "code": 7604041008,
        "district_code": 760404,
        "regency_code": 7604,
        "province_code": 76,
        "name": "Manding",
        "postal_code": "91311",
        "latitude": -3.4187913426587886,
        "longitude": 119.30169491027915
    },
    {
        "code": 7604041009,
        "district_code": 760404,
        "regency_code": 7604,
        "province_code": 76,
        "name": "Darma",
        "postal_code": "91314",
        "latitude": -3.3986495266247743,
        "longitude": 119.33201958113544
    },
    {
        "code": 7604051001,
        "district_code": 760405,
        "regency_code": 7604,
        "province_code": 76,
        "name": "Taramanu",
        "postal_code": "91355",
        "latitude": -3.3290731959226187,
        "longitude": 119.01484861622967
    },
    {
        "code": 7604052002,
        "district_code": 760405,
        "regency_code": 7604,
        "province_code": 76,
        "name": "Ambopadang",
        "postal_code": "91355",
        "latitude": -3.293494640509628,
        "longitude": 119.0576136854799
    },
    {
        "code": 7604052003,
        "district_code": 760405,
        "regency_code": 7604,
        "province_code": 76,
        "name": "Tubbi",
        "postal_code": "91355",
        "latitude": -3.1629878117515804,
        "longitude": 119.04021409629237
    },
    {
        "code": 7604052004,
        "district_code": 760405,
        "regency_code": 7604,
        "province_code": 76,
        "name": "Ratte",
        "postal_code": "91355",
        "latitude": -3.220903533925316,
        "longitude": 118.96324439180118
    },
    {
        "code": 7604052005,
        "district_code": 760405,
        "regency_code": 7604,
        "province_code": 76,
        "name": "Besoangin",
        "postal_code": "91355",
        "latitude": -3.2492025826237803,
        "longitude": 118.94202582531638
    },
    {
        "code": 7604052006,
        "district_code": 760405,
        "regency_code": 7604,
        "province_code": 76,
        "name": "Piriang Tapiko",
        "postal_code": "91355",
        "latitude": -3.146206793973216,
        "longitude": 118.99315772195409
    },
    {
        "code": 7604052007,
        "district_code": 760405,
        "regency_code": 7604,
        "province_code": 76,
        "name": "Peburru",
        "postal_code": "91355",
        "latitude": -3.2657163304840644,
        "longitude": 119.07566669015215
    },
    {
        "code": 7604052008,
        "district_code": 760405,
        "regency_code": 7604,
        "province_code": 76,
        "name": "Taloba",
        "postal_code": "91355",
        "latitude": -3.1313654613504043,
        "longitude": 119.05300140985247
    },
    {
        "code": 7604052009,
        "district_code": 760405,
        "regency_code": 7604,
        "province_code": 76,
        "name": "Pollewani",
        "postal_code": "91355",
        "latitude": -3.2333978036779807,
        "longitude": 119.04861270877026
    },
    {
        "code": 7604052010,
        "district_code": 760405,
        "regency_code": 7604,
        "province_code": 76,
        "name": "Arabua",
        "postal_code": "91355",
        "latitude": -3.3294560741079304,
        "longitude": 119.05555036532608
    },
    {
        "code": 7604052011,
        "district_code": 760405,
        "regency_code": 7604,
        "province_code": 76,
        "name": "Besoangin Utara",
        "postal_code": "91355",
        "latitude": -3.1844087885702113,
        "longitude": 118.9387878847584
    },
    {
        "code": 7604052012,
        "district_code": 760405,
        "regency_code": 7604,
        "province_code": 76,
        "name": "Poda",
        "postal_code": "91355",
        "latitude": -3.369065249442999,
        "longitude": 119.02760487894332
    },
    {
        "code": 7604052013,
        "district_code": 760405,
        "regency_code": 7604,
        "province_code": 76,
        "name": "Taramanu Tua",
        "postal_code": "91355",
        "latitude": -3.260036534974548,
        "longitude": 119.00638475151297
    },
    {
        "code": 7604061005,
        "district_code": 760406,
        "regency_code": 7604,
        "province_code": 76,
        "name": "Amassangan",
        "postal_code": "91312",
        "latitude": -3.45057076346107,
        "longitude": 119.4176514885742
    },
    {
        "code": 7604062001,
        "district_code": 760406,
        "regency_code": 7604,
        "province_code": 76,
        "name": "Tonyaman",
        "postal_code": "91312",
        "latitude": -3.4645466017664206,
        "longitude": 119.36845942209216
    },
    {
        "code": 7604062002,
        "district_code": 760406,
        "regency_code": 7604,
        "province_code": 76,
        "name": "Kuajang",
        "postal_code": "91351",
        "latitude": -3.4281969928996263,
        "longitude": 119.37504691015485
    },
    {
        "code": 7604062003,
        "district_code": 760406,
        "regency_code": 7604,
        "province_code": 76,
        "name": "Paku",
        "postal_code": "91351",
        "latitude": -3.4792899984250782,
        "longitude": 119.47446711410164
    },
    {
        "code": 7604062004,
        "district_code": 760406,
        "regency_code": 7604,
        "province_code": 76,
        "name": "Mirring",
        "postal_code": "91312",
        "latitude": -3.4485428638768063,
        "longitude": 119.4464335235325
    },
    {
        "code": 7604062006,
        "district_code": 760406,
        "regency_code": 7604,
        "province_code": 76,
        "name": "Batetangnga",
        "postal_code": "91312",
        "latitude": -3.3975346902133072,
        "longitude": 119.41296530225198
    },
    {
        "code": 7604062007,
        "district_code": 760406,
        "regency_code": 7604,
        "province_code": 76,
        "name": "Mammi",
        "postal_code": "91311",
        "latitude": -3.4153229683315725,
        "longitude": 119.36520132373889
    },
    {
        "code": 7604062008,
        "district_code": 760406,
        "regency_code": 7604,
        "province_code": 76,
        "name": "Kaleok",
        "postal_code": "91312",
        "latitude": -3.381557883368202,
        "longitude": 119.44748861740248
    },
    {
        "code": 7604062009,
        "district_code": 760406,
        "regency_code": 7604,
        "province_code": 76,
        "name": "Amola",
        "postal_code": "91312",
        "latitude": -3.438222017671336,
        "longitude": 119.46388952878495
    },
    {
        "code": 7604062010,
        "district_code": 760406,
        "regency_code": 7604,
        "province_code": 76,
        "name": "Rea",
        "postal_code": "91312",
        "latitude": -3.4433387078540703,
        "longitude": 119.38902687766557
    },
    {
        "code": 7604071001,
        "district_code": 760407,
        "regency_code": 7604,
        "province_code": 76,
        "name": "Pelitakan",
        "postal_code": "91341",
        "latitude": -3.362848942190836,
        "longitude": 119.23604802517016
    },
    {
        "code": 7604072002,
        "district_code": 760407,
        "regency_code": 7604,
        "province_code": 76,
        "name": "Tapango",
        "postal_code": "91341",
        "latitude": -3.319122000687865,
        "longitude": 119.2526837210945
    },
    {
        "code": 7604072003,
        "district_code": 760407,
        "regency_code": 7604,
        "province_code": 76,
        "name": "Rappang",
        "postal_code": "91341",
        "latitude": -3.350299563347502,
        "longitude": 119.20036670264427
    },
    {
        "code": 7604072004,
        "district_code": 760407,
        "regency_code": 7604,
        "province_code": 76,
        "name": "Dakka",
        "postal_code": "91341",
        "latitude": -3.3590549822382747,
        "longitude": 119.22331988077379
    },
    {
        "code": 7604072005,
        "district_code": 760407,
        "regency_code": 7604,
        "province_code": 76,
        "name": "Batu",
        "postal_code": "91341",
        "latitude": -3.2976047819697065,
        "longitude": 119.23615144636886
    },
    {
        "code": 7604072006,
        "district_code": 760407,
        "regency_code": 7604,
        "province_code": 76,
        "name": "Riso",
        "postal_code": "91341",
        "latitude": -3.310034253736652,
        "longitude": 119.28471345158415
    },
    {
        "code": 7604072007,
        "district_code": 760407,
        "regency_code": 7604,
        "province_code": 76,
        "name": "Palatta",
        "postal_code": "91341",
        "latitude": -3.272488953357419,
        "longitude": 119.2449065909869
    },
    {
        "code": 7604072008,
        "district_code": 760407,
        "regency_code": 7604,
        "province_code": 76,
        "name": "Tapango Barat",
        "postal_code": "91341",
        "latitude": -3.324970990710028,
        "longitude": 119.22571400410602
    },
    {
        "code": 7604072009,
        "district_code": 760407,
        "regency_code": 7604,
        "province_code": 76,
        "name": "Kurrak",
        "postal_code": "91341",
        "latitude": -3.28161863659389,
        "longitude": 119.31791513443082
    },
    {
        "code": 7604072010,
        "district_code": 760407,
        "regency_code": 7604,
        "province_code": 76,
        "name": "Bussu",
        "postal_code": "91341",
        "latitude": -3.3158756065900787,
        "longitude": 119.21040964960402
    },
    {
        "code": 7604072011,
        "district_code": 760407,
        "regency_code": 7604,
        "province_code": 76,
        "name": "Tuttula",
        "postal_code": "91341",
        "latitude": -3.3145097793621243,
        "longitude": 119.19489156104432
    },
    {
        "code": 7604072012,
        "district_code": 760407,
        "regency_code": 7604,
        "province_code": 76,
        "name": "Jambu Malea",
        "postal_code": "91341",
        "latitude": -3.3525176187873433,
        "longitude": 119.2125075507169
    },
    {
        "code": 7604072013,
        "district_code": 760407,
        "regency_code": 7604,
        "province_code": 76,
        "name": "Kalimbua",
        "postal_code": "91341",
        "latitude": -3.2882683974289217,
        "longitude": 119.28888715764953
    },
    {
        "code": 7604072014,
        "district_code": 760407,
        "regency_code": 7604,
        "province_code": 76,
        "name": "Banato Rejo",
        "postal_code": "91341",
        "latitude": -3.339411626539104,
        "longitude": 119.23861039428391
    },
    {
        "code": 7604081001,
        "district_code": 760408,
        "regency_code": 7604,
        "province_code": 76,
        "name": "Mapilli ",
        "postal_code": "91359",
        "latitude": -3.409872390195939,
        "longitude": 119.181023082995
    },
    {
        "code": 7604082002,
        "district_code": 760408,
        "regency_code": 7604,
        "province_code": 76,
        "name": "Ugibaru",
        "postal_code": "91359",
        "latitude": -3.406957561157741,
        "longitude": 119.19810702121218
    },
    {
        "code": 7604082003,
        "district_code": 760408,
        "regency_code": 7604,
        "province_code": 76,
        "name": "Rumpa",
        "postal_code": "91359",
        "latitude": -3.4529159696500145,
        "longitude": 119.2003579633808
    },
    {
        "code": 7604082005,
        "district_code": 760408,
        "regency_code": 7604,
        "province_code": 76,
        "name": "Kurma",
        "postal_code": "91359",
        "latitude": -3.3716479960806334,
        "longitude": 119.17063553523595
    },
    {
        "code": 7604082007,
        "district_code": 760408,
        "regency_code": 7604,
        "province_code": 76,
        "name": "Buku",
        "postal_code": "91359",
        "latitude": -3.478363210490283,
        "longitude": 119.2049278905398
    },
    {
        "code": 7604082009,
        "district_code": 760408,
        "regency_code": 7604,
        "province_code": 76,
        "name": "Bonne Bonne",
        "postal_code": "91359",
        "latitude": -3.39851190063933,
        "longitude": 119.18830223871477
    },
    {
        "code": 7604082011,
        "district_code": 760408,
        "regency_code": 7604,
        "province_code": 76,
        "name": "Beroangin",
        "postal_code": "91359",
        "latitude": -3.333625476755974,
        "longitude": 119.14684177527323
    },
    {
        "code": 7604082015,
        "district_code": 760408,
        "regency_code": 7604,
        "province_code": 76,
        "name": "Segerang",
        "postal_code": "91359",
        "latitude": -3.426864465855919,
        "longitude": 119.19166192927418
    },
    {
        "code": 7604082016,
        "district_code": 760408,
        "regency_code": 7604,
        "province_code": 76,
        "name": "Bonra",
        "postal_code": "91359",
        "latitude": -3.400283551853691,
        "longitude": 119.17037976014696
    },
    {
        "code": 7604082017,
        "district_code": 760408,
        "regency_code": 7604,
        "province_code": 76,
        "name": "Sattoko",
        "postal_code": "91359",
        "latitude": -3.309774829247484,
        "longitude": 119.12918207655342
    },
    {
        "code": 7604082018,
        "district_code": 760408,
        "regency_code": 7604,
        "province_code": 76,
        "name": "Rappang Barat",
        "postal_code": "91359",
        "latitude": -3.3484184116123186,
        "longitude": 119.1774054533554
    },
    {
        "code": 7604082019,
        "district_code": 760408,
        "regency_code": 7604,
        "province_code": 76,
        "name": "Landi Kanusuang",
        "postal_code": "91359",
        "latitude": -3.2886252280477617,
        "longitude": 119.18168128602575
    },
    {
        "code": 7604091001,
        "district_code": 760409,
        "regency_code": 7604,
        "province_code": 76,
        "name": "Matangnga",
        "postal_code": "91350",
        "latitude": -3.101940186621004,
        "longitude": 119.24038008252731
    },
    {
        "code": 7604092002,
        "district_code": 760409,
        "regency_code": 7604,
        "province_code": 76,
        "name": "Lilli",
        "postal_code": "91350",
        "latitude": -3.1770714365878705,
        "longitude": 119.1882305760651
    },
    {
        "code": 7604092003,
        "district_code": 760409,
        "regency_code": 7604,
        "province_code": 76,
        "name": "Rangoan",
        "postal_code": "91350",
        "latitude": -3.1309603806838706,
        "longitude": 119.18233221014233
    },
    {
        "code": 7604092004,
        "district_code": 760409,
        "regency_code": 7604,
        "province_code": 76,
        "name": "Tapua",
        "postal_code": "91350",
        "latitude": -3.2099211555030744,
        "longitude": 119.23145618536658
    },
    {
        "code": 7604092005,
        "district_code": 760409,
        "regency_code": 7604,
        "province_code": 76,
        "name": "Mambu Tapua",
        "postal_code": "91350",
        "latitude": -3.237142443687973,
        "longitude": 119.27612849468953
    },
    {
        "code": 7604092006,
        "district_code": 760409,
        "regency_code": 7604,
        "province_code": 76,
        "name": "Ba'ba Tapua",
        "postal_code": "91350",
        "latitude": -3.279297414194745,
        "longitude": 119.2145799610074
    },
    {
        "code": 7604092007,
        "district_code": 760409,
        "regency_code": 7604,
        "province_code": 76,
        "name": "Katimbang",
        "postal_code": "91350",
        "latitude": -3.146238728099875,
        "longitude": 119.23771038789475
    },
    {
        "code": 7604101004,
        "district_code": 760410,
        "regency_code": 7604,
        "province_code": 76,
        "name": "Batupanga",
        "postal_code": "91358",
        "latitude": -3.351020198389803,
        "longitude": 119.12171038868802
    },
    {
        "code": 7604102001,
        "district_code": 760410,
        "regency_code": 7604,
        "province_code": 76,
        "name": "Mambu",
        "postal_code": "91358",
        "latitude": -3.3749891896652384,
        "longitude": 119.13849070792767
    },
    {
        "code": 7604102002,
        "district_code": 760410,
        "regency_code": 7604,
        "province_code": 76,
        "name": "Tenggelang",
        "postal_code": "91358",
        "latitude": -3.4004100280551244,
        "longitude": 119.11406553151983
    },
    {
        "code": 7604102003,
        "district_code": 760410,
        "regency_code": 7604,
        "province_code": 76,
        "name": "Baru",
        "postal_code": "91358",
        "latitude": -3.411047044955095,
        "longitude": 119.15621965549695
    },
    {
        "code": 7604102005,
        "district_code": 760410,
        "regency_code": 7604,
        "province_code": 76,
        "name": "Pussui",
        "postal_code": "91358",
        "latitude": -3.3607549121875397,
        "longitude": 119.09206272774071
    },
    {
        "code": 7604102006,
        "district_code": 760410,
        "regency_code": 7604,
        "province_code": 76,
        "name": "Mapilli Barat",
        "postal_code": "91358",
        "latitude": -3.4040773604777512,
        "longitude": 119.16097452027961
    },
    {
        "code": 7604102007,
        "district_code": 760410,
        "regency_code": 7604,
        "province_code": 76,
        "name": "Sambali Wali",
        "postal_code": "91358",
        "latitude": -3.394896584273452,
        "longitude": 119.08145242230762
    },
    {
        "code": 7604102008,
        "district_code": 760410,
        "regency_code": 7604,
        "province_code": 76,
        "name": "Batupanga Daala",
        "postal_code": "91358",
        "latitude": -3.3123051573621733,
        "longitude": 119.09981174095638
    },
    {
        "code": 7604102009,
        "district_code": 760410,
        "regency_code": 7604,
        "province_code": 76,
        "name": "Luyo",
        "postal_code": "91358",
        "latitude": -3.3851232149792243,
        "longitude": 119.13494219660569
    },
    {
        "code": 7604102010,
        "district_code": 760410,
        "regency_code": 7604,
        "province_code": 76,
        "name": "Pussui Barat",
        "postal_code": "91358",
        "latitude": -3.360644864166978,
        "longitude": 119.06602087198333
    },
    {
        "code": 7604102011,
        "district_code": 760410,
        "regency_code": 7604,
        "province_code": 76,
        "name": "Puccadi",
        "postal_code": "91358",
        "latitude": -3.3856883122182615,
        "longitude": 119.15988556056682
    },
    {
        "code": 7604111001,
        "district_code": 760411,
        "regency_code": 7604,
        "province_code": 76,
        "name": "Limboro",
        "postal_code": "91321",
        "latitude": -3.487944267601687,
        "longitude": 119.01037570784159
    },
    {
        "code": 7604112002,
        "district_code": 760411,
        "regency_code": 7604,
        "province_code": 76,
        "name": "Lembang Lembang",
        "postal_code": "91321",
        "latitude": -3.4634801391132704,
        "longitude": 119.00568069058532
    },
    {
        "code": 7604112003,
        "district_code": 760411,
        "regency_code": 7604,
        "province_code": 76,
        "name": "Tandassura",
        "postal_code": "91321",
        "latitude": -3.4664016685496324,
        "longitude": 118.979153989386
    },
    {
        "code": 7604112004,
        "district_code": 760411,
        "regency_code": 7604,
        "province_code": 76,
        "name": "Samasundu",
        "postal_code": "91321",
        "latitude": -3.4744437518417697,
        "longitude": 119.01988787943158
    },
    {
        "code": 7604112005,
        "district_code": 760411,
        "regency_code": 7604,
        "province_code": 76,
        "name": "Napo",
        "postal_code": "91321",
        "latitude": -3.470711933902027,
        "longitude": 119.03188845865184
    },
    {
        "code": 7604112006,
        "district_code": 760411,
        "regency_code": 7604,
        "province_code": 76,
        "name": "Todang Todang",
        "postal_code": "91321",
        "latitude": -3.4406656218946536,
        "longitude": 119.04293453993506
    },
    {
        "code": 7604112007,
        "district_code": 760411,
        "regency_code": 7604,
        "province_code": 76,
        "name": "Pendulangan",
        "postal_code": "91321",
        "latitude": -3.4056011762227563,
        "longitude": 119.04324359219616
    },
    {
        "code": 7604112008,
        "district_code": 760411,
        "regency_code": 7604,
        "province_code": 76,
        "name": "Renggeang",
        "postal_code": "91321",
        "latitude": -3.4838141095388027,
        "longitude": 118.98798093877015
    },
    {
        "code": 7604112009,
        "district_code": 760411,
        "regency_code": 7604,
        "province_code": 76,
        "name": "Salarri",
        "postal_code": "91321",
        "latitude": -3.4470561337542795,
        "longitude": 119.01884870492978
    },
    {
        "code": 7604112010,
        "district_code": 760411,
        "regency_code": 7604,
        "province_code": 76,
        "name": "Tangan Baru",
        "postal_code": "91321",
        "latitude": -3.452735852049553,
        "longitude": 118.96714959110965
    },
    {
        "code": 7604112011,
        "district_code": 760411,
        "regency_code": 7604,
        "province_code": 76,
        "name": "Palece",
        "postal_code": "91321",
        "latitude": -3.4791919103425624,
        "longitude": 119.00314535177259
    },
    {
        "code": 7604121002,
        "district_code": 760412,
        "regency_code": 7604,
        "province_code": 76,
        "name": "Balanipa",
        "postal_code": "91354",
        "latitude": -3.4869552135495137,
        "longitude": 119.0447934928549
    },
    {
        "code": 7604122001,
        "district_code": 760412,
        "regency_code": 7604,
        "province_code": 76,
        "name": "Tammajarra",
        "postal_code": "91354",
        "latitude": -3.4868283899849004,
        "longitude": 119.03250806300862
    },
    {
        "code": 7604122003,
        "district_code": 760412,
        "regency_code": 7604,
        "province_code": 76,
        "name": "Tammangalle",
        "postal_code": "91354",
        "latitude": -3.4989249228136377,
        "longitude": 119.0563379154358
    },
    {
        "code": 7604122004,
        "district_code": 760412,
        "regency_code": 7604,
        "province_code": 76,
        "name": "Mosso",
        "postal_code": "91354",
        "latitude": -3.463555434833668,
        "longitude": 119.05548500739681
    },
    {
        "code": 7604122005,
        "district_code": 760412,
        "regency_code": 7604,
        "province_code": 76,
        "name": "Galung Tuluk",
        "postal_code": "91354",
        "latitude": -3.495248205316086,
        "longitude": 119.06605129269786
    },
    {
        "code": 7604122006,
        "district_code": 760412,
        "regency_code": 7604,
        "province_code": 76,
        "name": "Sabang Subik",
        "postal_code": "91354",
        "latitude": -3.4991063340262762,
        "longitude": 119.07373538895203
    },
    {
        "code": 7604122007,
        "district_code": 760412,
        "regency_code": 7604,
        "province_code": 76,
        "name": "Pambusuang",
        "postal_code": "91354",
        "latitude": -3.5019230639407466,
        "longitude": 119.08095113428314
    },
    {
        "code": 7604122008,
        "district_code": 760412,
        "regency_code": 7604,
        "province_code": 76,
        "name": "Bala",
        "postal_code": "91354",
        "latitude": -3.499067741327469,
        "longitude": 119.09479584107618
    },
    {
        "code": 7604122009,
        "district_code": 760412,
        "regency_code": 7604,
        "province_code": 76,
        "name": "Lambanan",
        "postal_code": "91354",
        "latitude": -3.4841772438282184,
        "longitude": 119.07481436696519
    },
    {
        "code": 7604122010,
        "district_code": 760412,
        "regency_code": 7604,
        "province_code": 76,
        "name": "Lego",
        "postal_code": "91354",
        "latitude": -3.4878775271866913,
        "longitude": 119.08391170365346
    },
    {
        "code": 7604122011,
        "district_code": 760412,
        "regency_code": 7604,
        "province_code": 76,
        "name": "Pallis",
        "postal_code": "91354",
        "latitude": -3.4779358473934283,
        "longitude": 119.064689271408
    },
    {
        "code": 7604131001,
        "district_code": 760413,
        "regency_code": 7604,
        "province_code": 76,
        "name": "Anreapi ",
        "postal_code": "91315",
        "latitude": -3.3823633588377215,
        "longitude": 119.35725631159917
    },
    {
        "code": 7604132002,
        "district_code": 760413,
        "regency_code": 7604,
        "province_code": 76,
        "name": "Duampanua",
        "postal_code": "91315",
        "latitude": -3.3759069076905095,
        "longitude": 119.32955292918646
    },
    {
        "code": 7604132003,
        "district_code": 760413,
        "regency_code": 7604,
        "province_code": 76,
        "name": "Kelapa Dua",
        "postal_code": "91315",
        "latitude": -3.3306800555949647,
        "longitude": 119.3727975641407
    },
    {
        "code": 7604132004,
        "district_code": 760413,
        "regency_code": 7604,
        "province_code": 76,
        "name": "Pappandangan",
        "postal_code": "91315",
        "latitude": -3.3283416395275234,
        "longitude": 119.34257966769849
    },
    {
        "code": 7604132005,
        "district_code": 760413,
        "regency_code": 7604,
        "province_code": 76,
        "name": "Kunyi",
        "postal_code": "91315",
        "latitude": -3.3546604101072557,
        "longitude": 119.39349017449078
    },
    {
        "code": 7604141001,
        "district_code": 760414,
        "regency_code": 7604,
        "province_code": 76,
        "name": "Matakali ",
        "postal_code": "91352",
        "latitude": -3.38637937283448,
        "longitude": 119.2767396178592
    },
    {
        "code": 7604142002,
        "district_code": 760414,
        "regency_code": 7604,
        "province_code": 76,
        "name": "Petampanua",
        "postal_code": "91352",
        "latitude": -3.409192708937698,
        "longitude": 119.28820663828859
    },
    {
        "code": 7604142003,
        "district_code": 760414,
        "regency_code": 7604,
        "province_code": 76,
        "name": "Barumbung",
        "postal_code": "91352",
        "latitude": -3.3557173673573515,
        "longitude": 119.28078996277853
    },
    {
        "code": 7604142004,
        "district_code": 760414,
        "regency_code": 7604,
        "province_code": 76,
        "name": "Pasiang",
        "postal_code": "91352",
        "latitude": -3.3529753736139543,
        "longitude": 119.30996075216902
    },
    {
        "code": 7604142005,
        "district_code": 760414,
        "regency_code": 7604,
        "province_code": 76,
        "name": "Tonrolima",
        "postal_code": "91352",
        "latitude": -3.3784220449064413,
        "longitude": 119.25209134344976
    },
    {
        "code": 7604142006,
        "district_code": 760414,
        "regency_code": 7604,
        "province_code": 76,
        "name": "Indomakkombong",
        "postal_code": "91352",
        "latitude": -3.34975510667964,
        "longitude": 119.2610510317946
    },
    {
        "code": 7604142007,
        "district_code": 760414,
        "regency_code": 7604,
        "province_code": 76,
        "name": "Bunga-Bunga",
        "postal_code": "91352",
        "latitude": -3.3885433945419656,
        "longitude": 119.3072159056
    },
    {
        "code": 7604151009,
        "district_code": 760415,
        "regency_code": 7604,
        "province_code": 76,
        "name": "Petoosang",
        "postal_code": "91325",
        "latitude": -3.4154610389647426,
        "longitude": 118.99883288639386
    },
    {
        "code": 7604152002,
        "district_code": 760415,
        "regency_code": 7604,
        "province_code": 76,
        "name": "Mombi",
        "postal_code": "91325",
        "latitude": -3.4399121080552995,
        "longitude": 118.99240459096602
    },
    {
        "code": 7604152003,
        "district_code": 760415,
        "regency_code": 7604,
        "province_code": 76,
        "name": "Kalumammang",
        "postal_code": "91325",
        "latitude": -3.394983056935011,
        "longitude": 118.94211235347889
    },
    {
        "code": 7604152004,
        "district_code": 760415,
        "regency_code": 7604,
        "province_code": 76,
        "name": "Pao-pao",
        "postal_code": "91325",
        "latitude": -3.3636571374017072,
        "longitude": 118.98157332088184
    },
    {
        "code": 7604152005,
        "district_code": 760415,
        "regency_code": 7604,
        "province_code": 76,
        "name": "Puppuuring",
        "postal_code": "91325",
        "latitude": -3.3087888104405137,
        "longitude": 118.95198980574587
    },
    {
        "code": 7604152006,
        "district_code": 760415,
        "regency_code": 7604,
        "province_code": 76,
        "name": "Saragian",
        "postal_code": "91325",
        "latitude": -3.430230600921692,
        "longitude": 118.96806916109297
    },
    {
        "code": 7604152007,
        "district_code": 760415,
        "regency_code": 7604,
        "province_code": 76,
        "name": "Sayoang",
        "postal_code": "91325",
        "latitude": -3.42165675645657,
        "longitude": 119.01501819703023
    },
    {
        "code": 7604152008,
        "district_code": 760415,
        "regency_code": 7604,
        "province_code": 76,
        "name": "Alu",
        "postal_code": "91325",
        "latitude": -3.4013039535831058,
        "longitude": 118.97735200328749
    },
    {
        "code": 7604162001,
        "district_code": 760416,
        "regency_code": 7604,
        "province_code": 76,
        "name": "Bulo",
        "postal_code": "91353",
        "latitude": -3.2347447833724368,
        "longitude": 119.14204041807069
    },
    {
        "code": 7604162002,
        "district_code": 760416,
        "regency_code": 7604,
        "province_code": 76,
        "name": "Pulliwa",
        "postal_code": "91353",
        "latitude": -3.28922394054368,
        "longitude": 119.15195629763771
    },
    {
        "code": 7604162003,
        "district_code": 760416,
        "regency_code": 7604,
        "province_code": 76,
        "name": "Patambanua",
        "postal_code": "91353",
        "latitude": -3.1540882063333906,
        "longitude": 119.12787347685682
    },
    {
        "code": 7604162004,
        "district_code": 760416,
        "regency_code": 7604,
        "province_code": 76,
        "name": "Karombang",
        "postal_code": "91353",
        "latitude": -3.207672723736916,
        "longitude": 119.13086725697806
    },
    {
        "code": 7604162005,
        "district_code": 760416,
        "regency_code": 7604,
        "province_code": 76,
        "name": "Daala Timur",
        "postal_code": "91353",
        "latitude": -3.271751149594171,
        "longitude": 119.11266705950564
    },
    {
        "code": 7604162006,
        "district_code": 760416,
        "regency_code": 7604,
        "province_code": 76,
        "name": "Lenggo",
        "postal_code": "91353",
        "latitude": -3.1842489719129974,
        "longitude": 119.08945982124177
    },
    {
        "code": 7604162007,
        "district_code": 760416,
        "regency_code": 7604,
        "province_code": 76,
        "name": "Sabura",
        "postal_code": "91353",
        "latitude": -3.236892564100441,
        "longitude": 119.18041365567001
    },
    {
        "code": 7604162008,
        "district_code": 760416,
        "regency_code": 7604,
        "province_code": 76,
        "name": "Sepporraki",
        "postal_code": "91353",
        "latitude": -3.2068489251726073,
        "longitude": 119.1713429586565
    },
    {
        "code": 7604162009,
        "district_code": 760416,
        "regency_code": 7604,
        "province_code": 76,
        "name": "Ihing",
        "postal_code": "91353",
        "latitude": -3.253259532590849,
        "longitude": 119.15372036594958
    },
    {
        "code": 7605011001,
        "district_code": 760501,
        "regency_code": 7605,
        "province_code": 76,
        "name": "Banggae",
        "postal_code": "91411",
        "latitude": -3.534333571751891,
        "longitude": 118.96342009925063
    },
    {
        "code": 7605011003,
        "district_code": 760501,
        "regency_code": 7605,
        "province_code": 76,
        "name": "Baru",
        "postal_code": "91415",
        "latitude": -3.542127141278977,
        "longitude": 118.94781623484899
    },
    {
        "code": 7605011007,
        "district_code": 760501,
        "regency_code": 7605,
        "province_code": 76,
        "name": "Pangali Ali",
        "postal_code": "91411",
        "latitude": -3.538989747850051,
        "longitude": 118.95734272134246
    },
    {
        "code": 7605011009,
        "district_code": 760501,
        "regency_code": 7605,
        "province_code": 76,
        "name": "Totoli",
        "postal_code": "91415",
        "latitude": -3.535702250170274,
        "longitude": 118.93367341944924
    },
    {
        "code": 7605011010,
        "district_code": 760501,
        "regency_code": 7605,
        "province_code": 76,
        "name": "Rangas",
        "postal_code": "91415",
        "latitude": -3.5616195136107347,
        "longitude": 118.93756513860052
    },
    {
        "code": 7605011013,
        "district_code": 760501,
        "regency_code": 7605,
        "province_code": 76,
        "name": "Galung",
        "postal_code": "91411",
        "latitude": -3.5243934676639728,
        "longitude": 118.96988680980085
    },
    {
        "code": 7605012011,
        "district_code": 760501,
        "regency_code": 7605,
        "province_code": 76,
        "name": "Palipi Soreang",
        "postal_code": "91415",
        "latitude": -3.545599221470003,
        "longitude": 118.92934094910855
    },
    {
        "code": 7605012012,
        "district_code": 760501,
        "regency_code": 7605,
        "province_code": 76,
        "name": "Pamboborang",
        "postal_code": "91415",
        "latitude": -3.528867931335881,
        "longitude": 118.93845044182952
    },
    {
        "code": 7605021001,
        "district_code": 760502,
        "regency_code": 7605,
        "province_code": 76,
        "name": "Lalampanua",
        "postal_code": "91451",
        "latitude": -3.4862095254973258,
        "longitude": 118.89748021425653
    },
    {
        "code": 7605021002,
        "district_code": 760502,
        "regency_code": 7605,
        "province_code": 76,
        "name": "Sirindu",
        "postal_code": "91451",
        "latitude": -3.4351337779227027,
        "longitude": 118.88012937686096
    },
    {
        "code": 7605022003,
        "district_code": 760502,
        "regency_code": 7605,
        "province_code": 76,
        "name": "Adolang",
        "postal_code": "91451",
        "latitude": -3.4369165584343317,
        "longitude": 118.91424865817758
    },
    {
        "code": 7605022004,
        "district_code": 760502,
        "regency_code": 7605,
        "province_code": 76,
        "name": "Bababulo",
        "postal_code": "91451",
        "latitude": -3.5150361805245236,
        "longitude": 118.90726356729552
    },
    {
        "code": 7605022005,
        "district_code": 760502,
        "regency_code": 7605,
        "province_code": 76,
        "name": "Bonde",
        "postal_code": "91451",
        "latitude": -3.533579444951882,
        "longitude": 118.9196356980535
    },
    {
        "code": 7605022006,
        "district_code": 760502,
        "regency_code": 7605,
        "province_code": 76,
        "name": "Betteng",
        "postal_code": "91451",
        "latitude": -3.4664894909718176,
        "longitude": 118.92575745768228
    },
    {
        "code": 7605022007,
        "district_code": 760502,
        "regency_code": 7605,
        "province_code": 76,
        "name": "Simbang",
        "postal_code": "91451",
        "latitude": -3.48997884472279,
        "longitude": 118.93066802744815
    },
    {
        "code": 7605022008,
        "district_code": 760502,
        "regency_code": 7605,
        "province_code": 76,
        "name": "Bonde Utara",
        "postal_code": "91451",
        "latitude": -3.5269031507401523,
        "longitude": 118.91383656968138
    },
    {
        "code": 7605022009,
        "district_code": 760502,
        "regency_code": 7605,
        "province_code": 76,
        "name": "Bababulo Utara",
        "postal_code": "91451",
        "latitude": -3.503651189250043,
        "longitude": 118.90090938272083
    },
    {
        "code": 7605022010,
        "district_code": 760502,
        "regency_code": 7605,
        "province_code": 76,
        "name": "Buttu Pamboang",
        "postal_code": "91451",
        "latitude": -3.507121009501074,
        "longitude": 118.9186939064546
    },
    {
        "code": 7605022011,
        "district_code": 760502,
        "regency_code": 7605,
        "province_code": 76,
        "name": "Banua Adolang",
        "postal_code": "91451",
        "latitude": -3.4586476268392037,
        "longitude": 118.90439565125209
    },
    {
        "code": 7605022012,
        "district_code": 760502,
        "regency_code": 7605,
        "province_code": 76,
        "name": "Adolang Dhua",
        "postal_code": "91451",
        "latitude": -3.4233169964934,
        "longitude": 118.90308844675454
    },
    {
        "code": 7605022013,
        "district_code": 760502,
        "regency_code": 7605,
        "province_code": 76,
        "name": "Tinambung",
        "postal_code": "91451",
        "latitude": -3.494988602004823,
        "longitude": 118.90531688835938
    },
    {
        "code": 7605022014,
        "district_code": 760502,
        "regency_code": 7605,
        "province_code": 76,
        "name": "Pesuloang",
        "postal_code": "91451",
        "latitude": -3.463435763217357,
        "longitude": 118.88200557757403
    },
    {
        "code": 7605022015,
        "district_code": 760502,
        "regency_code": 7605,
        "province_code": 76,
        "name": "Balombong",
        "postal_code": "91451",
        "latitude": -3.4490366209002703,
        "longitude": 118.88985682829876
    },
    {
        "code": 7605031001,
        "district_code": 760503,
        "regency_code": 7605,
        "province_code": 76,
        "name": "Mosso",
        "postal_code": "91452",
        "latitude": -3.3826629376603297,
        "longitude": 118.87231330564346
    },
    {
        "code": 7605031002,
        "district_code": 760503,
        "regency_code": 7605,
        "province_code": 76,
        "name": "Mosso Dhua",
        "postal_code": "91452",
        "latitude": -3.409297445030231,
        "longitude": 118.88846890995801
    },
    {
        "code": 7605032004,
        "district_code": 760503,
        "regency_code": 7605,
        "province_code": 76,
        "name": "Totolisi Sendana",
        "postal_code": "91452",
        "latitude": -3.3273197815175504,
        "longitude": 118.84853484417717
    },
    {
        "code": 7605032007,
        "district_code": 760503,
        "regency_code": 7605,
        "province_code": 76,
        "name": "Tallubanua",
        "postal_code": "91452",
        "latitude": -3.2901505225511043,
        "longitude": 118.8834067754038
    },
    {
        "code": 7605032015,
        "district_code": 760503,
        "regency_code": 7605,
        "province_code": 76,
        "name": "Lalatedzong",
        "postal_code": "91452",
        "latitude": -3.3610453817766826,
        "longitude": 118.84944420864007
    },
    {
        "code": 7605032016,
        "district_code": 760503,
        "regency_code": 7605,
        "province_code": 76,
        "name": "Binanga",
        "postal_code": "91452",
        "latitude": -3.3392569885501318,
        "longitude": 118.85358555638986
    },
    {
        "code": 7605032017,
        "district_code": 760503,
        "regency_code": 7605,
        "province_code": 76,
        "name": "Puttada",
        "postal_code": "91452",
        "latitude": -3.3638490490093402,
        "longitude": 118.88084517755892
    },
    {
        "code": 7605032018,
        "district_code": 760503,
        "regency_code": 7605,
        "province_code": 76,
        "name": "Paminggalan",
        "postal_code": "91452",
        "latitude": -3.357566809431984,
        "longitude": 118.91548083473474
    },
    {
        "code": 7605032019,
        "district_code": 760503,
        "regency_code": 7605,
        "province_code": 76,
        "name": "Leppangang",
        "postal_code": "91452",
        "latitude": -3.343021854431142,
        "longitude": 118.8757480371813
    },
    {
        "code": 7605032020,
        "district_code": 760503,
        "regency_code": 7605,
        "province_code": 76,
        "name": "Pundau",
        "postal_code": "91452",
        "latitude": -3.3275154653427554,
        "longitude": 118.87633440653721
    },
    {
        "code": 7605032021,
        "district_code": 760503,
        "regency_code": 7605,
        "province_code": 76,
        "name": "Sendana",
        "postal_code": "91452",
        "latitude": -3.318241041435412,
        "longitude": 118.87735758062131
    },
    {
        "code": 7605032022,
        "district_code": 760503,
        "regency_code": 7605,
        "province_code": 76,
        "name": "Banua Sendana",
        "postal_code": "91452",
        "latitude": -3.307485428144093,
        "longitude": 118.87937063157237
    },
    {
        "code": 7605032023,
        "district_code": 760503,
        "regency_code": 7605,
        "province_code": 76,
        "name": "Tallubanua Utara",
        "postal_code": "91452",
        "latitude": -3.271129464720485,
        "longitude": 118.87245423481993
    },
    {
        "code": 7605032024,
        "district_code": 760503,
        "regency_code": 7605,
        "province_code": 76,
        "name": "Limboro Rambu-Rambu",
        "postal_code": "91452",
        "latitude": -3.2968994955731197,
        "longitude": 118.91175159760371
    },
    {
        "code": 7605032025,
        "district_code": 760503,
        "regency_code": 7605,
        "province_code": 76,
        "name": "Limbua",
        "postal_code": "91452",
        "latitude": -3.3741232340302716,
        "longitude": 118.85715083994204
    },
    {
        "code": 7605032026,
        "district_code": 760503,
        "regency_code": 7605,
        "province_code": 76,
        "name": "Bukit Samang",
        "postal_code": "91452",
        "latitude": -3.3933604778628554,
        "longitude": 118.88722657091844
    },
    {
        "code": 7605041001,
        "district_code": 760504,
        "regency_code": 7605,
        "province_code": 76,
        "name": "Malunda",
        "postal_code": "91453",
        "latitude": -3.00318658952619,
        "longitude": 118.85668208376141
    },
    {
        "code": 7605041015,
        "district_code": 760504,
        "regency_code": 7605,
        "province_code": 76,
        "name": "Lamungang Batu",
        "postal_code": "91453",
        "latitude": -3.020808348852187,
        "longitude": 118.86244422760562
    },
    {
        "code": 7605042002,
        "district_code": 760504,
        "regency_code": 7605,
        "province_code": 76,
        "name": "Bambangan",
        "postal_code": "91453",
        "latitude": -2.9627414178772953,
        "longitude": 118.95672087962924
    },
    {
        "code": 7605042004,
        "district_code": 760504,
        "regency_code": 7605,
        "province_code": 76,
        "name": "Lombang",
        "postal_code": "91453",
        "latitude": -3.0074017676121456,
        "longitude": 118.88961354818986
    },
    {
        "code": 7605042005,
        "district_code": 760504,
        "regency_code": 7605,
        "province_code": 76,
        "name": "Lombong",
        "postal_code": "91453",
        "latitude": -2.98625387406618,
        "longitude": 118.85716691623198
    },
    {
        "code": 7605042006,
        "district_code": 760504,
        "regency_code": 7605,
        "province_code": 76,
        "name": "Mekkatta",
        "postal_code": "91453",
        "latitude": -2.9467150047424133,
        "longitude": 118.90539124592294
    },
    {
        "code": 7605042010,
        "district_code": 760504,
        "regency_code": 7605,
        "province_code": 76,
        "name": "Maliaya",
        "postal_code": "91453",
        "latitude": -2.93250266385294,
        "longitude": 118.88175917015343
    },
    {
        "code": 7605042011,
        "district_code": 760504,
        "regency_code": 7605,
        "province_code": 76,
        "name": "Lombang Timur",
        "postal_code": "91453",
        "latitude": -3.0116464360747144,
        "longitude": 118.93899034546729
    },
    {
        "code": 7605042012,
        "district_code": 760504,
        "regency_code": 7605,
        "province_code": 76,
        "name": "Salutahongan",
        "postal_code": "91453",
        "latitude": -2.9920265345979944,
        "longitude": 118.98746318071865
    },
    {
        "code": 7605042013,
        "district_code": 760504,
        "regency_code": 7605,
        "province_code": 76,
        "name": "Lombong Timur",
        "postal_code": "91453",
        "latitude": -2.9841732811479433,
        "longitude": 118.86997684225855
    },
    {
        "code": 7605042014,
        "district_code": 760504,
        "regency_code": 7605,
        "province_code": 76,
        "name": "Mekkatta Selatan",
        "postal_code": "91453",
        "latitude": -2.968295324156952,
        "longitude": 118.86939127967635
    },
    {
        "code": 7605042016,
        "district_code": 760504,
        "regency_code": 7605,
        "province_code": 76,
        "name": "Kayuangin",
        "postal_code": "91453",
        "latitude": -2.997016194280475,
        "longitude": 118.87645175829219
    },
    {
        "code": 7605052001,
        "district_code": 760505,
        "regency_code": 7605,
        "province_code": 76,
        "name": "Kabiraan",
        "postal_code": "91454",
        "latitude": -3.0480690400860118,
        "longitude": 118.88447068404768
    },
    {
        "code": 7605052002,
        "district_code": 760505,
        "regency_code": 7605,
        "province_code": 76,
        "name": "Sambabo",
        "postal_code": "91454",
        "latitude": -3.107496389596178,
        "longitude": 118.8638837763242
    },
    {
        "code": 7605052003,
        "district_code": 760505,
        "regency_code": 7605,
        "province_code": 76,
        "name": "Tandeallo",
        "postal_code": "91454",
        "latitude": -3.0752714203413123,
        "longitude": 118.91174168244177
    },
    {
        "code": 7605052004,
        "district_code": 760505,
        "regency_code": 7605,
        "province_code": 76,
        "name": "Ulumanda",
        "postal_code": "91454",
        "latitude": -3.0630519601099064,
        "longitude": 118.98944772317927
    },
    {
        "code": 7605052005,
        "district_code": 760505,
        "regency_code": 7605,
        "province_code": 76,
        "name": "Salutambung",
        "postal_code": "91454",
        "latitude": -3.1214630826011462,
        "longitude": 118.8466058765783
    },
    {
        "code": 7605052006,
        "district_code": 760505,
        "regency_code": 7605,
        "province_code": 76,
        "name": "Popenga",
        "postal_code": "91454",
        "latitude": -3.0245277296416258,
        "longitude": 119.03585370721451
    },
    {
        "code": 7605052007,
        "district_code": 760505,
        "regency_code": 7605,
        "province_code": 76,
        "name": "Sulai",
        "postal_code": "91454",
        "latitude": -3.0483081393029834,
        "longitude": 118.85994925078607
    },
    {
        "code": 7605052008,
        "district_code": 760505,
        "regency_code": 7605,
        "province_code": 76,
        "name": "Panggalo",
        "postal_code": "91454",
        "latitude": -3.142237942795628,
        "longitude": 118.90927923464373
    },
    {
        "code": 7605062001,
        "district_code": 760506,
        "regency_code": 7605,
        "province_code": 76,
        "name": "Seppong",
        "postal_code": "91450",
        "latitude": -3.224644776239763,
        "longitude": 118.86143090269252
    },
    {
        "code": 7605062002,
        "district_code": 760506,
        "regency_code": 7605,
        "province_code": 76,
        "name": "Tammerodo",
        "postal_code": "91450",
        "latitude": -3.2624468583207675,
        "longitude": 118.85081825198614
    },
    {
        "code": 7605062003,
        "district_code": 760506,
        "regency_code": 7605,
        "province_code": 76,
        "name": "Ulidang",
        "postal_code": "91450",
        "latitude": -3.214400694152219,
        "longitude": 118.83914622403842
    },
    {
        "code": 7605062004,
        "district_code": 760506,
        "regency_code": 7605,
        "province_code": 76,
        "name": "Tallambalao",
        "postal_code": "91450",
        "latitude": -3.249984259097729,
        "longitude": 118.87698727287999
    },
    {
        "code": 7605062005,
        "district_code": 760506,
        "regency_code": 7605,
        "province_code": 76,
        "name": "Tammerodo Utara",
        "postal_code": "91450",
        "latitude": -3.240934550967176,
        "longitude": 118.83984400229956
    },
    {
        "code": 7605062006,
        "district_code": 760506,
        "regency_code": 7605,
        "province_code": 76,
        "name": "Manyamba",
        "postal_code": "91450",
        "latitude": -3.2260879486633107,
        "longitude": 118.89085999008414
    },
    {
        "code": 7605062007,
        "district_code": 760506,
        "regency_code": 7605,
        "province_code": 76,
        "name": "Awo",
        "postal_code": "91450",
        "latitude": -3.198112230705631,
        "longitude": 118.85955712551672
    },
    {
        "code": 7605072001,
        "district_code": 760507,
        "regency_code": 7605,
        "province_code": 76,
        "name": "Onang",
        "postal_code": "91455",
        "latitude": -3.1639192371721374,
        "longitude": 118.84652619556049
    },
    {
        "code": 7605072002,
        "district_code": 760507,
        "regency_code": 7605,
        "province_code": 76,
        "name": "Tubo",
        "postal_code": "91455",
        "latitude": -3.0993187809458025,
        "longitude": 118.81397089650368
    },
    {
        "code": 7605072003,
        "district_code": 760507,
        "regency_code": 7605,
        "province_code": 76,
        "name": "Onang Utara",
        "postal_code": "91455",
        "latitude": -3.1321580883905153,
        "longitude": 118.81285406424861
    },
    {
        "code": 7605072004,
        "district_code": 760507,
        "regency_code": 7605,
        "province_code": 76,
        "name": "Tubo Selatan",
        "postal_code": "91455",
        "latitude": -3.100415890323118,
        "longitude": 118.7885679317338
    },
    {
        "code": 7605072005,
        "district_code": 760507,
        "regency_code": 7605,
        "province_code": 76,
        "name": "Bonde bonde",
        "postal_code": "91455",
        "latitude": -3.1145227164849283,
        "longitude": 118.79354373630805
    },
    {
        "code": 7605072006,
        "district_code": 760507,
        "regency_code": 7605,
        "province_code": 76,
        "name": "Tubo Tengah",
        "postal_code": "91455",
        "latitude": -3.0919754421640264,
        "longitude": 118.79511691608832
    },
    {
        "code": 7605072007,
        "district_code": 760507,
        "regency_code": 7605,
        "province_code": 76,
        "name": "Tubo Poang",
        "postal_code": "91455",
        "latitude": -3.1037798208723717,
        "longitude": 118.83034952493841
    },
    {
        "code": 7605081001,
        "district_code": 760508,
        "regency_code": 7605,
        "province_code": 76,
        "name": "Baurung",
        "postal_code": "91412",
        "latitude": -3.5479154059610587,
        "longitude": 118.99470677549348
    },
    {
        "code": 7605081002,
        "district_code": 760508,
        "regency_code": 7605,
        "province_code": 76,
        "name": "Baruga",
        "postal_code": "91414",
        "latitude": -3.513155354471809,
        "longitude": 118.94801349370856
    },
    {
        "code": 7605081003,
        "district_code": 760508,
        "regency_code": 7605,
        "province_code": 76,
        "name": "Baruga Dhua",
        "postal_code": "91411",
        "latitude": -3.4839935030749736,
        "longitude": 118.95627092032697
    },
    {
        "code": 7605081004,
        "district_code": 760508,
        "regency_code": 7605,
        "province_code": 76,
        "name": "Labuang",
        "postal_code": "91412",
        "latitude": -3.5457490313001854,
        "longitude": 118.97272350831206
    },
    {
        "code": 7605081005,
        "district_code": 760508,
        "regency_code": 7605,
        "province_code": 76,
        "name": "Tande",
        "postal_code": "91413",
        "latitude": -3.5102600215508533,
        "longitude": 118.97695561865658
    },
    {
        "code": 7605081006,
        "district_code": 760508,
        "regency_code": 7605,
        "province_code": 76,
        "name": "Lembang",
        "postal_code": "91413",
        "latitude": -3.5439556475114844,
        "longitude": 118.98474416930364
    },
    {
        "code": 7605081007,
        "district_code": 760508,
        "regency_code": 7605,
        "province_code": 76,
        "name": "Labuang Utara",
        "postal_code": "91413",
        "latitude": -3.538629888005346,
        "longitude": 118.97530730681014
    },
    {
        "code": 7605081008,
        "district_code": 760508,
        "regency_code": 7605,
        "province_code": 76,
        "name": "Tande Timur",
        "postal_code": "91413",
        "latitude": -3.5246988029570305,
        "longitude": 118.99042268832746
    },
    {
        "code": 7605082009,
        "district_code": 760508,
        "regency_code": 7605,
        "province_code": 76,
        "name": "Buttu Baruga",
        "postal_code": "91413",
        "latitude": -3.4977342996887666,
        "longitude": 118.94878875855512
    },
    {
        "code": 7606012001,
        "district_code": 760601,
        "regency_code": 7606,
        "province_code": 76,
        "name": "Mahahe",
        "postal_code": "91463",
        "latitude": -2.121696979160661,
        "longitude": 119.36380976356872
    },
    {
        "code": 7606012002,
        "district_code": 760601,
        "regency_code": 7606,
        "province_code": 76,
        "name": "Salobaja",
        "postal_code": "91463",
        "latitude": -2.150051823619873,
        "longitude": 119.35036941382819
    },
    {
        "code": 7606012003,
        "district_code": 760601,
        "regency_code": 7606,
        "province_code": 76,
        "name": "Tobadak",
        "postal_code": "91463",
        "latitude": -2.0990014076860435,
        "longitude": 119.32279946695917
    },
    {
        "code": 7606012004,
        "district_code": 760601,
        "regency_code": 7606,
        "province_code": 76,
        "name": "Palongaan",
        "postal_code": "91463",
        "latitude": -2.1052533483419067,
        "longitude": 119.402754431485
    },
    {
        "code": 7606012005,
        "district_code": 760601,
        "regency_code": 7606,
        "province_code": 76,
        "name": "Batu Parigi",
        "postal_code": "91463",
        "latitude": -2.0927523774279577,
        "longitude": 119.51571381625416
    },
    {
        "code": 7606012006,
        "district_code": 760601,
        "regency_code": 7606,
        "province_code": 76,
        "name": "Bambadaru",
        "postal_code": "91463",
        "latitude": -2.171558178128582,
        "longitude": 119.37036707564374
    },
    {
        "code": 7606012007,
        "district_code": 760601,
        "regency_code": 7606,
        "province_code": 76,
        "name": "Sejati",
        "postal_code": "91463",
        "latitude": -2.1380806782897053,
        "longitude": 119.452318875628
    },
    {
        "code": 7606012008,
        "district_code": 760601,
        "regency_code": 7606,
        "province_code": 76,
        "name": "Saloadak",
        "postal_code": "91463",
        "latitude": -2.157389312675935,
        "longitude": 119.41219456990126
    },
    {
        "code": 7606022001,
        "district_code": 760602,
        "regency_code": 7606,
        "province_code": 76,
        "name": "Polo Pangale",
        "postal_code": "91462",
        "latitude": -2.2763837857693443,
        "longitude": 119.19531185164705
    },
    {
        "code": 7606022002,
        "district_code": 760602,
        "regency_code": 7606,
        "province_code": 76,
        "name": "Pangale",
        "postal_code": "91462",
        "latitude": -2.291011403711824,
        "longitude": 119.14966608772578
    },
    {
        "code": 7606022003,
        "district_code": 760602,
        "regency_code": 7606,
        "province_code": 76,
        "name": "Sartanamaju",
        "postal_code": "91462",
        "latitude": -2.266669873177335,
        "longitude": 119.17003475424112
    },
    {
        "code": 7606022004,
        "district_code": 760602,
        "regency_code": 7606,
        "province_code": 76,
        "name": "Polo Lereng",
        "postal_code": "91462",
        "latitude": -2.2448559869174196,
        "longitude": 119.1931205012946
    },
    {
        "code": 7606022005,
        "district_code": 760602,
        "regency_code": 7606,
        "province_code": 76,
        "name": "Kuo",
        "postal_code": "91462",
        "latitude": -2.250445483363103,
        "longitude": 119.23341512015487
    },
    {
        "code": 7606022006,
        "district_code": 760602,
        "regency_code": 7606,
        "province_code": 76,
        "name": "Polo Camba",
        "postal_code": "91462",
        "latitude": -2.22509387816176,
        "longitude": 119.19101004133958
    },
    {
        "code": 7606022007,
        "district_code": 760602,
        "regency_code": 7606,
        "province_code": 76,
        "name": "Lamba-lamba",
        "postal_code": "91462",
        "latitude": -2.213658089321261,
        "longitude": 119.16382103424586
    },
    {
        "code": 7606022008,
        "district_code": 760602,
        "regency_code": 7606,
        "province_code": 76,
        "name": "Kombiling",
        "postal_code": "91462",
        "latitude": -2.260851224933739,
        "longitude": 119.15077439826594
    },
    {
        "code": 7606022009,
        "district_code": 760602,
        "regency_code": 7606,
        "province_code": 76,
        "name": "Lemo-Lemo",
        "postal_code": "91462",
        "latitude": -2.2968978464667327,
        "longitude": 119.19351814674067
    },
    {
        "code": 7606032001,
        "district_code": 760603,
        "regency_code": 7606,
        "province_code": 76,
        "name": "Babana",
        "postal_code": "91461",
        "latitude": -2.1183017350495668,
        "longitude": 119.25986719678224
    },
    {
        "code": 7606032002,
        "district_code": 760603,
        "regency_code": 7606,
        "province_code": 76,
        "name": "Lumu",
        "postal_code": "91461",
        "latitude": -2.17874976222681,
        "longitude": 119.17020384099767
    },
    {
        "code": 7606032003,
        "district_code": 760603,
        "regency_code": 7606,
        "province_code": 76,
        "name": "Pontanakayang",
        "postal_code": "91461",
        "latitude": -2.159912083123961,
        "longitude": 119.27118091842732
    },
    {
        "code": 7606032004,
        "district_code": 760603,
        "regency_code": 7606,
        "province_code": 76,
        "name": "Salogatta",
        "postal_code": "91461",
        "latitude": -2.1686219266084437,
        "longitude": 119.24153785571603
    },
    {
        "code": 7606032005,
        "district_code": 760603,
        "regency_code": 7606,
        "province_code": 76,
        "name": "Kire",
        "postal_code": "91461",
        "latitude": -2.1379214640421065,
        "longitude": 119.21305009586511
    },
    {
        "code": 7606032006,
        "district_code": 760603,
        "regency_code": 7606,
        "province_code": 76,
        "name": "Tinali",
        "postal_code": "91461",
        "latitude": -2.1877243911158395,
        "longitude": 119.23305815763274
    },
    {
        "code": 7606032007,
        "district_code": 760603,
        "regency_code": 7606,
        "province_code": 76,
        "name": "Salumanurung",
        "postal_code": "91461",
        "latitude": -2.1819955087292007,
        "longitude": 119.19747252318571
    },
    {
        "code": 7606032008,
        "district_code": 760603,
        "regency_code": 7606,
        "province_code": 76,
        "name": "Pasapa",
        "postal_code": "91461",
        "latitude": -2.1944827155796776,
        "longitude": 119.33686513018804
    },
    {
        "code": 7606032009,
        "district_code": 760603,
        "regency_code": 7606,
        "province_code": 76,
        "name": "Bojo",
        "postal_code": "91461",
        "latitude": -2.1952225160001295,
        "longitude": 119.30325059517227
    },
    {
        "code": 7606032010,
        "district_code": 760603,
        "regency_code": 7606,
        "province_code": 76,
        "name": "Barakkang",
        "postal_code": "91461",
        "latitude": -2.21641695438372,
        "longitude": 119.23824530652745
    },
    {
        "code": 7606032011,
        "district_code": 760603,
        "regency_code": 7606,
        "province_code": 76,
        "name": "Lembah Hada",
        "postal_code": "91461",
        "latitude": -2.2034468466566803,
        "longitude": 119.26564753066455
    },
    {
        "code": 7606042001,
        "district_code": 760604,
        "regency_code": 7606,
        "province_code": 76,
        "name": "Budong-Budong",
        "postal_code": "91464",
        "latitude": -2.055693260892413,
        "longitude": 119.22211258053197
    },
    {
        "code": 7606042002,
        "district_code": 760604,
        "regency_code": 7606,
        "province_code": 76,
        "name": "Topoyo",
        "postal_code": "91464",
        "latitude": -2.0682858832413547,
        "longitude": 119.2837383738569
    },
    {
        "code": 7606042003,
        "district_code": 760604,
        "regency_code": 7606,
        "province_code": 76,
        "name": "Tumbu",
        "postal_code": "91464",
        "latitude": -2.017090143658395,
        "longitude": 119.23177883815721
    },
    {
        "code": 7606042004,
        "district_code": 760604,
        "regency_code": 7606,
        "province_code": 76,
        "name": "Kabubu",
        "postal_code": "91464",
        "latitude": -2.0438706495989205,
        "longitude": 119.26177066348997
    },
    {
        "code": 7606042005,
        "district_code": 760604,
        "regency_code": 7606,
        "province_code": 76,
        "name": "Waeputeh",
        "postal_code": "91464",
        "latitude": -2.0325740226443845,
        "longitude": 119.27093367208262
    },
    {
        "code": 7606042006,
        "district_code": 760604,
        "regency_code": 7606,
        "province_code": 76,
        "name": "Tangkou",
        "postal_code": "91464",
        "latitude": -2.0456253889857807,
        "longitude": 119.31698085331368
    },
    {
        "code": 7606042007,
        "district_code": 760604,
        "regency_code": 7606,
        "province_code": 76,
        "name": "Tabolang",
        "postal_code": "91464",
        "latitude": -2.053713787360647,
        "longitude": 119.34631709594318
    },
    {
        "code": 7606042008,
        "district_code": 760604,
        "regency_code": 7606,
        "province_code": 76,
        "name": "Paraili",
        "postal_code": "91464",
        "latitude": -2.059094103366437,
        "longitude": 119.25389776125655
    },
    {
        "code": 7606042009,
        "district_code": 760604,
        "regency_code": 7606,
        "province_code": 76,
        "name": "Salupangkang",
        "postal_code": "91464",
        "latitude": -2.0255586622352637,
        "longitude": 119.31322477454206
    },
    {
        "code": 7606042010,
        "district_code": 760604,
        "regency_code": 7606,
        "province_code": 76,
        "name": "Salupangkang IV",
        "postal_code": "91464",
        "latitude": -1.9992378285332224,
        "longitude": 119.28357101730657
    },
    {
        "code": 7606042011,
        "district_code": 760604,
        "regency_code": 7606,
        "province_code": 76,
        "name": "Tappilina",
        "postal_code": "91464",
        "latitude": -2.026729451283451,
        "longitude": 119.28775059000687
    },
    {
        "code": 7606042012,
        "district_code": 760604,
        "regency_code": 7606,
        "province_code": 76,
        "name": "Bambamanurung",
        "postal_code": "91464",
        "latitude": -2.0037467193645933,
        "longitude": 119.31167403176627
    },
    {
        "code": 7606042013,
        "district_code": 760604,
        "regency_code": 7606,
        "province_code": 76,
        "name": "Salulekbo",
        "postal_code": "91464",
        "latitude": -2.0344747588789955,
        "longitude": 119.64202300661401
    },
    {
        "code": 7606042014,
        "district_code": 760604,
        "regency_code": 7606,
        "province_code": 76,
        "name": "Pangalloang",
        "postal_code": "91464",
        "latitude": -2.080774901963628,
        "longitude": 119.24844139866718
    },
    {
        "code": 7606042015,
        "district_code": 760604,
        "regency_code": 7606,
        "province_code": 76,
        "name": "Sinabatta",
        "postal_code": "91464",
        "latitude": -1.9858494917236347,
        "longitude": 119.2617419937466
    },
    {
        "code": 7606052001,
        "district_code": 760605,
        "regency_code": 7606,
        "province_code": 76,
        "name": "Karossa",
        "postal_code": "91460",
        "latitude": -1.8378373791739988,
        "longitude": 119.62308163162326
    },
    {
        "code": 7606052002,
        "district_code": 760605,
        "regency_code": 7606,
        "province_code": 76,
        "name": "Tasokko",
        "postal_code": "91460",
        "latitude": -1.9325292281934607,
        "longitude": 119.53726769717596
    },
    {
        "code": 7606052003,
        "district_code": 760605,
        "regency_code": 7606,
        "province_code": 76,
        "name": "Lara",
        "postal_code": "91460",
        "latitude": -1.8793986356061614,
        "longitude": 119.61977612418887
    },
    {
        "code": 7606052004,
        "district_code": 760605,
        "regency_code": 7606,
        "province_code": 76,
        "name": "Kadaila",
        "postal_code": "91460",
        "latitude": -1.7735859749677596,
        "longitude": 119.37936621797424
    },
    {
        "code": 7606052005,
        "district_code": 760605,
        "regency_code": 7606,
        "province_code": 76,
        "name": "Kayu Calla",
        "postal_code": "91460",
        "latitude": -1.793191304761463,
        "longitude": 119.36823096373892
    },
    {
        "code": 7606052006,
        "district_code": 760605,
        "regency_code": 7606,
        "province_code": 76,
        "name": "Lembah Hopo",
        "postal_code": "91460",
        "latitude": -1.8445179199462298,
        "longitude": 119.46846843440467
    },
    {
        "code": 7606052007,
        "district_code": 760605,
        "regency_code": 7606,
        "province_code": 76,
        "name": "Benggaulu",
        "postal_code": "91460",
        "latitude": -1.7566753171450495,
        "longitude": 119.42414733956198
    },
    {
        "code": 7606052008,
        "district_code": 760605,
        "regency_code": 7606,
        "province_code": 76,
        "name": "Suka Maju",
        "postal_code": "91460",
        "latitude": -1.8488871294735696,
        "longitude": 119.43250294966633
    },
    {
        "code": 7606052009,
        "district_code": 760605,
        "regency_code": 7606,
        "province_code": 76,
        "name": "Kambunong",
        "postal_code": "91460",
        "latitude": -1.9648170796542956,
        "longitude": 119.54386846271363
    },
    {
        "code": 7606052010,
        "district_code": 760605,
        "regency_code": 7606,
        "province_code": 76,
        "name": "Salubiro",
        "postal_code": "91460",
        "latitude": -1.9039368363047697,
        "longitude": 119.56876003856135
    },
    {
        "code": 7606052011,
        "district_code": 760605,
        "regency_code": 7606,
        "province_code": 76,
        "name": "Sanjango",
        "postal_code": "91460",
        "latitude": -1.8110458590657696,
        "longitude": 119.65224029327501
    }
]