[
    {
        "code": 7501011001,
        "district_code": 750101,
        "regency_code": 7501,
        "province_code": 75,
        "name": "Kayubulan",
        "postal_code": "96211",
        "latitude": 0.6035496724763739,
        "longitude": 122.9843899327829
    },
    {
        "code": 7501011002,
        "district_code": 750101,
        "regency_code": 7501,
        "province_code": 75,
        "name": "Kayumerah",
        "postal_code": "96214",
        "latitude": 0.6364827498021572,
        "longitude": 122.97401052239333
    },
    {
        "code": 7501011003,
        "district_code": 750101,
        "regency_code": 7501,
        "province_code": 75,
        "name": "Hunggaluwa",
        "postal_code": "96219",
        "latitude": 0.6095896025142318,
        "longitude": 122.97510118472775
    },
    {
        "code": 7501011004,
        "district_code": 750101,
        "regency_code": 7501,
        "province_code": 75,
        "name": "Bolihuangga",
        "postal_code": "96218",
        "latitude": 0.608752843582782,
        "longitude": 122.9653854965492
    },
    {
        "code": 7501011005,
        "district_code": 750101,
        "regency_code": 7501,
        "province_code": 75,
        "name": "Hepuhulawa",
        "postal_code": "96212",
        "latitude": 0.6318592111615359,
        "longitude": 122.98778031833076
    },
    {
        "code": 7501011006,
        "district_code": 750101,
        "regency_code": 7501,
        "province_code": 75,
        "name": "Hutuo",
        "postal_code": "96213",
        "latitude": 0.624294446097328,
        "longitude": 123.00015874396536
    },
    {
        "code": 7501011007,
        "district_code": 750101,
        "regency_code": 7501,
        "province_code": 75,
        "name": "Dutulanaa",
        "postal_code": "96213",
        "latitude": 0.620652302965484,
        "longitude": 122.99358205137095
    },
    {
        "code": 7501011008,
        "district_code": 750101,
        "regency_code": 7501,
        "province_code": 75,
        "name": "Tenilo",
        "postal_code": "96218",
        "latitude": 0.6137781633533791,
        "longitude": 122.95047229429358
    },
    {
        "code": 7501011009,
        "district_code": 750101,
        "regency_code": 7501,
        "province_code": 75,
        "name": "Biyonga",
        "postal_code": "96212",
        "latitude": 0.663528891813423,
        "longitude": 122.98655888504364
    },
    {
        "code": 7501011010,
        "district_code": 750101,
        "regency_code": 7501,
        "province_code": 75,
        "name": "Bongohulawa",
        "postal_code": "96214",
        "latitude": 0.6473777668011059,
        "longitude": 122.97776114585129
    },
    {
        "code": 7501011011,
        "district_code": 750101,
        "regency_code": 7501,
        "province_code": 75,
        "name": "Bulota",
        "postal_code": "96213",
        "latitude": 0.6608463333997345,
        "longitude": 123.0042046121346
    },
    {
        "code": 7501011012,
        "district_code": 750101,
        "regency_code": 7501,
        "province_code": 75,
        "name": "Malahu",
        "postal_code": "96211",
        "latitude": 0.6984539347962242,
        "longitude": 123.00748566033215
    },
    {
        "code": 7501011013,
        "district_code": 750101,
        "regency_code": 7501,
        "province_code": 75,
        "name": "Tilihuwa",
        "postal_code": "96214",
        "latitude": 0.689487165967532,
        "longitude": 122.97134073898881
    },
    {
        "code": 7501011014,
        "district_code": 750101,
        "regency_code": 7501,
        "province_code": 75,
        "name": "Polohungo",
        "postal_code": "96212",
        "latitude": 0.6958888644312882,
        "longitude": 122.98992658926149
    },
    {
        "code": 7501022011,
        "district_code": 750102,
        "regency_code": 7501,
        "province_code": 75,
        "name": "Bulila",
        "postal_code": "96181",
        "latitude": 0.5775871884725837,
        "longitude": 123.0401219339129
    },
    {
        "code": 7501022014,
        "district_code": 750102,
        "regency_code": 7501,
        "province_code": 75,
        "name": "Mongolato",
        "postal_code": "96181",
        "latitude": 0.5863745473927776,
        "longitude": 123.0343383140973
    },
    {
        "code": 7501022015,
        "district_code": 750102,
        "regency_code": 7501,
        "province_code": 75,
        "name": "Luhu",
        "postal_code": "96181",
        "latitude": 0.5922839204816321,
        "longitude": 123.04321422390574
    },
    {
        "code": 7501022016,
        "district_code": 750102,
        "regency_code": 7501,
        "province_code": 75,
        "name": "Hulawa",
        "postal_code": "96181",
        "latitude": 0.5897057696460417,
        "longitude": 123.05078653447202
    },
    {
        "code": 7501022017,
        "district_code": 750102,
        "regency_code": 7501,
        "province_code": 75,
        "name": "Pilohayanga",
        "postal_code": "96181",
        "latitude": 0.6049936179140869,
        "longitude": 123.06371856872414
    },
    {
        "code": 7501022018,
        "district_code": 750102,
        "regency_code": 7501,
        "province_code": 75,
        "name": "Dulamayo Selatan",
        "postal_code": "96181",
        "latitude": 0.7026966849968725,
        "longitude": 123.04285240719024
    },
    {
        "code": 7501022019,
        "district_code": 750102,
        "regency_code": 7501,
        "province_code": 75,
        "name": "Dulamayo Barat",
        "postal_code": "96181",
        "latitude": 0.6853057986127535,
        "longitude": 123.02540559631578
    },
    {
        "code": 7501022020,
        "district_code": 750102,
        "regency_code": 7501,
        "province_code": 75,
        "name": "Dulohupa",
        "postal_code": "96181",
        "latitude": 0.5945720243985106,
        "longitude": 123.05988973759041
    },
    {
        "code": 7501022021,
        "district_code": 750102,
        "regency_code": 7501,
        "province_code": 75,
        "name": "Pilohayanga Barat",
        "postal_code": "96181",
        "latitude": 0.6106914561829496,
        "longitude": 123.05432841555098
    },
    {
        "code": 7501032001,
        "district_code": 750103,
        "regency_code": 7501,
        "province_code": 75,
        "name": "Iluta",
        "postal_code": "96243",
        "latitude": 0.5430569506697266,
        "longitude": 122.99300297087595
    },
    {
        "code": 7501032002,
        "district_code": 750103,
        "regency_code": 7501,
        "province_code": 75,
        "name": "Bua",
        "postal_code": "96243",
        "latitude": 0.5437408352614749,
        "longitude": 122.97274235580078
    },
    {
        "code": 7501032003,
        "district_code": 750103,
        "regency_code": 7501,
        "province_code": 75,
        "name": "Huntu",
        "postal_code": "96243",
        "latitude": 0.5414332523025112,
        "longitude": 122.96493730308269
    },
    {
        "code": 7501032004,
        "district_code": 750103,
        "regency_code": 7501,
        "province_code": 75,
        "name": "Payunga",
        "postal_code": "96243",
        "latitude": 0.5691285178618718,
        "longitude": 122.95433141324447
    },
    {
        "code": 7501032012,
        "district_code": 750103,
        "regency_code": 7501,
        "province_code": 75,
        "name": "Barakati",
        "postal_code": "96243",
        "latitude": 0.5482180704309101,
        "longitude": 122.98213522968412
    },
    {
        "code": 7501032013,
        "district_code": 750103,
        "regency_code": 7501,
        "province_code": 75,
        "name": "Ilohungayo",
        "postal_code": "96243",
        "latitude": 0.5431428717409225,
        "longitude": 122.94948672379495
    },
    {
        "code": 7501032014,
        "district_code": 750103,
        "regency_code": 7501,
        "province_code": 75,
        "name": "Dunggala",
        "postal_code": "96243",
        "latitude": 0.5414999031012011,
        "longitude": 122.9350951672403
    },
    {
        "code": 7501032015,
        "district_code": 750103,
        "regency_code": 7501,
        "province_code": 75,
        "name": "Pilobuhuta",
        "postal_code": "96243",
        "latitude": 0.5427479958348659,
        "longitude": 122.95739784640874
    },
    {
        "code": 7501042001,
        "district_code": 750104,
        "regency_code": 7501,
        "province_code": 75,
        "name": "Isimu Utara",
        "postal_code": "96231",
        "latitude": 0.686154806511034,
        "longitude": 122.8880849017791
    },
    {
        "code": 7501042002,
        "district_code": 750104,
        "regency_code": 7501,
        "province_code": 75,
        "name": "Isimu Selatan",
        "postal_code": "96231",
        "latitude": 0.6376966926788672,
        "longitude": 122.87067197029548
    },
    {
        "code": 7501042003,
        "district_code": 750104,
        "regency_code": 7501,
        "province_code": 75,
        "name": "Datahu",
        "postal_code": "96231",
        "latitude": 0.6580616138010343,
        "longitude": 122.83795025153944
    },
    {
        "code": 7501042004,
        "district_code": 750104,
        "regency_code": 7501,
        "province_code": 75,
        "name": "Tolotio",
        "postal_code": "96231",
        "latitude": 0.6431569753923401,
        "longitude": 122.84576116722761
    },
    {
        "code": 7501042005,
        "district_code": 750104,
        "regency_code": 7501,
        "province_code": 75,
        "name": "Labanu",
        "postal_code": "96231",
        "latitude": 0.7426872565857106,
        "longitude": 122.8478000849248
    },
    {
        "code": 7501042006,
        "district_code": 750104,
        "regency_code": 7501,
        "province_code": 75,
        "name": "Reksonegoro",
        "postal_code": "96231",
        "latitude": 0.6326662727355037,
        "longitude": 122.82838277723782
    },
    {
        "code": 7501042007,
        "district_code": 750104,
        "regency_code": 7501,
        "province_code": 75,
        "name": "Buhu",
        "postal_code": "96231",
        "latitude": 0.7201127685562843,
        "longitude": 122.85088550728591
    },
    {
        "code": 7501042008,
        "district_code": 750104,
        "regency_code": 7501,
        "province_code": 75,
        "name": "Dunggala",
        "postal_code": "96231",
        "latitude": 0.632258525973032,
        "longitude": 122.85598006581472
    },
    {
        "code": 7501042009,
        "district_code": 750104,
        "regency_code": 7501,
        "province_code": 75,
        "name": "Molowahu",
        "postal_code": "96231",
        "latitude": 0.6166945102290482,
        "longitude": 122.84426959469937
    },
    {
        "code": 7501042010,
        "district_code": 750104,
        "regency_code": 7501,
        "province_code": 75,
        "name": "Iloponu",
        "postal_code": "96231",
        "latitude": 0.7007772738916758,
        "longitude": 122.85607268142995
    },
    {
        "code": 7501042011,
        "district_code": 750104,
        "regency_code": 7501,
        "province_code": 75,
        "name": "Ilomata",
        "postal_code": "96231",
        "latitude": 0.6223518402563109,
        "longitude": 122.8144132924759
    },
    {
        "code": 7501042012,
        "district_code": 750104,
        "regency_code": 7501,
        "province_code": 75,
        "name": "Motilango",
        "postal_code": "96231",
        "latitude": 0.7444407528106678,
        "longitude": 122.87781739528397
    },
    {
        "code": 7501042013,
        "district_code": 750104,
        "regency_code": 7501,
        "province_code": 75,
        "name": "Isimu Raya",
        "postal_code": "96231",
        "latitude": 0.6548108352922142,
        "longitude": 122.86711910001311
    },
    {
        "code": 7501042014,
        "district_code": 750104,
        "regency_code": 7501,
        "province_code": 75,
        "name": "Balahu",
        "postal_code": "96231",
        "latitude": 0.6345727549631734,
        "longitude": 122.88234870347678
    },
    {
        "code": 7501042015,
        "district_code": 750104,
        "regency_code": 7501,
        "province_code": 75,
        "name": "Botumoputi",
        "postal_code": "96231",
        "latitude": 0.679025072318257,
        "longitude": 122.8510344510198
    },
    {
        "code": 7501042016,
        "district_code": 750104,
        "regency_code": 7501,
        "province_code": 75,
        "name": "Ulobua",
        "postal_code": "96231",
        "latitude": 0.7477579525567253,
        "longitude": 122.79294602101164
    },
    {
        "code": 7501052004,
        "district_code": 750105,
        "regency_code": 7501,
        "province_code": 75,
        "name": "Tontayuo",
        "postal_code": "96244",
        "latitude": 0.5037086287536913,
        "longitude": 122.93078502363086
    },
    {
        "code": 7501052005,
        "district_code": 750105,
        "regency_code": 7501,
        "province_code": 75,
        "name": "Biluhu Timur",
        "postal_code": "96244",
        "latitude": 0.5055066573510911,
        "longitude": 122.96009717050144
    },
    {
        "code": 7501052006,
        "district_code": 750105,
        "regency_code": 7501,
        "province_code": 75,
        "name": "Kayubulan",
        "postal_code": "96244",
        "latitude": 0.50621135373982,
        "longitude": 122.99448257740349
    },
    {
        "code": 7501052007,
        "district_code": 750105,
        "regency_code": 7501,
        "province_code": 75,
        "name": "Bongo",
        "postal_code": "96244",
        "latitude": 0.4995363298820403,
        "longitude": 123.03282310076878
    },
    {
        "code": 7501052008,
        "district_code": 750105,
        "regency_code": 7501,
        "province_code": 75,
        "name": "Lopo",
        "postal_code": "96244",
        "latitude": 0.5057299007565245,
        "longitude": 123.01449336148386
    },
    {
        "code": 7501052009,
        "district_code": 750105,
        "regency_code": 7501,
        "province_code": 75,
        "name": "Lamu",
        "postal_code": "96244",
        "latitude": 0.5043891077844446,
        "longitude": 122.89878658594706
    },
    {
        "code": 7501052012,
        "district_code": 750105,
        "regency_code": 7501,
        "province_code": 75,
        "name": "Olimoo'o",
        "postal_code": "96244",
        "latitude": 0.5022614053714848,
        "longitude": 122.88183991784061
    },
    {
        "code": 7501052014,
        "district_code": 750105,
        "regency_code": 7501,
        "province_code": 75,
        "name": "Buhudaa",
        "postal_code": "96244",
        "latitude": 0.5108274507825761,
        "longitude": 123.02622946466187
    },
    {
        "code": 7501052015,
        "district_code": 750105,
        "regency_code": 7501,
        "province_code": 75,
        "name": "Langgula",
        "postal_code": "96244",
        "latitude": 0.5121300366431998,
        "longitude": 122.91345595071444
    },
    {
        "code": 7501092001,
        "district_code": 750109,
        "regency_code": 7501,
        "province_code": 75,
        "name": "Sidomulyo",
        "postal_code": "96235",
        "latitude": 0.6548569022714382,
        "longitude": 122.61352338540624
    },
    {
        "code": 7501092004,
        "district_code": 750109,
        "regency_code": 7501,
        "province_code": 75,
        "name": "Parungi",
        "postal_code": "96235",
        "latitude": 0.6289949653299385,
        "longitude": 122.64056045541894
    },
    {
        "code": 7501092006,
        "district_code": 750109,
        "regency_code": 7501,
        "province_code": 75,
        "name": "Diloniyohu",
        "postal_code": "96235",
        "latitude": 0.6583601161471535,
        "longitude": 122.60298826382567
    },
    {
        "code": 7501092007,
        "district_code": 750109,
        "regency_code": 7501,
        "province_code": 75,
        "name": "Sidodadi",
        "postal_code": "96235",
        "latitude": 0.6720435422066813,
        "longitude": 122.62251607803633
    },
    {
        "code": 7501092010,
        "district_code": 750109,
        "regency_code": 7501,
        "province_code": 75,
        "name": "Potanga",
        "postal_code": "96235",
        "latitude": 0.7052241359366634,
        "longitude": 122.60841466895894
    },
    {
        "code": 7501092011,
        "district_code": 750109,
        "regency_code": 7501,
        "province_code": 75,
        "name": "Motoduto",
        "postal_code": "96235",
        "latitude": 0.6149023205385368,
        "longitude": 122.62135863585497
    },
    {
        "code": 7501092012,
        "district_code": 750109,
        "regency_code": 7501,
        "province_code": 75,
        "name": "Iloheluma",
        "postal_code": "96235",
        "latitude": 0.6438051671711652,
        "longitude": 122.6292568889644
    },
    {
        "code": 7501092014,
        "district_code": 750109,
        "regency_code": 7501,
        "province_code": 75,
        "name": "Monggolito",
        "postal_code": "96235",
        "latitude": 0.6617631862047642,
        "longitude": 122.62506492779313
    },
    {
        "code": 7501092015,
        "district_code": 750109,
        "regency_code": 7501,
        "province_code": 75,
        "name": "Bandung Rejo",
        "postal_code": "96235",
        "latitude": 0.6826425288719202,
        "longitude": 122.63507479398494
    },
    {
        "code": 7501092018,
        "district_code": 750109,
        "regency_code": 7501,
        "province_code": 75,
        "name": "Dulohupa",
        "postal_code": "96235",
        "latitude": 0.6239307378888668,
        "longitude": 122.62791352371458
    },
    {
        "code": 7501092019,
        "district_code": 750109,
        "regency_code": 7501,
        "province_code": 75,
        "name": "Sidomulya Selatan",
        "postal_code": "96235",
        "latitude": 0.649584865306123,
        "longitude": 122.61051253662194
    },
    {
        "code": 7501092020,
        "district_code": 750109,
        "regency_code": 7501,
        "province_code": 75,
        "name": "Bongongoayu",
        "postal_code": "96235",
        "latitude": 0.6829396993467546,
        "longitude": 122.60250537662245
    },
    {
        "code": 7501092021,
        "district_code": 750109,
        "regency_code": 7501,
        "province_code": 75,
        "name": "Tolite",
        "postal_code": "96235",
        "latitude": 0.6702437596983578,
        "longitude": 122.57940332028343
    },
    {
        "code": 7501102001,
        "district_code": 750110,
        "regency_code": 7501,
        "province_code": 75,
        "name": "Dulamayo Utara",
        "postal_code": "96183",
        "latitude": 0.7572008450726954,
        "longitude": 123.02716282496321
    },
    {
        "code": 7501102002,
        "district_code": 750110,
        "regency_code": 7501,
        "province_code": 75,
        "name": "Ulapato A",
        "postal_code": "96183",
        "latitude": 0.6148534471274942,
        "longitude": 123.02492323946849
    },
    {
        "code": 7501102003,
        "district_code": 750110,
        "regency_code": 7501,
        "province_code": 75,
        "name": "Ulapato B",
        "postal_code": "96183",
        "latitude": 0.6519195504125934,
        "longitude": 123.04438096491647
    },
    {
        "code": 7501102004,
        "district_code": 750110,
        "regency_code": 7501,
        "province_code": 75,
        "name": "Talumelito",
        "postal_code": "96183",
        "latitude": 0.651451599139671,
        "longitude": 123.01914487384323
    },
    {
        "code": 7501102005,
        "district_code": 750110,
        "regency_code": 7501,
        "province_code": 75,
        "name": "Tuladenggi",
        "postal_code": "96183",
        "latitude": 0.6165449449008004,
        "longitude": 123.03777841998222
    },
    {
        "code": 7501102006,
        "district_code": 750110,
        "regency_code": 7501,
        "province_code": 75,
        "name": "Pantungo",
        "postal_code": "96183",
        "latitude": 0.5952712086167832,
        "longitude": 123.03274659574457
    },
    {
        "code": 7501102007,
        "district_code": 750110,
        "regency_code": 7501,
        "province_code": 75,
        "name": "Lupoyo",
        "postal_code": "96183",
        "latitude": 0.596620763188283,
        "longitude": 123.01013055669125
    },
    {
        "code": 7501102008,
        "district_code": 750110,
        "regency_code": 7501,
        "province_code": 75,
        "name": "Pentadio Timur",
        "postal_code": "96183",
        "latitude": 0.6276413116531814,
        "longitude": 123.01965946391392
    },
    {
        "code": 7501102009,
        "district_code": 750110,
        "regency_code": 7501,
        "province_code": 75,
        "name": "Pentadio Barat",
        "postal_code": "96183",
        "latitude": 0.6203231656449886,
        "longitude": 123.00688620635918
    },
    {
        "code": 7501102010,
        "district_code": 750110,
        "regency_code": 7501,
        "province_code": 75,
        "name": "Dumati",
        "postal_code": "96183",
        "latitude": 0.6210497550630296,
        "longitude": 123.04853481272201
    },
    {
        "code": 7501102011,
        "district_code": 750110,
        "regency_code": 7501,
        "province_code": 75,
        "name": "Modelidu",
        "postal_code": "96183",
        "latitude": 0.6781316877505338,
        "longitude": 123.06032539606835
    },
    {
        "code": 7501102012,
        "district_code": 750110,
        "regency_code": 7501,
        "province_code": 75,
        "name": "Tinelo",
        "postal_code": "96183",
        "latitude": 0.6093130808328581,
        "longitude": 123.02742095612354
    },
    {
        "code": 7501102013,
        "district_code": 750110,
        "regency_code": 7501,
        "province_code": 75,
        "name": "Timuato",
        "postal_code": "96183",
        "latitude": 0.6190950695544554,
        "longitude": 123.02033087165465
    },
    {
        "code": 7501102014,
        "district_code": 750110,
        "regency_code": 7501,
        "province_code": 75,
        "name": "Tapaluluo",
        "postal_code": "96183",
        "latitude": 0.7289850238602877,
        "longitude": 123.00896198868419
    },
    {
        "code": 7501102015,
        "district_code": 750110,
        "regency_code": 7501,
        "province_code": 75,
        "name": "Tonala",
        "postal_code": "96183",
        "latitude": 0.7434948307748449,
        "longitude": 123.06653532961765
    },
    {
        "code": 7501112001,
        "district_code": 750111,
        "regency_code": 7501,
        "province_code": 75,
        "name": "Dulamayo",
        "postal_code": "96246",
        "latitude": 0.6037545937110828,
        "longitude": 122.85295241927973
    },
    {
        "code": 7501112008,
        "district_code": 750111,
        "regency_code": 7501,
        "province_code": 75,
        "name": "Upomela",
        "postal_code": "96246",
        "latitude": 0.5798480284973145,
        "longitude": 122.84901257956888
    },
    {
        "code": 7501112009,
        "district_code": 750111,
        "regency_code": 7501,
        "province_code": 75,
        "name": "Tohupo",
        "postal_code": "96246",
        "latitude": 0.5481864784280363,
        "longitude": 122.8518674178221
    },
    {
        "code": 7501112010,
        "district_code": 750111,
        "regency_code": 7501,
        "province_code": 75,
        "name": "Molanihu",
        "postal_code": "96246",
        "latitude": 0.5522419459896061,
        "longitude": 122.81467676247136
    },
    {
        "code": 7501112011,
        "district_code": 750111,
        "regency_code": 7501,
        "province_code": 75,
        "name": "Molopatodu",
        "postal_code": "96246",
        "latitude": 0.5855754669813501,
        "longitude": 122.81721332069861
    },
    {
        "code": 7501112012,
        "district_code": 750111,
        "regency_code": 7501,
        "province_code": 75,
        "name": "Molas",
        "postal_code": "96246",
        "latitude": 0.5893016866438028,
        "longitude": 122.79828071510894
    },
    {
        "code": 7501112013,
        "district_code": 750111,
        "regency_code": 7501,
        "province_code": 75,
        "name": "Batulayar",
        "postal_code": "96246",
        "latitude": 0.5728905435099284,
        "longitude": 122.74499988984743
    },
    {
        "code": 7501112014,
        "district_code": 750111,
        "regency_code": 7501,
        "province_code": 75,
        "name": "Batuloreng",
        "postal_code": "96246",
        "latitude": 0.5496171700270621,
        "longitude": 122.83127400954675
    },
    {
        "code": 7501112015,
        "district_code": 750111,
        "regency_code": 7501,
        "province_code": 75,
        "name": "Bongohulawa",
        "postal_code": "96246",
        "latitude": 0.5924094864159961,
        "longitude": 122.84004412505037
    },
    {
        "code": 7501112016,
        "district_code": 750111,
        "regency_code": 7501,
        "province_code": 75,
        "name": "Otopade",
        "postal_code": "96246",
        "latitude": 0.5922791121266245,
        "longitude": 122.77838096753243
    },
    {
        "code": 7501112018,
        "district_code": 750111,
        "regency_code": 7501,
        "province_code": 75,
        "name": "Huntulo Hulawa",
        "postal_code": "96246",
        "latitude": 0.5966674557374949,
        "longitude": 122.86292044169225
    },
    {
        "code": 7501112022,
        "district_code": 750111,
        "regency_code": 7501,
        "province_code": 75,
        "name": "Owalanga",
        "postal_code": "96246",
        "latitude": 0.606105526002025,
        "longitude": 122.81428564272215
    },
    {
        "code": 7501112023,
        "district_code": 750111,
        "regency_code": 7501,
        "province_code": 75,
        "name": "Liyodu",
        "postal_code": "96246",
        "latitude": 0.5506812981976167,
        "longitude": 122.78659787467478
    },
    {
        "code": 7501112024,
        "district_code": 750111,
        "regency_code": 7501,
        "province_code": 75,
        "name": "Liyoto",
        "postal_code": "96246",
        "latitude": 0.5545325680342149,
        "longitude": 122.75735360242429
    },
    {
        "code": 7501112025,
        "district_code": 750111,
        "regency_code": 7501,
        "province_code": 75,
        "name": "Kayumerah",
        "postal_code": "96246",
        "latitude": 0.5818791020595787,
        "longitude": 122.72728831487213
    },
    {
        "code": 7501132001,
        "district_code": 750113,
        "regency_code": 7501,
        "province_code": 75,
        "name": "Sukamakmur",
        "postal_code": "96222",
        "latitude": 0.7096628470509676,
        "longitude": 122.55513594451281
    },
    {
        "code": 7501132002,
        "district_code": 750113,
        "regency_code": 7501,
        "province_code": 75,
        "name": "Lakeya",
        "postal_code": "96222",
        "latitude": 0.736037923547646,
        "longitude": 122.53724569398622
    },
    {
        "code": 7501132003,
        "district_code": 750113,
        "regency_code": 7501,
        "province_code": 75,
        "name": "Gandasari",
        "postal_code": "96222",
        "latitude": 0.7010366236176351,
        "longitude": 122.58905763962937
    },
    {
        "code": 7501132004,
        "district_code": 750113,
        "regency_code": 7501,
        "province_code": 75,
        "name": "Molohu",
        "postal_code": "96222",
        "latitude": 0.7088833873272659,
        "longitude": 122.54802348332096
    },
    {
        "code": 7501132007,
        "district_code": 750113,
        "regency_code": 7501,
        "province_code": 75,
        "name": "Polohungo",
        "postal_code": "96222",
        "latitude": 0.7935035711450488,
        "longitude": 122.58086168415306
    },
    {
        "code": 7501132008,
        "district_code": 750113,
        "regency_code": 7501,
        "province_code": 75,
        "name": "Bina Jaya",
        "postal_code": "96222",
        "latitude": 0.7770686553519844,
        "longitude": 122.5715845005926
    },
    {
        "code": 7501132009,
        "district_code": 750113,
        "regency_code": 7501,
        "province_code": 75,
        "name": "Tamaila",
        "postal_code": "96222",
        "latitude": 0.827533599792573,
        "longitude": 122.55940881365753
    },
    {
        "code": 7501132010,
        "district_code": 750113,
        "regency_code": 7501,
        "province_code": 75,
        "name": "Sidoarjo",
        "postal_code": "96222",
        "latitude": 0.7414860829210821,
        "longitude": 122.51034324217204
    },
    {
        "code": 7501132013,
        "district_code": 750113,
        "regency_code": 7501,
        "province_code": 75,
        "name": "Sukamakmur Utara",
        "postal_code": "96222",
        "latitude": 0.7259327483711012,
        "longitude": 122.5715912871577
    },
    {
        "code": 7501132014,
        "district_code": 750113,
        "regency_code": 7501,
        "province_code": 75,
        "name": "Margomulya",
        "postal_code": "96222",
        "latitude": 0.7049199620454919,
        "longitude": 122.56923328868398
    },
    {
        "code": 7501132015,
        "district_code": 750113,
        "regency_code": 7501,
        "province_code": 75,
        "name": "Makmur Abadi",
        "postal_code": "96222",
        "latitude": 0.7013457893749745,
        "longitude": 122.56266387134173
    },
    {
        "code": 7501132016,
        "district_code": 750113,
        "regency_code": 7501,
        "province_code": 75,
        "name": "Gandaria",
        "postal_code": "96222",
        "latitude": 0.7136167364834836,
        "longitude": 122.53074109020311
    },
    {
        "code": 7501132017,
        "district_code": 750113,
        "regency_code": 7501,
        "province_code": 75,
        "name": "Ombulo Tango",
        "postal_code": "96222",
        "latitude": 0.7246142968281195,
        "longitude": 122.5159590499488
    },
    {
        "code": 7501132018,
        "district_code": 750113,
        "regency_code": 7501,
        "province_code": 75,
        "name": "Tamalia Utara",
        "postal_code": "96222",
        "latitude": 0.8115094737723304,
        "longitude": 122.53586079562639
    },
    {
        "code": 7501132019,
        "district_code": 750113,
        "regency_code": 7501,
        "province_code": 75,
        "name": "Himalaya",
        "postal_code": "96222",
        "latitude": 0.8037392880617461,
        "longitude": 122.5234962292591
    },
    {
        "code": 7501142001,
        "district_code": 750114,
        "regency_code": 7501,
        "province_code": 75,
        "name": "Paris",
        "postal_code": "96153",
        "latitude": 0.6960331182925074,
        "longitude": 122.63680770989127
    },
    {
        "code": 7501142002,
        "district_code": 750114,
        "regency_code": 7501,
        "province_code": 75,
        "name": "Helumo",
        "postal_code": "96150",
        "latitude": 0.7137270938651988,
        "longitude": 122.63492115123053
    },
    {
        "code": 7501142003,
        "district_code": 750114,
        "regency_code": 7501,
        "province_code": 75,
        "name": "Pilomonu",
        "postal_code": "96155",
        "latitude": 0.7946473900882277,
        "longitude": 122.61008025543687
    },
    {
        "code": 7501142004,
        "district_code": 750114,
        "regency_code": 7501,
        "province_code": 75,
        "name": "Satria",
        "postal_code": "96156",
        "latitude": 0.7072526631249544,
        "longitude": 122.66679604309587
    },
    {
        "code": 7501142005,
        "district_code": 750114,
        "regency_code": 7501,
        "province_code": 75,
        "name": "Karyamukti",
        "postal_code": "96152",
        "latitude": 0.7067041360597472,
        "longitude": 122.68630921679032
    },
    {
        "code": 7501142006,
        "district_code": 750114,
        "regency_code": 7501,
        "province_code": 75,
        "name": "Talumopatu",
        "postal_code": "96159",
        "latitude": 0.6505193584665935,
        "longitude": 122.6562747616801
    },
    {
        "code": 7501142007,
        "district_code": 750114,
        "regency_code": 7501,
        "province_code": 75,
        "name": "Sidomukti",
        "postal_code": "96157",
        "latitude": 0.6759257846270789,
        "longitude": 122.65389542731042
    },
    {
        "code": 7501142008,
        "district_code": 750114,
        "regency_code": 7501,
        "province_code": 75,
        "name": "Payu",
        "postal_code": "96154",
        "latitude": 0.7728579311873899,
        "longitude": 122.63413009249297
    },
    {
        "code": 7501142009,
        "district_code": 750114,
        "regency_code": 7501,
        "province_code": 75,
        "name": "Sukamaju",
        "postal_code": "96158",
        "latitude": 0.7756222127968175,
        "longitude": 122.6629905376021
    },
    {
        "code": 7501142010,
        "district_code": 750114,
        "regency_code": 7501,
        "province_code": 75,
        "name": "Huyula",
        "postal_code": "96151",
        "latitude": 0.7582677418976056,
        "longitude": 122.69593494570086
    },
    {
        "code": 7501162001,
        "district_code": 750116,
        "regency_code": 7501,
        "province_code": 75,
        "name": "Pongongaila",
        "postal_code": "96167",
        "latitude": 0.6555180448409289,
        "longitude": 122.78427540946096
    },
    {
        "code": 7501162002,
        "district_code": 750116,
        "regency_code": 7501,
        "province_code": 75,
        "name": "Pulubala",
        "postal_code": "96168",
        "latitude": 0.6335599057080682,
        "longitude": 122.79623582263282
    },
    {
        "code": 7501162003,
        "district_code": 750116,
        "regency_code": 7501,
        "province_code": 75,
        "name": "Molamahu",
        "postal_code": "96165",
        "latitude": 0.7273870240314505,
        "longitude": 122.75222187353128
    },
    {
        "code": 7501162004,
        "district_code": 750116,
        "regency_code": 7501,
        "province_code": 75,
        "name": "Bakti",
        "postal_code": "96162",
        "latitude": 0.6177124073298031,
        "longitude": 122.75441341358427
    },
    {
        "code": 7501162005,
        "district_code": 750116,
        "regency_code": 7501,
        "province_code": 75,
        "name": "Tridharma",
        "postal_code": "96172",
        "latitude": 0.6538673664639392,
        "longitude": 122.8174480701469
    },
    {
        "code": 7501162006,
        "district_code": 750116,
        "regency_code": 7501,
        "province_code": 75,
        "name": "Molalahu",
        "postal_code": "96164",
        "latitude": 0.6732589898531642,
        "longitude": 122.80977304655535
    },
    {
        "code": 7501162007,
        "district_code": 750116,
        "regency_code": 7501,
        "province_code": 75,
        "name": "Mulyonegoro",
        "postal_code": "96166",
        "latitude": 0.6344830192076075,
        "longitude": 122.70993403761481
    },
    {
        "code": 7501162008,
        "district_code": 750116,
        "regency_code": 7501,
        "province_code": 75,
        "name": "Puncak",
        "postal_code": "96169",
        "latitude": 0.6841825129060212,
        "longitude": 122.70558951453741
    },
    {
        "code": 7501162009,
        "district_code": 750116,
        "regency_code": 7501,
        "province_code": 75,
        "name": "Toyidito",
        "postal_code": "96171",
        "latitude": 0.7104609107226679,
        "longitude": 122.79986405997617
    },
    {
        "code": 7501162010,
        "district_code": 750116,
        "regency_code": 7501,
        "province_code": 75,
        "name": "Ayumolingo",
        "postal_code": "96161",
        "latitude": 0.6864755763701645,
        "longitude": 122.74399684541282
    },
    {
        "code": 7501162011,
        "district_code": 750116,
        "regency_code": 7501,
        "province_code": 75,
        "name": "Bukit Aren",
        "postal_code": "96163",
        "latitude": 0.6499627260187311,
        "longitude": 122.75123043793182
    },
    {
        "code": 7501172001,
        "district_code": 750117,
        "regency_code": 7501,
        "province_code": 75,
        "name": "Pone",
        "postal_code": "96215",
        "latitude": 0.6415402402510215,
        "longitude": 122.96047358552283
    },
    {
        "code": 7501172002,
        "district_code": 750117,
        "regency_code": 7501,
        "province_code": 75,
        "name": "Huidu",
        "postal_code": "96215",
        "latitude": 0.6407444502265881,
        "longitude": 122.94279758425726
    },
    {
        "code": 7501172003,
        "district_code": 750117,
        "regency_code": 7501,
        "province_code": 75,
        "name": "Ombulo",
        "postal_code": "96215",
        "latitude": 0.6504514168200348,
        "longitude": 122.92445736317924
    },
    {
        "code": 7501172004,
        "district_code": 750117,
        "regency_code": 7501,
        "province_code": 75,
        "name": "Daenaa",
        "postal_code": "96215",
        "latitude": 0.687495092652466,
        "longitude": 122.93389715555335
    },
    {
        "code": 7501172005,
        "district_code": 750117,
        "regency_code": 7501,
        "province_code": 75,
        "name": "Yosonegoro",
        "postal_code": "96216",
        "latitude": 0.6341974720429557,
        "longitude": 122.92100891398077
    },
    {
        "code": 7501172006,
        "district_code": 750117,
        "regency_code": 7501,
        "province_code": 75,
        "name": "Tunggulo",
        "postal_code": "96217",
        "latitude": 0.6262380757582413,
        "longitude": 122.9385483465453
    },
    {
        "code": 7501172007,
        "district_code": 750117,
        "regency_code": 7501,
        "province_code": 75,
        "name": "Hutabohu",
        "postal_code": "96216",
        "latitude": 0.622752031395008,
        "longitude": 122.91439863512026
    },
    {
        "code": 7501172008,
        "district_code": 750117,
        "regency_code": 7501,
        "province_code": 75,
        "name": "Padengo",
        "postal_code": "96216",
        "latitude": 0.6517650805634375,
        "longitude": 122.90528759600527
    },
    {
        "code": 7501172009,
        "district_code": 750117,
        "regency_code": 7501,
        "province_code": 75,
        "name": "Haya-Haya",
        "postal_code": "96216",
        "latitude": 0.6528278287000648,
        "longitude": 122.89397222543406
    },
    {
        "code": 7501172010,
        "district_code": 750117,
        "regency_code": 7501,
        "province_code": 75,
        "name": "Huidu Utara",
        "postal_code": "96216",
        "latitude": 0.66747148321411,
        "longitude": 122.95298475071353
    },
    {
        "code": 7501182001,
        "district_code": 750118,
        "regency_code": 7501,
        "province_code": 75,
        "name": "Tualango",
        "postal_code": "96182",
        "latitude": 0.5498935242686068,
        "longitude": 123.0237388572863
    },
    {
        "code": 7501182002,
        "district_code": 750118,
        "regency_code": 7501,
        "province_code": 75,
        "name": "Dulomo",
        "postal_code": "96182",
        "latitude": 0.5526578842208885,
        "longitude": 123.02527712697432
    },
    {
        "code": 7501182003,
        "district_code": 750118,
        "regency_code": 7501,
        "province_code": 75,
        "name": "Tilote",
        "postal_code": "96182",
        "latitude": 0.5559642116975768,
        "longitude": 123.0200189358506
    },
    {
        "code": 7501182004,
        "district_code": 750118,
        "regency_code": 7501,
        "province_code": 75,
        "name": "Tabumela",
        "postal_code": "96182",
        "latitude": 0.5592468248475161,
        "longitude": 123.00923628411849
    },
    {
        "code": 7501182005,
        "district_code": 750118,
        "regency_code": 7501,
        "province_code": 75,
        "name": "Ilotidea",
        "postal_code": "96182",
        "latitude": 0.5650451300533886,
        "longitude": 123.01661876551425
    },
    {
        "code": 7501182006,
        "district_code": 750118,
        "regency_code": 7501,
        "province_code": 75,
        "name": "Lauwonu",
        "postal_code": "96182",
        "latitude": 0.5672744436222532,
        "longitude": 123.01914280481122
    },
    {
        "code": 7501182007,
        "district_code": 750118,
        "regency_code": 7501,
        "province_code": 75,
        "name": "Tenggela",
        "postal_code": "96182",
        "latitude": 0.5707298073429671,
        "longitude": 123.00928925881486
    },
    {
        "code": 7501182008,
        "district_code": 750118,
        "regency_code": 7501,
        "province_code": 75,
        "name": "Tinelo",
        "postal_code": "96182",
        "latitude": 0.5696759646589737,
        "longitude": 123.03031793136627
    },
    {
        "code": 7501192001,
        "district_code": 750119,
        "regency_code": 7501,
        "province_code": 75,
        "name": "Tabongo Timur",
        "postal_code": "96242",
        "latitude": 0.5539090251203375,
        "longitude": 122.92360822667627
    },
    {
        "code": 7501192002,
        "district_code": 750119,
        "regency_code": 7501,
        "province_code": 75,
        "name": "Tabongo Barat",
        "postal_code": "96242",
        "latitude": 0.5878098296241272,
        "longitude": 122.91231361949767
    },
    {
        "code": 7501192003,
        "district_code": 750119,
        "regency_code": 7501,
        "province_code": 75,
        "name": "Limehe Barat",
        "postal_code": "96242",
        "latitude": 0.6017691480311067,
        "longitude": 122.91106083130447
    },
    {
        "code": 7501192004,
        "district_code": 750119,
        "regency_code": 7501,
        "province_code": 75,
        "name": "Limehe Timur",
        "postal_code": "96242",
        "latitude": 0.5866237589575377,
        "longitude": 122.94526183962779
    },
    {
        "code": 7501192005,
        "district_code": 750119,
        "regency_code": 7501,
        "province_code": 75,
        "name": "Ilomangga",
        "postal_code": "96242",
        "latitude": 0.5915519295016047,
        "longitude": 122.9333761208545
    },
    {
        "code": 7501192006,
        "district_code": 750119,
        "regency_code": 7501,
        "province_code": 75,
        "name": "Motinelo",
        "postal_code": "96242",
        "latitude": 0.5713127847707421,
        "longitude": 122.90676777072639
    },
    {
        "code": 7501192007,
        "district_code": 750119,
        "regency_code": 7501,
        "province_code": 75,
        "name": "Moahudu",
        "postal_code": "96242",
        "latitude": 0.5957667677617525,
        "longitude": 122.92361053316746
    },
    {
        "code": 7501192008,
        "district_code": 750119,
        "regency_code": 7501,
        "province_code": 75,
        "name": "Teratai",
        "postal_code": "96242",
        "latitude": 0.5809869234299472,
        "longitude": 122.96489087195457
    },
    {
        "code": 7501192009,
        "district_code": 750119,
        "regency_code": 7501,
        "province_code": 75,
        "name": "Limehu",
        "postal_code": "96242",
        "latitude": 0.6109067165968859,
        "longitude": 122.91383990330212
    },
    {
        "code": 7501202001,
        "district_code": 750120,
        "regency_code": 7501,
        "province_code": 75,
        "name": "Biluhu Barat",
        "postal_code": "96245",
        "latitude": 0.5088240946516035,
        "longitude": 122.74610200507446
    },
    {
        "code": 7501202002,
        "district_code": 750120,
        "regency_code": 7501,
        "province_code": 75,
        "name": "Lobuto",
        "postal_code": "96245",
        "latitude": 0.506556411598889,
        "longitude": 122.77288566569915
    },
    {
        "code": 7501202003,
        "district_code": 750120,
        "regency_code": 7501,
        "province_code": 75,
        "name": "Biluhu Tengah",
        "postal_code": "96245",
        "latitude": 0.5070285386683486,
        "longitude": 122.85314737737652
    },
    {
        "code": 7501202004,
        "district_code": 750120,
        "regency_code": 7501,
        "province_code": 75,
        "name": "Luluo",
        "postal_code": "96245",
        "latitude": 0.5134584105452773,
        "longitude": 122.83055104259611
    },
    {
        "code": 7501202005,
        "district_code": 750120,
        "regency_code": 7501,
        "province_code": 75,
        "name": "Huwongo",
        "postal_code": "96245",
        "latitude": 0.5081530154438505,
        "longitude": 122.72286839349714
    },
    {
        "code": 7501202006,
        "district_code": 750120,
        "regency_code": 7501,
        "province_code": 75,
        "name": "Lobuto Timur",
        "postal_code": "96245",
        "latitude": 0.5120144396122054,
        "longitude": 122.79871262849974
    },
    {
        "code": 7501202007,
        "district_code": 750120,
        "regency_code": 7501,
        "province_code": 75,
        "name": "Botu Boluo",
        "postal_code": "96245",
        "latitude": 0.5065687388767885,
        "longitude": 122.81634520106098
    },
    {
        "code": 7501202008,
        "district_code": 750120,
        "regency_code": 7501,
        "province_code": 75,
        "name": "Olimeyala",
        "postal_code": "96245",
        "latitude": 0.4944756464434147,
        "longitude": 122.7058185553142
    },
    {
        "code": 7501212001,
        "district_code": 750121,
        "regency_code": 7501,
        "province_code": 75,
        "name": "Bululi",
        "postal_code": "96221",
        "latitude": 0.8153163664542195,
        "longitude": 122.50796477804897
    },
    {
        "code": 7501212002,
        "district_code": 750121,
        "regency_code": 7501,
        "province_code": 75,
        "name": "Mohiyolo",
        "postal_code": "96221",
        "latitude": 0.7748598298026835,
        "longitude": 122.42521583202829
    },
    {
        "code": 7501212003,
        "district_code": 750121,
        "regency_code": 7501,
        "province_code": 75,
        "name": "Pangahu",
        "postal_code": "96221",
        "latitude": 0.8505304867774987,
        "longitude": 122.31439350112677
    },
    {
        "code": 7501212004,
        "district_code": 750121,
        "regency_code": 7501,
        "province_code": 75,
        "name": "Karya Indah",
        "postal_code": "96221",
        "latitude": 0.8158790704036042,
        "longitude": 122.47501674265914
    },
    {
        "code": 7501212005,
        "district_code": 750121,
        "regency_code": 7501,
        "province_code": 75,
        "name": "Prima",
        "postal_code": "96221",
        "latitude": 0.8152221083007559,
        "longitude": 122.49236177747842
    },
    {
        "code": 7501212006,
        "district_code": 750121,
        "regency_code": 7501,
        "province_code": 75,
        "name": "Tiohu",
        "postal_code": "96221",
        "latitude": 0.7483944156926254,
        "longitude": 122.48662091721866
    },
    {
        "code": 7501212007,
        "district_code": 750121,
        "regency_code": 7501,
        "province_code": 75,
        "name": "Olimohulo",
        "postal_code": "96221",
        "latitude": 0.7643456961502008,
        "longitude": 122.45977854806812
    },
    {
        "code": 7501212008,
        "district_code": 750121,
        "regency_code": 7501,
        "province_code": 75,
        "name": "Karya Baru",
        "postal_code": "96221",
        "latitude": 0.7836887494929924,
        "longitude": 122.45201511362474
    },
    {
        "code": 7501212009,
        "district_code": 750121,
        "regency_code": 7501,
        "province_code": 75,
        "name": "Bontula",
        "postal_code": "96221",
        "latitude": 0.8386405119895017,
        "longitude": 122.43751578149897
    },
    {
        "code": 7501212010,
        "district_code": 750121,
        "regency_code": 7501,
        "province_code": 75,
        "name": "Bihe",
        "postal_code": "96221",
        "latitude": 0.8371257203889246,
        "longitude": 122.39366484769516
    },
    {
        "code": 7501222001,
        "district_code": 750122,
        "regency_code": 7501,
        "province_code": 75,
        "name": "Hutadaa",
        "postal_code": "96184",
        "latitude": 0.5748504761315552,
        "longitude": 123.01103919876141
    },
    {
        "code": 7501222002,
        "district_code": 750122,
        "regency_code": 7501,
        "province_code": 75,
        "name": "Buhu",
        "postal_code": "96184",
        "latitude": 0.5794849327431055,
        "longitude": 123.0051738975669
    },
    {
        "code": 7501222003,
        "district_code": 750122,
        "regency_code": 7501,
        "province_code": 75,
        "name": "Luwoo",
        "postal_code": "96184",
        "latitude": 0.5766397497999846,
        "longitude": 123.03105369573716
    },
    {
        "code": 7501222004,
        "district_code": 750122,
        "regency_code": 7501,
        "province_code": 75,
        "name": "Bunggalo",
        "postal_code": "96184",
        "latitude": 0.583319195752538,
        "longitude": 123.01702562806818
    },
    {
        "code": 7501222005,
        "district_code": 750122,
        "regency_code": 7501,
        "province_code": 75,
        "name": "Bulota",
        "postal_code": "96184",
        "latitude": 0.5883672037026433,
        "longitude": 123.0088051016351
    },
    {
        "code": 7501232001,
        "district_code": 750123,
        "regency_code": 7501,
        "province_code": 75,
        "name": "Totopo",
        "postal_code": "96234",
        "latitude": 0.5794326588527088,
        "longitude": 122.64778255658936
    },
    {
        "code": 7501232002,
        "district_code": 750123,
        "regency_code": 7501,
        "province_code": 75,
        "name": "Bilato",
        "postal_code": "96234",
        "latitude": 0.5455037659550259,
        "longitude": 122.65612022643799
    },
    {
        "code": 7501232003,
        "district_code": 750123,
        "regency_code": 7501,
        "province_code": 75,
        "name": "Ilomata",
        "postal_code": "96234",
        "latitude": 0.5300339868282857,
        "longitude": 122.65852243734079
    },
    {
        "code": 7501232004,
        "district_code": 750123,
        "regency_code": 7501,
        "province_code": 75,
        "name": "Taula'a",
        "postal_code": "96234",
        "latitude": 0.524093664540407,
        "longitude": 122.6958692184403
    },
    {
        "code": 7501232005,
        "district_code": 750123,
        "regency_code": 7501,
        "province_code": 75,
        "name": "Juriya",
        "postal_code": "96234",
        "latitude": 0.5517366154510313,
        "longitude": 122.64040170822607
    },
    {
        "code": 7501232006,
        "district_code": 750123,
        "regency_code": 7501,
        "province_code": 75,
        "name": "Pelehu",
        "postal_code": "96234",
        "latitude": 0.5341161734414682,
        "longitude": 122.67210937046994
    },
    {
        "code": 7501232007,
        "district_code": 750123,
        "regency_code": 7501,
        "province_code": 75,
        "name": "Bumela",
        "postal_code": "96234",
        "latitude": 0.5895068263988171,
        "longitude": 122.67502259153156
    },
    {
        "code": 7501232008,
        "district_code": 750123,
        "regency_code": 7501,
        "province_code": 75,
        "name": "Lamahu",
        "postal_code": "96234",
        "latitude": 0.5955470775195754,
        "longitude": 122.69456161009111
    },
    {
        "code": 7501232009,
        "district_code": 750123,
        "regency_code": 7501,
        "province_code": 75,
        "name": "Musyawarah",
        "postal_code": "96234",
        "latitude": 0.6502879487289326,
        "longitude": 122.67587123088047
    },
    {
        "code": 7501232010,
        "district_code": 750123,
        "regency_code": 7501,
        "province_code": 75,
        "name": "Suka Damai",
        "postal_code": "96234",
        "latitude": 0.6128446133335098,
        "longitude": 122.65219518104026
    },
    {
        "code": 7501242001,
        "district_code": 750124,
        "regency_code": 7501,
        "province_code": 75,
        "name": "Pilolalenga",
        "postal_code": "96241",
        "latitude": 0.5981967474996605,
        "longitude": 122.87766755798367
    },
    {
        "code": 7501242002,
        "district_code": 750124,
        "regency_code": 7501,
        "province_code": 75,
        "name": "Kaliyoso",
        "postal_code": "96241",
        "latitude": 0.6078974687076051,
        "longitude": 122.88234510568665
    },
    {
        "code": 7501242003,
        "district_code": 750124,
        "regency_code": 7501,
        "province_code": 75,
        "name": "Dungaliyo",
        "postal_code": "96241",
        "latitude": 0.5979023944748636,
        "longitude": 122.89400847359893
    },
    {
        "code": 7501242004,
        "district_code": 750124,
        "regency_code": 7501,
        "province_code": 75,
        "name": "Ambara",
        "postal_code": "96241",
        "latitude": 0.5624163337682802,
        "longitude": 122.88872024618206
    },
    {
        "code": 7501242005,
        "district_code": 750124,
        "regency_code": 7501,
        "province_code": 75,
        "name": "Bongomeme",
        "postal_code": "96241",
        "latitude": 0.6155820916706997,
        "longitude": 122.8893086023604
    },
    {
        "code": 7501242006,
        "district_code": 750124,
        "regency_code": 7501,
        "province_code": 75,
        "name": "Duwanga",
        "postal_code": "96241",
        "latitude": 0.6103426464422852,
        "longitude": 122.90166576539256
    },
    {
        "code": 7501242007,
        "district_code": 750124,
        "regency_code": 7501,
        "province_code": 75,
        "name": "Ayuhula",
        "postal_code": "96241",
        "latitude": 0.5714739302994384,
        "longitude": 122.8706611767513
    },
    {
        "code": 7501242008,
        "district_code": 750124,
        "regency_code": 7501,
        "province_code": 75,
        "name": "Pangadaa",
        "postal_code": "96241",
        "latitude": 0.6141250909062864,
        "longitude": 122.86726693912992
    },
    {
        "code": 7501242009,
        "district_code": 750124,
        "regency_code": 7501,
        "province_code": 75,
        "name": "Botubulowe",
        "postal_code": "96241",
        "latitude": 0.5853744816279226,
        "longitude": 122.8858109280699
    },
    {
        "code": 7501242010,
        "district_code": 750124,
        "regency_code": 7501,
        "province_code": 75,
        "name": "Momala",
        "postal_code": "96241",
        "latitude": 0.5334996349821712,
        "longitude": 122.8809449359574
    },
    {
        "code": 7502012004,
        "district_code": 750201,
        "regency_code": 7502,
        "province_code": 75,
        "name": "Bongo Nol",
        "postal_code": "96260",
        "latitude": 0.6103820400343364,
        "longitude": 122.49038838480503
    },
    {
        "code": 7502012005,
        "district_code": 750201,
        "regency_code": 7502,
        "province_code": 75,
        "name": "Bongo IV",
        "postal_code": "96260",
        "latitude": 0.6503929517280037,
        "longitude": 122.43448663315594
    },
    {
        "code": 7502012006,
        "district_code": 750201,
        "regency_code": 7502,
        "province_code": 75,
        "name": "Molombulahe",
        "postal_code": "96260",
        "latitude": 0.6137516886433962,
        "longitude": 122.56765302752159
    },
    {
        "code": 7502012007,
        "district_code": 750201,
        "regency_code": 7502,
        "province_code": 75,
        "name": "Mutiara",
        "postal_code": "96260",
        "latitude": 0.6670105553228156,
        "longitude": 122.55123443165778
    },
    {
        "code": 7502012008,
        "district_code": 750201,
        "regency_code": 7502,
        "province_code": 75,
        "name": "Saripi",
        "postal_code": "96260",
        "latitude": 0.6271546823826231,
        "longitude": 122.51869050155416
    },
    {
        "code": 7502012009,
        "district_code": 750201,
        "regency_code": 7502,
        "province_code": 75,
        "name": "Wonggahu",
        "postal_code": "96260",
        "latitude": 0.6307996302234435,
        "longitude": 122.55964100465877
    },
    {
        "code": 7502012010,
        "district_code": 750201,
        "regency_code": 7502,
        "province_code": 75,
        "name": "Tangkobu",
        "postal_code": "96260",
        "latitude": 0.6039016421749605,
        "longitude": 122.60190699771313
    },
    {
        "code": 7502012011,
        "district_code": 750201,
        "regency_code": 7502,
        "province_code": 75,
        "name": "Bongo Tua",
        "postal_code": "96260",
        "latitude": 0.6832676304704416,
        "longitude": 122.52139891909414
    },
    {
        "code": 7502012012,
        "district_code": 750201,
        "regency_code": 7502,
        "province_code": 75,
        "name": "Kuala Lumpur",
        "postal_code": "96260",
        "latitude": 0.6489657472817429,
        "longitude": 122.57780317439591
    },
    {
        "code": 7502012013,
        "district_code": 750201,
        "regency_code": 7502,
        "province_code": 75,
        "name": "Mustika",
        "postal_code": "96260",
        "latitude": 0.6496360846312846,
        "longitude": 122.54238275156771
    },
    {
        "code": 7502012014,
        "district_code": 750201,
        "regency_code": 7502,
        "province_code": 75,
        "name": "Tenilo",
        "postal_code": "96260",
        "latitude": 0.6239315611513788,
        "longitude": 122.54432179388094
    },
    {
        "code": 7502012015,
        "district_code": 750201,
        "regency_code": 7502,
        "province_code": 75,
        "name": "Huwongo",
        "postal_code": "96260",
        "latitude": 0.6153523760743144,
        "longitude": 122.46143121215265
    },
    {
        "code": 7502012016,
        "district_code": 750201,
        "regency_code": 7502,
        "province_code": 75,
        "name": "Karya Murni",
        "postal_code": "96260",
        "latitude": 0.5655700194429782,
        "longitude": 122.621322999565
    },
    {
        "code": 7502012019,
        "district_code": 750201,
        "regency_code": 7502,
        "province_code": 75,
        "name": "Girisa",
        "postal_code": "96260",
        "latitude": 0.5082952574349476,
        "longitude": 122.64081046911902
    },
    {
        "code": 7502012020,
        "district_code": 750201,
        "regency_code": 7502,
        "province_code": 75,
        "name": "Batu Kramat",
        "postal_code": "96260",
        "latitude": 0.6323013434225149,
        "longitude": 122.48749127354151
    },
    {
        "code": 7502012021,
        "district_code": 750201,
        "regency_code": 7502,
        "province_code": 75,
        "name": "Bualo",
        "postal_code": "96260",
        "latitude": 0.6351084821039967,
        "longitude": 122.42021551353359
    },
    {
        "code": 7502012022,
        "district_code": 750201,
        "regency_code": 7502,
        "province_code": 75,
        "name": "Sosial",
        "postal_code": "96260",
        "latitude": 0.610006618946788,
        "longitude": 122.57663327922079
    },
    {
        "code": 7502012023,
        "district_code": 750201,
        "regency_code": 7502,
        "province_code": 75,
        "name": "Permata",
        "postal_code": "96260",
        "latitude": 0.6807730632779008,
        "longitude": 122.54469493910541
    },
    {
        "code": 7502012024,
        "district_code": 750201,
        "regency_code": 7502,
        "province_code": 75,
        "name": "Hulawa",
        "postal_code": "96260",
        "latitude": 0.6273713394899043,
        "longitude": 122.52932757445546
    },
    {
        "code": 7502012025,
        "district_code": 750201,
        "regency_code": 7502,
        "province_code": 75,
        "name": "Balate Jaya",
        "postal_code": "96260",
        "latitude": 0.5975058844527695,
        "longitude": 122.54357708659413
    },
    {
        "code": 7502012026,
        "district_code": 750201,
        "regency_code": 7502,
        "province_code": 75,
        "name": "Rejonegoro",
        "postal_code": "96260",
        "latitude": 0.6117042894131322,
        "longitude": 122.58740571503178
    },
    {
        "code": 7502012027,
        "district_code": 750201,
        "regency_code": 7502,
        "province_code": 75,
        "name": "Diloato",
        "postal_code": "96260",
        "latitude": 0.7006463390657798,
        "longitude": 122.51479295164854
    },
    {
        "code": 7502022001,
        "district_code": 750202,
        "regency_code": 7502,
        "province_code": 75,
        "name": "Harapan",
        "postal_code": "96262",
        "latitude": 0.6937823740208006,
        "longitude": 122.49021410514491
    },
    {
        "code": 7502022002,
        "district_code": 750202,
        "regency_code": 7502,
        "province_code": 75,
        "name": "Bongo II",
        "postal_code": "96262",
        "latitude": 0.7100574690205347,
        "longitude": 122.4465422059262
    },
    {
        "code": 7502022003,
        "district_code": 750202,
        "regency_code": 7502,
        "province_code": 75,
        "name": "Bongo III",
        "postal_code": "96262",
        "latitude": 0.7003712292750561,
        "longitude": 122.43094603632808
    },
    {
        "code": 7502022004,
        "district_code": 750202,
        "regency_code": 7502,
        "province_code": 75,
        "name": "Mekarjaya",
        "postal_code": "96262",
        "latitude": 0.66338138040185,
        "longitude": 122.46979550247107
    },
    {
        "code": 7502022005,
        "district_code": 750202,
        "regency_code": 7502,
        "province_code": 75,
        "name": "Sukamaju",
        "postal_code": "96262",
        "latitude": 0.7178842035853736,
        "longitude": 122.48648101391117
    },
    {
        "code": 7502022006,
        "district_code": 750202,
        "regency_code": 7502,
        "province_code": 75,
        "name": "Pangeya",
        "postal_code": "96262",
        "latitude": 0.7464849386059401,
        "longitude": 122.39826141014946
    },
    {
        "code": 7502022007,
        "district_code": 750202,
        "regency_code": 7502,
        "province_code": 75,
        "name": "Jatimulya",
        "postal_code": "96262",
        "latitude": 0.6994039035612248,
        "longitude": 122.46842625183666
    },
    {
        "code": 7502022008,
        "district_code": 750202,
        "regency_code": 7502,
        "province_code": 75,
        "name": "Suka Mulya",
        "postal_code": "96262",
        "latitude": 0.7209560273840309,
        "longitude": 122.41217055772088
    },
    {
        "code": 7502022009,
        "district_code": 750202,
        "regency_code": 7502,
        "province_code": 75,
        "name": "Sari Tani",
        "postal_code": "96262",
        "latitude": 0.7623971056185891,
        "longitude": 122.32735800144745
    },
    {
        "code": 7502022010,
        "district_code": 750202,
        "regency_code": 7502,
        "province_code": 75,
        "name": "Dimito",
        "postal_code": "96262",
        "latitude": 0.6910178796480392,
        "longitude": 122.39364310697324
    },
    {
        "code": 7502022011,
        "district_code": 750202,
        "regency_code": 7502,
        "province_code": 75,
        "name": "Tanjung Harapan",
        "postal_code": "96262",
        "latitude": 0.7513504157593884,
        "longitude": 122.45011862248995
    },
    {
        "code": 7502022012,
        "district_code": 750202,
        "regency_code": 7502,
        "province_code": 75,
        "name": "Raharja",
        "postal_code": "96262",
        "latitude": 0.7397689864662319,
        "longitude": 122.4547824211306
    },
    {
        "code": 7502022013,
        "district_code": 750202,
        "regency_code": 7502,
        "province_code": 75,
        "name": "Trirukun",
        "postal_code": "96262",
        "latitude": 0.724297814175508,
        "longitude": 122.45892312441451
    },
    {
        "code": 7502022014,
        "district_code": 750202,
        "regency_code": 7502,
        "province_code": 75,
        "name": "Dulohupa",
        "postal_code": "96262",
        "latitude": 0.7336536497842591,
        "longitude": 122.48397421262686
    },
    {
        "code": 7502032001,
        "district_code": 750203,
        "regency_code": 7502,
        "province_code": 75,
        "name": "Dulupi",
        "postal_code": "96267",
        "latitude": 0.523362005429738,
        "longitude": 122.43531061915196
    },
    {
        "code": 7502032002,
        "district_code": 750203,
        "regency_code": 7502,
        "province_code": 75,
        "name": "Tabongo",
        "postal_code": "96267",
        "latitude": 0.5351667680433536,
        "longitude": 122.47776658015361
    },
    {
        "code": 7502032003,
        "district_code": 750203,
        "regency_code": 7502,
        "province_code": 75,
        "name": "Kotaraja",
        "postal_code": "96267",
        "latitude": 0.5791024030357395,
        "longitude": 122.48824453816806
    },
    {
        "code": 7502032004,
        "district_code": 750203,
        "regency_code": 7502,
        "province_code": 75,
        "name": "Polohungo",
        "postal_code": "96267",
        "latitude": 0.5815092045817318,
        "longitude": 122.44511808948617
    },
    {
        "code": 7502032005,
        "district_code": 750203,
        "regency_code": 7502,
        "province_code": 75,
        "name": "Pangi",
        "postal_code": "96267",
        "latitude": 0.5598758358230713,
        "longitude": 122.39894273789533
    },
    {
        "code": 7502032006,
        "district_code": 750203,
        "regency_code": 7502,
        "province_code": 75,
        "name": "Tangga Jaya",
        "postal_code": "96267",
        "latitude": 0.6039399776480103,
        "longitude": 122.40367497231061
    },
    {
        "code": 7502032007,
        "district_code": 750203,
        "regency_code": 7502,
        "province_code": 75,
        "name": "Tanah Putih",
        "postal_code": "96267",
        "latitude": 0.5652389029922068,
        "longitude": 122.42421986347854
    },
    {
        "code": 7502032008,
        "district_code": 750203,
        "regency_code": 7502,
        "province_code": 75,
        "name": "Tangga Barito",
        "postal_code": "96267",
        "latitude": 0.6923879633715333,
        "longitude": 122.32149572367305
    },
    {
        "code": 7502042001,
        "district_code": 750204,
        "regency_code": 7502,
        "province_code": 75,
        "name": "Limbato",
        "postal_code": "96263",
        "latitude": 0.5344203061354679,
        "longitude": 122.3462565852381
    },
    {
        "code": 7502042002,
        "district_code": 750204,
        "regency_code": 7502,
        "province_code": 75,
        "name": "Piloliyanga",
        "postal_code": "96263",
        "latitude": 0.6070137417795296,
        "longitude": 122.31552345348595
    },
    {
        "code": 7502042003,
        "district_code": 750204,
        "regency_code": 7502,
        "province_code": 75,
        "name": "Ayuhulalo",
        "postal_code": "96263",
        "latitude": 0.5954163125863454,
        "longitude": 122.28980168323233
    },
    {
        "code": 7502042004,
        "district_code": 750204,
        "regency_code": 7502,
        "province_code": 75,
        "name": "Hungayonaa",
        "postal_code": "96263",
        "latitude": 0.5255942355889496,
        "longitude": 122.33718535566413
    },
    {
        "code": 7502042005,
        "district_code": 750204,
        "regency_code": 7502,
        "province_code": 75,
        "name": "Modelomo",
        "postal_code": "96263",
        "latitude": 0.5189393164718644,
        "longitude": 122.3405715066668
    },
    {
        "code": 7502042006,
        "district_code": 750204,
        "regency_code": 7502,
        "province_code": 75,
        "name": "Pentadu Barat",
        "postal_code": "96263",
        "latitude": 0.5056064317337904,
        "longitude": 122.3423830943907
    },
    {
        "code": 7502042007,
        "district_code": 750204,
        "regency_code": 7502,
        "province_code": 75,
        "name": "Pentadu Timur",
        "postal_code": "96263",
        "latitude": 0.514075861620869,
        "longitude": 122.36140553158499
    },
    {
        "code": 7502042008,
        "district_code": 750204,
        "regency_code": 7502,
        "province_code": 75,
        "name": "Bajo",
        "postal_code": "96263",
        "latitude": 0.49596576321906805,
        "longitude": 122.35035303956312
    },
    {
        "code": 7502042009,
        "district_code": 750204,
        "regency_code": 7502,
        "province_code": 75,
        "name": "Mohungo",
        "postal_code": "96263",
        "latitude": 0.5300172211931771,
        "longitude": 122.36092935894983
    },
    {
        "code": 7502042010,
        "district_code": 750204,
        "regency_code": 7502,
        "province_code": 75,
        "name": "Lahumbo",
        "postal_code": "96263",
        "latitude": 0.6005137424919758,
        "longitude": 122.35022160096175
    },
    {
        "code": 7502042011,
        "district_code": 750204,
        "regency_code": 7502,
        "province_code": 75,
        "name": "Lamu",
        "postal_code": "96263",
        "latitude": 0.5177931153039237,
        "longitude": 122.32019669845056
    },
    {
        "code": 7502042018,
        "district_code": 750204,
        "regency_code": 7502,
        "province_code": 75,
        "name": "Tenilo",
        "postal_code": "96263",
        "latitude": 0.5288051365381372,
        "longitude": 122.39650090264182
    },
    {
        "code": 7502052001,
        "district_code": 750205,
        "regency_code": 7502,
        "province_code": 75,
        "name": "Tabulo",
        "postal_code": "96265",
        "latitude": 0.5048241651239479,
        "longitude": 122.14143801365117
    },
    {
        "code": 7502052002,
        "district_code": 750205,
        "regency_code": 7502,
        "province_code": 75,
        "name": "Kaaruyan",
        "postal_code": "96265",
        "latitude": 0.692873828887679,
        "longitude": 122.16912860357931
    },
    {
        "code": 7502052003,
        "district_code": 750205,
        "regency_code": 7502,
        "province_code": 75,
        "name": "Salilama",
        "postal_code": "96265",
        "latitude": 0.5027683967607759,
        "longitude": 122.1604929104309
    },
    {
        "code": 7502052004,
        "district_code": 750205,
        "regency_code": 7502,
        "province_code": 75,
        "name": "Bendungan",
        "postal_code": "96265",
        "latitude": 0.7285873929464883,
        "longitude": 122.14253940640548
    },
    {
        "code": 7502052005,
        "district_code": 750205,
        "regency_code": 7502,
        "province_code": 75,
        "name": "Mananggu",
        "postal_code": "96265",
        "latitude": 0.5563638116636157,
        "longitude": 122.13181330556213
    },
    {
        "code": 7502052006,
        "district_code": 750205,
        "regency_code": 7502,
        "province_code": 75,
        "name": "Buti",
        "postal_code": "96265",
        "latitude": 0.7069111319599914,
        "longitude": 122.12918584713141
    },
    {
        "code": 7502052007,
        "district_code": 750205,
        "regency_code": 7502,
        "province_code": 75,
        "name": "Pontolo",
        "postal_code": "96265",
        "latitude": 0.5583801876591292,
        "longitude": 122.17766083729921
    },
    {
        "code": 7502052008,
        "district_code": 750205,
        "regency_code": 7502,
        "province_code": 75,
        "name": "Kramat",
        "postal_code": "96265",
        "latitude": 0.4836359003169052,
        "longitude": 122.15401925637067
    },
    {
        "code": 7502052009,
        "district_code": 750205,
        "regency_code": 7502,
        "province_code": 75,
        "name": "Tabulo Selatan",
        "postal_code": "96265",
        "latitude": 0.4927443178821985,
        "longitude": 122.13708159734408
    },
    {
        "code": 7502062001,
        "district_code": 750206,
        "regency_code": 7502,
        "province_code": 75,
        "name": "Tutulo",
        "postal_code": "96264",
        "latitude": 0.4973221649004545,
        "longitude": 122.2968438126672
    },
    {
        "code": 7502062002,
        "district_code": 750206,
        "regency_code": 7502,
        "province_code": 75,
        "name": "Hutamonu",
        "postal_code": "96264",
        "latitude": 0.6317418195220252,
        "longitude": 122.2355870314465
    },
    {
        "code": 7502062003,
        "district_code": 750206,
        "regency_code": 7502,
        "province_code": 75,
        "name": "Patoameme",
        "postal_code": "96264",
        "latitude": 0.5062516378824674,
        "longitude": 122.28598624798205
    },
    {
        "code": 7502062004,
        "district_code": 750206,
        "regency_code": 7502,
        "province_code": 75,
        "name": "Tapadaa",
        "postal_code": "96264",
        "latitude": 0.49016767845480713,
        "longitude": 122.2133396886358
    },
    {
        "code": 7502062005,
        "district_code": 750206,
        "regency_code": 7502,
        "province_code": 75,
        "name": "Potanga",
        "postal_code": "96264",
        "latitude": 0.5223853913576536,
        "longitude": 122.29499657512025
    },
    {
        "code": 7502062006,
        "district_code": 750206,
        "regency_code": 7502,
        "province_code": 75,
        "name": "Botumoito",
        "postal_code": "96264",
        "latitude": 0.7260608968431017,
        "longitude": 122.24635978501144
    },
    {
        "code": 7502062007,
        "district_code": 750206,
        "regency_code": 7502,
        "province_code": 75,
        "name": "Bolihutuo",
        "postal_code": "96264",
        "latitude": 0.741083955507312,
        "longitude": 122.17026772147386
    },
    {
        "code": 7502062008,
        "district_code": 750206,
        "regency_code": 7502,
        "province_code": 75,
        "name": "Rumbia",
        "postal_code": "96264",
        "latitude": 0.6982491402726594,
        "longitude": 122.20384504437138
    },
    {
        "code": 7502062009,
        "district_code": 750206,
        "regency_code": 7502,
        "province_code": 75,
        "name": "Dulangeya",
        "postal_code": "96264",
        "latitude": 0.5003374950934644,
        "longitude": 122.23417335068658
    },
    {
        "code": 7502072001,
        "district_code": 750207,
        "regency_code": 7502,
        "province_code": 75,
        "name": "Bubaa",
        "postal_code": "96261",
        "latitude": 0.5468845922223005,
        "longitude": 122.57002908063069
    },
    {
        "code": 7502072002,
        "district_code": 750207,
        "regency_code": 7502,
        "province_code": 75,
        "name": "Lito",
        "postal_code": "96261",
        "latitude": 0.530124065983649,
        "longitude": 122.58922939553753
    },
    {
        "code": 7502072003,
        "district_code": 750207,
        "regency_code": 7502,
        "province_code": 75,
        "name": "Limbatihu",
        "postal_code": "96261",
        "latitude": 0.5315000076283859,
        "longitude": 122.53028815277237
    },
    {
        "code": 7502072004,
        "district_code": 750207,
        "regency_code": 7502,
        "province_code": 75,
        "name": "Bukit Karya",
        "postal_code": "96261",
        "latitude": 0.5753101359220875,
        "longitude": 122.54638477822962
    },
    {
        "code": 7502072005,
        "district_code": 750207,
        "regency_code": 7502,
        "province_code": 75,
        "name": "Apitalawu",
        "postal_code": "96261",
        "latitude": 0.5241534585038189,
        "longitude": 122.60808761474127
    },
    {
        "code": 7502072006,
        "district_code": 750207,
        "regency_code": 7502,
        "province_code": 75,
        "name": "Bangga",
        "postal_code": "96261",
        "latitude": 0.49870138940540176,
        "longitude": 122.54944736899584
    },
    {
        "code": 7502072007,
        "district_code": 750207,
        "regency_code": 7502,
        "province_code": 75,
        "name": "Towayu",
        "postal_code": "96261",
        "latitude": 0.5688383851781231,
        "longitude": 122.51660796533169
    },
    {
        "code": 7502072008,
        "district_code": 750207,
        "regency_code": 7502,
        "province_code": 75,
        "name": "Olibu",
        "postal_code": "96261",
        "latitude": 0.49912277559937435,
        "longitude": 122.62415252477874
    },
    {
        "code": 7503012004,
        "district_code": 750301,
        "regency_code": 7503,
        "province_code": 75,
        "name": "Talumopatu",
        "postal_code": "96545",
        "latitude": 0.6068063513555106,
        "longitude": 123.08841750385916
    },
    {
        "code": 7503012005,
        "district_code": 750301,
        "regency_code": 7503,
        "province_code": 75,
        "name": "Talulobutu",
        "postal_code": "96545",
        "latitude": 0.607840750968333,
        "longitude": 123.07705435813399
    },
    {
        "code": 7503012006,
        "district_code": 750301,
        "regency_code": 7503,
        "province_code": 75,
        "name": "Dunggala",
        "postal_code": "96545",
        "latitude": 0.613972711570856,
        "longitude": 123.09102180139436
    },
    {
        "code": 7503012007,
        "district_code": 750301,
        "regency_code": 7503,
        "province_code": 75,
        "name": "Langge",
        "postal_code": "96545",
        "latitude": 0.6249032084707323,
        "longitude": 123.09487132310802
    },
    {
        "code": 7503012027,
        "district_code": 750301,
        "regency_code": 7503,
        "province_code": 75,
        "name": "Talulobutu Selatan",
        "postal_code": "96545",
        "latitude": 0.6046181652447327,
        "longitude": 123.07320140250708
    },
    {
        "code": 7503012028,
        "district_code": 750301,
        "regency_code": 7503,
        "province_code": 75,
        "name": "Keramat",
        "postal_code": "96545",
        "latitude": 0.6121382167369095,
        "longitude": 123.07870745044889
    },
    {
        "code": 7503012029,
        "district_code": 750301,
        "regency_code": 7503,
        "province_code": 75,
        "name": "Meranti",
        "postal_code": "96545",
        "latitude": 0.6324915595922297,
        "longitude": 123.11167319651518
    },
    {
        "code": 7503021008,
        "district_code": 750302,
        "regency_code": 7503,
        "province_code": 75,
        "name": "Padengo",
        "postal_code": "96552",
        "latitude": 0.5414548299743686,
        "longitude": 123.10474375406143
    },
    {
        "code": 7503021009,
        "district_code": 750302,
        "regency_code": 7503,
        "province_code": 75,
        "name": "Olohuta",
        "postal_code": "96552",
        "latitude": 0.5405992443968997,
        "longitude": 123.0978646801113
    },
    {
        "code": 7503021010,
        "district_code": 750302,
        "regency_code": 7503,
        "province_code": 75,
        "name": "Tumbihe",
        "postal_code": "96552",
        "latitude": 0.53957086459506,
        "longitude": 123.09104167809706
    },
    {
        "code": 7503021011,
        "district_code": 750302,
        "regency_code": 7503,
        "province_code": 75,
        "name": "Pauwo",
        "postal_code": "96552",
        "latitude": 0.540170083351128,
        "longitude": 123.08573411497338
    },
    {
        "code": 7503021028,
        "district_code": 750302,
        "regency_code": 7503,
        "province_code": 75,
        "name": "Olohuta Utara",
        "postal_code": "96552",
        "latitude": 0.548638257865845,
        "longitude": 123.09885548984221
    },
    {
        "code": 7503022006,
        "district_code": 750302,
        "regency_code": 7503,
        "province_code": 75,
        "name": "Dutohe",
        "postal_code": "96552",
        "latitude": 0.53715544965815,
        "longitude": 123.12083708460189
    },
    {
        "code": 7503022007,
        "district_code": 750302,
        "regency_code": 7503,
        "province_code": 75,
        "name": "Tanggilingo",
        "postal_code": "96552",
        "latitude": 0.5401762867900174,
        "longitude": 123.1109335350031
    },
    {
        "code": 7503022012,
        "district_code": 750302,
        "regency_code": 7503,
        "province_code": 75,
        "name": "Toto Selatan",
        "postal_code": "96552",
        "latitude": 0.5594679699180335,
        "longitude": 123.09270697064059
    },
    {
        "code": 7503022013,
        "district_code": 750302,
        "regency_code": 7503,
        "province_code": 75,
        "name": "Poowo",
        "postal_code": "96552",
        "latitude": 0.5543912001341348,
        "longitude": 123.10937829683532
    },
    {
        "code": 7503022024,
        "district_code": 750302,
        "regency_code": 7503,
        "province_code": 75,
        "name": "Talango",
        "postal_code": "96552",
        "latitude": 0.5504911687433626,
        "longitude": 123.09142350802247
    },
    {
        "code": 7503022026,
        "district_code": 750302,
        "regency_code": 7503,
        "province_code": 75,
        "name": "Poowo Barat",
        "postal_code": "96552",
        "latitude": 0.556707230838282,
        "longitude": 123.09942828770228
    },
    {
        "code": 7503022029,
        "district_code": 750302,
        "regency_code": 7503,
        "province_code": 75,
        "name": "Dutohe Barat",
        "postal_code": "96552",
        "latitude": 0.5375645571181262,
        "longitude": 123.11591551394672
    },
    {
        "code": 7503032011,
        "district_code": 750303,
        "regency_code": 7503,
        "province_code": 75,
        "name": "Tingkohubu",
        "postal_code": "96562",
        "latitude": 0.5337755135967315,
        "longitude": 123.1447169987904
    },
    {
        "code": 7503032012,
        "district_code": 750303,
        "regency_code": 7503,
        "province_code": 75,
        "name": "Boludawa",
        "postal_code": "96562",
        "latitude": 0.5349733823102514,
        "longitude": 123.13888499143609
    },
    {
        "code": 7503032013,
        "district_code": 750303,
        "regency_code": 7503,
        "province_code": 75,
        "name": "Bube",
        "postal_code": "96562",
        "latitude": 0.5378986111098603,
        "longitude": 123.1277009521187
    },
    {
        "code": 7503032014,
        "district_code": 750303,
        "regency_code": 7503,
        "province_code": 75,
        "name": "Huluduotamo",
        "postal_code": "96562",
        "latitude": 0.5809882724927782,
        "longitude": 123.19487411870325
    },
    {
        "code": 7503032020,
        "district_code": 750303,
        "regency_code": 7503,
        "province_code": 75,
        "name": "Ulanta",
        "postal_code": "96562",
        "latitude": 0.5888479994319172,
        "longitude": 123.16876105020545
    },
    {
        "code": 7503032021,
        "district_code": 750303,
        "regency_code": 7503,
        "province_code": 75,
        "name": "Tinelo",
        "postal_code": "96562",
        "latitude": 0.531548401970815,
        "longitude": 123.1261568131574
    },
    {
        "code": 7503032022,
        "district_code": 750303,
        "regency_code": 7503,
        "province_code": 75,
        "name": "Bubeya",
        "postal_code": "96562",
        "latitude": 0.5328101689882792,
        "longitude": 123.13271574672912
    },
    {
        "code": 7503032023,
        "district_code": 750303,
        "regency_code": 7503,
        "province_code": 75,
        "name": "Bube Baru",
        "postal_code": "96562",
        "latitude": 0.543383723719563,
        "longitude": 123.12993937734313
    },
    {
        "code": 7503032027,
        "district_code": 750303,
        "regency_code": 7503,
        "province_code": 75,
        "name": "Tingkohubu Timur",
        "postal_code": "96562",
        "latitude": 0.5348580058252665,
        "longitude": 123.14937375894608
    },
    {
        "code": 7503032028,
        "district_code": 750303,
        "regency_code": 7503,
        "province_code": 75,
        "name": "Helumo",
        "postal_code": "96562",
        "latitude": 0.5467724575472833,
        "longitude": 123.13898819692439
    },
    {
        "code": 7503042003,
        "district_code": 750304,
        "regency_code": 7503,
        "province_code": 75,
        "name": "Tamboo",
        "postal_code": "96573",
        "latitude": 0.4263727488779752,
        "longitude": 123.19727239322042
    },
    {
        "code": 7503042004,
        "district_code": 750304,
        "regency_code": 7503,
        "province_code": 75,
        "name": "Bilungala",
        "postal_code": "96573",
        "latitude": 0.38612868968874414,
        "longitude": 123.2117678575407
    },
    {
        "code": 7503042005,
        "district_code": 750304,
        "regency_code": 7503,
        "province_code": 75,
        "name": "Uabanga",
        "postal_code": "96573",
        "latitude": 0.35362444646393026,
        "longitude": 123.2344177643077
    },
    {
        "code": 7503042008,
        "district_code": 750304,
        "regency_code": 7503,
        "province_code": 75,
        "name": "Tolotio",
        "postal_code": "96573",
        "latitude": 0.42040594224017386,
        "longitude": 123.17996453946093
    },
    {
        "code": 7503042012,
        "district_code": 750304,
        "regency_code": 7503,
        "province_code": 75,
        "name": "Tongo",
        "postal_code": "96573",
        "latitude": 0.37035814870213085,
        "longitude": 123.2289952667771
    },
    {
        "code": 7503042025,
        "district_code": 750304,
        "regency_code": 7503,
        "province_code": 75,
        "name": "Bilungala Utara",
        "postal_code": "96573",
        "latitude": 0.3849799988236086,
        "longitude": 123.2182014554187
    },
    {
        "code": 7503042026,
        "district_code": 750304,
        "regency_code": 7503,
        "province_code": 75,
        "name": "Tihu",
        "postal_code": "96573",
        "latitude": 0.3738751878842355,
        "longitude": 123.22048203662402
    },
    {
        "code": 7503042027,
        "district_code": 750304,
        "regency_code": 7503,
        "province_code": 75,
        "name": "Tunas Jaya",
        "postal_code": "96573",
        "latitude": 0.43082864964622275,
        "longitude": 123.2134579616759
    },
    {
        "code": 7503042028,
        "district_code": 750304,
        "regency_code": 7503,
        "province_code": 75,
        "name": "Lembah Hijau",
        "postal_code": "96573",
        "latitude": 0.424831179020748,
        "longitude": 123.1892014607052
    },
    {
        "code": 7503042029,
        "district_code": 750304,
        "regency_code": 7503,
        "province_code": 75,
        "name": "Batu Hijau",
        "postal_code": "96573",
        "latitude": 0.36073053967419444,
        "longitude": 123.2295480672526
    },
    {
        "code": 7503042031,
        "district_code": 750304,
        "regency_code": 7503,
        "province_code": 75,
        "name": "Ombulo Hijau",
        "postal_code": "96573",
        "latitude": 0.3678623384719896,
        "longitude": 123.25290209170286
    },
    {
        "code": 7503042032,
        "district_code": 750304,
        "regency_code": 7503,
        "province_code": 75,
        "name": "Kemiri",
        "postal_code": "96573",
        "latitude": 0.38342066073992237,
        "longitude": 123.2451409572419
    },
    {
        "code": 7503042033,
        "district_code": 750304,
        "regency_code": 7503,
        "province_code": 75,
        "name": "Pelita Hijau",
        "postal_code": "96573",
        "latitude": 0.421217925502783,
        "longitude": 123.25425151475415
    },
    {
        "code": 7503052001,
        "district_code": 750305,
        "regency_code": 7503,
        "province_code": 75,
        "name": "Boidu",
        "postal_code": "96544",
        "latitude": 0.6387998483948004,
        "longitude": 123.07656658571246
    },
    {
        "code": 7503052002,
        "district_code": 750305,
        "regency_code": 7503,
        "province_code": 75,
        "name": "Bandungan",
        "postal_code": "96544",
        "latitude": 0.615914018591216,
        "longitude": 123.06669485927833
    },
    {
        "code": 7503052003,
        "district_code": 750305,
        "regency_code": 7503,
        "province_code": 75,
        "name": "Tupa",
        "postal_code": "96544",
        "latitude": 0.6505518367613309,
        "longitude": 123.07137162197024
    },
    {
        "code": 7503052004,
        "district_code": 750305,
        "regency_code": 7503,
        "province_code": 75,
        "name": "Longalo",
        "postal_code": "96544",
        "latitude": 0.6659266455120926,
        "longitude": 123.07087812534621
    },
    {
        "code": 7503052009,
        "district_code": 750305,
        "regency_code": 7503,
        "province_code": 75,
        "name": "Tuloa",
        "postal_code": "96544",
        "latitude": 0.7363924659987733,
        "longitude": 123.0862984437015
    },
    {
        "code": 7503052010,
        "district_code": 750305,
        "regency_code": 7503,
        "province_code": 75,
        "name": "Kopi",
        "postal_code": "96544",
        "latitude": 0.6453511317147534,
        "longitude": 123.09348645663967
    },
    {
        "code": 7503052011,
        "district_code": 750305,
        "regency_code": 7503,
        "province_code": 75,
        "name": "Lomaya",
        "postal_code": "96544",
        "latitude": 0.6208437341442685,
        "longitude": 123.08023643655204
    },
    {
        "code": 7503052012,
        "district_code": 750305,
        "regency_code": 7503,
        "province_code": 75,
        "name": "Suka Damai",
        "postal_code": "96544",
        "latitude": 0.6307938001278486,
        "longitude": 123.06724288605577
    },
    {
        "code": 7503052015,
        "district_code": 750305,
        "regency_code": 7503,
        "province_code": 75,
        "name": "Bunuo",
        "postal_code": "96544",
        "latitude": 0.6591900784059888,
        "longitude": 123.07792683966069
    },
    {
        "code": 7503062001,
        "district_code": 750306,
        "regency_code": 7503,
        "province_code": 75,
        "name": "Bongoime",
        "postal_code": "96554",
        "latitude": 0.5728411787317758,
        "longitude": 123.11273844166998
    },
    {
        "code": 7503062002,
        "district_code": 750306,
        "regency_code": 7503,
        "province_code": 75,
        "name": "Bongopini",
        "postal_code": "96554",
        "latitude": 0.5635792658321902,
        "longitude": 123.1183797780733
    },
    {
        "code": 7503062003,
        "district_code": 750306,
        "regency_code": 7503,
        "province_code": 75,
        "name": "Toto Utara",
        "postal_code": "96554",
        "latitude": 0.5692012184112212,
        "longitude": 123.09632128274555
    },
    {
        "code": 7503062004,
        "district_code": 750306,
        "regency_code": 7503,
        "province_code": 75,
        "name": "Moutong",
        "postal_code": "96554",
        "latitude": 0.5534829184577043,
        "longitude": 123.13312584683409
    },
    {
        "code": 7503062005,
        "district_code": 750306,
        "regency_code": 7503,
        "province_code": 75,
        "name": "Tunggulo",
        "postal_code": "96554",
        "latitude": 0.593234508268999,
        "longitude": 123.14432871699412
    },
    {
        "code": 7503062006,
        "district_code": 750306,
        "regency_code": 7503,
        "province_code": 75,
        "name": "Lonuo",
        "postal_code": "96554",
        "latitude": 0.6012781503788875,
        "longitude": 123.13107829468709
    },
    {
        "code": 7503062007,
        "district_code": 750306,
        "regency_code": 7503,
        "province_code": 75,
        "name": "Tamboo",
        "postal_code": "96554",
        "latitude": 0.5874850391073551,
        "longitude": 123.11698705882993
    },
    {
        "code": 7503062008,
        "district_code": 750306,
        "regency_code": 7503,
        "province_code": 75,
        "name": "Iloheluma",
        "postal_code": "96554",
        "latitude": 0.557251654833335,
        "longitude": 123.1245318663658
    },
    {
        "code": 7503062009,
        "district_code": 750306,
        "regency_code": 7503,
        "province_code": 75,
        "name": "Motilango",
        "postal_code": "96554",
        "latitude": 0.5814970754123172,
        "longitude": 123.10932891437264
    },
    {
        "code": 7503062010,
        "district_code": 750306,
        "regency_code": 7503,
        "province_code": 75,
        "name": "Butu",
        "postal_code": "96554",
        "latitude": 0.5795620783710045,
        "longitude": 123.14936657746856
    },
    {
        "code": 7503062011,
        "district_code": 750306,
        "regency_code": 7503,
        "province_code": 75,
        "name": "Permata",
        "postal_code": "96554",
        "latitude": 0.578661713970314,
        "longitude": 123.09669586600549
    },
    {
        "code": 7503062012,
        "district_code": 750306,
        "regency_code": 7503,
        "province_code": 75,
        "name": "Tunggulo Selatan",
        "postal_code": "96554",
        "latitude": 0.5734610077421024,
        "longitude": 123.12545246981745
    },
    {
        "code": 7503062013,
        "district_code": 750306,
        "regency_code": 7503,
        "province_code": 75,
        "name": "Bongohulawa",
        "postal_code": "96554",
        "latitude": 0.5677221470051602,
        "longitude": 123.1149329913007
    },
    {
        "code": 7503062014,
        "district_code": 750306,
        "regency_code": 7503,
        "province_code": 75,
        "name": "Berlian",
        "postal_code": "96554",
        "latitude": 0.5794227134841196,
        "longitude": 123.10327742110637
    },
    {
        "code": 7503072001,
        "district_code": 750307,
        "regency_code": 7503,
        "province_code": 75,
        "name": "Timbuolo",
        "postal_code": "96551",
        "latitude": 0.5253476020725333,
        "longitude": 123.10016148898889
    },
    {
        "code": 7503072002,
        "district_code": 750307,
        "regency_code": 7503,
        "province_code": 75,
        "name": "Panggulo",
        "postal_code": "96551",
        "latitude": 0.5140058450117502,
        "longitude": 123.11798670343498
    },
    {
        "code": 7503072003,
        "district_code": 750307,
        "regency_code": 7503,
        "province_code": 75,
        "name": "Luwohu",
        "postal_code": "96551",
        "latitude": 0.5245253486958811,
        "longitude": 123.09519103512353
    },
    {
        "code": 7503072004,
        "district_code": 750307,
        "regency_code": 7503,
        "province_code": 75,
        "name": "Buata",
        "postal_code": "96551",
        "latitude": 0.5158539658025814,
        "longitude": 123.09231966631953
    },
    {
        "code": 7503072005,
        "district_code": 750307,
        "regency_code": 7503,
        "province_code": 75,
        "name": "Timbuolo Timur",
        "postal_code": "96551",
        "latitude": 0.5169235770976408,
        "longitude": 123.10551401298243
    },
    {
        "code": 7503072006,
        "district_code": 750307,
        "regency_code": 7503,
        "province_code": 75,
        "name": "Tanah Putih",
        "postal_code": "96551",
        "latitude": 0.529844236170153,
        "longitude": 123.08474648495599
    },
    {
        "code": 7503072007,
        "district_code": 750307,
        "regency_code": 7503,
        "province_code": 75,
        "name": "Panggulo Barat",
        "postal_code": "96551",
        "latitude": 0.5138902075262279,
        "longitude": 123.11020445419423
    },
    {
        "code": 7503072008,
        "district_code": 750307,
        "regency_code": 7503,
        "province_code": 75,
        "name": "Timbuolo Tengah",
        "postal_code": "96551",
        "latitude": 0.5219496453858224,
        "longitude": 123.10301231294459
    },
    {
        "code": 7503072009,
        "district_code": 750307,
        "regency_code": 7503,
        "province_code": 75,
        "name": "Sukma",
        "postal_code": "96551",
        "latitude": 0.5337044921303997,
        "longitude": 123.09400624206775
    },
    {
        "code": 7503082001,
        "district_code": 750308,
        "regency_code": 7503,
        "province_code": 75,
        "name": "Huangobotu",
        "postal_code": "96553",
        "latitude": 0.48287306870891855,
        "longitude": 123.11928531846503
    },
    {
        "code": 7503082002,
        "district_code": 750308,
        "regency_code": 7503,
        "province_code": 75,
        "name": "Molutabu",
        "postal_code": "96553",
        "latitude": 0.4521922954657733,
        "longitude": 123.1589442380454
    },
    {
        "code": 7503082003,
        "district_code": 750308,
        "regency_code": 7503,
        "province_code": 75,
        "name": "Oluhuta",
        "postal_code": "96553",
        "latitude": 0.43199632368737434,
        "longitude": 123.161632965681
    },
    {
        "code": 7503082004,
        "district_code": 750308,
        "regency_code": 7503,
        "province_code": 75,
        "name": "Olele",
        "postal_code": "96553",
        "latitude": 0.4145321482082134,
        "longitude": 123.16337895075303
    },
    {
        "code": 7503082005,
        "district_code": 750308,
        "regency_code": 7503,
        "province_code": 75,
        "name": "Botutonuo",
        "postal_code": "96553",
        "latitude": 0.46829011230658696,
        "longitude": 123.14843350860188
    },
    {
        "code": 7503082006,
        "district_code": 750308,
        "regency_code": 7503,
        "province_code": 75,
        "name": "Modelomo",
        "postal_code": "96553",
        "latitude": 0.47045587738130046,
        "longitude": 123.13610679565917
    },
    {
        "code": 7503082007,
        "district_code": 750308,
        "regency_code": 7503,
        "province_code": 75,
        "name": "Biluango",
        "postal_code": "96553",
        "latitude": 0.47343974603914285,
        "longitude": 123.12833424666638
    },
    {
        "code": 7503082008,
        "district_code": 750308,
        "regency_code": 7503,
        "province_code": 75,
        "name": "Botubarani",
        "postal_code": "96553",
        "latitude": 0.4889119345974832,
        "longitude": 123.1037610199421
    },
    {
        "code": 7503082009,
        "district_code": 750308,
        "regency_code": 7503,
        "province_code": 75,
        "name": "Bintalahe",
        "postal_code": "96553",
        "latitude": 0.4341993082819675,
        "longitude": 123.14241915349581
    },
    {
        "code": 7503092001,
        "district_code": 750309,
        "regency_code": 7503,
        "province_code": 75,
        "name": "Taludaa",
        "postal_code": "96571",
        "latitude": 0.3883573840018957,
        "longitude": 123.45181700643899
    },
    {
        "code": 7503092002,
        "district_code": 750309,
        "regency_code": 7503,
        "province_code": 75,
        "name": "Sogitia",
        "postal_code": "96571",
        "latitude": 0.37740743391484693,
        "longitude": 123.42953002113961
    },
    {
        "code": 7503092003,
        "district_code": 750309,
        "regency_code": 7503,
        "province_code": 75,
        "name": "Moodulio",
        "postal_code": "96571",
        "latitude": 0.39696248933320927,
        "longitude": 123.49914940593439
    },
    {
        "code": 7503092004,
        "district_code": 750309,
        "regency_code": 7503,
        "province_code": 75,
        "name": "Bilonlantunga",
        "postal_code": "96571",
        "latitude": 0.3471277288338429,
        "longitude": 123.38394512429616
    },
    {
        "code": 7503092005,
        "district_code": 750309,
        "regency_code": 7503,
        "province_code": 75,
        "name": "Inogaluma",
        "postal_code": "96571",
        "latitude": 0.3654941448330263,
        "longitude": 123.44565372608554
    },
    {
        "code": 7503092006,
        "district_code": 750309,
        "regency_code": 7503,
        "province_code": 75,
        "name": "Monano",
        "postal_code": "96571",
        "latitude": 0.36722660068152374,
        "longitude": 123.41601031065245
    },
    {
        "code": 7503092007,
        "district_code": 750309,
        "regency_code": 7503,
        "province_code": 75,
        "name": "Tumbuh Mekar",
        "postal_code": "96571",
        "latitude": 0.3586397741842591,
        "longitude": 123.40660809678006
    },
    {
        "code": 7503092008,
        "district_code": 750309,
        "regency_code": 7503,
        "province_code": 75,
        "name": "Molamahu",
        "postal_code": "96571",
        "latitude": 0.3563884532405658,
        "longitude": 123.43906717923433
    },
    {
        "code": 7503092009,
        "district_code": 750309,
        "regency_code": 7503,
        "province_code": 75,
        "name": "Masiaga",
        "postal_code": "96571",
        "latitude": 0.3427699354505555,
        "longitude": 123.46603132519378
    },
    {
        "code": 7503092010,
        "district_code": 750309,
        "regency_code": 7503,
        "province_code": 75,
        "name": "Ilohuuwa",
        "postal_code": "96571",
        "latitude": 0.387390395530179,
        "longitude": 123.46606741482813
    },
    {
        "code": 7503092011,
        "district_code": 750309,
        "regency_code": 7503,
        "province_code": 75,
        "name": "Muara Bone",
        "postal_code": "96571",
        "latitude": 0.3931091658611572,
        "longitude": 123.47593984313356
    },
    {
        "code": 7503092012,
        "district_code": 750309,
        "regency_code": 7503,
        "province_code": 75,
        "name": "Cendana Putih",
        "postal_code": "96571",
        "latitude": 0.35134384674682123,
        "longitude": 123.42458587213491
    },
    {
        "code": 7503092013,
        "district_code": 750309,
        "regency_code": 7503,
        "province_code": 75,
        "name": "Waluhu",
        "postal_code": "96571",
        "latitude": 0.3530705444131805,
        "longitude": 123.39516035793456
    },
    {
        "code": 7503092014,
        "district_code": 750309,
        "regency_code": 7503,
        "province_code": 75,
        "name": "Permata",
        "postal_code": "96571",
        "latitude": 0.360175142381395,
        "longitude": 123.4529124690311
    },
    {
        "code": 7503102001,
        "district_code": 750310,
        "regency_code": 7503,
        "province_code": 75,
        "name": "Inomata",
        "postal_code": "96572",
        "latitude": 0.34386498840565277,
        "longitude": 123.3323972170745
    },
    {
        "code": 7503102003,
        "district_code": 750310,
        "regency_code": 7503,
        "province_code": 75,
        "name": "Tumbulilato",
        "postal_code": "96572",
        "latitude": 0.31091169747639863,
        "longitude": 123.34548746583134
    },
    {
        "code": 7503102004,
        "district_code": 750310,
        "regency_code": 7503,
        "province_code": 75,
        "name": "Mootayu",
        "postal_code": "96572",
        "latitude": 0.34815038036466656,
        "longitude": 123.36014230140503
    },
    {
        "code": 7503102006,
        "district_code": 750310,
        "regency_code": 7503,
        "province_code": 75,
        "name": "Mootinelo",
        "postal_code": "96572",
        "latitude": 0.3106965438403041,
        "longitude": 123.33710054784748
    },
    {
        "code": 7503102009,
        "district_code": 750310,
        "regency_code": 7503,
        "province_code": 75,
        "name": "Pelita Jaya",
        "postal_code": "96572",
        "latitude": 0.33478050004221993,
        "longitude": 123.32174499052238
    },
    {
        "code": 7503102010,
        "district_code": 750310,
        "regency_code": 7503,
        "province_code": 75,
        "name": "Moopiya",
        "postal_code": "96572",
        "latitude": 0.3115674892455972,
        "longitude": 123.34064040422328
    },
    {
        "code": 7503102011,
        "district_code": 750310,
        "regency_code": 7503,
        "province_code": 75,
        "name": "Alo",
        "postal_code": "96572",
        "latitude": 0.37737538916085284,
        "longitude": 123.35490678424743
    },
    {
        "code": 7503102012,
        "district_code": 750310,
        "regency_code": 7503,
        "province_code": 75,
        "name": "Laut Biru",
        "postal_code": "96572",
        "latitude": 0.34423458886182945,
        "longitude": 123.33796574310621
    },
    {
        "code": 7503102014,
        "district_code": 750310,
        "regency_code": 7503,
        "province_code": 75,
        "name": "Bunga",
        "postal_code": "96572",
        "latitude": 0.3641022348613324,
        "longitude": 123.34453274248303
    },
    {
        "code": 7503102015,
        "district_code": 750310,
        "regency_code": 7503,
        "province_code": 75,
        "name": "Mootawa",
        "postal_code": "96572",
        "latitude": 0.3585650551430151,
        "longitude": 123.37315648771268
    },
    {
        "code": 7503112001,
        "district_code": 750311,
        "regency_code": 7503,
        "province_code": 75,
        "name": "Tulabolo",
        "postal_code": "96565",
        "latitude": 0.4881712951875928,
        "longitude": 123.27748478407585
    },
    {
        "code": 7503112003,
        "district_code": 750311,
        "regency_code": 7503,
        "province_code": 75,
        "name": "Dumbaya Bulan",
        "postal_code": "96565",
        "latitude": 0.5474508355911282,
        "longitude": 123.22951597454175
    },
    {
        "code": 7503112004,
        "district_code": 750311,
        "regency_code": 7503,
        "province_code": 75,
        "name": "Tulabolo Timur",
        "postal_code": "96565",
        "latitude": 0.47292101190787117,
        "longitude": 123.31846645831523
    },
    {
        "code": 7503112005,
        "district_code": 750311,
        "regency_code": 7503,
        "province_code": 75,
        "name": "Tilangobula",
        "postal_code": "96565",
        "latitude": 0.539712276862402,
        "longitude": 123.24472069660301
    },
    {
        "code": 7503112007,
        "district_code": 750311,
        "regency_code": 7503,
        "province_code": 75,
        "name": "Poduwoma",
        "postal_code": "96565",
        "latitude": 0.5892409240152435,
        "longitude": 123.30830909714906
    },
    {
        "code": 7503112008,
        "district_code": 750311,
        "regency_code": 7503,
        "province_code": 75,
        "name": "Panggulo",
        "postal_code": "96565",
        "latitude": 0.512697415028757,
        "longitude": 123.21797478609268
    },
    {
        "code": 7503112009,
        "district_code": 750311,
        "regency_code": 7503,
        "province_code": 75,
        "name": "Tulabolo Barat",
        "postal_code": "96565",
        "latitude": 0.47902329614836414,
        "longitude": 123.23672072693255
    },
    {
        "code": 7503112010,
        "district_code": 750311,
        "regency_code": 7503,
        "province_code": 75,
        "name": "Pangi",
        "postal_code": "96565",
        "latitude": 0.5181370333882258,
        "longitude": 123.24858572334017
    },
    {
        "code": 7503112011,
        "district_code": 750311,
        "regency_code": 7503,
        "province_code": 75,
        "name": "Tinemba",
        "postal_code": "96565",
        "latitude": 0.5486346912260921,
        "longitude": 123.22072176762374
    },
    {
        "code": 7503122001,
        "district_code": 750312,
        "regency_code": 7503,
        "province_code": 75,
        "name": "Bulontala",
        "postal_code": "96563",
        "latitude": 0.5144086987363713,
        "longitude": 123.12740375531732
    },
    {
        "code": 7503122002,
        "district_code": 750312,
        "regency_code": 7503,
        "province_code": 75,
        "name": "Libungo",
        "postal_code": "96563",
        "latitude": 0.511688898330572,
        "longitude": 123.15853685096775
    },
    {
        "code": 7503122003,
        "district_code": 750312,
        "regency_code": 7503,
        "province_code": 75,
        "name": "Molintogupo",
        "postal_code": "96563",
        "latitude": 0.5010772312301446,
        "longitude": 123.17155884286122
    },
    {
        "code": 7503122004,
        "district_code": 750312,
        "regency_code": 7503,
        "province_code": 75,
        "name": "Bonedaa",
        "postal_code": "96563",
        "latitude": 0.4913528349179711,
        "longitude": 123.18725951471393
    },
    {
        "code": 7503122005,
        "district_code": 750312,
        "regency_code": 7503,
        "province_code": 75,
        "name": "Bondawuna",
        "postal_code": "96563",
        "latitude": 0.4873745273499557,
        "longitude": 123.20754978660489
    },
    {
        "code": 7503122006,
        "district_code": 750312,
        "regency_code": 7503,
        "province_code": 75,
        "name": "Bulontala Timur",
        "postal_code": "96563",
        "latitude": 0.5044523255759523,
        "longitude": 123.13765176848624
    },
    {
        "code": 7503122007,
        "district_code": 750312,
        "regency_code": 7503,
        "province_code": 75,
        "name": "Pancuran",
        "postal_code": "96563",
        "latitude": 0.5127688491207323,
        "longitude": 123.14893009043979
    },
    {
        "code": 7503122008,
        "district_code": 750312,
        "regency_code": 7503,
        "province_code": 75,
        "name": "Bondaraya",
        "postal_code": "96563",
        "latitude": 0.5187118164643565,
        "longitude": 123.1854524135545
    },
    {
        "code": 7503132001,
        "district_code": 750313,
        "regency_code": 7503,
        "province_code": 75,
        "name": "Lompotoo",
        "postal_code": "96564",
        "latitude": 0.5211144010124925,
        "longitude": 123.19832051896425
    },
    {
        "code": 7503132002,
        "district_code": 750313,
        "regency_code": 7503,
        "province_code": 75,
        "name": "Lombongo",
        "postal_code": "96564",
        "latitude": 0.5495495211721634,
        "longitude": 123.17727389259682
    },
    {
        "code": 7503132003,
        "district_code": 750313,
        "regency_code": 7503,
        "province_code": 75,
        "name": "Duano",
        "postal_code": "96564",
        "latitude": 0.5410528826372801,
        "longitude": 123.15939410205459
    },
    {
        "code": 7503132004,
        "district_code": 750313,
        "regency_code": 7503,
        "province_code": 75,
        "name": "Tolomato",
        "postal_code": "96564",
        "latitude": 0.5453942906006292,
        "longitude": 123.19423595096302
    },
    {
        "code": 7503132005,
        "district_code": 750313,
        "regency_code": 7503,
        "province_code": 75,
        "name": "Alale",
        "postal_code": "96564",
        "latitude": 0.5323257696047015,
        "longitude": 123.16704531224806
    },
    {
        "code": 7503132006,
        "district_code": 750313,
        "regency_code": 7503,
        "province_code": 75,
        "name": "Tapadaa",
        "postal_code": "96564",
        "latitude": 0.546900652859653,
        "longitude": 123.21075346711956
    },
    {
        "code": 7503142001,
        "district_code": 750314,
        "regency_code": 7503,
        "province_code": 75,
        "name": "Mongiilo",
        "postal_code": "96543",
        "latitude": 0.6425651289610947,
        "longitude": 123.14398304153683
    },
    {
        "code": 7503142002,
        "district_code": 750314,
        "regency_code": 7503,
        "province_code": 75,
        "name": "Owata",
        "postal_code": "96543",
        "latitude": 0.6746803778834762,
        "longitude": 123.1154826797684
    },
    {
        "code": 7503142003,
        "district_code": 750314,
        "regency_code": 7503,
        "province_code": 75,
        "name": "Mongiilo Utara",
        "postal_code": "96543",
        "latitude": 0.7358942330401778,
        "longitude": 123.13304882407846
    },
    {
        "code": 7503142004,
        "district_code": 750314,
        "regency_code": 7503,
        "province_code": 75,
        "name": "Pilolaheya",
        "postal_code": "96543",
        "latitude": 0.6456274488565698,
        "longitude": 123.16986227443029
    },
    {
        "code": 7503142005,
        "district_code": 750314,
        "regency_code": 7503,
        "province_code": 75,
        "name": "Ilomata",
        "postal_code": "96543",
        "latitude": 0.7122645518027402,
        "longitude": 123.22227455402401
    },
    {
        "code": 7503142006,
        "district_code": 750314,
        "regency_code": 7503,
        "province_code": 75,
        "name": "Suka Makmur",
        "postal_code": "96543",
        "latitude": 0.6343201374806039,
        "longitude": 123.24011605759144
    },
    {
        "code": 7503152001,
        "district_code": 750315,
        "regency_code": 7503,
        "province_code": 75,
        "name": "Ayula Selatan",
        "postal_code": "96541",
        "latitude": 0.5938908594853275,
        "longitude": 123.0684895182534
    },
    {
        "code": 7503152002,
        "district_code": 750315,
        "regency_code": 7503,
        "province_code": 75,
        "name": "Huntu Utara",
        "postal_code": "96541",
        "latitude": 0.5881127126547905,
        "longitude": 123.09219112613714
    },
    {
        "code": 7503152003,
        "district_code": 750315,
        "regency_code": 7503,
        "province_code": 75,
        "name": "Ayula Utara",
        "postal_code": "96541",
        "latitude": 0.5971801277972325,
        "longitude": 123.0706953078257
    },
    {
        "code": 7503152004,
        "district_code": 750315,
        "regency_code": 7503,
        "province_code": 75,
        "name": "Huntu Selatan",
        "postal_code": "96541",
        "latitude": 0.584201479724551,
        "longitude": 123.0850829748111
    },
    {
        "code": 7503152006,
        "district_code": 750315,
        "regency_code": 7503,
        "province_code": 75,
        "name": "Ayula Tilango",
        "postal_code": "96541",
        "latitude": 0.5905365602249771,
        "longitude": 123.0657178358766
    },
    {
        "code": 7503152007,
        "district_code": 750315,
        "regency_code": 7503,
        "province_code": 75,
        "name": "Ayula Timur",
        "postal_code": "96541",
        "latitude": 0.5985620885380727,
        "longitude": 123.07650372089465
    },
    {
        "code": 7503152008,
        "district_code": 750315,
        "regency_code": 7503,
        "province_code": 75,
        "name": "Lamahu",
        "postal_code": "96541",
        "latitude": 0.588294113574034,
        "longitude": 123.07712141726711
    },
    {
        "code": 7503152009,
        "district_code": 750315,
        "regency_code": 7503,
        "province_code": 75,
        "name": "Tinelo Ayula",
        "postal_code": "96541",
        "latitude": 0.6006516391446458,
        "longitude": 123.07267290007749
    },
    {
        "code": 7503152010,
        "district_code": 750315,
        "regency_code": 7503,
        "province_code": 75,
        "name": "Sejahtera",
        "postal_code": "96541",
        "latitude": 0.589496790579883,
        "longitude": 123.07173275585336
    },
    {
        "code": 7503152011,
        "district_code": 750315,
        "regency_code": 7503,
        "province_code": 75,
        "name": "Huntu Barat",
        "postal_code": "96541",
        "latitude": 0.5936516532314416,
        "longitude": 123.08133466112841
    },
    {
        "code": 7503162001,
        "district_code": 750316,
        "regency_code": 7503,
        "province_code": 75,
        "name": "Bulotalangi",
        "postal_code": "96542",
        "latitude": 0.6032771999903841,
        "longitude": 123.10237826664671
    },
    {
        "code": 7503162002,
        "district_code": 750316,
        "regency_code": 7503,
        "province_code": 75,
        "name": "Toluwaya",
        "postal_code": "96542",
        "latitude": 0.5994680437601835,
        "longitude": 123.08476992701007
    },
    {
        "code": 7503162003,
        "district_code": 750316,
        "regency_code": 7503,
        "province_code": 75,
        "name": "Popodu",
        "postal_code": "96542",
        "latitude": 0.6049097201244922,
        "longitude": 123.08344552194345
    },
    {
        "code": 7503162004,
        "district_code": 750316,
        "regency_code": 7503,
        "province_code": 75,
        "name": "Bulotalangi Timur",
        "postal_code": "96542",
        "latitude": 0.6081635049767032,
        "longitude": 123.11812807699468
    },
    {
        "code": 7503162005,
        "district_code": 750316,
        "regency_code": 7503,
        "province_code": 75,
        "name": "Bulotalangi Barat",
        "postal_code": "96542",
        "latitude": 0.6035883452465474,
        "longitude": 123.0962852614384
    },
    {
        "code": 7503172001,
        "district_code": 750317,
        "regency_code": 7503,
        "province_code": 75,
        "name": "Mamungaa",
        "postal_code": "96574",
        "latitude": 0.3711232010406825,
        "longitude": 123.31098764035767
    },
    {
        "code": 7503172002,
        "district_code": 750317,
        "regency_code": 7503,
        "province_code": 75,
        "name": "Kaidundu Barat",
        "postal_code": "96574",
        "latitude": 0.36719029615996945,
        "longitude": 123.27701117780849
    },
    {
        "code": 7503172003,
        "district_code": 750317,
        "regency_code": 7503,
        "province_code": 75,
        "name": "Mopuya",
        "postal_code": "96574",
        "latitude": 0.3255131432540237,
        "longitude": 123.27871724634032
    },
    {
        "code": 7503172004,
        "district_code": 750317,
        "regency_code": 7503,
        "province_code": 75,
        "name": "Kaidundu",
        "postal_code": "96574",
        "latitude": 0.38159449900764064,
        "longitude": 123.29049248910961
    },
    {
        "code": 7503172005,
        "district_code": 750317,
        "regency_code": 7503,
        "province_code": 75,
        "name": "Bukit Hijau",
        "postal_code": "96574",
        "latitude": 0.3544906414005392,
        "longitude": 123.24901026683065
    },
    {
        "code": 7503172006,
        "district_code": 750317,
        "regency_code": 7503,
        "province_code": 75,
        "name": "Mamungaa Timur",
        "postal_code": "96574",
        "latitude": 0.3687117207277212,
        "longitude": 123.32317227276526
    },
    {
        "code": 7503172007,
        "district_code": 750317,
        "regency_code": 7503,
        "province_code": 75,
        "name": "Dunggilata",
        "postal_code": "96574",
        "latitude": 0.3799573956457288,
        "longitude": 123.30091741274182
    },
    {
        "code": 7503172008,
        "district_code": 750317,
        "regency_code": 7503,
        "province_code": 75,
        "name": "Pinomotiga",
        "postal_code": "96574",
        "latitude": 0.36739448244853945,
        "longitude": 123.2690676795447
    },
    {
        "code": 7503172009,
        "district_code": 750317,
        "regency_code": 7503,
        "province_code": 75,
        "name": "Patoa",
        "postal_code": "96574",
        "latitude": 0.32488283524014927,
        "longitude": 123.28473801341146
    },
    {
        "code": 7503182001,
        "district_code": 750318,
        "regency_code": 7503,
        "province_code": 75,
        "name": "Pinogu",
        "postal_code": "96561",
        "latitude": 0.5400854493649064,
        "longitude": 123.4514947326243
    },
    {
        "code": 7503182002,
        "district_code": 750318,
        "regency_code": 7503,
        "province_code": 75,
        "name": "Bangio",
        "postal_code": "96561",
        "latitude": 0.5387773003097039,
        "longitude": 123.38239787284924
    },
    {
        "code": 7503182003,
        "district_code": 750318,
        "regency_code": 7503,
        "province_code": 75,
        "name": "Dataran Hijau",
        "postal_code": "96561",
        "latitude": 0.5090891513787735,
        "longitude": 123.48847810352633
    },
    {
        "code": 7503182004,
        "district_code": 750318,
        "regency_code": 7503,
        "province_code": 75,
        "name": "Pinogu Permai",
        "postal_code": "96561",
        "latitude": 0.5121633300983526,
        "longitude": 123.42694975659279
    },
    {
        "code": 7503182005,
        "district_code": 750318,
        "regency_code": 7503,
        "province_code": 75,
        "name": "Tilonggibila",
        "postal_code": "96561",
        "latitude": 0.44152435796593226,
        "longitude": 123.42452699410903
    },
    {
        "code": 7504012003,
        "district_code": 750401,
        "regency_code": 7504,
        "province_code": 75,
        "name": "Torosiaje Jaya",
        "postal_code": "96466",
        "latitude": 0.48038363963659236,
        "longitude": 121.4427312865012
    },
    {
        "code": 7504012004,
        "district_code": 750401,
        "regency_code": 7504,
        "province_code": 75,
        "name": "Popayato",
        "postal_code": "96466",
        "latitude": 0.49514623577139205,
        "longitude": 121.48470315629127
    },
    {
        "code": 7504012008,
        "district_code": 750401,
        "regency_code": 7504,
        "province_code": 75,
        "name": "Telaga",
        "postal_code": "96466",
        "latitude": 0.5152891315586967,
        "longitude": 121.44621907716584
    },
    {
        "code": 7504012012,
        "district_code": 750401,
        "regency_code": 7504,
        "province_code": 75,
        "name": "Torosiaje",
        "postal_code": "96466",
        "latitude": 0.4455697376569596,
        "longitude": 121.44076994571115
    },
    {
        "code": 7504012015,
        "district_code": 750401,
        "regency_code": 7504,
        "province_code": 75,
        "name": "Bukit Tingki",
        "postal_code": "96466",
        "latitude": 0.5250670289163155,
        "longitude": 121.46439533301292
    },
    {
        "code": 7504012016,
        "district_code": 750401,
        "regency_code": 7504,
        "province_code": 75,
        "name": "Tunas Harapan",
        "postal_code": "96466",
        "latitude": 0.5666559078949156,
        "longitude": 121.45456515978
    },
    {
        "code": 7504012017,
        "district_code": 750401,
        "regency_code": 7504,
        "province_code": 75,
        "name": "Trikora",
        "postal_code": "96466",
        "latitude": 0.49027195384389793,
        "longitude": 121.46754679528452
    },
    {
        "code": 7504012018,
        "district_code": 750401,
        "regency_code": 7504,
        "province_code": 75,
        "name": "Dambalo",
        "postal_code": "96466",
        "latitude": 0.5628871811950055,
        "longitude": 121.43442679625933
    },
    {
        "code": 7504012019,
        "district_code": 750401,
        "regency_code": 7504,
        "province_code": 75,
        "name": "Telaga Biru",
        "postal_code": "96466",
        "latitude": 0.4979695646434126,
        "longitude": 121.45463272027352
    },
    {
        "code": 7504012020,
        "district_code": 750401,
        "regency_code": 7504,
        "province_code": 75,
        "name": "Bumi Bahari",
        "postal_code": "96466",
        "latitude": 0.49349285348083494,
        "longitude": 121.44853174555186
    },
    {
        "code": 7504022001,
        "district_code": 750402,
        "regency_code": 7504,
        "province_code": 75,
        "name": "Lemito",
        "postal_code": "96468",
        "latitude": 0.5411705858837157,
        "longitude": 121.56496276052506
    },
    {
        "code": 7504022002,
        "district_code": 750402,
        "regency_code": 7504,
        "province_code": 75,
        "name": "Wonggarasi Barat",
        "postal_code": "96468",
        "latitude": 0.5905472340808303,
        "longitude": 121.58651405692633
    },
    {
        "code": 7504022004,
        "district_code": 750402,
        "regency_code": 7504,
        "province_code": 75,
        "name": "Lomuli",
        "postal_code": "96468",
        "latitude": 0.6930435848506787,
        "longitude": 121.5375610033044
    },
    {
        "code": 7504022008,
        "district_code": 750402,
        "regency_code": 7504,
        "province_code": 75,
        "name": "Lemito Utara",
        "postal_code": "96468",
        "latitude": 0.591238889967478,
        "longitude": 121.57068222028302
    },
    {
        "code": 7504022009,
        "district_code": 750402,
        "regency_code": 7504,
        "province_code": 75,
        "name": "Kenari",
        "postal_code": "96468",
        "latitude": 0.6314979038447678,
        "longitude": 121.56593586010456
    },
    {
        "code": 7504022010,
        "district_code": 750402,
        "regency_code": 7504,
        "province_code": 75,
        "name": "Wonggarasi Tengah",
        "postal_code": "96468",
        "latitude": 0.7392738280386925,
        "longitude": 121.59042140062327
    },
    {
        "code": 7504022011,
        "district_code": 750402,
        "regency_code": 7504,
        "province_code": 75,
        "name": "Suka Damai",
        "postal_code": "96468",
        "latitude": 0.6015278908199788,
        "longitude": 121.63945016607545
    },
    {
        "code": 7504022012,
        "district_code": 750402,
        "regency_code": 7504,
        "province_code": 75,
        "name": "Babalonge",
        "postal_code": "96468",
        "latitude": 0.5613918205692896,
        "longitude": 121.52860075230623
    },
    {
        "code": 7504032001,
        "district_code": 750403,
        "regency_code": 7504,
        "province_code": 75,
        "name": "Motolohu",
        "postal_code": "96469",
        "latitude": 0.5291770081137178,
        "longitude": 121.81023951750343
    },
    {
        "code": 7504032002,
        "district_code": 750403,
        "regency_code": 7504,
        "province_code": 75,
        "name": "Imbodu",
        "postal_code": "96469",
        "latitude": 0.4620880815440357,
        "longitude": 121.82888889521442
    },
    {
        "code": 7504032003,
        "district_code": 750403,
        "regency_code": 7504,
        "province_code": 75,
        "name": "Manunggal Karya",
        "postal_code": "96469",
        "latitude": 0.5416834966581192,
        "longitude": 121.81256666885183
    },
    {
        "code": 7504032004,
        "district_code": 750403,
        "regency_code": 7504,
        "province_code": 75,
        "name": "Sidorukun",
        "postal_code": "96469",
        "latitude": 0.5650477928172224,
        "longitude": 121.74148327585773
    },
    {
        "code": 7504032008,
        "district_code": 750403,
        "regency_code": 7504,
        "province_code": 75,
        "name": "Sarimurni",
        "postal_code": "96469",
        "latitude": 0.5619593765842293,
        "longitude": 121.7796292252761
    },
    {
        "code": 7504032009,
        "district_code": 750403,
        "regency_code": 7504,
        "province_code": 75,
        "name": "Huyula",
        "postal_code": "96469",
        "latitude": 0.5062167061682408,
        "longitude": 121.8081933549757
    },
    {
        "code": 7504032012,
        "district_code": 750403,
        "regency_code": 7504,
        "province_code": 75,
        "name": "Omayuwa",
        "postal_code": "96469",
        "latitude": 0.5200367183753714,
        "longitude": 121.83188539369816
    },
    {
        "code": 7504032013,
        "district_code": 750403,
        "regency_code": 7504,
        "province_code": 75,
        "name": "Ayula",
        "postal_code": "96469",
        "latitude": 0.5510609773600109,
        "longitude": 121.83006280449368
    },
    {
        "code": 7504032014,
        "district_code": 750403,
        "regency_code": 7504,
        "province_code": 75,
        "name": "Patuhu",
        "postal_code": "96469",
        "latitude": 0.5105192871072303,
        "longitude": 121.7775821813594
    },
    {
        "code": 7504032015,
        "district_code": 750403,
        "regency_code": 7504,
        "province_code": 75,
        "name": "Banuroja",
        "postal_code": "96469",
        "latitude": 0.5450913782357731,
        "longitude": 121.7970604063708
    },
    {
        "code": 7504032016,
        "district_code": 750403,
        "regency_code": 7504,
        "province_code": 75,
        "name": "Pelambane",
        "postal_code": "96469",
        "latitude": 0.5232532775602176,
        "longitude": 121.75369023102168
    },
    {
        "code": 7504032017,
        "district_code": 750403,
        "regency_code": 7504,
        "province_code": 75,
        "name": "Motolohu Selatan",
        "postal_code": "96469",
        "latitude": 0.5192158721094611,
        "longitude": 121.80900336866713
    },
    {
        "code": 7504032018,
        "district_code": 750403,
        "regency_code": 7504,
        "province_code": 75,
        "name": "Sidowonge",
        "postal_code": "96469",
        "latitude": 0.46612604846843825,
        "longitude": 121.78743806083035
    },
    {
        "code": 7504042003,
        "district_code": 750404,
        "regency_code": 7504,
        "province_code": 75,
        "name": "Marisa Selatan",
        "postal_code": "96365",
        "latitude": 0.46089830497325207,
        "longitude": 121.93866809949101
    },
    {
        "code": 7504042004,
        "district_code": 750404,
        "regency_code": 7504,
        "province_code": 75,
        "name": "Marisa Utara",
        "postal_code": "96365",
        "latitude": 0.4705128211276908,
        "longitude": 121.94042419875841
    },
    {
        "code": 7504042007,
        "district_code": 750404,
        "regency_code": 7504,
        "province_code": 75,
        "name": "Teratai",
        "postal_code": "96365",
        "latitude": 0.47891479333510995,
        "longitude": 121.96892144173887
    },
    {
        "code": 7504042008,
        "district_code": 750404,
        "regency_code": 7504,
        "province_code": 75,
        "name": "Pohuwato",
        "postal_code": "96365",
        "latitude": 0.4503540097776151,
        "longitude": 121.93725071288492
    },
    {
        "code": 7504042015,
        "district_code": 750404,
        "regency_code": 7504,
        "province_code": 75,
        "name": "Botubilotahu",
        "postal_code": "96365",
        "latitude": 0.48604116312016793,
        "longitude": 121.94410968558724
    },
    {
        "code": 7504042016,
        "district_code": 750404,
        "regency_code": 7504,
        "province_code": 75,
        "name": "Palopo",
        "postal_code": "96365",
        "latitude": 0.4638282523305334,
        "longitude": 121.9661764088638
    },
    {
        "code": 7504042017,
        "district_code": 750404,
        "regency_code": 7504,
        "province_code": 75,
        "name": "Pohuwato Timur",
        "postal_code": "96365",
        "latitude": 0.4521422614049626,
        "longitude": 121.95283205738093
    },
    {
        "code": 7504042018,
        "district_code": 750404,
        "regency_code": 7504,
        "province_code": 75,
        "name": "Bulangita",
        "postal_code": "96365",
        "latitude": 0.49234920620432215,
        "longitude": 121.96843691483207
    },
    {
        "code": 7504051001,
        "district_code": 750405,
        "regency_code": 7504,
        "province_code": 75,
        "name": "Libuo",
        "postal_code": "96362",
        "latitude": 0.49580004317741366,
        "longitude": 122.02538224820384
    },
    {
        "code": 7504051002,
        "district_code": 750405,
        "regency_code": 7504,
        "province_code": 75,
        "name": "Pentadu",
        "postal_code": "96362",
        "latitude": 0.4831805836363225,
        "longitude": 122.07124408001856
    },
    {
        "code": 7504051003,
        "district_code": 750405,
        "regency_code": 7504,
        "province_code": 75,
        "name": "Siduan",
        "postal_code": "96362",
        "latitude": 0.4919002652445696,
        "longitude": 122.068249450262
    },
    {
        "code": 7504052004,
        "district_code": 750405,
        "regency_code": 7504,
        "province_code": 75,
        "name": "Bunuyo",
        "postal_code": "96362",
        "latitude": 0.49513183158227597,
        "longitude": 122.09738243272285
    },
    {
        "code": 7504052005,
        "district_code": 750405,
        "regency_code": 7504,
        "province_code": 75,
        "name": "Sipayo",
        "postal_code": "96362",
        "latitude": 0.5011640428112503,
        "longitude": 122.05354342557631
    },
    {
        "code": 7504052006,
        "district_code": 750405,
        "regency_code": 7504,
        "province_code": 75,
        "name": "Soginti",
        "postal_code": "96362",
        "latitude": 0.5138503588273914,
        "longitude": 122.06123061632147
    },
    {
        "code": 7504052010,
        "district_code": 750405,
        "regency_code": 7504,
        "province_code": 75,
        "name": "Bumbulan",
        "postal_code": "96362",
        "latitude": 0.4840615322590919,
        "longitude": 122.0947632028682
    },
    {
        "code": 7504052012,
        "district_code": 750405,
        "regency_code": 7504,
        "province_code": 75,
        "name": "Maleo",
        "postal_code": "96362",
        "latitude": 0.4718871852573184,
        "longitude": 121.99663083654647
    },
    {
        "code": 7504052013,
        "district_code": 750405,
        "regency_code": 7504,
        "province_code": 75,
        "name": "Molamahu",
        "postal_code": "96362",
        "latitude": 0.5119485524630847,
        "longitude": 122.10730770570676
    },
    {
        "code": 7504052014,
        "district_code": 750405,
        "regency_code": 7504,
        "province_code": 75,
        "name": "Buhu Jaya",
        "postal_code": "96362",
        "latitude": 0.48574626871650567,
        "longitude": 122.05357206199284
    },
    {
        "code": 7504052015,
        "district_code": 750405,
        "regency_code": 7504,
        "province_code": 75,
        "name": "Kemiri",
        "postal_code": "96362",
        "latitude": 0.5113402852318842,
        "longitude": 122.08666197997775
    },
    {
        "code": 7504062001,
        "district_code": 750406,
        "regency_code": 7504,
        "province_code": 75,
        "name": "Iloheluma",
        "postal_code": "96366",
        "latitude": 0.6044786412719668,
        "longitude": 121.87995470259287
    },
    {
        "code": 7504062002,
        "district_code": 750406,
        "regency_code": 7504,
        "province_code": 75,
        "name": "Balayo",
        "postal_code": "96366",
        "latitude": 0.5635769596475626,
        "longitude": 121.92502895147959
    },
    {
        "code": 7504062003,
        "district_code": 750406,
        "regency_code": 7504,
        "province_code": 75,
        "name": "Suka Makmur",
        "postal_code": "96366",
        "latitude": 0.5281560747502017,
        "longitude": 121.85102364116317
    },
    {
        "code": 7504062004,
        "district_code": 750406,
        "regency_code": 7504,
        "province_code": 75,
        "name": "Manawa",
        "postal_code": "96366",
        "latitude": 0.47169843561082314,
        "longitude": 121.8681455520479
    },
    {
        "code": 7504062005,
        "district_code": 750406,
        "regency_code": 7504,
        "province_code": 75,
        "name": "Dulomo",
        "postal_code": "96366",
        "latitude": 0.5113189697821462,
        "longitude": 121.86452147121065
    },
    {
        "code": 7504062006,
        "district_code": 750406,
        "regency_code": 7504,
        "province_code": 75,
        "name": "Dudepo",
        "postal_code": "96366",
        "latitude": 0.6349367404818279,
        "longitude": 121.93019415956724
    },
    {
        "code": 7504072001,
        "district_code": 750407,
        "regency_code": 7504,
        "province_code": 75,
        "name": "Pancakarsa I",
        "postal_code": "96464",
        "latitude": 0.5985452175951069,
        "longitude": 121.80401679316363
    },
    {
        "code": 7504072002,
        "district_code": 750407,
        "regency_code": 7504,
        "province_code": 75,
        "name": "Pancakarsa II",
        "postal_code": "96464",
        "latitude": 0.6330083745957141,
        "longitude": 121.81613631175597
    },
    {
        "code": 7504072003,
        "district_code": 750407,
        "regency_code": 7504,
        "province_code": 75,
        "name": "Makarti Jaya",
        "postal_code": "96464",
        "latitude": 0.8266026761263704,
        "longitude": 121.82120074387262
    },
    {
        "code": 7504072004,
        "district_code": 750407,
        "regency_code": 7504,
        "province_code": 75,
        "name": "Kalimas",
        "postal_code": "96464",
        "latitude": 0.6504508167067131,
        "longitude": 121.87307710514553
    },
    {
        "code": 7504072005,
        "district_code": 750407,
        "regency_code": 7504,
        "province_code": 75,
        "name": "Malango",
        "postal_code": "96464",
        "latitude": 0.7497246949889201,
        "longitude": 121.76938663687471
    },
    {
        "code": 7504072006,
        "district_code": 750407,
        "regency_code": 7504,
        "province_code": 75,
        "name": "Puncak Jaya",
        "postal_code": "96464",
        "latitude": 0.8118254326028043,
        "longitude": 121.89374962022883
    },
    {
        "code": 7504072007,
        "district_code": 750407,
        "regency_code": 7504,
        "province_code": 75,
        "name": "Tirto Asri",
        "postal_code": "96464",
        "latitude": 0.6245412966654482,
        "longitude": 121.87040652822823
    },
    {
        "code": 7504082001,
        "district_code": 750408,
        "regency_code": 7504,
        "province_code": 75,
        "name": "Popaya",
        "postal_code": "96361",
        "latitude": 0.5376241543951376,
        "longitude": 122.06321567076594
    },
    {
        "code": 7504082002,
        "district_code": 750408,
        "regency_code": 7504,
        "province_code": 75,
        "name": "Karya Baru",
        "postal_code": "96361",
        "latitude": 0.7172248252018455,
        "longitude": 122.07640270415231
    },
    {
        "code": 7504082003,
        "district_code": 750408,
        "regency_code": 7504,
        "province_code": 75,
        "name": "Karangetan",
        "postal_code": "96361",
        "latitude": 0.5389876339462558,
        "longitude": 122.11619139105659
    },
    {
        "code": 7504082004,
        "district_code": 750408,
        "regency_code": 7504,
        "province_code": 75,
        "name": "Padengo",
        "postal_code": "96361",
        "latitude": 0.5558049130808782,
        "longitude": 122.11361067275884
    },
    {
        "code": 7504082005,
        "district_code": 750408,
        "regency_code": 7504,
        "province_code": 75,
        "name": "Hutamoputi",
        "postal_code": "96361",
        "latitude": 0.5285600667359116,
        "longitude": 122.10707643906116
    },
    {
        "code": 7504092001,
        "district_code": 750409,
        "regency_code": 7504,
        "province_code": 75,
        "name": "Hulawa",
        "postal_code": "96363",
        "latitude": 0.7159980774156492,
        "longitude": 121.9920032248375
    },
    {
        "code": 7504092002,
        "district_code": 750409,
        "regency_code": 7504,
        "province_code": 75,
        "name": "Karya Indah",
        "postal_code": "96363",
        "latitude": 0.5198806010754747,
        "longitude": 121.9442468501858
    },
    {
        "code": 7504092003,
        "district_code": 750409,
        "regency_code": 7504,
        "province_code": 75,
        "name": "Taluduyunu",
        "postal_code": "96363",
        "latitude": 0.5027773432528815,
        "longitude": 121.97088519171723
    },
    {
        "code": 7504092004,
        "district_code": 750409,
        "regency_code": 7504,
        "province_code": 75,
        "name": "Buntulia Utara",
        "postal_code": "96363",
        "latitude": 0.5008082244216568,
        "longitude": 121.92740151526523
    },
    {
        "code": 7504092005,
        "district_code": 750409,
        "regency_code": 7504,
        "province_code": 75,
        "name": "Buntulia Tengah",
        "postal_code": "96363",
        "latitude": 0.48714486256795586,
        "longitude": 121.93207244080554
    },
    {
        "code": 7504092006,
        "district_code": 750409,
        "regency_code": 7504,
        "province_code": 75,
        "name": "Taluduyunu Utara",
        "postal_code": "96363",
        "latitude": 0.518123859082942,
        "longitude": 121.98278369029298
    },
    {
        "code": 7504092007,
        "district_code": 750409,
        "regency_code": 7504,
        "province_code": 75,
        "name": "Sipatana",
        "postal_code": "96363",
        "latitude": 0.48154903836436824,
        "longitude": 121.93078579079918
    },
    {
        "code": 7504102001,
        "district_code": 750410,
        "regency_code": 7504,
        "province_code": 75,
        "name": "Bulili",
        "postal_code": "96364",
        "latitude": 0.4561706992004689,
        "longitude": 121.91866697842985
    },
    {
        "code": 7504102002,
        "district_code": 750410,
        "regency_code": 7504,
        "province_code": 75,
        "name": "Buntulia Barat",
        "postal_code": "96364",
        "latitude": 0.4723297790799206,
        "longitude": 121.90935690638338
    },
    {
        "code": 7504102003,
        "district_code": 750410,
        "regency_code": 7504,
        "province_code": 75,
        "name": "Buntulia Selatan",
        "postal_code": "96364",
        "latitude": 0.4705287329788139,
        "longitude": 121.92887746896015
    },
    {
        "code": 7504102004,
        "district_code": 750410,
        "regency_code": 7504,
        "province_code": 75,
        "name": "Duhiadaa",
        "postal_code": "96364",
        "latitude": 0.49096404983466685,
        "longitude": 121.91350277152576
    },
    {
        "code": 7504102005,
        "district_code": 750410,
        "regency_code": 7504,
        "province_code": 75,
        "name": "Mekar Jaya",
        "postal_code": "96364",
        "latitude": 0.501595463993751,
        "longitude": 121.89323561390538
    },
    {
        "code": 7504102006,
        "district_code": 750410,
        "regency_code": 7504,
        "province_code": 75,
        "name": "Buntulia Jaya",
        "postal_code": "96364",
        "latitude": 0.47596728379605757,
        "longitude": 121.93053948392175
    },
    {
        "code": 7504102007,
        "district_code": 750410,
        "regency_code": 7504,
        "province_code": 75,
        "name": "Padengo",
        "postal_code": "96364",
        "latitude": 0.4958659107093257,
        "longitude": 121.90286457039282
    },
    {
        "code": 7504102008,
        "district_code": 750410,
        "regency_code": 7504,
        "province_code": 75,
        "name": "Mootilango",
        "postal_code": "96364",
        "latitude": 0.4593407266356523,
        "longitude": 121.88954252714093
    },
    {
        "code": 7504112001,
        "district_code": 750411,
        "regency_code": 7504,
        "province_code": 75,
        "name": "Wanggarasi Timur",
        "postal_code": "96465",
        "latitude": 0.5218499536063244,
        "longitude": 121.68811592879517
    },
    {
        "code": 7504112002,
        "district_code": 750411,
        "regency_code": 7504,
        "province_code": 75,
        "name": "Bukit Harapan",
        "postal_code": "96465",
        "latitude": 0.7408799866822515,
        "longitude": 121.68948799341734
    },
    {
        "code": 7504112003,
        "district_code": 750411,
        "regency_code": 7504,
        "province_code": 75,
        "name": "Bohusami",
        "postal_code": "96465",
        "latitude": 0.617758014913198,
        "longitude": 121.75557605290025
    },
    {
        "code": 7504112004,
        "district_code": 750411,
        "regency_code": 7504,
        "province_code": 75,
        "name": "Lembah Permai",
        "postal_code": "96465",
        "latitude": 0.7812839015207581,
        "longitude": 121.73591485877515
    },
    {
        "code": 7504112005,
        "district_code": 750411,
        "regency_code": 7504,
        "province_code": 75,
        "name": "Limbula",
        "postal_code": "96469",
        "latitude": 0.521023643620645,
        "longitude": 121.72599269609212
    },
    {
        "code": 7504112006,
        "district_code": 750411,
        "regency_code": 7504,
        "province_code": 75,
        "name": "Yipilo",
        "postal_code": "96469",
        "latitude": 0.7340402765705426,
        "longitude": 121.64937801450962
    },
    {
        "code": 7504112007,
        "district_code": 750411,
        "regency_code": 7504,
        "province_code": 75,
        "name": "Tuweya",
        "postal_code": "96469",
        "latitude": 0.7333913381274516,
        "longitude": 121.71897103869375
    },
    {
        "code": 7504122001,
        "district_code": 750412,
        "regency_code": 7504,
        "province_code": 75,
        "name": "Milangodaa",
        "postal_code": "96367",
        "latitude": 0.5330275694570524,
        "longitude": 121.5109858150705
    },
    {
        "code": 7504122002,
        "district_code": 750412,
        "regency_code": 7504,
        "province_code": 75,
        "name": "Londoun",
        "postal_code": "96367",
        "latitude": 0.6944665297102076,
        "longitude": 121.47080942889333
    },
    {
        "code": 7504122003,
        "district_code": 750412,
        "regency_code": 7504,
        "province_code": 75,
        "name": "Marisa",
        "postal_code": "96367",
        "latitude": 0.7019778411809058,
        "longitude": 121.43549984167957
    },
    {
        "code": 7504122004,
        "district_code": 750412,
        "regency_code": 7504,
        "province_code": 75,
        "name": "Tahele",
        "postal_code": "96367",
        "latitude": 0.5363173624950415,
        "longitude": 121.47927941094666
    },
    {
        "code": 7504122005,
        "district_code": 750412,
        "regency_code": 7504,
        "province_code": 75,
        "name": "Bunto",
        "postal_code": "96367",
        "latitude": 0.5011958290772052,
        "longitude": 121.50272628034203
    },
    {
        "code": 7504122006,
        "district_code": 750412,
        "regency_code": 7504,
        "province_code": 75,
        "name": "Maleo",
        "postal_code": "96367",
        "latitude": 0.5186164969951773,
        "longitude": 121.48125160284434
    },
    {
        "code": 7504122007,
        "district_code": 750412,
        "regency_code": 7504,
        "province_code": 75,
        "name": "Kelapa Lima",
        "postal_code": "96367",
        "latitude": 0.711581499477989,
        "longitude": 121.50097862869242
    },
    {
        "code": 7504132001,
        "district_code": 750413,
        "regency_code": 7504,
        "province_code": 75,
        "name": "Dudewulo",
        "postal_code": "96467",
        "latitude": 0.5092220026268602,
        "longitude": 121.4246464772011
    },
    {
        "code": 7504132002,
        "district_code": 750413,
        "regency_code": 7504,
        "province_code": 75,
        "name": "Tunas Jaya",
        "postal_code": "96467",
        "latitude": 0.5429748674842316,
        "longitude": 121.4009739446079
    },
    {
        "code": 7504132003,
        "district_code": 750413,
        "regency_code": 7504,
        "province_code": 75,
        "name": "Padengo",
        "postal_code": "96467",
        "latitude": 0.6795833524914079,
        "longitude": 121.27435853460914
    },
    {
        "code": 7504132004,
        "district_code": 750413,
        "regency_code": 7504,
        "province_code": 75,
        "name": "Molosifat",
        "postal_code": "96467",
        "latitude": 0.48155493808995403,
        "longitude": 121.3553933746433
    },
    {
        "code": 7504132005,
        "district_code": 750413,
        "regency_code": 7504,
        "province_code": 75,
        "name": "Butungale",
        "postal_code": "96467",
        "latitude": 0.7287266899887419,
        "longitude": 121.36224305097242
    },
    {
        "code": 7504132006,
        "district_code": 750413,
        "regency_code": 7504,
        "province_code": 75,
        "name": "Persatuan",
        "postal_code": "96467",
        "latitude": 0.5967822721198928,
        "longitude": 121.31956105217557
    },
    {
        "code": 7504132007,
        "district_code": 750413,
        "regency_code": 7504,
        "province_code": 75,
        "name": "Molosifat Utara",
        "postal_code": "96467",
        "latitude": 0.5362922031328612,
        "longitude": 121.34187659348595
    },
    {
        "code": 7505012003,
        "district_code": 750501,
        "regency_code": 7505,
        "province_code": 75,
        "name": "Imana",
        "postal_code": "96516",
        "latitude": 0.9062115605065711,
        "longitude": 123.0760438691222
    },
    {
        "code": 7505012004,
        "district_code": 750501,
        "regency_code": 7505,
        "province_code": 75,
        "name": "Bintana",
        "postal_code": "96516",
        "latitude": 0.887375689711626,
        "longitude": 123.11738139387205
    },
    {
        "code": 7505012005,
        "district_code": 750501,
        "regency_code": 7505,
        "province_code": 75,
        "name": "Buata",
        "postal_code": "96516",
        "latitude": 0.7994105731808914,
        "longitude": 123.16302222825826
    },
    {
        "code": 7505012006,
        "district_code": 750501,
        "regency_code": 7505,
        "province_code": 75,
        "name": "Pinontoyonga",
        "postal_code": "96516",
        "latitude": 0.8876555889333981,
        "longitude": 123.12375098131666
    },
    {
        "code": 7505012007,
        "district_code": 750501,
        "regency_code": 7505,
        "province_code": 75,
        "name": "Monggupo",
        "postal_code": "96516",
        "latitude": 0.8927185786112907,
        "longitude": 123.1081274987747
    },
    {
        "code": 7505012008,
        "district_code": 750501,
        "regency_code": 7505,
        "province_code": 75,
        "name": "Kotajin",
        "postal_code": "96516",
        "latitude": 0.9013974764489888,
        "longitude": 123.11075240089977
    },
    {
        "code": 7505012011,
        "district_code": 750501,
        "regency_code": 7505,
        "province_code": 75,
        "name": "Ilomata",
        "postal_code": "96516",
        "latitude": 0.8513703668209446,
        "longitude": 123.07934580170856
    },
    {
        "code": 7505012013,
        "district_code": 750501,
        "regency_code": 7505,
        "province_code": 75,
        "name": "Iloheluma",
        "postal_code": "96516",
        "latitude": 0.8862774429602596,
        "longitude": 123.07310165908552
    },
    {
        "code": 7505012014,
        "district_code": 750501,
        "regency_code": 7505,
        "province_code": 75,
        "name": "Wapalo",
        "postal_code": "96516",
        "latitude": 0.8458254302358789,
        "longitude": 123.05524370339153
    },
    {
        "code": 7505012015,
        "district_code": 750501,
        "regency_code": 7505,
        "province_code": 75,
        "name": "Posono",
        "postal_code": "96516",
        "latitude": 0.8313099293733717,
        "longitude": 123.13262130219383
    },
    {
        "code": 7505012016,
        "district_code": 750501,
        "regency_code": 7505,
        "province_code": 75,
        "name": "Sigaso",
        "postal_code": "96516",
        "latitude": 0.8427262187779527,
        "longitude": 123.10493700365801
    },
    {
        "code": 7505012017,
        "district_code": 750501,
        "regency_code": 7505,
        "province_code": 75,
        "name": "Tombulilato",
        "postal_code": "96516",
        "latitude": 0.8054259910390145,
        "longitude": 123.21675629631636
    },
    {
        "code": 7505012018,
        "district_code": 750501,
        "regency_code": 7505,
        "province_code": 75,
        "name": "Kotajin Utara",
        "postal_code": "96516",
        "latitude": 0.9172406976143356,
        "longitude": 123.10798892877563
    },
    {
        "code": 7505012019,
        "district_code": 750501,
        "regency_code": 7505,
        "province_code": 75,
        "name": "Oluhuta",
        "postal_code": "96516",
        "latitude": 0.91380879415028,
        "longitude": 123.10076708377092
    },
    {
        "code": 7505022001,
        "district_code": 750502,
        "regency_code": 7505,
        "province_code": 75,
        "name": "Pontolo",
        "postal_code": "96518",
        "latitude": 0.7813094014539468,
        "longitude": 122.86168549504737
    },
    {
        "code": 7505022002,
        "district_code": 750502,
        "regency_code": 7505,
        "province_code": 75,
        "name": "Molingkapoto",
        "postal_code": "96518",
        "latitude": 0.785827711749818,
        "longitude": 122.87798970361565
    },
    {
        "code": 7505022003,
        "district_code": 750502,
        "regency_code": 7505,
        "province_code": 75,
        "name": "Leboto",
        "postal_code": "96518",
        "latitude": 0.8087888476472508,
        "longitude": 122.88739403667265
    },
    {
        "code": 7505022004,
        "district_code": 750502,
        "regency_code": 7505,
        "province_code": 75,
        "name": "Posso",
        "postal_code": "96518",
        "latitude": 0.8146929456312778,
        "longitude": 122.91635512350989
    },
    {
        "code": 7505022005,
        "district_code": 750502,
        "regency_code": 7505,
        "province_code": 75,
        "name": "Titidu",
        "postal_code": "96518",
        "latitude": 0.8272402140325145,
        "longitude": 122.91933051203111
    },
    {
        "code": 7505022006,
        "district_code": 750502,
        "regency_code": 7505,
        "province_code": 75,
        "name": "Moluo",
        "postal_code": "96518",
        "latitude": 0.8398683699251216,
        "longitude": 122.91389370736316
    },
    {
        "code": 7505022010,
        "district_code": 750502,
        "regency_code": 7505,
        "province_code": 75,
        "name": "Mootinelo",
        "postal_code": "96518",
        "latitude": 0.8005063978470256,
        "longitude": 122.88055713247343
    },
    {
        "code": 7505022011,
        "district_code": 750502,
        "regency_code": 7505,
        "province_code": 75,
        "name": "Bualemo",
        "postal_code": "96518",
        "latitude": 0.7659759057323422,
        "longitude": 122.94632466326038
    },
    {
        "code": 7505022013,
        "district_code": 750502,
        "regency_code": 7505,
        "province_code": 75,
        "name": "Bulalo",
        "postal_code": "96518",
        "latitude": 0.8286735307119926,
        "longitude": 122.89652506963137
    },
    {
        "code": 7505022017,
        "district_code": 750502,
        "regency_code": 7505,
        "province_code": 75,
        "name": "Katialada",
        "postal_code": "96518",
        "latitude": 0.8488998754985836,
        "longitude": 122.90684567213286
    },
    {
        "code": 7505022019,
        "district_code": 750502,
        "regency_code": 7505,
        "province_code": 75,
        "name": "Ombulodata",
        "postal_code": "96518",
        "latitude": 0.7785785059903035,
        "longitude": 122.8449132323991
    },
    {
        "code": 7505022021,
        "district_code": 750502,
        "regency_code": 7505,
        "province_code": 75,
        "name": "Alata Karya",
        "postal_code": "96518",
        "latitude": 0.8082235684976503,
        "longitude": 122.90070026200469
    },
    {
        "code": 7505022023,
        "district_code": 750502,
        "regency_code": 7505,
        "province_code": 75,
        "name": "Cisadane",
        "postal_code": "96518",
        "latitude": 0.8346436718159316,
        "longitude": 122.9101716629663
    },
    {
        "code": 7505022024,
        "district_code": 750502,
        "regency_code": 7505,
        "province_code": 75,
        "name": "Botuwombata",
        "postal_code": "96518",
        "latitude": 0.7630392395638924,
        "longitude": 122.8742306393408
    },
    {
        "code": 7505022025,
        "district_code": 750502,
        "regency_code": 7505,
        "province_code": 75,
        "name": "Botungobungo",
        "postal_code": "96518",
        "latitude": 0.8058655745193968,
        "longitude": 122.86180039314134
    },
    {
        "code": 7505022026,
        "district_code": 750502,
        "regency_code": 7505,
        "province_code": 75,
        "name": "Molingkapoto Selatan",
        "postal_code": "96518",
        "latitude": 0.7834659572172924,
        "longitude": 122.86855632087446
    },
    {
        "code": 7505022030,
        "district_code": 750502,
        "regency_code": 7505,
        "province_code": 75,
        "name": "Pontolo Atas",
        "postal_code": "96518",
        "latitude": 0.7665949419736224,
        "longitude": 122.85037553541865
    },
    {
        "code": 7505022032,
        "district_code": 750502,
        "regency_code": 7505,
        "province_code": 75,
        "name": "Masuru",
        "postal_code": "96518",
        "latitude": 0.8250057639633533,
        "longitude": 122.951655843827
    },
    {
        "code": 7505032001,
        "district_code": 750503,
        "regency_code": 7505,
        "province_code": 75,
        "name": "Ilangata",
        "postal_code": "96525",
        "latitude": 0.8437781946554861,
        "longitude": 122.78376522666514
    },
    {
        "code": 7505032002,
        "district_code": 750503,
        "regency_code": 7505,
        "province_code": 75,
        "name": "Tolongio",
        "postal_code": "96525",
        "latitude": 0.8005706943485228,
        "longitude": 122.82276309537517
    },
    {
        "code": 7505032006,
        "district_code": 750503,
        "regency_code": 7505,
        "province_code": 75,
        "name": "Tolango",
        "postal_code": "96525",
        "latitude": 0.8587772322616093,
        "longitude": 122.74820706589179
    },
    {
        "code": 7505032007,
        "district_code": 750503,
        "regency_code": 7505,
        "province_code": 75,
        "name": "Popalo",
        "postal_code": "96525",
        "latitude": 0.8239934928467215,
        "longitude": 122.8163713525782
    },
    {
        "code": 7505032008,
        "district_code": 750503,
        "regency_code": 7505,
        "province_code": 75,
        "name": "Dudepo",
        "postal_code": "96525",
        "latitude": 0.8923837088860479,
        "longitude": 122.78537473847045
    },
    {
        "code": 7505032009,
        "district_code": 750503,
        "regency_code": 7505,
        "province_code": 75,
        "name": "Mootilango",
        "postal_code": "96525",
        "latitude": 0.7705529921926132,
        "longitude": 122.82537638417026
    },
    {
        "code": 7505032011,
        "district_code": 750503,
        "regency_code": 7505,
        "province_code": 75,
        "name": "Langge",
        "postal_code": "96525",
        "latitude": 0.8106740724829071,
        "longitude": 122.837928250971
    },
    {
        "code": 7505032012,
        "district_code": 750503,
        "regency_code": 7505,
        "province_code": 75,
        "name": "Tutuwoto",
        "postal_code": "96525",
        "latitude": 0.7938982645202681,
        "longitude": 122.84116071106257
    },
    {
        "code": 7505032013,
        "district_code": 750503,
        "regency_code": 7505,
        "province_code": 75,
        "name": "Hiyalooile",
        "postal_code": "96525",
        "latitude": 0.8036251036910834,
        "longitude": 122.7972597152132
    },
    {
        "code": 7505032014,
        "district_code": 750503,
        "regency_code": 7505,
        "province_code": 75,
        "name": "Ibarat",
        "postal_code": "96525",
        "latitude": 0.818642059866278,
        "longitude": 122.75881573451299
    },
    {
        "code": 7505032017,
        "district_code": 750503,
        "regency_code": 7505,
        "province_code": 75,
        "name": "Iloheluma",
        "postal_code": "96525",
        "latitude": 0.8171300684484056,
        "longitude": 122.72721630003034
    },
    {
        "code": 7505032021,
        "district_code": 750503,
        "regency_code": 7505,
        "province_code": 75,
        "name": "Ilodulunga",
        "postal_code": "96525",
        "latitude": 0.8178093779921249,
        "longitude": 122.82782101791126
    },
    {
        "code": 7505032023,
        "district_code": 750503,
        "regency_code": 7505,
        "province_code": 75,
        "name": "Putiana",
        "postal_code": "96525",
        "latitude": 0.8212299616635227,
        "longitude": 122.79346655631494
    },
    {
        "code": 7505032024,
        "district_code": 750503,
        "regency_code": 7505,
        "province_code": 75,
        "name": "Helumo",
        "postal_code": "96525",
        "latitude": 0.7794587899231131,
        "longitude": 122.79663616847239
    },
    {
        "code": 7505032025,
        "district_code": 750503,
        "regency_code": 7505,
        "province_code": 75,
        "name": "Datahu",
        "postal_code": "96525",
        "latitude": 0.7978783312085125,
        "longitude": 122.76975215601766
    },
    {
        "code": 7505042001,
        "district_code": 750504,
        "regency_code": 7505,
        "province_code": 75,
        "name": "Bulontiyo Timur",
        "postal_code": "96514",
        "latitude": 0.9336029284656256,
        "longitude": 122.42928862927018
    },
    {
        "code": 7505042002,
        "district_code": 750504,
        "regency_code": 7505,
        "province_code": 75,
        "name": "Bulontiyo Barat",
        "postal_code": "96514",
        "latitude": 0.9939728140794231,
        "longitude": 122.40914420587843
    },
    {
        "code": 7505042007,
        "district_code": 750504,
        "regency_code": 7505,
        "province_code": 75,
        "name": "Buloila",
        "postal_code": "96514",
        "latitude": 0.9540915659748178,
        "longitude": 122.2997777538154
    },
    {
        "code": 7505042009,
        "district_code": 750504,
        "regency_code": 7505,
        "province_code": 75,
        "name": "Kasia",
        "postal_code": "96514",
        "latitude": 0.9632216694380944,
        "longitude": 122.35769356123097
    },
    {
        "code": 7505042010,
        "district_code": 750504,
        "regency_code": 7505,
        "province_code": 75,
        "name": "Kikia",
        "postal_code": "96514",
        "latitude": 0.9881311184394398,
        "longitude": 122.31452337094264
    },
    {
        "code": 7505042012,
        "district_code": 750504,
        "regency_code": 7505,
        "province_code": 75,
        "name": "Tumba",
        "postal_code": "96514",
        "latitude": 0.9508488223501758,
        "longitude": 122.27429467698863
    },
    {
        "code": 7505042013,
        "district_code": 750504,
        "regency_code": 7505,
        "province_code": 75,
        "name": "Mebongo",
        "postal_code": "96514",
        "latitude": 0.9424361991477228,
        "longitude": 122.39187173152865
    },
    {
        "code": 7505042014,
        "district_code": 750504,
        "regency_code": 7505,
        "province_code": 75,
        "name": "Lelato",
        "postal_code": "96514",
        "latitude": 0.976121979099536,
        "longitude": 122.258591572135
    },
    {
        "code": 7505042016,
        "district_code": 750504,
        "regency_code": 7505,
        "province_code": 75,
        "name": "Pulohenti",
        "postal_code": "96514",
        "latitude": 0.9285541140922594,
        "longitude": 122.46754236094878
    },
    {
        "code": 7505042019,
        "district_code": 750504,
        "regency_code": 7505,
        "province_code": 75,
        "name": "Puncak Mandiri",
        "postal_code": "96514",
        "latitude": 0.998106519087448,
        "longitude": 122.3378218123705
    },
    {
        "code": 7505042020,
        "district_code": 750504,
        "regency_code": 7505,
        "province_code": 75,
        "name": "Hutakalo",
        "postal_code": "96514",
        "latitude": 1.003768089512567,
        "longitude": 122.44529007969224
    },
    {
        "code": 7505052001,
        "district_code": 750505,
        "regency_code": 7505,
        "province_code": 75,
        "name": "Tolinggula Tengah",
        "postal_code": "96524",
        "latitude": 1.001943742744574,
        "longitude": 122.17336102838966
    },
    {
        "code": 7505052002,
        "district_code": 750505,
        "regency_code": 7505,
        "province_code": 75,
        "name": "Tolinggula Pantai",
        "postal_code": "96524",
        "latitude": 1.0208485380217258,
        "longitude": 122.19819455490045
    },
    {
        "code": 7505052003,
        "district_code": 750505,
        "regency_code": 7505,
        "province_code": 75,
        "name": "Tolinggula Ulu",
        "postal_code": "96524",
        "latitude": 0.9972446882166515,
        "longitude": 122.15297730321694
    },
    {
        "code": 7505052006,
        "district_code": 750505,
        "regency_code": 7505,
        "province_code": 75,
        "name": "Limbato",
        "postal_code": "96524",
        "latitude": 0.950836012787506,
        "longitude": 122.09591923041023
    },
    {
        "code": 7505052007,
        "district_code": 750505,
        "regency_code": 7505,
        "province_code": 75,
        "name": "Papulangi",
        "postal_code": "96524",
        "latitude": 0.9713569702179093,
        "longitude": 122.05215956365925
    },
    {
        "code": 7505052008,
        "district_code": 750505,
        "regency_code": 7505,
        "province_code": 75,
        "name": "Molangga",
        "postal_code": "96524",
        "latitude": 1.0076883817001256,
        "longitude": 122.18543910314452
    },
    {
        "code": 7505052011,
        "district_code": 750505,
        "regency_code": 7505,
        "province_code": 75,
        "name": "Cempaka Putih",
        "postal_code": "96524",
        "latitude": 0.9133838985060766,
        "longitude": 122.03555492980462
    },
    {
        "code": 7505052014,
        "district_code": 750505,
        "regency_code": 7505,
        "province_code": 75,
        "name": "Tolite Jaya",
        "postal_code": "96524",
        "latitude": 1.0072120807685891,
        "longitude": 122.16234530032814
    },
    {
        "code": 7505052017,
        "district_code": 750505,
        "regency_code": 7505,
        "province_code": 75,
        "name": "Ilomangga",
        "postal_code": "96524",
        "latitude": 1.0086488662651925,
        "longitude": 122.19377124444684
    },
    {
        "code": 7505052018,
        "district_code": 750505,
        "regency_code": 7505,
        "province_code": 75,
        "name": "Ilotunggulo",
        "postal_code": "96524",
        "latitude": 0.9877319175318947,
        "longitude": 122.13274932344113
    },
    {
        "code": 7505062001,
        "district_code": 750506,
        "regency_code": 7505,
        "province_code": 75,
        "name": "Gentuma",
        "postal_code": "96513",
        "latitude": 0.9175816505190935,
        "longitude": 123.03836814365187
    },
    {
        "code": 7505062002,
        "district_code": 750506,
        "regency_code": 7505,
        "province_code": 75,
        "name": "Dumolodo",
        "postal_code": "96513",
        "latitude": 0.908998455197461,
        "longitude": 123.05087370663009
    },
    {
        "code": 7505062003,
        "district_code": 750506,
        "regency_code": 7505,
        "province_code": 75,
        "name": "Molonggota",
        "postal_code": "96513",
        "latitude": 0.9278530711853721,
        "longitude": 123.0120431470749
    },
    {
        "code": 7505062004,
        "district_code": 750506,
        "regency_code": 7505,
        "province_code": 75,
        "name": "Ipilo",
        "postal_code": "96513",
        "latitude": 0.8961437978522857,
        "longitude": 123.01655450954814
    },
    {
        "code": 7505062005,
        "district_code": 750506,
        "regency_code": 7505,
        "province_code": 75,
        "name": "Langke",
        "postal_code": "96513",
        "latitude": 0.8428388428042148,
        "longitude": 123.04182113256202
    },
    {
        "code": 7505062006,
        "district_code": 750506,
        "regency_code": 7505,
        "province_code": 75,
        "name": "Pasalae",
        "postal_code": "96513",
        "latitude": 0.9349862372780262,
        "longitude": 123.03979613555751
    },
    {
        "code": 7505062007,
        "district_code": 750506,
        "regency_code": 7505,
        "province_code": 75,
        "name": "Nanati Jaya",
        "postal_code": "96513",
        "latitude": 0.9261014646515201,
        "longitude": 123.04505195478028
    },
    {
        "code": 7505062008,
        "district_code": 750506,
        "regency_code": 7505,
        "province_code": 75,
        "name": "Ketapang",
        "postal_code": "96513",
        "latitude": 0.9288399554373292,
        "longitude": 123.03206389454536
    },
    {
        "code": 7505062009,
        "district_code": 750506,
        "regency_code": 7505,
        "province_code": 75,
        "name": "Motomingo",
        "postal_code": "96513",
        "latitude": 0.911255520326747,
        "longitude": 123.01471801280177
    },
    {
        "code": 7505062010,
        "district_code": 750506,
        "regency_code": 7505,
        "province_code": 75,
        "name": "Durian",
        "postal_code": "96513",
        "latitude": 0.8377967397831193,
        "longitude": 123.01758547622238
    },
    {
        "code": 7505062011,
        "district_code": 750506,
        "regency_code": 7505,
        "province_code": 75,
        "name": "Bohusami",
        "postal_code": "96513",
        "latitude": 0.9208182743174935,
        "longitude": 123.03287288713514
    },
    {
        "code": 7505072001,
        "district_code": 750507,
        "regency_code": 7505,
        "province_code": 75,
        "name": "Dambalo",
        "postal_code": "96512",
        "latitude": 0.8719664176816626,
        "longitude": 122.94114199812203
    },
    {
        "code": 7505072002,
        "district_code": 750507,
        "regency_code": 7505,
        "province_code": 75,
        "name": "Milango",
        "postal_code": "96512",
        "latitude": 0.8854823472608495,
        "longitude": 122.95838108442592
    },
    {
        "code": 7505072003,
        "district_code": 750507,
        "regency_code": 7505,
        "province_code": 75,
        "name": "Jembatan Merah",
        "postal_code": "96512",
        "latitude": 0.8490179356297706,
        "longitude": 122.92754591753393
    },
    {
        "code": 7505072004,
        "district_code": 750507,
        "regency_code": 7505,
        "province_code": 75,
        "name": "Bubode",
        "postal_code": "96512",
        "latitude": 0.8746039679071237,
        "longitude": 122.98423347349328
    },
    {
        "code": 7505072005,
        "district_code": 750507,
        "regency_code": 7505,
        "province_code": 75,
        "name": "Leyao",
        "postal_code": "96512",
        "latitude": 0.8512117510232188,
        "longitude": 122.9633250343458
    },
    {
        "code": 7505072006,
        "district_code": 750507,
        "regency_code": 7505,
        "province_code": 75,
        "name": "Molantadu",
        "postal_code": "96512",
        "latitude": 0.9130219661028884,
        "longitude": 122.9655831950952
    },
    {
        "code": 7505072007,
        "district_code": 750507,
        "regency_code": 7505,
        "province_code": 75,
        "name": "Huidu Melito",
        "postal_code": "96512",
        "latitude": 0.9265643126477887,
        "longitude": 122.98549942518137
    },
    {
        "code": 7505072008,
        "district_code": 750507,
        "regency_code": 7505,
        "province_code": 75,
        "name": "Bulango Raya",
        "postal_code": "96512",
        "latitude": 0.9004033570561996,
        "longitude": 122.96143217408707
    },
    {
        "code": 7505072009,
        "district_code": 750507,
        "regency_code": 7505,
        "province_code": 75,
        "name": "Tanjung Karang",
        "postal_code": "96512",
        "latitude": 0.9477416075300853,
        "longitude": 122.97764628730702
    },
    {
        "code": 7505072010,
        "district_code": 750507,
        "regency_code": 7505,
        "province_code": 75,
        "name": "Mutiara Laut",
        "postal_code": "96512",
        "latitude": 0.9577694082811853,
        "longitude": 122.95891363162416
    },
    {
        "code": 7505082001,
        "district_code": 750508,
        "regency_code": 7505,
        "province_code": 75,
        "name": "Ponelo",
        "postal_code": "96517",
        "latitude": 0.8921729025765076,
        "longitude": 122.88372667159709
    },
    {
        "code": 7505082002,
        "district_code": 750508,
        "regency_code": 7505,
        "province_code": 75,
        "name": "Malambe",
        "postal_code": "96517",
        "latitude": 0.9003929168659505,
        "longitude": 122.86072527709226
    },
    {
        "code": 7505082003,
        "district_code": 750508,
        "regency_code": 7505,
        "province_code": 75,
        "name": "Otiola",
        "postal_code": "96517",
        "latitude": 0.8662704810487614,
        "longitude": 122.88401321133465
    },
    {
        "code": 7505082004,
        "district_code": 750508,
        "regency_code": 7505,
        "province_code": 75,
        "name": "Tihengo",
        "postal_code": "96517",
        "latitude": 0.8630287489620252,
        "longitude": 122.89246272892255
    },
    {
        "code": 7505092001,
        "district_code": 750509,
        "regency_code": 7505,
        "province_code": 75,
        "name": "Monano",
        "postal_code": "96526",
        "latitude": 0.8851071546647434,
        "longitude": 122.7016684861293
    },
    {
        "code": 7505092002,
        "district_code": 750509,
        "regency_code": 7505,
        "province_code": 75,
        "name": "Tudi",
        "postal_code": "96526",
        "latitude": 0.845491195567422,
        "longitude": 122.69207135001476
    },
    {
        "code": 7505092003,
        "district_code": 750509,
        "regency_code": 7505,
        "province_code": 75,
        "name": "Monas",
        "postal_code": "96526",
        "latitude": 0.8795152110211453,
        "longitude": 122.63847368090634
    },
    {
        "code": 7505092004,
        "district_code": 750509,
        "regency_code": 7505,
        "province_code": 75,
        "name": "Dunu",
        "postal_code": "96526",
        "latitude": 0.943443656716217,
        "longitude": 122.6353543056711
    },
    {
        "code": 7505092005,
        "district_code": 750509,
        "regency_code": 7505,
        "province_code": 75,
        "name": "Garapia",
        "postal_code": "96526",
        "latitude": 0.8573113269852716,
        "longitude": 122.72233664839536
    },
    {
        "code": 7505092006,
        "district_code": 750509,
        "regency_code": 7505,
        "province_code": 75,
        "name": "Sogu",
        "postal_code": "96526",
        "latitude": 0.9038408258050872,
        "longitude": 122.66580658470072
    },
    {
        "code": 7505092007,
        "district_code": 750509,
        "regency_code": 7505,
        "province_code": 75,
        "name": "Pilohulata",
        "postal_code": "96526",
        "latitude": 0.8409730857272792,
        "longitude": 122.70177516071067
    },
    {
        "code": 7505092008,
        "district_code": 750509,
        "regency_code": 7505,
        "province_code": 75,
        "name": "Mokonowu",
        "postal_code": "96526",
        "latitude": 0.8503584034871602,
        "longitude": 122.67298137017323
    },
    {
        "code": 7505092009,
        "district_code": 750509,
        "regency_code": 7505,
        "province_code": 75,
        "name": "Tolitehuyu",
        "postal_code": "96526",
        "latitude": 0.91768769726885,
        "longitude": 122.64648123224893
    },
    {
        "code": 7505092010,
        "district_code": 750509,
        "regency_code": 7505,
        "province_code": 75,
        "name": "Zuriyati",
        "postal_code": "96526",
        "latitude": 0.8611727576130171,
        "longitude": 122.64405546460375
    },
    {
        "code": 7505102001,
        "district_code": 750510,
        "regency_code": 7505,
        "province_code": 75,
        "name": "Biau",
        "postal_code": "96523",
        "latitude": 0.9926859406329217,
        "longitude": 122.21061137372938
    },
    {
        "code": 7505102002,
        "district_code": 750510,
        "regency_code": 7505,
        "province_code": 75,
        "name": "Omuto",
        "postal_code": "96523",
        "latitude": 0.9855701672443171,
        "longitude": 122.20266185829904
    },
    {
        "code": 7505102003,
        "district_code": 750510,
        "regency_code": 7505,
        "province_code": 75,
        "name": "Luhuto",
        "postal_code": "96523",
        "latitude": 0.9873999162992052,
        "longitude": 122.21960731817329
    },
    {
        "code": 7505102004,
        "district_code": 750510,
        "regency_code": 7505,
        "province_code": 75,
        "name": "Windu",
        "postal_code": "96523",
        "latitude": 0.9975951802892764,
        "longitude": 122.22110423183435
    },
    {
        "code": 7505102005,
        "district_code": 750510,
        "regency_code": 7505,
        "province_code": 75,
        "name": "Topi",
        "postal_code": "96523",
        "latitude": 0.991228086923381,
        "longitude": 122.24232740863893
    },
    {
        "code": 7505102006,
        "district_code": 750510,
        "regency_code": 7505,
        "province_code": 75,
        "name": "Sembihinga",
        "postal_code": "96523",
        "latitude": 0.9686664057084297,
        "longitude": 122.24051881392076
    },
    {
        "code": 7505102007,
        "district_code": 750510,
        "regency_code": 7505,
        "province_code": 75,
        "name": "Didingga",
        "postal_code": "96523",
        "latitude": 0.9371263335099966,
        "longitude": 122.22926306183055
    },
    {
        "code": 7505102008,
        "district_code": 750510,
        "regency_code": 7505,
        "province_code": 75,
        "name": "Bualo",
        "postal_code": "96523",
        "latitude": 0.9670082966108525,
        "longitude": 122.20849437645914
    },
    {
        "code": 7505102009,
        "district_code": 750510,
        "regency_code": 7505,
        "province_code": 75,
        "name": "Potanga",
        "postal_code": "96523",
        "latitude": 0.9366357095981882,
        "longitude": 122.15767951106504
    },
    {
        "code": 7505102010,
        "district_code": 750510,
        "regency_code": 7505,
        "province_code": 75,
        "name": "Bohulo",
        "postal_code": "96523",
        "latitude": 0.9434292919003233,
        "longitude": 122.19568399809026
    },
    {
        "code": 7505112001,
        "district_code": 750511,
        "regency_code": 7505,
        "province_code": 75,
        "name": "Deme Satu",
        "postal_code": "96515",
        "latitude": 0.9112253181012515,
        "longitude": 122.58793441219724
    },
    {
        "code": 7505112002,
        "district_code": 750511,
        "regency_code": 7505,
        "province_code": 75,
        "name": "Buluwatu",
        "postal_code": "96515",
        "latitude": 0.9495855931595214,
        "longitude": 122.59329422334986
    },
    {
        "code": 7505112003,
        "district_code": 750511,
        "regency_code": 7505,
        "province_code": 75,
        "name": "Dulukapa",
        "postal_code": "96515",
        "latitude": 0.9138209818919021,
        "longitude": 122.56812826159245
    },
    {
        "code": 7505112004,
        "district_code": 750511,
        "regency_code": 7505,
        "province_code": 75,
        "name": "Deme Dua",
        "postal_code": "96515",
        "latitude": 0.9256581044043307,
        "longitude": 122.53161157009967
    },
    {
        "code": 7505112005,
        "district_code": 750511,
        "regency_code": 7505,
        "province_code": 75,
        "name": "Buladu",
        "postal_code": "96515",
        "latitude": 0.9311961306826282,
        "longitude": 122.5150971829469
    },
    {
        "code": 7505112006,
        "district_code": 750511,
        "regency_code": 7505,
        "province_code": 75,
        "name": "Hulawa",
        "postal_code": "96515",
        "latitude": 0.947412101610161,
        "longitude": 122.50214188732696
    },
    {
        "code": 7505112007,
        "district_code": 750511,
        "regency_code": 7505,
        "province_code": 75,
        "name": "Wubudu",
        "postal_code": "96515",
        "latitude": 0.9359646611763948,
        "longitude": 122.49380798885468
    },
    {
        "code": 7505112008,
        "district_code": 750511,
        "regency_code": 7505,
        "province_code": 75,
        "name": "Bubalango",
        "postal_code": "96515",
        "latitude": 1.0016442788745403,
        "longitude": 122.46693899744415
    },
    {
        "code": 7505112009,
        "district_code": 750511,
        "regency_code": 7505,
        "province_code": 75,
        "name": "Motiheluma",
        "postal_code": "96515",
        "latitude": 0.9236301985704276,
        "longitude": 122.55081149614618
    },
    {
        "code": 7505112010,
        "district_code": 750511,
        "regency_code": 7505,
        "province_code": 75,
        "name": "Koluwoka",
        "postal_code": "96515",
        "latitude": 0.9080811792467894,
        "longitude": 122.60763916809927
    },
    {
        "code": 7571011001,
        "district_code": 757101,
        "regency_code": 7571,
        "province_code": 75,
        "name": "Dembe I",
        "postal_code": "96131",
        "latitude": 0.5469105230901228,
        "longitude": 123.00509401221669
    },
    {
        "code": 7571011002,
        "district_code": 757101,
        "regency_code": 7571,
        "province_code": 75,
        "name": "Lekobalo",
        "postal_code": "96131",
        "latitude": 0.5460369461906088,
        "longitude": 123.01739218778965
    },
    {
        "code": 7571011003,
        "district_code": 757101,
        "regency_code": 7571,
        "province_code": 75,
        "name": "Pilolodaa",
        "postal_code": "96132",
        "latitude": 0.540190472086821,
        "longitude": 123.01939817317027
    },
    {
        "code": 7571011004,
        "district_code": 757101,
        "regency_code": 7571,
        "province_code": 75,
        "name": "Buliide",
        "postal_code": "96133",
        "latitude": 0.5377565388231363,
        "longitude": 123.02822715810731
    },
    {
        "code": 7571011005,
        "district_code": 757101,
        "regency_code": 7571,
        "province_code": 75,
        "name": "Tenilo",
        "postal_code": "96133",
        "latitude": 0.5341403012163386,
        "longitude": 123.03545338560647
    },
    {
        "code": 7571011006,
        "district_code": 757101,
        "regency_code": 7571,
        "province_code": 75,
        "name": "Molosipat W",
        "postal_code": "96134",
        "latitude": 0.5447141383882236,
        "longitude": 123.0432373087743
    },
    {
        "code": 7571011008,
        "district_code": 757101,
        "regency_code": 7571,
        "province_code": 75,
        "name": "Buladu",
        "postal_code": "96136",
        "latitude": 0.5532601928782943,
        "longitude": 123.03342266389234
    },
    {
        "code": 7571021010,
        "district_code": 757102,
        "regency_code": 7571,
        "province_code": 75,
        "name": "Biawao",
        "postal_code": "96111",
        "latitude": 0.5350364815483409,
        "longitude": 123.05786286892955
    },
    {
        "code": 7571021012,
        "district_code": 757102,
        "regency_code": 7571,
        "province_code": 75,
        "name": "Biawu",
        "postal_code": "96111",
        "latitude": 0.5356069863770613,
        "longitude": 123.05383149967086
    },
    {
        "code": 7571021013,
        "district_code": 757102,
        "regency_code": 7571,
        "province_code": 75,
        "name": "Limba B",
        "postal_code": "96115",
        "latitude": 0.5414376694435596,
        "longitude": 123.0556712060553
    },
    {
        "code": 7571021019,
        "district_code": 757102,
        "regency_code": 7571,
        "province_code": 75,
        "name": "Limba U I",
        "postal_code": "96115",
        "latitude": 0.5477499095396012,
        "longitude": 123.06124516677576
    },
    {
        "code": 7571021020,
        "district_code": 757102,
        "regency_code": 7571,
        "province_code": 75,
        "name": "Limba U II",
        "postal_code": "96115",
        "latitude": 0.5493328378705752,
        "longitude": 123.055161142908
    },
    {
        "code": 7571031003,
        "district_code": 757103,
        "regency_code": 7571,
        "province_code": 75,
        "name": "Dembe II",
        "postal_code": "96121",
        "latitude": 0.5459302676244095,
        "longitude": 123.08169999502218
    },
    {
        "code": 7571031004,
        "district_code": 757103,
        "regency_code": 7571,
        "province_code": 75,
        "name": "Wongkaditi Timur ",
        "postal_code": "96122",
        "latitude": 0.5575441351727789,
        "longitude": 123.08403080347101
    },
    {
        "code": 7571031005,
        "district_code": 757103,
        "regency_code": 7571,
        "province_code": 75,
        "name": "Wongkaditi Barat ",
        "postal_code": "96122",
        "latitude": 0.5615797681047396,
        "longitude": 123.07316919214647
    },
    {
        "code": 7571031010,
        "district_code": 757103,
        "regency_code": 7571,
        "province_code": 75,
        "name": "Dulomo Selatan",
        "postal_code": "96123",
        "latitude": 0.5690061549116867,
        "longitude": 123.07977760720117
    },
    {
        "code": 7571031014,
        "district_code": 757103,
        "regency_code": 7571,
        "province_code": 75,
        "name": "Dulomo Utara",
        "postal_code": "96123",
        "latitude": 0.5778477609955649,
        "longitude": 123.08164077177916
    },
    {
        "code": 7571031015,
        "district_code": 757103,
        "regency_code": 7571,
        "province_code": 75,
        "name": "Dembe Jaya",
        "postal_code": "96121",
        "latitude": 0.5550085730632,
        "longitude": 123.07413771246276
    },
    {
        "code": 7571041001,
        "district_code": 757104,
        "regency_code": 7571,
        "province_code": 75,
        "name": "Huangobotu",
        "postal_code": "96138",
        "latitude": 0.5629016267864347,
        "longitude": 123.03809262800443
    },
    {
        "code": 7571041002,
        "district_code": 757104,
        "regency_code": 7571,
        "province_code": 75,
        "name": "Libuo",
        "postal_code": "96135",
        "latitude": 0.5509630766368312,
        "longitude": 123.04504256308206
    },
    {
        "code": 7571041003,
        "district_code": 757104,
        "regency_code": 7571,
        "province_code": 75,
        "name": "Tomulabutao",
        "postal_code": "96139",
        "latitude": 0.5725599534085707,
        "longitude": 123.04211044717538
    },
    {
        "code": 7571041004,
        "district_code": 757104,
        "regency_code": 7571,
        "province_code": 75,
        "name": "Tuladenggi ",
        "postal_code": "96137",
        "latitude": 0.5593497833657954,
        "longitude": 123.02922975021538
    },
    {
        "code": 7571041005,
        "district_code": 757104,
        "regency_code": 7571,
        "province_code": 75,
        "name": "Tomulabutao Selatan",
        "postal_code": "96139",
        "latitude": 0.5680804376495308,
        "longitude": 123.0433109172641
    },
    {
        "code": 7571051003,
        "district_code": 757105,
        "regency_code": 7571,
        "province_code": 75,
        "name": "Heledulaa Utara",
        "postal_code": "96119",
        "latitude": 0.5485734085330709,
        "longitude": 123.06636939513554
    },
    {
        "code": 7571051004,
        "district_code": 757105,
        "regency_code": 7571,
        "province_code": 75,
        "name": "Heledulaa Selatan",
        "postal_code": "96114",
        "latitude": 0.5394042507976035,
        "longitude": 123.06461200327323
    },
    {
        "code": 7571051005,
        "district_code": 757105,
        "regency_code": 7571,
        "province_code": 75,
        "name": "Ipilo",
        "postal_code": "96112",
        "latitude": 0.533671306522293,
        "longitude": 123.06423052909786
    },
    {
        "code": 7571051008,
        "district_code": 757105,
        "regency_code": 7571,
        "province_code": 75,
        "name": "Moodu",
        "postal_code": "96113",
        "latitude": 0.5460309262420441,
        "longitude": 123.07347360176244
    },
    {
        "code": 7571051009,
        "district_code": 757105,
        "regency_code": 7571,
        "province_code": 75,
        "name": "Padebuolo",
        "postal_code": "96113",
        "latitude": 0.5347604908576338,
        "longitude": 123.07141640637158
    },
    {
        "code": 7571051011,
        "district_code": 757105,
        "regency_code": 7571,
        "province_code": 75,
        "name": "Tamalate",
        "postal_code": "96113",
        "latitude": 0.5377536466205753,
        "longitude": 123.07926979891309
    },
    {
        "code": 7571061001,
        "district_code": 757106,
        "regency_code": 7571,
        "province_code": 75,
        "name": "Wumialo",
        "postal_code": "96128",
        "latitude": 0.5565405537725503,
        "longitude": 123.04994581338613
    },
    {
        "code": 7571061002,
        "district_code": 757106,
        "regency_code": 7571,
        "province_code": 75,
        "name": "Dulalowo",
        "postal_code": "96128",
        "latitude": 0.5607371138668079,
        "longitude": 123.04867585381395
    },
    {
        "code": 7571061003,
        "district_code": 757106,
        "regency_code": 7571,
        "province_code": 75,
        "name": "Liluwo",
        "postal_code": "96129",
        "latitude": 0.5632855992189169,
        "longitude": 123.05653291093819
    },
    {
        "code": 7571061004,
        "district_code": 757106,
        "regency_code": 7571,
        "province_code": 75,
        "name": "Pulubala",
        "postal_code": "96127",
        "latitude": 0.567659057311006,
        "longitude": 123.05609688548113
    },
    {
        "code": 7571061005,
        "district_code": 757106,
        "regency_code": 7571,
        "province_code": 75,
        "name": "Paguyaman",
        "postal_code": "96129",
        "latitude": 0.5701219481291202,
        "longitude": 123.05775162041027
    },
    {
        "code": 7571061006,
        "district_code": 757106,
        "regency_code": 7571,
        "province_code": 75,
        "name": "Dulalowo Timur",
        "postal_code": "96128",
        "latitude": 0.5576543232001443,
        "longitude": 123.05799778604866
    },
    {
        "code": 7571071001,
        "district_code": 757107,
        "regency_code": 7571,
        "province_code": 75,
        "name": "Tanggikiki",
        "postal_code": "96126",
        "latitude": 0.5728034728451287,
        "longitude": 123.065523116292
    },
    {
        "code": 7571071002,
        "district_code": 757107,
        "regency_code": 7571,
        "province_code": 75,
        "name": "Tapa",
        "postal_code": "96125",
        "latitude": 0.5757951246878332,
        "longitude": 123.05357939702922
    },
    {
        "code": 7571071003,
        "district_code": 757107,
        "regency_code": 7571,
        "province_code": 75,
        "name": "Bulotadaa Barat",
        "postal_code": "96124",
        "latitude": 0.5846160617588755,
        "longitude": 123.05976555762885
    },
    {
        "code": 7571071004,
        "district_code": 757107,
        "regency_code": 7571,
        "province_code": 75,
        "name": "Bulotadaa Timur",
        "postal_code": "96121",
        "latitude": 0.581190976535352,
        "longitude": 123.06838609470591
    },
    {
        "code": 7571071005,
        "district_code": 757107,
        "regency_code": 7571,
        "province_code": 75,
        "name": "Molosipat U ",
        "postal_code": "96126",
        "latitude": 0.5794795487558342,
        "longitude": 123.05614396036655
    },
    {
        "code": 7571081001,
        "district_code": 757108,
        "regency_code": 7571,
        "province_code": 75,
        "name": "Leato Utara",
        "postal_code": "96119",
        "latitude": 0.506536618215695,
        "longitude": 123.07380903912583
    },
    {
        "code": 7571081002,
        "district_code": 757108,
        "regency_code": 7571,
        "province_code": 75,
        "name": "Leato Selatan",
        "postal_code": "96119",
        "latitude": 0.4963273137401749,
        "longitude": 123.08693887731307
    },
    {
        "code": 7571081003,
        "district_code": 757108,
        "regency_code": 7571,
        "province_code": 75,
        "name": "Talumolo",
        "postal_code": "96118",
        "latitude": 0.5173671286242693,
        "longitude": 123.07315062697019
    },
    {
        "code": 7571081004,
        "district_code": 757108,
        "regency_code": 7571,
        "province_code": 75,
        "name": "Botu",
        "postal_code": "96118",
        "latitude": 0.5268097743911395,
        "longitude": 123.07652632851104
    },
    {
        "code": 7571081005,
        "district_code": 757108,
        "regency_code": 7571,
        "province_code": 75,
        "name": "Bugis",
        "postal_code": "96112",
        "latitude": 0.5275967916499337,
        "longitude": 123.062848694479
    },
    {
        "code": 7571091001,
        "district_code": 757109,
        "regency_code": 7571,
        "province_code": 75,
        "name": "Tanjung Kramat",
        "postal_code": "96111",
        "latitude": 0.5195123842650247,
        "longitude": 123.02451752968467
    },
    {
        "code": 7571091002,
        "district_code": 757109,
        "regency_code": 7571,
        "province_code": 75,
        "name": "Pohe",
        "postal_code": "96117",
        "latitude": 0.515403712411009,
        "longitude": 123.0429570780159
    },
    {
        "code": 7571091003,
        "district_code": 757109,
        "regency_code": 7571,
        "province_code": 75,
        "name": "Tenda",
        "postal_code": "96117",
        "latitude": 0.5189497051886602,
        "longitude": 123.05714350596811
    },
    {
        "code": 7571091004,
        "district_code": 757109,
        "regency_code": 7571,
        "province_code": 75,
        "name": "Donggala",
        "postal_code": "96116",
        "latitude": 0.5296072505649435,
        "longitude": 123.04512971785171
    },
    {
        "code": 7571091005,
        "district_code": 757109,
        "regency_code": 7571,
        "province_code": 75,
        "name": "Siendeng",
        "postal_code": "96111",
        "latitude": 0.5280593520256388,
        "longitude": 123.05354768432926
    }
]